"address","city","code","codedescription","createddate","duedate","neighborhood","servicerequestnum","state","status","statusdate","zip","lon","lat"
"2 W 26TH ST","BALTIMORE","FICIMOVA","FIN-City Motor Vehicle Accident","2015-05-07T14:13:00.000","2015-05-21T14:13:00.000","CHARLES VILLAGE","15-00357204","MD","NEW","2015-05-07T14:13:00.000","21218",-76.617846,39.319529
"534 N CURLEY ST","BALTIMORE","FICIMOVA","FIN-City Motor Vehicle Accident","2015-05-07T14:07:39.000","2015-05-21T14:07:39.000","ELLWOOD PARK/MONUMENT","15-00357181","MD","NEW","2015-05-07T14:07:39.000","21205",-76.576033,39.2976529
"4400  NEWPORT AVE","BALTIMORE","FICIMOVA","FIN-City Motor Vehicle Accident","2015-05-07T14:03:55.000","2015-05-21T14:03:55.000","MEDFIELD","15-00357165","MD","NEW","2015-05-07T14:03:55.000","21211",-76.6411181,39.3420147
"200  GUILFORD AVE","BALTIMORE","FICIMOVA","FIN-City Motor Vehicle Accident","2015-04-30T22:59:49.000","2015-05-14T22:59:49.000","DOWNTOWN","15-00339721","MD","NEW","2015-04-30T22:59:49.000","21202",-76.6111063,39.2912972
"2800  ULMAN AVE","BALTIMORE","FICIMOVA","FIN-City Motor Vehicle Accident","2015-04-27T17:41:02.000","2015-05-11T17:41:02.000","PARK CIRCLE","15-00328805","MD","NEW","2015-04-27T17:41:02.000","21215",-76.660879,39.328836
"912 W 36TH ST","BALTIMORE","FICIMOVA","FIN-City Motor Vehicle Accident","2015-04-24T13:10:00.000","2015-05-08T13:10:00.000","HAMPDEN","15-00321704","MD","NEW","2015-04-24T13:10:00.000","21211",-76.632121,39.3313782
"1616  DESOTO RD","BALTIMORE","FICIMOVA","FIN-City Motor Vehicle Accident","2015-04-22T12:28:51.000","2015-05-06T12:28:51.000","MORRELL PARK","15-00313875","MD","NEW","2015-04-22T12:28:51.000","21230",-76.657207,39.266157
"2001 E MONUMENT ST","BALTIMORE","FICIMOVA","FIN-City Motor Vehicle Accident","2015-04-22T12:23:17.000","2015-05-06T12:23:17.000","MIDDLE EAST","15-00313837","MD","NEW","2015-04-22T12:23:17.000","21205",-76.5894009,39.2983747
"824  BEAUMONT AVE","BALTIMORE","FICIMOVA","FIN-City Motor Vehicle Accident","2015-04-22T12:19:19.000","2015-05-06T12:19:19.000","WINSTON-GOVANS","15-00313807","MD","NEW","2015-04-22T12:19:19.000","21212",-76.603008,39.351339
"EAST DR","BALTIMORE","FICIMOVA","FIN-City Motor Vehicle Accident","2015-04-22T12:09:48.000","2015-05-06T12:09:48.000","DRUID HILL PARK","15-00313754","MD","NEW","2015-04-22T12:09:48.000","21217",-76.638852,39.3200863
"ARGONNE DR","BALTIMORE","FICIMOVA","FIN-City Motor Vehicle Accident","2015-04-20T14:06:51.000","2015-05-04T14:06:51.000","HILLEN","15-00307572","MD","NEW","2015-04-20T14:06:51.000","21218",NA,NA
"300 N HAVEN ST","BALTIMORE","FICIMOVA","FIN-City Motor Vehicle Accident","2015-04-20T14:01:00.000","2015-05-04T14:01:00.000","BALTIMORE HIGHLANDS","15-00307540","MD","NEW","2015-04-20T14:01:00.000","21224",-76.5630059,39.2958009
"3501  ASIATIC AVE","BALTIMORE","FICIMOVA","FIN-City Motor Vehicle Accident","2015-04-15T14:44:04.000","2015-04-29T14:44:04.000","FAIRFIELD AREA","15-00294759","MD","NEW","2015-04-15T14:44:04.000","21226",-76.5664321,39.2325984
"6000  ERDMAN AVE","BALTIMORE","FICIMOVA","FIN-City Motor Vehicle Accident","2015-04-15T14:49:02.000","2015-04-29T14:49:02.000","PULASKI INDUSTRIAL AREA","15-00294799","MD","NEW","2015-04-15T14:49:02.000","21205",-76.5452481,39.30109
"3000 W NORTH AVE","BALTIMORE","FICIMOVA","FIN-City Motor Vehicle Accident","2015-04-15T14:38:02.000","2015-04-29T14:38:02.000","WALBROOK","15-00294735","MD","NEW","2015-04-15T14:38:02.000","21216",-76.667712,39.309332
"EASTERN AVE & KANE ST","BALTIMORE","FICIMOVA","FIN-City Motor Vehicle Accident","2015-04-14T10:36:30.000","2015-04-28T10:36:30.000","PULASKI INDUSTRIAL AREA","15-00289734","MD","NEW","2015-04-14T10:36:30.000","21224",-71.130511,41.68958
"5400  HARFORD RD","BALTIMORE","FICIMOVA","FIN-City Motor Vehicle Accident","2015-04-14T10:32:02.000","2015-04-28T10:32:02.000","HARFORD-ECHODALE/PERRING PARKWAY","15-00289722","MD","NEW","2015-04-14T10:32:02.000","21214",-76.5625647,39.3514488
"W BALTIMORE ST & HILTON ALLEY ABINGTON","BALTIMORE","FICIMOVA","FIN-City Motor Vehicle Accident","2015-04-09T10:49:26.000","2015-04-23T10:49:26.000","CARROLL-SOUTH HILTON","15-00276687","MD","NEW","2015-04-09T10:49:26.000","21229",-88.1542236,41.3052771
"1800  MCHENRY ST","BALTIMORE","FICIMOVA","FIN-City Motor Vehicle Accident","2015-04-09T10:45:06.000","2015-04-23T10:45:06.000","CARROLLTON RIDGE","15-00276671","MD","NEW","2015-04-09T10:45:06.000","21223",-76.6450001,39.2843323
"700  GLENWOOD AVE","BALTIMORE","FICIMOVA","FIN-City Motor Vehicle Accident","2015-04-06T14:46:50.000","2015-04-20T14:46:50.000","WOODBOURNE-MCCABE","15-00267175","MD","NEW","2015-04-06T14:46:50.000","21212",-76.606363,39.3537729
"7000  HARFORD RD","BALTIMORE","FICIMOVA","FIN-City Motor Vehicle Accident","2015-04-01T12:22:08.000","2015-04-15T12:22:08.000","NORTH HARFORD ROAD","15-00255280","MD","NEW","2015-04-01T12:22:08.000","21234",-76.549215,39.366942
"5000  CORDELIA AVE","BALTIMORE","FICIMOVA","FIN-City Motor Vehicle Accident","2015-04-01T12:16:27.000","2015-04-15T12:16:27.000","LANGSTON HUGHES","15-00255236","MD","NEW","2015-04-01T12:16:27.000","21215",-76.679937,39.343993
"3500  GWYNNS FALLS PKWY","BALTIMORE","FICIMOVA","FIN-City Motor Vehicle Accident","2015-03-31T15:43:39.000","2015-04-14T15:43:39.000","GARWYN OAKS","15-00252989","MD","NEW","2015-03-31T15:43:39.000","21216",-76.6765847,39.3142702
"10 E LEE ST","BALTIMORE","FICIMOVA","FIN-City Motor Vehicle Accident","2015-03-30T15:22:29.000","2015-04-13T15:22:29.000","OTTERBEIN","15-00249304","MD","NEW","2015-03-30T15:22:29.000","21202",-76.6143946,39.2823823
"N HAVEN ST","BALTIMORE","FICIMOVA","FIN-City Motor Vehicle Accident","2015-03-30T15:17:55.000","2015-04-13T15:17:55.000","ORANGEVILLE","15-00249276","MD","NEW","2015-03-30T15:17:55.000","21205",-76.5630432,39.2970532
"1800  EDISON HWY","BALTIMORE","FICIMOVA","FIN-City Motor Vehicle Accident","2015-03-30T15:13:53.000","2015-04-13T15:13:53.000","BEREA","15-00249254","MD","NEW","2015-03-30T15:13:53.000","21213",-76.573561,39.31262
"2815  HARLEM AVE","BALTIMORE","FICIMOVA","FIN-City Motor Vehicle Accident","2015-03-30T15:07:07.000","2015-04-13T15:07:07.000","MOSHER","15-00249223","MD","NEW","2015-03-30T15:07:07.000","21216",-76.663478,39.295317
"SAINT PAUL ST &E FAYETTE ST","BALTIMORE","FICIMOVA","FIN-City Motor Vehicle Accident","2015-03-27T15:27:25.000","2015-04-10T15:27:25.000","DOWNTOWN","15-00243778","MD","NEW","2015-03-27T15:27:25.000","21202",-90.741793,38.8614405
"2200 S HANOVER ST","BALTIMORE","FICIMOVA","FIN-City Motor Vehicle Accident","2015-03-26T20:12:57.000","2015-04-09T20:12:57.000","SPRING GARDEN INDUSTRIAL AREA","15-00241304","MD","NEW","2015-03-26T20:12:57.000","21230",-76.6147558,39.265122
"E FAYETTE ST & SAINT PAUL ST","BALTIMORE","FICIMOVA","FIN-City Motor Vehicle Accident","2015-03-23T18:43:22.000","2015-04-06T18:43:22.000","DOWNTOWN","15-00229706","MD","NEW","2015-03-23T18:43:22.000","21202",-79.722638,39.8973136
"1800  GREENMOUNT AVE","BALTIMORE","FICIMOVA","FIN-City Motor Vehicle Accident","2015-03-21T00:31:20.000","2015-04-04T00:31:20.000","GREENMOUNT WEST","15-00224143","MD","NEW","2015-03-21T00:31:20.000","21202",-76.6094908,39.3113376
"1800 E BALTIMORE ST","BALTIMORE","FICIMOVA","FIN-City Motor Vehicle Accident","2015-03-20T16:58:17.000","2015-04-03T16:58:17.000","WASHINGTON HILL","15-00223005","MD","NEW","2015-03-20T16:58:17.000","21231",-76.591637,39.291823
"1831 E BALTIMORE ST","BALTIMORE","FICIMOVA","FIN-City Motor Vehicle Accident","2015-03-20T15:55:20.000","2015-04-03T15:55:20.000","WASHINGTON HILL","15-00222773","MD","NEW","2015-03-20T15:55:20.000","21231",-76.5906916,39.2915698
"3501  ASIATIC AVE","BALTIMORE","FICIMOVA","FIN-City Motor Vehicle Accident","2015-03-19T10:45:45.000","2015-04-02T10:45:45.000","FAIRFIELD AREA","15-00217683","MD","NEW","2015-03-19T10:45:45.000","21226",-76.5664321,39.2325984
"2840  SISSON ST","BALTIMORE","FICIMOVA","FIN-City Motor Vehicle Accident","2015-03-17T11:23:56.000","2015-03-31T11:23:56.000","JONES FALLS AREA","15-00209819","MD","NEW","2015-03-17T11:23:56.000","21211",-76.6261777,39.320078
"HILLEN ST","BALTIMORE","FICIMOVA","FIN-City Motor Vehicle Accident","2015-03-17T11:28:24.000","2015-03-31T11:28:24.000","PENN-FALLSWAY","15-00209866","MD","NEW","2015-03-17T11:28:24.000","21202",-76.6068723,39.2958938
"200 E NORTH AVE","BALTIMORE","FICIMOVA","FIN-City Motor Vehicle Accident","2015-03-17T11:19:22.000","2015-03-31T11:19:22.000","BARCLAY","15-00209762","MD","NEW","2015-03-17T11:19:22.000","21202",-76.6132357,39.312022
"800 E COLD SPRING LN","BALTIMORE","FICIMOVA","FIN-City Motor Vehicle Accident","2015-03-17T11:13:06.000","2015-03-31T11:13:06.000","RICHNOR SPRINGS","15-00209683","MD","NEW","2015-03-17T11:13:06.000","21212",-76.604836,39.3459586
"S WOLFE ST","BALTIMORE","FICIMOVA","FIN-City Motor Vehicle Accident","2015-03-17T11:07:44.000","2015-03-31T11:07:44.000","WASHINGTON HILL","15-00209638","MD","NEW","2015-03-17T11:07:44.000","21231",-76.5901235,39.2862759
"1100  HILLEN ST","BALTIMORE","FICIMOVA","FIN-City Motor Vehicle Accident","2015-03-16T21:57:39.000","2015-03-30T21:57:39.000","OLDTOWN","15-00209097","MD","NEW","2015-03-16T21:57:39.000","21202",-76.605377,39.29755
"921 E FORT AVE","BALTIMORE","FICIMOVA","FIN-City Motor Vehicle Accident","2015-03-13T15:48:31.000","2015-03-27T15:48:31.000","LOCUST POINT INDUSTRIAL AREA","15-00200300","MD","NEW","2015-03-13T15:48:31.000","21230",-76.6010954,39.2708308
"4101  PULASKI HWY","BALTIMORE","FICIMOVA","FIN-City Motor Vehicle Accident","2015-03-09T11:56:19.000","2015-03-23T11:56:19.000","KRESSON","15-00181044","MD","NEW","2015-03-09T11:56:19.000","21224",-76.562558,39.296801
"3825  MARY AVE","BALTIMORE","FICIMOVA","FIN-City Motor Vehicle Accident","2015-03-06T11:15:14.000","2015-03-20T11:15:14.000","GLENHAM-BELFORD","15-00172565","MD","NEW","2015-03-06T11:15:14.000","21206",-76.545976,39.347448
"4500  WESTCHESTER RD","BALTIMORE","FICIMOVA","FIN-City Motor Vehicle Accident","2015-03-06T11:11:06.000","2015-03-20T11:11:06.000","WINDSOR HILLS","15-00172530","MD","NEW","2015-03-06T11:11:06.000","21216",-76.690879,39.3181269
"405  MCMECHEN ST","BALTIMORE","FICIMOVA","FIN-City Motor Vehicle Accident","2015-03-06T11:05:29.000","2015-03-20T11:05:29.000","MADISON PARK","15-00172493","MD","NEW","2015-03-06T11:05:29.000","21217",-76.6301609,39.3047967
"3300  REISTERSTOWN RD","BALTIMORE","FICIMOVA","FIN-City Motor Vehicle Accident","2015-03-05T18:22:55.000","2015-03-19T18:22:55.000","LIBERTY SQUARE","15-00170657","MD","NEW","2015-03-05T18:22:55.000","21215",-76.6574128,39.3244417
"MCMECHEN ST & MCCULLOH ST","BALTIMORE","FICIMOVA","FIN-City Motor Vehicle Accident","2015-03-04T18:39:12.000","2015-03-18T18:39:12.000","MADISON PARK","15-00167659","MD","NEW","2015-03-04T18:39:12.000","21217",-76.628539,39.306808
"700 W NORTHERN PKWY","BALTIMORE","FICIMOVA","FIN-City Motor Vehicle Accident","2015-03-04T11:09:22.000","2015-03-18T11:09:22.000","NORTH ROLAND PARK/POPLAR HILL","15-00165137","MD","NEW","2015-03-04T11:09:22.000","21210",-76.6331745,39.3620747
"2400  BANGER ST","BALTIMORE","FICIMOVA","FIN-City Motor Vehicle Accident","2015-03-04T11:01:30.000","2015-03-18T11:01:30.000","LAKELAND","15-00165116","MD","NEW","2015-03-04T11:01:30.000","21230",-76.648449,39.258784
"3000  DRUID PARK DR","BALTIMORE","FICIMOVA","FIN-City Motor Vehicle Accident","2015-03-03T12:25:58.000","2015-03-17T12:25:58.000","PARK CIRCLE","15-00162420","MD","NEW","2015-03-03T12:25:58.000","21215",-76.6610767,39.3238608
"W 29TH ST","BALTIMORE","FICIMOVA","FIN-City Motor Vehicle Accident","2015-03-03T11:36:39.000","2015-03-17T11:36:39.000","JOHNS HOPKINS HOMEWOOD","15-00162194","MD","NEW","2015-03-03T11:36:39.000","21218",-76.6221466,39.3221866
"1  GUILFORD AVE","BALTIMORE","FICIMOVA","FIN-City Motor Vehicle Accident","2015-03-03T11:33:04.000","2015-03-17T11:33:04.000","DOWNTOWN","15-00162170","MD","NEW","2015-03-03T11:33:04.000","21202",-76.6109586,39.2897098
"500 S HAVEN ST","BALTIMORE","FICIMOVA","FIN-City Motor Vehicle Accident","2015-03-02T13:38:00.000","2015-03-16T13:38:00.000","BREWERS HILL","15-00159278","MD","NEW","2015-03-02T13:38:00.000","21224",-76.5625514,39.2863909
"1 N EUTAW ST","BALTIMORE","FICIMOVA","FIN-City Motor Vehicle Accident","2015-03-02T13:30:55.000","2015-03-16T13:30:55.000","DOWNTOWN","15-00159223","MD","NEW","2015-03-02T13:30:55.000","21201",-76.6209082,39.2893447
"2947  WASHINGTON BLVD","BALTIMORE","FICIMOVA","FIN-City Motor Vehicle Accident","2015-02-26T12:33:35.000","2015-03-12T12:33:35.000","MORRELL PARK","15-00148912","MD","NEW","2015-02-26T12:33:35.000","21230",-76.658193,39.259759
"2505 W LANVALE ST","BALTIMORE","FICIMOVA","FIN-City Motor Vehicle Accident","2015-02-26T12:30:35.000","2015-03-12T12:30:35.000","EVERGREEN LAWN","15-00148881","MD","NEW","2015-02-26T12:30:35.000","21216",-76.656687,39.296694
"700 N GRANTLEY ST","BALTIMORE","FICIMOVA","FIN-City Motor Vehicle Accident","2015-02-26T12:26:40.000","2015-03-12T12:26:40.000","EDMONDSON VILLAGE","15-00148845","MD","NEW","2015-02-26T12:26:40.000","21229",-76.677546,39.29535
"3100 W NORTH AVE","BALTIMORE","FICIMOVA","FIN-City Motor Vehicle Accident","2015-02-26T12:22:47.000","2015-03-12T12:22:47.000","WALBROOK","15-00148823","MD","NEW","2015-02-26T12:22:47.000","21216",-76.669532,39.309334
"225 N PACA ST","BALTIMORE","FICIMOVA","FIN-City Motor Vehicle Accident","2015-02-25T11:28:30.000","2015-03-11T11:28:30.000","DOWNTOWN","15-00144862","MD","NEW","2015-02-25T11:28:30.000","21201",-76.6224478,39.2919293
"MARYLAND AVE &W MOUNT ROYAL AVE","BALTIMORE","FICIMOVA","FIN-City Motor Vehicle Accident","2015-02-23T16:33:01.000","2015-03-09T16:33:01.000","MID-TOWN BELVEDERE","15-00137989","MD","NEW","2015-02-23T16:33:01.000","21201",-7.6701254,4.6207742
"UMBRA ST & HUDSON ST","BALTIMORE","FICIMOVA","FIN-City Motor Vehicle Accident","2015-02-23T13:55:33.000","2015-03-09T13:55:33.000","PULASKI INDUSTRIAL AREA","15-00136652","MD","NEW","2015-02-23T13:55:33.000","21224",-76.5502036,39.285242
"W NORTHERN PKWY","BALTIMORE","FICIMOVA","FIN-City Motor Vehicle Accident","2015-02-23T11:06:18.000","2015-03-09T11:06:18.000","COLDSPRING","15-00135227","MD","NEW","2015-02-23T11:06:18.000","21209",-76.6656161,39.3557104
"HUDSON ST","BALTIMORE","FICIMOVA","FIN-City Motor Vehicle Accident","2015-02-23T11:01:16.000","2015-03-09T11:01:16.000","CANTON","15-00135204","MD","NEW","2015-02-23T11:01:16.000","21224",-76.5570228,39.2828189
"3400  REISTERSTOWN RD","BALTIMORE","FICIMOVA","FIN-City Motor Vehicle Accident","2015-02-23T09:57:43.000","2015-03-09T09:57:43.000","PARK CIRCLE","15-00135049","MD","NEW","2015-02-23T09:57:43.000","21215",-76.658513,39.3265029
"BOSTON ST","BALTIMORE","FICIMOVA","FIN-City Motor Vehicle Accident","2015-02-23T09:54:03.000","2015-03-09T09:54:03.000","GRACELAND PARK","15-00135044","MD","NEW","2015-02-23T09:54:03.000","21224",-76.5607503,39.2772563
"500 E 25TH ST","BALTIMORE","FICIMOVA","FIN-City Motor Vehicle Accident","2015-02-23T09:49:56.000","2015-03-09T09:49:56.000","BETTER WAVERLY","15-00135035","MD","NEW","2015-02-23T09:49:56.000","21218",-76.6090045,39.3181547
"1100  HARFORD AVE","BALTIMORE","FICIMOVA","FIN-City Motor Vehicle Accident","2015-02-19T22:37:06.000","2015-03-05T22:37:06.000","JOHNSTON SQUARE","15-00124545","MD","NEW","2015-02-19T22:37:06.000","21202",-76.602714,39.3031986
"3800 E BIDDLE ST","BALTIMORE","FICIMOVA","FIN-City Motor Vehicle Accident","2015-02-19T11:30:59.000","2015-03-05T11:30:59.000","ORANGEVILLE","15-00121404","MD","NEW","2015-02-19T11:30:59.000","21213",-76.566248,39.3065039
"1  SAINT PAUL ST","BALTIMORE","FICIMOVA","FIN-City Motor Vehicle Accident","2015-02-19T11:25:30.000","2015-03-05T11:25:30.000","DOWNTOWN","15-00121366","MD","NEW","2015-02-19T11:25:30.000","21202",-76.6137867,39.2895835
"100 S CATHERINE ST","BALTIMORE","FICIMOVA","FIN-City Motor Vehicle Accident","2015-02-19T10:23:49.000","2015-03-05T10:23:49.000","SHIPLEY HILL","15-00121111","MD","NEW","2015-02-19T10:23:49.000","21223",-76.656319,39.285437
"SAINT PAUL ST &E BALTIMORE ST","BALTIMORE","FICIMOVA","FIN-City Motor Vehicle Accident","2015-02-18T19:12:33.000","2015-03-04T19:12:33.000","DOWNTOWN","15-00120132","MD","NEW","2015-02-18T19:12:33.000","21202",-90.741793,38.8614405
"0  THE ALAMEDA","BALTIMORE","FICIMOVA","FIN-City Motor Vehicle Accident","2015-02-18T11:19:27.000","2015-03-04T11:19:27.000","IDLEWOOD","15-00117038","MD","NEW","2015-02-18T11:19:27.000","21239",-76.5994141,39.3469656
"4900  ERDMAN AVE","BALTIMORE","FICIMOVA","FIN-City Motor Vehicle Accident","2015-02-18T11:14:27.000","2015-03-04T11:14:27.000","ARMISTEAD GARDENS","15-00117001","MD","NEW","2015-02-18T11:14:27.000","21205",-76.5586509,39.3065585
"4400  KATHLAND AVE","BALTIMORE","FICIMOVA","FIN-City Motor Vehicle Accident","2015-02-18T11:10:23.000","2015-03-04T11:10:23.000","HOWARD PARK","15-00116981","MD","NEW","2015-02-18T11:10:23.000","21207",-76.693127,39.326929
"4400  CHERRY BLOSSOM PL","BALTIMORE","FICIMOVA","FIN-City Motor Vehicle Accident","2015-02-18T11:06:23.000","2015-03-04T11:06:23.000","CLAREMONT-FREEDOM","15-00116946","MD","NEW","2015-02-18T11:06:23.000","21213",-76.5608779,39.3113668
"ERDMAN AVE","BALTIMORE","FICIMOVA","FIN-City Motor Vehicle Accident","2015-02-18T10:59:54.000","2015-03-04T10:59:54.000","BELAIR-EDISON","15-00116895","MD","NEW","2015-02-18T10:59:54.000","21213",-76.5622974,39.3091272
"S CATON AVE","BALTIMORE","FICIMOVA","FIN-City Motor Vehicle Accident","2015-02-18T10:54:25.000","2015-03-04T10:54:25.000","MORRELL PARK","15-00116856","MD","NEW","2015-02-18T10:54:25.000","21230",-76.672709,39.2838576
"6100  QUARANTINE RD","BALTIMORE","FICIMOVA","FIN-City Motor Vehicle Accident","2015-02-14T14:38:48.000","2015-02-28T14:38:48.000","HAWKINS POINT","15-00106666","MD","NEW","2015-02-14T14:38:48.000","21226",-76.5591011,39.2074434
"WILKENS AVE &S CATON AVE","BALTIMORE","FICIMOVA","FIN-City Motor Vehicle Accident","2015-02-13T13:30:32.000","2015-02-27T13:30:32.000","MORRELL PARK","15-00104491","MD","NEW","2015-02-13T13:30:32.000","21229",-76.6587005,39.2780873
"1500  EDISON HWY","BALTIMORE","FICIMOVA","FIN-City Motor Vehicle Accident","2015-02-13T11:15:39.000","2015-02-27T11:15:39.000","BEREA","15-00103730","MD","NEW","2015-02-13T11:15:39.000","21213",-76.57329,39.308422
"4402  NORWOOD RD","BALTIMORE","FICIMOVA","FIN-City Motor Vehicle Accident","2015-02-12T11:37:31.000","2015-02-26T11:37:31.000","GUILFORD","15-00100682","MD","NEW","2015-02-12T11:37:31.000","21218",-76.612985,39.343827
"2200  SAINT LO DR","BALTIMORE","FICIMOVA","FIN-City Motor Vehicle Accident","2015-02-12T11:32:10.000","2015-02-26T11:32:10.000","CLIFTON PARK","15-00100651","MD","NEW","2015-02-12T11:32:10.000","21213",-76.5871623,39.3187818
"300  MARYDELL RD","BALTIMORE","FICIMOVA","FIN-City Motor Vehicle Accident","2015-02-10T15:00:27.000","2015-02-24T15:00:27.000","IRVINGTON","15-00095025","MD","NEW","2015-02-10T15:00:27.000","21229",-76.6897009,39.2813835
"322 S SMALLWOOD ST","BALTIMORE","FICIMOVA","FIN-City Motor Vehicle Accident","2015-02-11T16:32:33.000","2015-02-25T16:32:33.000","CARROLLTON RIDGE","15-00099253","MD","NEW","2015-02-11T16:32:33.000","21223",-76.651449,39.283588
"1825  EDISON HWY","BALTIMORE","FICIMOVA","FIN-City Motor Vehicle Accident","2015-02-11T12:51:42.000","2015-02-25T12:51:42.000","ORANGEVILLE INDUSTRIAL AREA","15-00097982","MD","NEW","2015-02-11T12:51:42.000","21213",-76.572309,39.312828
"200 E CENTRE ST","BALTIMORE","FICIMOVA","FIN-City Motor Vehicle Accident","2015-02-10T10:13:14.000","2015-02-24T10:13:14.000","MOUNT VERNON","15-00093876","MD","NEW","2015-02-10T10:13:14.000","21202",-76.6128056,39.2964671
"2331 N FULTON AVE","BALTIMORE","FICIMOVA","FIN-City Motor Vehicle Accident","2015-02-06T12:54:03.000","2015-02-20T12:54:03.000","PENN NORTH","15-00086633","MD","NEW","2015-02-06T12:54:03.000","21217",-76.6435764,39.3152074
"400 E PATAPSCO AVE","BALTIMORE","FICIMOVA","FIN-City Motor Vehicle Accident","2015-02-06T13:01:48.000","2015-02-20T13:01:48.000","BROOKLYN","15-00086687","MD","NEW","2015-02-06T13:01:48.000","21225",-76.605118,39.237421
"2331 N FULTON AVE","BALTIMORE","FICIMOVA","FIN-City Motor Vehicle Accident","2015-02-06T12:57:40.000","2015-02-20T12:57:40.000","PENN NORTH","15-00086668","MD","NEW","2015-02-06T12:57:40.000","21217",-76.6435764,39.3152074
"W EAGER ST & CATHEDRAL ST","BALTIMORE","FICIMOVA","FIN-City Motor Vehicle Accident","2015-02-05T19:42:58.000","2015-02-19T19:42:58.000","MID-TOWN BELVEDERE","15-00085351","MD","NEW","2015-02-05T19:42:58.000","21201",-76.6173531,39.3009572
"102  KANE ST","BALTIMORE","FICIMOVA","FIN-City Motor Vehicle Accident","2015-02-04T12:15:54.000","2015-02-18T12:15:54.000","HOPKINS BAYVIEW","15-00079966","MD","NEW","2015-02-04T12:15:54.000","21224",-76.5327707,39.2954351
"8 N ROSE ST","BALTIMORE","FICIMOVA","FIN-City Motor Vehicle Accident","2015-02-04T10:13:58.000","2015-02-18T10:13:58.000","BALTIMORE-LINWOOD","15-00079431","MD","NEW","2015-02-04T10:13:58.000","21224",-76.5813456,39.2924727
"6100  QUARANTINE RD","BALTIMORE","FICIMOVA","FIN-City Motor Vehicle Accident","2015-02-02T14:51:29.000","2015-02-16T14:51:29.000","HAWKINS POINT","15-00074215","MD","NEW","2015-02-02T14:51:29.000","21226",-76.5591011,39.2074434
"ERDMAN AVE","BALTIMORE","FICIMOVA","FIN-City Motor Vehicle Accident","2015-02-02T14:47:44.000","2015-02-16T14:47:44.000","BELAIR-EDISON","15-00074195","MD","NEW","2015-02-02T14:47:44.000","21213",-76.5622974,39.3091272
"83  N","BALTIMORE","FICIMOVA","FIN-City Motor Vehicle Accident","2015-02-02T14:42:23.000","2015-02-16T14:42:23.000","DOWNTOWN","15-00074165","MD","NEW","2015-02-02T14:42:23.000","21202",-75.0857203,38.3324446
"100 N HIGHLAND AVE","BALTIMORE","FICIMOVA","FIN-City Motor Vehicle Accident","2015-01-30T16:59:58.000","2015-02-13T16:59:58.000","BALTIMORE-LINWOOD","15-00070091","MD","NEW","2015-01-30T16:59:58.000","21224",-76.5697579,39.293711
"200 W FAYETTE ST","BALTIMORE","FICIMOVA","FIN-City Motor Vehicle Accident","2015-01-30T16:53:44.000","2015-02-13T16:53:44.000","DOWNTOWN","15-00070045","MD","NEW","2015-01-30T16:53:44.000","21201",-76.618129,39.2906959
"250 E PRATT ST","BALTIMORE","FICIMOVA","FIN-City Motor Vehicle Accident","2015-01-28T14:58:24.000","2015-02-11T14:58:24.000","INNER HARBOR","15-00063565","MD","NEW","2015-01-28T14:58:24.000","21202",-76.6113914,39.2866244
"3202  SOUTHERN AVE","BALTIMORE","FICIMOVA","FIN-City Motor Vehicle Accident","2015-01-29T16:37:43.000","2015-02-12T16:37:43.000","WALTHERSON","15-00066889","MD","NEW","2015-01-29T16:37:43.000","21214",-76.5642699,39.343556
"500  RADNOR AVE","BALTIMORE","FICIMOVA","FIN-City Motor Vehicle Accident","2015-01-29T16:34:01.000","2015-02-12T16:34:01.000","WINSTON-GOVANS","15-00066873","MD","NEW","2015-01-29T16:34:01.000","21212",-76.6095431,39.3479398
"ARGONNE DR","BALTIMORE","FICIMOVA","FIN-City Motor Vehicle Accident","2015-01-29T15:59:49.000","2015-02-12T15:59:49.000","HILLEN","15-00066759","MD","NEW","2015-01-29T15:59:49.000","21218",NA,NA
"1000 E CHASE ST","BALTIMORE","FICIMOVA","FIN-City Motor Vehicle Accident","2015-01-26T10:59:20.000","2015-02-09T10:59:20.000","JOHNSTON SQUARE","15-00056177","MD","NEW","2015-01-26T10:59:20.000","21202",-76.603376,39.3030579
"6400  PULASKI HWY","BALTIMORE","FICIMOVA","FIN-City Motor Vehicle Accident","2015-01-28T11:26:41.000","2015-02-11T11:26:41.000","PULASKI INDUSTRIAL AREA","15-00062704","MD","NEW","2015-01-28T11:26:41.000","21205",-76.5416822,39.3038366
"1302  CHESAPEAKE AVE","BALTIMORE","FICIMOVA","FIN-City Motor Vehicle Accident","2015-01-28T11:22:24.000","2015-02-11T11:22:24.000","FAIRFIELD AREA","15-00062696","MD","NEW","2015-01-28T11:22:24.000","21226",-76.587288,39.237283
"5400  FALLS RD","BALTIMORE","FICIMOVA","FIN-City Motor Vehicle Accident","2015-01-28T11:17:10.000","2015-02-11T11:17:10.000","CROSS KEYS","15-00062671","MD","NEW","2015-01-28T11:17:10.000","21210",-76.6452765,39.3587372
"200 W LEXINGTON ST","BALTIMORE","FICIMOVA","FIN-City Motor Vehicle Accident","2015-01-27T18:23:53.000","2015-02-10T18:23:53.000","DOWNTOWN","15-00061874","MD","NEW","2015-01-27T18:23:53.000","21201",-76.6188345,39.291579
"703  GLEN ALLEN DR","BALTIMORE","FICIMOVA","FIN-City Motor Vehicle Accident","2015-01-26T10:50:10.000","2015-02-09T10:50:10.000","HUNTING RIDGE","15-00056171","MD","NEW","2015-01-26T10:50:10.000","21229",-76.696598,39.2959419
"1821  MCHENRY ST","BALTIMORE","FICIMOVA","FIN-City Motor Vehicle Accident","2015-01-26T10:46:02.000","2015-02-09T10:46:02.000","CARROLLTON RIDGE","15-00056168","MD","NEW","2015-01-26T10:46:02.000","21223",-76.645734,39.284103
"1821  MCHENRY ST","BALTIMORE","FICIMOVA","FIN-City Motor Vehicle Accident","2015-01-26T10:41:03.000","2015-02-09T10:41:03.000","CARROLLTON RIDGE","15-00056162","MD","NEW","2015-01-26T10:41:03.000","21223",-76.645734,39.284103
"7200  HARFORD RD","BALTIMORE","FICIMOVA","FIN-City Motor Vehicle Accident","2015-01-23T11:44:32.000","2015-02-06T11:44:32.000","NORTH HARFORD ROAD","15-00051617","MD","NEW","2015-01-23T11:44:32.000","21234",-76.548058,39.368266
"3401  ERDMAN AVE","BALTIMORE","FICIMOVA","FIN-City Motor Vehicle Accident","2015-01-23T11:41:05.000","2015-02-06T11:41:05.000","BELAIR-EDISON","15-00051584","MD","NEW","2015-01-23T11:41:05.000","21213",-76.5714919,39.3197309
"1100 N CHARLES ST","BALTIMORE","FICIMOVA","FIN-City Motor Vehicle Accident","2015-01-22T13:03:38.000","2015-02-05T13:03:38.000","MID-TOWN BELVEDERE","15-00049047","MD","NEW","2015-01-22T13:03:38.000","21201",-76.616266,39.3025351
"2001  HARGROVE ST","BALTIMORE","FICIMOVA","FIN-City Motor Vehicle Accident","2015-01-22T12:59:31.000","2015-02-05T12:59:31.000","BARCLAY","15-00049006","MD","NEW","2015-01-22T12:59:31.000","21218",-76.6144092,39.3123149
"E 43RD ST","BALTIMORE","FICIMOVA","FIN-City Motor Vehicle Accident","2015-01-22T12:47:56.000","2015-02-05T12:47:56.000","WILSON PARK","15-00048885","MD","NEW","2015-01-22T12:47:56.000","21218",-76.6034555,39.3426728
"400 N CHARLES ST","BALTIMORE","FICIMOVA","FIN-City Motor Vehicle Accident","2015-01-22T12:40:46.000","2015-02-05T12:40:46.000","DOWNTOWN","15-00048856","MD","NEW","2015-01-22T12:40:46.000","21201",-76.6154686,39.2941577
"2331 N FULTON AVE","BALTIMORE","FICIMOVA","FIN-City Motor Vehicle Accident","2015-01-22T12:36:53.000","2015-02-05T12:36:53.000","PENN NORTH","15-00048841","MD","NEW","2015-01-22T12:36:53.000","21217",-76.6435764,39.3152074
"E 32ND ST","BALTIMORE","FICIMOVA","FIN-City Motor Vehicle Accident","2015-01-22T12:31:46.000","2015-02-05T12:31:46.000","COLDSTREAM HOMESTEAD MONTEBELLO","15-00048819","MD","NEW","2015-01-22T12:31:46.000","21218",-76.5943454,39.3265788
"921 E PATAPSCO AVE","BALTIMORE","FICIMOVA","FIN-City Motor Vehicle Accident","2015-01-21T12:42:06.000","2015-02-04T12:42:06.000","BROOKLYN","15-00046068","MD","NEW","2015-01-21T12:42:06.000","21225",-76.5969188,39.2344796
"2212  MCELDERRY ST","BALTIMORE","FICIMOVA","FIN-City Motor Vehicle Accident","2015-01-21T15:25:23.000","2015-02-04T15:25:23.000","MIDDLE EAST","15-00046830","MD","NEW","2015-01-21T15:25:23.000","21205",-76.5861633,39.2975968
"300 N CHARLES ST","BALTIMORE","FICIMOVA","FIN-City Motor Vehicle Accident","2015-01-20T17:13:27.000","2015-02-03T17:13:27.000","DOWNTOWN","15-00044229","MD","NEW","2015-01-20T17:13:27.000","21201",-76.6156038,39.2926636
"1100 W LOMBARD ST","BALTIMORE","FICIMOVA","FIN-City Motor Vehicle Accident","2015-01-16T15:29:59.000","2015-01-30T15:29:59.000","HOLLINS MARKET","15-00036717","MD","NEW","2015-01-16T15:29:59.000","21223",-76.635323,39.286855
"3400  PLEASANT PL","BALTIMORE","FICIMOVA","FIN-City Motor Vehicle Accident","2015-01-14T13:00:55.000","2015-01-28T13:00:55.000","HAMPDEN","15-00029984","MD","NEW","2015-01-14T13:00:55.000","21211",-76.6317798,39.3285989
"2600  MAISEL ST","BALTIMORE","FICIMOVA","FIN-City Motor Vehicle Accident","2015-01-14T12:55:57.000","2015-01-28T12:55:57.000","WESTPORT","15-00029950","MD","NEW","2015-01-14T12:55:57.000","21230",-76.6378958,39.2627876
"FORDS LN & REISTERSTOWN RD","BALTIMORE","FICIMOVA","FIN-City Motor Vehicle Accident","2015-01-13T23:44:29.000","2015-01-27T23:44:29.000","GLEN","15-00029275","MD","NEW","2015-01-13T23:44:29.000","21215",-76.7002923,39.3564998
"W COLD SPRING LN","BALTIMORE","FICIMOVA","FIN-City Motor Vehicle Accident","2015-01-07T11:18:17.000","2015-01-21T11:18:17.000","WOODBERRY","15-00012722","MD","NEW","2015-01-07T11:18:17.000","21209",-76.6556844,39.3417832
"6400  PULASKI HWY","BALTIMORE","FICIMOVA","FIN-City Motor Vehicle Accident","2015-01-07T16:36:58.000","2015-01-21T16:36:58.000","PULASKI INDUSTRIAL AREA","15-00014528","MD","NEW","2015-01-07T16:36:58.000","21205",-76.5416822,39.3038366
"1117 N CAROLINE ST","BALTIMORE","FICIMOVA","FIN-City Motor Vehicle Accident","2015-01-07T16:33:51.000","2015-01-21T16:33:51.000","GAY STREET","15-00014522","MD","NEW","2015-01-07T16:33:51.000","21213",-76.59753,39.303626
"200 S FREMONT AVE","BALTIMORE","FICIMOVA","FIN-City Motor Vehicle Accident","2015-01-07T16:30:31.000","2015-01-21T16:30:31.000","RIDGELY'S DELIGHT","15-00014512","MD","NEW","2015-01-07T16:30:31.000","21230",-76.6271046,39.2856959
"6100  QUARANTINE RD","BALTIMORE","FICIMOVA","FIN-City Motor Vehicle Accident","2015-01-07T16:25:44.000","2015-01-21T16:25:44.000","HAWKINS POINT","15-00014504","MD","NEW","2015-01-07T16:25:44.000","21226",-76.5591011,39.2074434
"3501  ASIATIC AVE","BALTIMORE","FICIMOVA","FIN-City Motor Vehicle Accident","2015-01-07T16:20:59.000","2015-01-21T16:20:59.000","FAIRFIELD AREA","15-00014492","MD","NEW","2015-01-07T16:20:59.000","21226",-76.5664321,39.2325984
"3207  BERKSHIRE RD","BALTIMORE","FICIMOVA","FIN-City Motor Vehicle Accident","2015-01-07T11:32:53.000","2015-01-21T11:32:53.000","ARCADIA","15-00012765","MD","NEW","2015-01-07T11:32:53.000","21214",-76.5694539,39.335021
"FALLSWAY","BALTIMORE","FICIMOVA","FIN-City Motor Vehicle Accident","2015-01-07T11:36:36.000","2015-01-21T11:36:36.000","MID-TOWN BELVEDERE","15-00012772","MD","NEW","2015-01-07T11:36:36.000","21202",-76.6087776,39.2968175
"2601  FALLS RD","BALTIMORE","FICIMOVA","FIN-City Motor Vehicle Accident","2015-01-07T11:27:40.000","2015-01-21T11:27:40.000","JONES FALLS AREA","15-00012749","MD","NEW","2015-01-07T11:27:40.000","21217",-76.627108,39.319487
"2200  BOSTON ST","BALTIMORE","FICIMOVA","FIN-City Motor Vehicle Accident","2015-01-07T11:21:48.000","2015-01-21T11:21:48.000","CANTON","15-00012731","MD","NEW","2015-01-07T11:21:48.000","21231",-76.5855025,39.284028
"6100  QUARANTINE RD","BALTIMORE","FICIMOVA","FIN-City Motor Vehicle Accident","2015-01-07T11:12:23.000","2015-01-21T11:12:23.000","HAWKINS POINT","15-00012706","MD","NEW","2015-01-07T11:12:23.000","21226",-76.5591011,39.2074434
"3800 E BIDDLE ST","BALTIMORE","FICIMOVA","FIN-City Motor Vehicle Accident","2015-01-07T11:06:46.000","2015-01-21T11:06:46.000","ORANGEVILLE","15-00012689","MD","NEW","2015-01-07T11:06:46.000","21213",-76.566248,39.3065039
"200 E LOMBARD ST","BALTIMORE","FICIMOVA","FIN-City Motor Vehicle Accident","2015-01-06T14:52:48.000","2015-01-20T14:52:48.000","DOWNTOWN","15-00010725","MD","NEW","2015-01-06T14:52:48.000","21202",-76.6116088,39.2880377
"207 W SARATOGA ST","BALTIMORE","FICIMOVA","FIN-City Motor Vehicle Accident","2015-01-02T12:35:29.000","2015-01-16T12:35:29.000","DOWNTOWN","15-00001340","MD","NEW","2015-01-02T12:35:29.000","21201",-76.618429,39.292684
"3700  BELAIR RD","BALTIMORE","FICIMOVA","FIN-City Motor Vehicle Accident","2014-12-29T18:29:53.000","2015-01-12T18:29:53.000","HERRING RUN PARK","14-00964096","MD","NEW","2014-12-29T18:29:53.000","21213",-76.5694117,39.3248964
"2500  BOSTON ST","BALTIMORE","FICIMOVA","FIN-City Motor Vehicle Accident","2014-12-27T22:21:51.000","2015-01-10T22:21:51.000","CANTON","14-00960966","MD","NEW","2014-12-27T22:21:51.000","21224",-76.5799691,39.2806289
"2800  ROCKROSE AVE","BALTIMORE","FICIMOVA","FIN-City Motor Vehicle Accident","2014-12-27T19:15:42.000","2015-01-10T19:15:42.000","PARK CIRCLE","14-00960839","MD","NEW","2014-12-27T19:15:42.000","21215",-76.6612709,39.3294595
"2811  BARTOL AVE","BALTIMORE","FICIMOVA","FIN-City Motor Vehicle Accident","2014-12-24T20:22:04.000","2015-01-07T20:22:04.000","CHESWOLDE","14-00956998","MD","NEW","2014-12-24T20:22:04.000","21209",-76.684256,39.366299
"200 S HIGHLAND AVE","BALTIMORE","FICIMOVA","FIN-City Motor Vehicle Accident","2014-12-21T22:07:28.000","2015-01-04T22:07:28.000","HIGHLANDTOWN","14-00947842","MD","NEW","2014-12-21T22:07:28.000","21224",-76.5695523,39.2900158
"300  MILLINGTON AVE","BALTIMORE","FICIMOVA","FIN-City Motor Vehicle Accident","2014-12-18T10:09:57.000","2015-01-01T10:09:57.000","MILLHILL","14-00940574","MD","NEW","2014-12-18T10:09:57.000","21223",-76.6578615,39.2821085
"N FRANKLINTOWN RD &W BALTIMORE ST","BALTIMORE","FICIMOVA","FIN-City Motor Vehicle Accident","2014-12-17T12:27:23.000","2014-12-31T12:27:23.000","SHIPLEY HILL","14-00937922","MD","NEW","2014-12-17T12:27:23.000","21223",-76.6869435,39.3047184
"1700 N PATTERSON PARK AVE","BALTIMORE","FICIMOVA","FIN-City Motor Vehicle Accident","2014-12-16T15:24:22.000","2014-12-30T15:24:22.000","BROADWAY EAST","14-00936315","MD","NEW","2014-12-16T15:24:22.000","21213",-76.5858273,39.3099401
"4600  ERDMAN AVE","BALTIMORE","FICIMOVA","FIN-City Motor Vehicle Accident","2014-12-16T15:20:07.000","2014-12-30T15:20:07.000","CLAREMONT-FREEDOM","14-00936305","MD","NEW","2014-12-16T15:20:07.000","21213",-76.5617289,39.3088475
"QUARANTINE RD","BALTIMORE","FICIMOVA","FIN-City Motor Vehicle Accident","2014-12-16T15:17:05.000","2014-12-30T15:17:05.000","HAWKINS POINT","14-00936286","MD","NEW","2014-12-16T15:17:05.000","21226",-76.557773,39.2093443
"1000 W NORTHERN PKWY","BALTIMORE","FICIMOVA","FIN-City Motor Vehicle Accident","2014-12-16T15:13:54.000","2014-12-30T15:13:54.000","NORTH ROLAND PARK/POPLAR HILL","14-00936249","MD","NEW","2014-12-16T15:13:54.000","21210",-76.6403493,39.3624383
"417 E FAYETTE ST","BALTIMORE","FICIMOVA","FIN-City Motor Vehicle Accident","2014-12-16T15:09:55.000","2014-12-30T15:09:55.000","DOWNTOWN","14-00936202","MD","NEW","2014-12-16T15:09:55.000","21202",-76.6093567,39.290235
"N FRANKLINTOWN RD","BALTIMORE","FICIMOVA","FIN-City Motor Vehicle Accident","2014-12-16T15:06:58.000","2014-12-30T15:06:58.000","PENROSE/FAYETTE STREET OUTREACH","14-00936179","MD","NEW","2014-12-16T15:06:58.000","21223",-76.6869435,39.3047184
"2700 E FEDERAL ST","BALTIMORE","FICIMOVA","FIN-City Motor Vehicle Accident","2014-12-16T11:07:23.000","2014-12-30T11:07:23.000","BEREA","14-00934842","MD","NEW","2014-12-16T11:07:23.000","21213",-76.5799146,39.3093414
"5100  PARK HEIGHTS AVE","BALTIMORE","FICIMOVA","FIN-City Motor Vehicle Accident","2014-12-16T11:03:08.000","2014-12-30T11:03:08.000","CENTRAL PARK HEIGHTS","14-00934835","MD","NEW","2014-12-16T11:03:08.000","21215",-76.67506,39.3482879
"5500  REISTERSTOWN RD","BALTIMORE","FICIMOVA","FIN-City Motor Vehicle Accident","2014-12-16T10:59:13.000","2014-12-30T10:59:13.000","WOODMERE","14-00934831","MD","NEW","2014-12-16T10:59:13.000","21215",-76.690658,39.347599
"10 E LEE ST","BALTIMORE","FICIMOVA","FIN-City Motor Vehicle Accident","2014-12-15T12:10:20.000","2014-12-29T12:10:20.000","OTTERBEIN","14-00932360","MD","NEW","2014-12-15T12:10:20.000","21202",-76.6143946,39.2823823
"1800 E MONUMENT ST","BALTIMORE","FICIMOVA","FIN-City Motor Vehicle Accident","2014-12-15T12:05:29.000","2014-12-29T12:05:29.000","MIDDLE EAST","14-00932331","MD","NEW","2014-12-15T12:05:29.000","21287",-76.591975,39.2990097
"2331 N FULTON AVE","BALTIMORE","FICIMOVA","FIN-City Motor Vehicle Accident","2014-12-09T16:19:12.000","2014-12-23T16:19:12.000","PENN NORTH","14-00921184","MD","NEW","2014-12-09T16:19:12.000","21217",-76.6435764,39.3152074
"PRESIDENT ST","BALTIMORE","FICIMOVA","FIN-City Motor Vehicle Accident","2014-12-12T13:18:19.000","2014-12-26T13:18:19.000","INNER HARBOR","14-00928836","MD","NEW","2014-12-12T13:18:19.000","21202",-76.6035554,39.2864114
"4325  YORK RD","BALTIMORE","FICIMOVA","FIN-City Motor Vehicle Accident","2014-12-10T11:03:08.000","2014-12-24T11:03:08.000","WILSON PARK","14-00922275","MD","NEW","2014-12-10T11:03:08.000","21212",-76.60863,39.341768
"900  PENNSYLVANIA AVE","BALTIMORE","FICIMOVA","FIN-City Motor Vehicle Accident","2014-12-09T16:22:44.000","2014-12-23T16:22:44.000","HERITAGE CROSSING","14-00921205","MD","NEW","2014-12-09T16:22:44.000","21201",-76.6267745,39.2968391
"5314  REISTERSTOWN RD","BALTIMORE","FICIMOVA","FIN-City Motor Vehicle Accident","2014-12-09T11:44:34.000","2014-12-23T11:44:34.000","WOODMERE","14-00919813","MD","NEW","2014-12-09T11:44:34.000","21215",-76.6871172,39.3451611
"1600  WALTERSWOOD RD","BALTIMORE","FICIMOVA","FIN-City Motor Vehicle Accident","2014-12-08T15:01:24.000","2014-12-22T15:01:24.000","LOCH RAVEN","14-00917451","MD","NEW","2014-12-08T15:01:24.000","21239",-76.582566,39.3620159
"N WOLFE ST","BALTIMORE","FICIMOVA","FIN-City Motor Vehicle Accident","2014-12-08T14:57:07.000","2014-12-22T14:57:07.000","BROADWAY EAST","14-00917427","MD","NEW","2014-12-08T14:57:07.000","21213",-76.5912287,39.3038664
"1113  LIGHT ST","BALTIMORE","FICIMOVA","FIN-City Motor Vehicle Accident","2014-12-08T14:10:42.000","2014-12-22T14:10:42.000","RIVERSIDE","14-00917114","MD","NEW","2014-12-08T14:10:42.000","21230",-76.612276,39.2766613
"E 33RD ST & SAINT PAUL ST","BALTIMORE","FICIMOVA","FIN-City Motor Vehicle Accident","2014-12-05T16:14:28.000","2014-12-19T16:14:28.000","CHARLES VILLAGE","14-00912848","MD","NEW","2014-12-05T16:14:28.000","21218",-97.4291472,35.6237229
"725 N HAVEN ST","BALTIMORE","FICIMOVA","FIN-City Motor Vehicle Accident","2014-12-05T10:16:28.000","2014-12-19T10:16:28.000","ORANGEVILLE","14-00911201","MD","NEW","2014-12-05T10:16:28.000","21205",-76.562547,39.30052
"3001  DRUID PARK DR","BALTIMORE","FICIMOVA","FIN-City Motor Vehicle Accident","2014-12-04T12:29:21.000","2014-12-18T12:29:21.000","LIBERTY SQUARE","14-00908656","MD","NEW","2014-12-04T12:29:21.000","21215",-76.6610525,39.3226271
"E 28TH ST","BALTIMORE","FICIMOVA","FIN-City Motor Vehicle Accident","2014-12-04T12:17:20.000","2014-12-18T12:17:20.000","COLDSTREAM HOMESTEAD MONTEBELLO","14-00908549","MD","NEW","2014-12-04T12:17:20.000","21218",-76.6046087,39.3220382
"202  GUILFORD AVE","BALTIMORE","FICIMOVA","FIN-City Motor Vehicle Accident","2014-12-04T11:46:22.000","2014-12-18T11:46:22.000","DOWNTOWN","14-00908369","MD","NEW","2014-12-04T11:46:22.000","21202",-76.6114,39.291571
"3800 E BIDDLE ST","BALTIMORE","FICIMOVA","FIN-City Motor Vehicle Accident","2014-12-04T11:19:04.000","2014-12-18T11:19:04.000","ORANGEVILLE INDUSTRIAL AREA","14-00908244","MD","NEW","2014-12-04T11:19:04.000","21213",-76.566248,39.3065039
"2205  ANNAPOLIS SIDNEY","BALTIMORE","FICIMOVA","FIN-City Motor Vehicle Accident","2014-12-03T12:36:21.000","2014-12-17T12:36:21.000","WESTPORT","14-00905447","MD","NEW","2014-12-03T12:36:21.000","21230",-76.6121893,39.2903848
"2500 E FAYETTE ST","BALTIMORE","FICIMOVA","FIN-City Motor Vehicle Accident","2014-12-02T14:45:12.000","2014-12-16T14:45:12.000","MCELDERRY PARK","14-00903035","MD","NEW","2014-12-02T14:45:12.000","21224",-76.581884,39.294612
"0  PATAPSCO AVE","BALTIMORE","FICIMOVA","FIN-City Motor Vehicle Accident","2014-12-02T14:37:37.000","2014-12-16T14:37:37.000","VIOLETVILLE","14-00903006","MD","NEW","2014-12-02T14:37:37.000","21229",-76.6102811,39.2388364
"4912  HARFORD RD","BALTIMORE","FICIMOVA","FIN-City Motor Vehicle Accident","2014-11-28T14:49:59.000","2014-12-12T14:49:59.000","LAURAVILLE","14-00894463","MD","NEW","2014-11-28T14:49:59.000","21214",-76.5666789,39.3466669
"S MONROE ST","BALTIMORE","FICIMOVA","FIN-City Motor Vehicle Accident","2014-11-28T12:55:19.000","2014-12-12T12:55:19.000","CARROLL - CAMDEN INDUSTRIAL AREA","14-00893695","MD","NEW","2014-11-28T12:55:19.000","21230",-76.6392796,39.2730906
"500  FALLSWAY","BALTIMORE","FICIMOVA","FIN-City Motor Vehicle Accident","2014-11-28T11:25:31.000","2014-12-12T11:25:31.000","PENN-FALLSWAY","14-00892880","MD","NEW","2014-11-28T11:25:31.000","21202",-76.610348,39.29605
"1500 N FULTON AVE","BALTIMORE","FICIMOVA","FIN-City Motor Vehicle Accident","2014-11-28T11:43:37.000","2014-12-12T11:43:37.000","SANDTOWN-WINCHESTER","14-00893004","MD","NEW","2014-11-28T11:43:37.000","21217",-76.6463842,39.305386
"S CATON AVE","BALTIMORE","FICIMOVA","FIN-City Motor Vehicle Accident","2014-11-28T11:39:07.000","2014-12-12T11:39:07.000","MORRELL PARK","14-00892954","MD","NEW","2014-11-28T11:39:07.000","21230",-76.672709,39.2838576
"2100  DOBLER AVE","BALTIMORE","FICIMOVA","FIN-City Motor Vehicle Accident","2014-11-28T11:33:58.000","2014-12-12T11:33:58.000","MAYFIELD","14-00892921","MD","NEW","2014-11-28T11:33:58.000","21218",-76.582969,39.329717
"1400  EDISON HWY","BALTIMORE","FICIMOVA","FIN-City Motor Vehicle Accident","2014-11-28T11:29:19.000","2014-12-12T11:29:19.000","BEREA","14-00892895","MD","NEW","2014-11-28T11:29:19.000","21213",-76.5732298,39.3073609
"WILDWOOD PKWY","BALTIMORE","FICIMOVA","FIN-City Motor Vehicle Accident","2014-11-28T11:19:57.000","2014-12-12T11:19:57.000","EDMONDSON VILLAGE","14-00892859","MD","NEW","2014-11-28T11:19:57.000","21229",-76.683933,39.2970623
"3500  VIRGINIA AVE","BALTIMORE","FICIMOVA","FIN-City Motor Vehicle Accident","2014-11-28T11:15:18.000","2014-12-12T11:15:18.000","LUCILLE PARK","14-00892841","MD","NEW","2014-11-28T11:15:18.000","21215",-76.673018,39.340322
"3001  DRUID PARK DR","BALTIMORE","FICIMOVA","FIN-City Motor Vehicle Accident","2014-11-28T11:10:02.000","2014-12-12T11:10:02.000","LIBERTY SQUARE","14-00892816","MD","NEW","2014-11-28T11:10:02.000","21215",-76.6610525,39.3226271
"3800 E BIDDLE ST","BALTIMORE","FICIMOVA","FIN-City Motor Vehicle Accident","2014-11-26T14:17:43.000","2014-12-10T14:17:43.000","ORANGEVILLE INDUSTRIAL AREA","14-00890104","MD","NEW","2014-11-26T14:17:43.000","21213",-76.566248,39.3065039
"4100  LOCH RAVEN BLVD","BALTIMORE","FICIMOVA","FIN-City Motor Vehicle Accident","2014-11-25T17:50:36.000","2014-12-09T17:50:36.000","ORIGINAL NORTHWOOD","14-00888149","MD","NEW","2014-11-25T17:50:36.000","21218",-76.59424,39.340099
"1400  LEADENHALL ST","BALTIMORE","FICIMOVA","FIN-City Motor Vehicle Accident","2014-11-24T19:13:37.000","2014-12-08T19:13:37.000","SPRING GARDEN INDUSTRIAL AREA","14-00884702","MD","NEW","2014-11-24T19:13:37.000","21230",-76.619192,39.27372
"700 W SARATOGA ST","BALTIMORE","FICIMOVA","FIN-City Motor Vehicle Accident","2014-11-19T14:55:04.000","2014-12-03T14:55:04.000","POPPLETON","14-00872495","MD","NEW","2014-11-19T14:55:04.000","21201",-76.6272647,39.2927501
"600 N PULASKI ST","BALTIMORE","FICIMOVA","FIN-City Motor Vehicle Accident","2014-11-19T14:46:45.000","2014-12-03T14:46:45.000","MIDTOWN-EDMONDSON","14-00872452","MD","NEW","2014-11-19T14:46:45.000","21217",-76.650746,39.295435
"4200  ERDMAN AVE","BALTIMORE","FICIMOVA","FIN-City Motor Vehicle Accident","2014-11-18T12:16:13.000","2014-12-02T12:16:13.000","CLAREMONT-FREEDOM","14-00868204","MD","NEW","2014-11-18T12:16:13.000","21213",-76.5674111,39.3133879
"LOCH RAVEN BLVD","BALTIMORE","FICIMOVA","FIN-City Motor Vehicle Accident","2014-11-18T12:42:44.000","2014-12-02T12:42:44.000","EDNOR GARDENS-LAKESIDE","14-00868331","MD","NEW","2014-11-18T12:42:44.000","21218",-76.5873802,39.3621151
"2700 E NORTHERN PKWY","BALTIMORE","FICIMOVA","FIN-City Motor Vehicle Accident","2014-11-18T12:38:37.000","2014-12-02T12:38:37.000","NORTH HARFORD ROAD","14-00868298","MD","NEW","2014-11-18T12:38:37.000","21214",-76.557902,39.365632
"JONES FALLS EXPY","BALTIMORE COUNTY","FICIMOVA","FIN-City Motor Vehicle Accident","2014-11-13T12:36:34.000","2014-11-27T12:36:34.000","MOUNT WASHINGTON","14-00856731","MD","NEW","2014-11-13T12:36:34.000","21209",-76.6472183,39.3432452
"RUSSELL ST","BALTIMORE COUNTY","FICIMOVA","FIN-City Motor Vehicle Accident","2014-11-10T13:09:22.000","2014-11-24T13:09:22.000","CHERRY HILL","14-00847279","MD","NEW","2014-11-10T13:09:22.000",NA,-76.6287284,39.2734664
"2300  ASHLAND AVE","BALTIMORE CITY","FICIMOVA","FIN-City Motor Vehicle Accident","2014-11-10T13:04:14.000","2014-11-24T13:04:14.000","MILTON-MONTFORD","14-00847246","MD","NEW","2014-11-10T13:04:14.000","21205",-76.5848268,39.3010252
"REISTERSTOWN RD","BALTIMORE CITY","FICIMOVA","FIN-City Motor Vehicle Accident","2014-11-07T12:33:53.000","2014-11-21T12:33:53.000","WOODMERE","14-00840661","MD","NEW","2014-11-07T12:33:53.000","21215",-76.6932415,39.3497817
"2400  NEVADA ST","BALTIMORE CITY","FICIMOVA","FIN-City Motor Vehicle Accident","2014-11-07T12:30:15.000","2014-11-21T12:30:15.000","WESTPORT","14-00840642","MD","NEW","2014-11-07T12:30:15.000","21230",-76.6379365,39.2627812
"W NORTH AVE","BALTIMORE CITY","FICIMOVA","FIN-City Motor Vehicle Accident","2014-11-07T12:26:05.000","2014-11-21T12:26:05.000","FRANKLINTOWN","14-00840608","MD","NEW","2014-11-07T12:26:05.000",NA,-76.6463567,39.3098955
"4420  WICKFORD RD","BALTIMORE CITY","FICIMOVA","FIN-City Motor Vehicle Accident","2014-11-06T15:10:20.000","2014-11-20T15:10:20.000","KESWICK","14-00838073","MD","NEW","2014-11-06T15:10:20.000","21210",-76.627179,39.344368
"1000  ARGONNE DR","BALTIMORE CITY","FICIMOVA","FIN-City Motor Vehicle Accident","2014-11-06T15:07:05.000","2014-11-20T15:07:05.000","ORIGINAL NORTHWOOD","14-00838068","MD","NEW","2014-11-06T15:07:05.000","21218",-76.6001622,39.3400992
"2800  GREENMOUNT AVE","BALTIMORE CITY","FICIMOVA","FIN-City Motor Vehicle Accident","2014-11-06T15:01:24.000","2014-11-20T15:01:24.000","BETTER WAVERLY","14-00838041","MD","NEW","2014-11-06T15:01:24.000","21218",-76.6094703,39.3221852
"500 E PATAPSCO AVE","BALTIMORE CITY","FICIMOVA","FIN-City Motor Vehicle Accident","2014-11-05T17:08:10.000","2014-11-19T17:08:10.000","BROOKLYN","14-00834975","MD","NEW","2014-11-05T17:08:10.000","21225",-76.603499,39.237043
"4600  SEIFERT AVE","BALTIMORE CITY","FICIMOVA","FIN-City Motor Vehicle Accident","2014-10-28T15:45:42.000","2014-11-11T15:45:42.000","FRANKFORD","14-00810241","MD","NEW","2014-10-28T15:45:42.000","21206",-76.54644,39.334362
"2014 E MADISON ST","BALTIMORE CITY","FICIMOVA","FIN-City Motor Vehicle Accident","2014-11-03T13:29:33.000","2014-11-17T13:29:33.000","MIDDLE EAST","14-00826325","MD","NEW","2014-11-03T13:29:33.000","21205",-76.5885549,39.299752
"5400  PARK HEIGHTS AVE","BALTIMORE CITY","FICIMOVA","FIN-City Motor Vehicle Accident","2014-10-31T14:06:33.000","2014-11-14T14:06:33.000","PIMLICO GOOD NEIGHBORS","14-00819584","MD","NEW","2014-10-31T14:06:33.000","21215",-76.680874,39.350126
"ERDMAN AVE","BALTIMORE CITY","FICIMOVA","FIN-City Motor Vehicle Accident","2014-10-31T13:58:51.000","2014-11-14T13:58:51.000","BELAIR-EDISON","14-00819554","MD","NEW","2014-10-31T13:58:51.000","21213",-76.5622974,39.3091272
"LIGHT ST","BALTIMORE CITY","FICIMOVA","FIN-City Motor Vehicle Accident","2014-10-31T13:54:34.000","2014-11-14T13:54:34.000","DOWNTOWN","14-00819528","MD","NEW","2014-10-31T13:54:34.000","21202",-76.6125962,39.2785869
"1600  HOMESTEAD ST","BALTIMORE CITY","FICIMOVA","FIN-City Motor Vehicle Accident","2014-10-31T13:50:54.000","2014-11-14T13:50:54.000","COLDSTREAM HOMESTEAD MONTEBELLO","14-00819510","MD","NEW","2014-10-31T13:50:54.000","21218",-76.5959242,39.3213528
"2947  WASHINGTON BLVD","BALTIMORE CITY","FICIMOVA","FIN-City Motor Vehicle Accident","2014-10-31T13:46:16.000","2014-11-14T13:46:16.000","MORRELL PARK","14-00819478","MD","NEW","2014-10-31T13:46:16.000","21230",-76.658193,39.259759
"938 E PATAPSCO AVE","BALTIMORE CITY","FICIMOVA","FIN-City Motor Vehicle Accident","2014-10-29T14:08:24.000","2014-11-12T14:08:24.000","FAIRFIELD AREA","14-00813048","MD","NEW","2014-10-29T14:08:24.000","21225",-76.595845,39.23462
"REISTERSTOWN RD","BALTIMORE CITY","FICIMOVA","FIN-City Motor Vehicle Accident","2014-10-28T15:55:26.000","2014-11-11T15:55:26.000","WOODMERE","14-00810305","MD","NEW","2014-10-28T15:55:26.000","21215",-76.6932415,39.3497817
"700 E MONUMENT ST","BALTIMORE CITY","FICIMOVA","FIN-City Motor Vehicle Accident","2014-10-28T15:50:59.000","2014-11-11T15:50:59.000","OLDTOWN","14-00810271","MD","NEW","2014-10-28T15:50:59.000","21202",-76.605974,39.298511
"E SARATOGA ST","BALTIMORE CITY","FICIMOVA","FIN-City Motor Vehicle Accident","2014-10-28T15:41:54.000","2014-11-11T15:41:54.000","DOWNTOWN","14-00810212","MD","NEW","2014-10-28T15:41:54.000","21202",-76.6119879,39.2924025
"E COLD SPRING LN","BALTIMORE CITY","FICIMOVA","FIN-City Motor Vehicle Accident","2014-10-28T15:34:02.000","2014-11-11T15:34:02.000","LOYOLA/NOTRE DAME","14-00810178","MD","NEW","2014-10-28T15:34:02.000","21212",-76.5958598,39.3449962
"700 N HAVEN ST","BALTIMORE CITY","FICIMOVA","FIN-City Motor Vehicle Accident","2014-10-20T14:23:23.000","2014-11-03T14:23:23.000","ORANGEVILLE","14-00788800","MD","NEW","2014-10-20T14:23:23.000","21205",-76.5632702,39.2995787
"2300  BOSTON ST","BALTIMORE CITY","FICIMOVA","FIN-City Motor Vehicle Accident","2014-10-23T16:00:56.000","2014-11-06T16:00:56.000","CANTON","14-00799012","MD","NEW","2014-10-23T16:00:56.000","21224",-76.5843119,39.2832836
"6605  HARFORD RD","BALTIMORE CITY","FICIMOVA","FIN-City Motor Vehicle Accident","2014-10-23T15:57:24.000","2014-11-06T15:57:24.000","WESTFIELD","14-00798989","MD","NEW","2014-10-23T15:57:24.000","21214",-76.5520551,39.3626851
"3600  SOUTHERN AVE","BALTIMORE CITY","FICIMOVA","FIN-City Motor Vehicle Accident","2014-10-23T15:49:25.000","2014-11-06T15:49:25.000","MORAVIA-WALTHER","14-00798951","MD","NEW","2014-10-23T15:49:25.000","21214",-76.56129,39.340838
"W SARATOGA ST &N FULTON AVE","BALTIMORE CITY","FICIMOVA","FIN-City Motor Vehicle Accident","2014-10-21T12:22:46.000","2014-11-04T12:22:46.000","FRANKLIN SQUARE","14-00791410","MD","NEW","2014-10-21T12:22:46.000","21223",-76.6339841,39.2924735
"3600  HILLEN RD","BALTIMORE CITY","FICIMOVA","FIN-City Motor Vehicle Accident","2014-10-20T14:18:11.000","2014-11-03T14:18:11.000","EDNOR GARDENS-LAKESIDE","14-00788763","MD","NEW","2014-10-20T14:18:11.000","21218",-76.588591,39.3359533
"5200  YORK RD","BALTIMORE CITY","FICIMOVA","FIN-City Motor Vehicle Accident","2014-10-20T11:00:33.000","2014-11-03T11:00:33.000","WINSTON-GOVANS","14-00787776","MD","NEW","2014-10-20T11:00:33.000","21212",-76.6105171,39.352236
"1800 W SARATOGA ST","BALTIMORE CITY","FICIMOVA","FIN-City Motor Vehicle Accident","2014-10-17T13:18:28.000","2014-10-31T13:18:28.000","FRANKLIN SQUARE","14-00782714","MD","NEW","2014-10-17T13:18:28.000","21223",-76.6455502,39.2921989
"HAMILTON AVE & HARFORD RD","BALTIMORE CITY","FICIMOVA","FIN-City Motor Vehicle Accident","2014-10-15T20:35:06.000","2014-10-29T20:35:06.000","GLENHAM-BELFORD","14-00778118","MD","NEW","2014-10-15T20:35:06.000","21214",-84.5480957,39.2335285
"CLIFTON AVE","BALTIMORE COUNTY","FICIMOVA","FIN-City Motor Vehicle Accident","2014-10-15T12:28:23.000","2014-10-29T12:28:23.000","FRANKLINTOWN","14-00776002","MD","NEW","2014-10-15T12:28:23.000",NA,-76.677051,39.3108865
"5200  YORK RD","BALTIMORE CITY","FICIMOVA","FIN-City Motor Vehicle Accident","2014-10-14T15:36:12.000","2014-10-28T15:36:12.000","WINSTON-GOVANS","14-00773719","MD","NEW","2014-10-14T15:36:12.000","21212",-76.6105171,39.352236
"ERDMAN AVE","BALTIMORE CITY","FICIMOVA","FIN-City Motor Vehicle Accident","2014-10-14T15:32:11.000","2014-10-28T15:32:11.000","BELAIR-EDISON","14-00773696","MD","NEW","2014-10-14T15:32:11.000","21213",-76.5622974,39.3091272
"301  STOCKHOLM ST","BALTIMORE CITY","FICIMOVA","FIN-City Motor Vehicle Accident","2014-10-14T11:57:11.000","2014-10-28T11:57:11.000","CARROLL - CAMDEN INDUSTRIAL AREA","14-00772426","MD","OPEN","2014-10-14T11:59:53.000","21230",-76.622777,39.274318
"3732  EASTERN AVE","BALTIMORE CITY","FICIMOVA","FIN-City Motor Vehicle Accident","2014-10-10T13:33:23.000","2014-10-24T13:33:23.000","BREWERS HILL","14-00765648","MD","NEW","2014-10-10T13:33:23.000","21224",-76.5655165,39.2869632
"3901  HILLEN RD","BALTIMORE CITY","FICIMOVA","FIN-City Motor Vehicle Accident","2014-10-10T13:29:58.000","2014-10-24T13:29:58.000","MONTEBELLO","14-00765630","MD","NEW","2014-10-10T13:29:58.000","21218",-76.5874261,39.3370883
"1209  WINDEMERE AVE","BALTIMORE CITY","FICIMOVA","FIN-City Motor Vehicle Accident","2014-10-10T13:25:45.000","2014-10-24T13:25:45.000","EDNOR GARDENS-LAKESIDE","14-00765618","MD","NEW","2014-10-10T13:25:45.000","21218",-76.5984299,39.329895
"800 E FORT AVE","BALTIMORE CITY","FICIMOVA","FIN-City Motor Vehicle Accident","2014-10-08T11:42:04.000","2014-10-22T11:42:04.000","RIVERSIDE","14-00757837","MD","NEW","2014-10-08T11:42:04.000","21230",-76.602285,39.272227
"500 E FAYETTE ST","BALTIMORE CITY","FICIMOVA","FIN-City Motor Vehicle Accident","2014-10-08T11:36:43.000","2014-10-22T11:36:43.000","DOWNTOWN","14-00757808","MD","NEW","2014-10-08T11:36:43.000","21202",-76.6081682,39.2906369
"3200 E FEDERAL ST","BALTIMORE CITY","FICIMOVA","FIN-City Motor Vehicle Accident","2014-10-08T11:32:30.000","2014-10-22T11:32:30.000","ORANGEVILLE INDUSTRIAL AREA","14-00757778","MD","NEW","2014-10-08T11:32:30.000","21213",-76.5731324,39.3093451
"200 W FAYETTE ST","BALTIMORE CITY","FICIMOVA","FIN-City Motor Vehicle Accident","2014-10-08T11:28:05.000","2014-10-22T11:28:05.000","DOWNTOWN","14-00757748","MD","NEW","2014-10-08T11:28:05.000","21201",-76.618129,39.2906959
"LINDEN AVE & DRUID PARK LAKE DR","BALTIMORE CITY","FICIMOVA","FIN-City Motor Vehicle Accident","2014-10-07T12:22:51.000","2014-10-21T12:22:51.000","DRUID HILL PARK","14-00754664","MD","NEW","2014-10-07T12:22:51.000","21217",-80.058177,40.4652679
"900 N FULTON AVE","BALTIMORE CITY","FICIMOVA","FIN-City Motor Vehicle Accident","2014-10-06T14:00:42.000","2014-10-20T14:00:42.000","SANDTOWN-WINCHESTER","14-00751776","MD","NEW","2014-10-06T14:00:42.000","21217",-76.6459603,39.29892
"1 E HENRIETTA ST","BALTIMORE CITY","FICIMOVA","FIN-City Motor Vehicle Accident","2014-10-05T17:47:52.000","2014-10-19T17:47:52.000","FEDERAL HILL","14-00750371","MD","NEW","2014-10-05T17:47:52.000","21230",-76.6144653,39.2789522
"22 E FAYETTE ST","BALTIMORE CITY","FICIMOVA","FIN-City Motor Vehicle Accident","2014-10-02T17:57:25.000","2014-10-16T17:57:25.000","DOWNTOWN","14-00744332","MD","NEW","2014-10-02T17:57:25.000","21202",-76.6144742,39.2905591
"2400 N PULASKI ST","BALTIMORE CITY","FICIMOVA","FIN-City Motor Vehicle Accident","2014-10-02T16:05:34.000","2014-10-16T16:05:34.000","MONDAWMIN","14-00743840","MD","NEW","2014-10-02T16:05:34.000","21217",-76.6516159,39.3145916
"100 N GREENE ST","BALTIMORE CITY","FICIMOVA","FIN-City Motor Vehicle Accident","2014-10-02T15:52:58.000","2014-10-16T15:52:58.000","SETON HILL","14-00743786","MD","NEW","2014-10-02T15:52:58.000","21201",-76.6237752,39.2904674
"2900  HILLSDALE RD","BALTIMORE CITY","FICIMOVA","FIN-City Motor Vehicle Accident","2014-09-30T16:54:44.000","2014-10-14T16:54:44.000","HOWARD PARK","14-00736925","MD","NEW","2014-09-30T16:54:44.000","21207",-76.6999217,39.321033
"6201 E LOMBARD ST","BALTIMORE CITY","FICIMOVA","FIN-City Motor Vehicle Accident","2014-09-30T14:51:19.000","2014-10-14T14:51:19.000","HOPKINS BAYVIEW","14-00736380","MD","NEW","2014-09-30T14:51:19.000","21224",-76.542168,39.2951679
"1 S CALVERT ST","BALTIMORE CITY","FICIMOVA","FIN-City Motor Vehicle Accident","2014-09-30T14:38:57.000","2014-10-14T14:38:57.000","DOWNTOWN","14-00736320","MD","NEW","2014-09-30T14:38:57.000","21202",-76.6122796,39.2896417
"1500 N MOUNT ST","BALTIMORE CITY","FICIMOVA","FIN-City Motor Vehicle Accident","2014-09-29T16:54:34.000","2014-10-13T16:54:34.000","SANDTOWN-WINCHESTER","14-00733648","MD","NEW","2014-09-29T16:54:34.000","21217",-76.6447463,39.3053675
"726 E 36TH ST","BALTIMORE CITY","FICIMOVA","FIN-City Motor Vehicle Accident","2014-09-28T12:31:57.000","2014-10-12T12:31:57.000","WAVERLY","14-00730802","MD","NEW","2014-09-28T12:31:57.000","21218",-76.6052829,39.3322518
"300 E GITTINGS ST","BALTIMORE CITY","FICIMOVA","FIN-City Motor Vehicle Accident","2014-09-28T12:27:41.000","2014-10-12T12:27:41.000","RIVERSIDE","14-00730798","MD","NEW","2014-09-28T12:27:41.000","21230",-76.6091421,39.2743723
"QUARANTINE RD","BALTIMORE CITY","FICIMOVA","FIN-City Motor Vehicle Accident","2014-09-26T14:53:20.000","2014-10-10T14:53:20.000","HAWKINS POINT","14-00727834","MD","NEW","2014-09-26T14:53:20.000","21226",-76.557773,39.2093443
"WINTERBOURNE RD","BALTIMORE CITY","FICIMOVA","FIN-City Motor Vehicle Accident","2014-09-25T16:35:03.000","2014-10-09T16:35:03.000","ROSEMONT","14-00725168","MD","NEW","2014-09-25T16:35:03.000","21216",-76.6785213,39.3066481
"600 N LONGWOOD ST","BALTIMORE CITY","FICIMOVA","FIN-City Motor Vehicle Accident","2014-09-25T16:25:45.000","2014-10-09T16:25:45.000","FRANKLINTOWN ROAD","14-00725111","MD","NEW","2014-09-25T16:25:45.000","21216",-76.6667309,39.2944021
"CALVERT ST","BALTIMORE CITY","FICIMOVA","FIN-City Motor Vehicle Accident","2014-09-25T16:21:19.000","2014-10-09T16:21:19.000","BROOKLYN","14-00725082","MD","NEW","2014-09-25T16:21:19.000","21225",-76.6082209,39.2339017
"804 S HAVEN ST","BALTIMORE CITY","FICIMOVA","FIN-City Motor Vehicle Accident","2014-09-25T11:39:19.000","2014-10-09T11:39:19.000","CANTON INDUSTRIAL AREA","14-00723730","MD","NEW","2014-09-25T11:39:19.000","21224",-76.5622393,39.2837025
"1038 N GILMOR ST","BALTIMORE CITY","FICIMOVA","FIN-City Motor Vehicle Accident","2014-09-24T11:25:10.000","2014-10-08T11:25:10.000","SANDTOWN-WINCHESTER","14-00720142","MD","NEW","2014-09-24T11:25:10.000","21217",-76.6432829,39.3009314
"706  RADNOR AVE","BALTIMORE CITY","FICIMOVA","FIN-City Motor Vehicle Accident","2014-09-24T11:34:16.000","2014-10-08T11:34:16.000","WINSTON-GOVANS","14-00720174","MD","NEW","2014-09-24T11:34:16.000","21212",-76.6054265,39.3476115
"200 W COLD SPRING LN","BALTIMORE CITY","FICIMOVA","FIN-City Motor Vehicle Accident","2014-09-24T11:19:47.000","2014-10-08T11:19:47.000","EVERGREEN","14-00720121","MD","NEW","2014-09-24T11:19:47.000","21210",-76.6269487,39.3452483
"239 N CALVERTON RD","BALTIMORE CITY","FICIMOVA","FIN-City Motor Vehicle Accident","2014-09-22T16:06:26.000","2014-10-06T16:06:26.000","PENROSE/FAYETTE STREET OUTREACH","14-00715113","MD","NEW","2014-09-22T16:06:26.000","21223",-76.6600962,39.2922422
"3641  PULASKI HWY","BALTIMORE CITY","FICIMOVA","FIN-City Motor Vehicle Accident","2014-09-22T15:59:03.000","2014-10-06T15:59:03.000","BALTIMORE HIGHLANDS","14-00715080","MD","NEW","2014-09-22T15:59:03.000","21224",-76.566605,39.296199
"2200  SINCLAIR LN","BALTIMORE CITY","FICIMOVA","FIN-City Motor Vehicle Accident","2014-09-22T14:44:50.000","2014-10-06T14:44:50.000","CLIFTON PARK","14-00714685","MD","NEW","2014-09-22T14:44:50.000","21213",-76.5871018,39.3146745
"5200  HARFORD RD","BALTIMORE CITY","FICIMOVA","FIN-City Motor Vehicle Accident","2014-09-19T14:33:19.000","2014-10-03T14:33:19.000","LAURAVILLE","14-00708948","MD","NEW","2014-09-19T14:33:19.000","21214",-76.564443,39.349174
"2400  EDMONDSON AVE","BALTIMORE CITY","FICIMOVA","FIN-City Motor Vehicle Accident","2014-09-19T14:27:51.000","2014-10-03T14:27:51.000","ROSEMONT HOMEOWNERS/TENANTS","14-00708926","MD","NEW","2014-09-19T14:27:51.000","21223",-76.65495,39.29504
"6200  BELAIR RD","BALTIMORE CITY","FICIMOVA","FIN-City Motor Vehicle Accident","2014-09-17T16:49:59.000","2014-10-01T16:49:59.000","CEDMONT","14-00702663","MD","NEW","2014-09-17T16:49:59.000","21206",-76.5362866,39.3502215
"6232  BELAIR RD","BALTIMORE CITY","FICIMOVA","FIN-City Motor Vehicle Accident","2014-09-17T16:26:03.000","2014-10-01T16:26:03.000","GLENHAM-BELFORD","14-00702575","MD","NEW","2014-09-17T16:26:03.000","21206",-76.5352632,39.351144
"5030  REISTERSTOWN RD","BALTIMORE CITY","FICIMOVA","FIN-City Motor Vehicle Accident","2014-09-17T16:21:58.000","2014-10-01T16:21:58.000","LANGSTON HUGHES","14-00702557","MD","NEW","2014-09-17T16:21:58.000","21215",-76.6801822,39.3413485
"LIGHT ST &E CROSS ST","BALTIMORE CITY","FICIMOVA","FIN-City Motor Vehicle Accident","2014-09-16T18:24:56.000","2014-09-30T18:24:56.000","FEDERAL HILL","14-00699824","MD","NEW","2014-09-16T18:24:56.000","21230",-76.6125962,39.2785869
"1000  LIGHT ST","BALTIMORE CITY","FICIMOVA","FIN-City Motor Vehicle Accident","2014-09-15T22:16:00.000","2014-09-29T22:16:00.000","FEDERAL HILL","14-00696983","MD","NEW","2014-09-15T22:16:00.000","21230",-76.612749,39.2781548
"2300  DRUID HILL AVE","BALTIMORE CITY","FICIMOVA","FIN-City Motor Vehicle Accident","2014-09-15T14:15:29.000","2014-09-29T14:15:29.000","PENN NORTH","14-00694959","MD","NEW","2014-09-15T14:15:29.000","21217",-76.6387945,39.3106935
"1100  LIGHT ST","BALTIMORE CITY","FICIMOVA","FIN-City Motor Vehicle Accident","2014-09-15T14:07:12.000","2014-09-29T14:07:12.000","FEDERAL HILL","14-00694921","MD","NEW","2014-09-15T14:07:12.000","21230",-76.612565,39.276603
"CHERRY HILL RD","BALTIMORE CITY","FICIMOVA","FIN-City Motor Vehicle Accident","2014-09-13T10:57:02.000","2014-09-27T10:57:02.000","MIDDLE BRANCH/REEDBIRD PARKS","14-00691821","MD","NEW","2014-09-13T10:57:02.000","21225",-76.6226218,39.250128
"1500  FLEET ST","BALTIMORE CITY","FICIMOVA","FIN-City Motor Vehicle Accident","2014-09-13T10:35:35.000","2014-09-27T10:35:35.000","FELLS POINT","14-00691807","MD","NEW","2014-09-13T10:35:35.000","21231",-76.5966563,39.2844312
"800  CHERRY HILL RD","BALTIMORE CITY","FICIMOVA","FIN-City Motor Vehicle Accident","2014-09-12T20:28:34.000","2014-09-26T20:28:34.000","CHERRY HILL","14-00691030","MD","NEW","2014-09-12T20:28:34.000","21225",-76.6256383,39.249189
"2 N CALVERTON RD","BALTIMORE CITY","FICIMOVA","FIN-City Motor Vehicle Accident","2014-09-12T14:52:55.000","2014-09-26T14:52:55.000","PENROSE/FAYETTE STREET OUTREACH","14-00689771","MD","NEW","2014-09-12T14:52:55.000","21223",-76.6538672,39.2878763
"1131  LIGHT ST","BALTIMORE","FICIMOVA","FIN-City Motor Vehicle Accident","2014-09-08T14:01:37.000","2014-09-22T14:01:37.000","RIVERSIDE","14-00675126","MD","NEW","2014-09-08T14:01:37.000","21230",-76.6119806,39.2762368
"120 E CHASE ST","BALTIMORE CITY","FICIMOVA","FIN-City Motor Vehicle Accident","2014-09-05T14:20:27.000","2014-09-19T14:20:27.000","MID-TOWN BELVEDERE","14-00669824","MD","NEW","2014-09-05T14:20:27.000","21202",-76.6137007,39.3024781
"1200 N FULTON AVE","BALTIMORE CITY","FICIMOVA","FIN-City Motor Vehicle Accident","2014-09-05T14:08:33.000","2014-09-19T14:08:33.000","SANDTOWN-WINCHESTER","14-00669777","MD","NEW","2014-09-05T14:08:33.000","21217",-76.6462493,39.302179
"S PACA ST &W PRATT ST","BALTIMORE CITY","FICIMOVA","FIN-City Motor Vehicle Accident","2014-09-05T13:53:52.000","2014-09-19T13:53:52.000","INNER HARBOR","14-00669708","MD","NEW","2014-09-05T13:53:52.000","21201",-76.624262,39.2832643
"200 S PACA ST","BALTIMORE CITY","FICIMOVA","FIN-City Motor Vehicle Accident","2014-09-03T15:47:59.000","2014-09-17T15:47:59.000","INNER HARBOR","14-00662940","MD","NEW","2014-09-03T15:47:59.000","21201",-76.6221521,39.2856434
"2900  BOSTON ST","BALTIMORE CITY","FICIMOVA","FIN-City Motor Vehicle Accident","2014-09-04T10:55:59.000","2014-09-18T10:55:59.000","CANTON","14-00665182","MD","NEW","2014-09-04T10:55:59.000","21224",-76.5752745,39.2782807
"700  PRESIDENT ST","BALTIMORE CITY","FICIMOVA","FIN-City Motor Vehicle Accident","2014-09-03T15:43:24.000","2014-09-17T15:43:24.000","INNER HARBOR","14-00662911","MD","NEW","2014-09-03T15:43:24.000","21202",-76.6015033,39.2830033
"700  PRESIDENT ST","BALTIMORE CITY","FICIMOVA","FIN-City Motor Vehicle Accident","2014-09-02T21:33:07.000","2014-09-16T21:33:07.000","INNER HARBOR","14-00660604","MD","NEW","2014-09-02T21:33:07.000","21202",-76.6015033,39.2830033
"E FAYETTE ST","BALTIMORE CITY","FICIMOVA","FIN-City Motor Vehicle Accident","2014-09-02T14:50:56.000","2014-09-16T14:50:56.000","DOWNTOWN","14-00659014","MD","NEW","2014-09-02T14:50:56.000","21202",-76.5910156,39.2940609
"500 N FRANKLINTOWN RD","BALTIMORE CITY","FICIMOVA","FIN-City Motor Vehicle Accident","2014-09-02T15:10:35.000","2014-09-16T15:10:35.000","ROSEMONT HOMEOWNERS/TENANTS","14-00659098","MD","NEW","2014-09-02T15:10:35.000","21223",-76.6624617,39.2932297
"240 N CALVERTON RD","BALTIMORE CITY","FICIMOVA","FIN-City Motor Vehicle Accident","2014-09-02T14:55:42.000","2014-09-16T14:55:42.000","PENROSE/FAYETTE STREET OUTREACH","14-00659033","MD","NEW","2014-09-02T14:55:42.000","21223",-76.659561,39.291344
"1800  BAKER ST","BALTIMORE CITY","FICIMOVA","FIN-City Motor Vehicle Accident","2014-09-02T13:01:19.000","2014-09-16T13:01:19.000","SANDTOWN-WINCHESTER","14-00658335","MD","NEW","2014-09-02T13:01:19.000","21217",-76.6473005,39.3068032
"EAST DR","BALTIMORE CITY","FICIMOVA","FIN-City Motor Vehicle Accident","2014-09-02T12:57:22.000","2014-09-16T12:57:22.000","DRUID HILL PARK","14-00658305","MD","NEW","2014-09-02T12:57:22.000","21217",-76.638852,39.3200863
"1800  SAINT PAUL ST","BALTIMORE CITY","FICIMOVA","FIN-City Motor Vehicle Accident","2014-09-02T12:51:37.000","2014-09-16T12:51:37.000","CHARLES NORTH","14-00658263","MD","NEW","2014-09-02T12:51:37.000","21202",-76.61516,39.3099599
"4410  LEWIN AVE","BALTIMORE CITY","FICIMOVA","FIN-City Motor Vehicle Accident","2014-09-02T12:45:37.000","2014-09-16T12:45:37.000","DOLFIELD","14-00658229","MD","NEW","2014-09-02T12:45:37.000","21215",-76.679033,39.339478
"6220  TRAMORE RD","BALTIMORE CITY","FICIMOVA","FIN-City Motor Vehicle Accident","2014-09-02T12:41:30.000","2014-09-16T12:41:30.000","HARFORD-ECHODALE/PERRING PARKWAY","14-00658204","MD","NEW","2014-09-02T12:41:30.000","21214",-76.567128,39.361722
"LEAKIN ST","BALTIMORE CITY","FICIMOVA","FIN-City Motor Vehicle Accident","2014-08-28T15:16:34.000","2014-09-11T15:16:34.000","CANTON","14-00649838","MD","NEW","2014-08-28T15:16:34.000","21224",NA,NA
"4100  PARK HEIGHTS AVE","BALTIMORE CITY","FICIMOVA","FIN-City Motor Vehicle Accident","2014-08-27T17:26:01.000","2014-09-10T17:26:01.000","CENTRAL PARK HEIGHTS","14-00646886","MD","NEW","2014-08-27T17:26:01.000","21215",-76.6639129,39.335804
"800  WILLIAM ST","BALTIMORE CITY","FICIMOVA","FIN-City Motor Vehicle Accident","2014-08-26T17:56:03.000","2014-09-09T17:56:03.000","FEDERAL HILL","14-00643746","MD","NEW","2014-08-26T17:56:03.000","21230",NA,NA
"200 N GREENE ST","BALTIMORE CITY","FICIMOVA","FIN-City Motor Vehicle Accident","2014-08-21T10:50:55.000","2014-09-04T10:50:55.000","DOWNTOWN","14-00628703","MD","NEW","2014-08-21T10:50:55.000","21201",-76.623818,39.2913882
"200 N CALVERT ST","BALTIMORE CITY","FICIMOVA","FIN-City Motor Vehicle Accident","2014-08-21T10:43:33.000","2014-09-04T10:43:33.000","DOWNTOWN","14-00628686","MD","NEW","2014-08-21T10:43:33.000","21202",-76.612473,39.2912801
"115  KANE ST","BALTIMORE CITY","FICIMOVA","FIN-City Motor Vehicle Accident","2014-08-21T10:36:43.000","2014-09-04T10:36:43.000","PULASKI INDUSTRIAL AREA","14-00628676","MD","NEW","2014-08-21T10:36:43.000","21224",-76.533138,39.2951633
"1300 N MONROE ST","BALTIMORE CITY","FICIMOVA","FIN-City Motor Vehicle Accident","2014-08-21T10:18:48.000","2014-09-04T10:18:48.000","BRIDGEVIEW/GREENLAWN","14-00628642","MD","NEW","2014-08-21T10:18:48.000","21217",-76.6477013,39.3024817
"LIGHT ST","BALTIMORE CITY","FICIMOVA","FIN-City Motor Vehicle Accident","2014-08-20T13:03:12.000","2014-09-03T13:03:12.000","DOWNTOWN","14-00626026","MD","NEW","2014-08-20T13:03:12.000","21202",-76.6125962,39.2785869
"1800 N FULTON AVE","BALTIMORE CITY","FICIMOVA","FIN-City Motor Vehicle Accident","2014-08-20T14:12:03.000","2014-09-03T14:12:03.000","SANDTOWN-WINCHESTER","14-00626437","MD","NEW","2014-08-20T14:12:03.000","21217",-76.6467119,39.308947
"W FRANKLIN ST &N FRANKLINTOWN RD","BALTIMORE CITY","FICIMOVA","FIN-City Motor Vehicle Accident","2014-08-15T14:16:08.000","2014-08-29T14:16:08.000","ROSEMONT HOMEOWNERS/TENANTS","14-00613288","MD","NEW","2014-08-15T14:16:08.000","21223",-76.6405763,39.2940979
"521  FULTON MOUNT","BALTIMORE CITY","FICIMOVA","FIN-City Motor Vehicle Accident","2014-08-15T11:22:41.000","2014-08-29T11:22:41.000","NEW SOUTHWEST/MOUNT CLARE","14-00612435","MD","NEW","2014-08-15T11:22:41.000","21223",-76.6121893,39.2903848
"807  MELVILLE AVE","BALTIMORE CITY","FICIMOVA","FIN-City Motor Vehicle Accident","2014-08-15T11:14:00.000","2014-08-29T11:14:00.000","WAVERLY","14-00612385","MD","NEW","2014-08-15T11:14:00.000","21218",-76.604132,39.331149
"YALE AVE","BALTIMORE CITY","FICIMOVA","FIN-City Motor Vehicle Accident","2014-08-15T11:09:10.000","2014-08-29T11:09:10.000","YALE HEIGHTS","14-00612364","MD","NEW","2014-08-15T11:09:10.000","21229",-76.6876343,39.2758582
"PATAPSCO AVE","BALTIMORE COUNTY","FICIMOVA","FIN-City Motor Vehicle Accident","2014-08-15T11:02:55.000","2014-08-29T11:02:55.000","LAKELAND","14-00612342","MD","NEW","2014-08-15T11:02:55.000",NA,-76.644183,39.2510515
"1800  GREENMOUNT AVE","BALTIMORE CITY","FICIMOVA","FIN-City Motor Vehicle Accident","2014-08-11T00:11:16.000","2014-08-25T00:11:16.000","GREENMOUNT WEST","14-00597414","MD","NEW","2014-08-11T00:11:16.000","21202",-76.6094908,39.3113376
"210  GUILFORD AVE","BALTIMORE CITY","FICIMOVA","FIN-City Motor Vehicle Accident","2014-08-09T23:23:36.000","2014-08-23T23:23:36.000","DOWNTOWN","14-00596510","MD","NEW","2014-08-09T23:23:36.000","21202",-76.611566,39.291834
"300 W REDWOOD ST","BALTIMORE CITY","FICIMOVA","FIN-City Motor Vehicle Accident","2014-08-08T17:50:38.000","2014-08-22T17:50:38.000","DOWNTOWN","14-00594411","MD","NEW","2014-08-08T17:50:38.000","21201",-76.6201307,39.2886964
"E SARATOGA ST & GUILFORD AVE","BALTIMORE CITY","FICIMOVA","FIN-City Motor Vehicle Accident","2014-08-06T19:10:53.000","2014-08-20T19:10:53.000","DOWNTOWN","14-00587104","MD","NEW","2014-08-06T19:10:53.000","21202",-111.7557294,33.339298
"200 S BOND ST","BALTIMORE","FICIMOVA","FIN-City Motor Vehicle Accident","2015-07-23T11:11:56.000","2015-08-06T11:11:56.000","PERKINS HOMES","15-00580339","MD","NEW","2015-07-23T11:11:56.000","21231",-76.5956296,39.2891171
"N HOWARD ST & W 27TH ST, BALTIMORE, MD,",NA,"FICIMOVA","FIN-City Motor Vehicle Accident","2015-06-25T17:40:33.000","2015-07-09T17:40:33.000","REMINGTON","15-00498994","MD","NEW","2015-06-25T17:40:33.000",NA,-82.1996942,35.180609
"400 E PATAPSCO AVE","BALTIMORE","FICIMOVA","FIN-City Motor Vehicle Accident","2015-05-29T17:38:07.000","2015-06-12T17:38:07.000","BROOKLYN","15-00421086","MD","NEW","2015-05-29T17:38:07.000","21225",-76.605118,39.237421
"1300 W FRANKLIN ST","BALTIMORE","FICIMOVA","FIN-City Motor Vehicle Accident","2015-07-07T18:35:16.000","2015-07-21T18:35:16.000","HARLEM PARK","15-00532369","MD","NEW","2015-07-07T18:35:16.000","21223",-76.6384402,39.2942
"2814 W COLD SPRING LN","BALTIMORE","FICIMOVA","FIN-City Motor Vehicle Accident","2015-07-01T10:14:14.000","2015-07-15T10:14:14.000","TOWANDA-GRANTLEY","15-00514963","MD","NEW","2015-07-01T10:14:14.000","21215",-76.669304,39.338598
"2436 N CHARLES ST","BALTIMORE","FICIMOVA","FIN-City Motor Vehicle Accident","2015-07-16T15:37:16.000","2015-07-30T15:37:16.000","CHARLES VILLAGE","15-00561309","MD","NEW","2015-07-16T15:37:16.000","21218",-76.617249,39.3173913
"GWYNNS FALLS PKWY & REISTERSTOWN RD, BAL",NA,"FICIMOVA","FIN-City Motor Vehicle Accident","2015-07-28T19:09:52.000","2015-08-11T19:09:52.000","PARKVIEW/WOODBROOK","15-00597778","MD","NEW","2015-07-28T19:09:52.000",NA,-76.6651752,39.3146693
"2340  BOSTON ST","BALTIMORE","FICIMOVA","FIN-City Motor Vehicle Accident","2015-07-08T11:14:12.000","2015-07-22T11:14:12.000","CANTON","15-00533959","MD","NEW","2015-07-08T11:14:12.000","21224",-76.5836908,39.2827122
"4236  SHELDON AVE","BALTIMORE","FICIMOVA","FIN-City Motor Vehicle Accident","2015-07-23T11:17:04.000","2015-08-06T11:17:04.000","BELAIR-EDISON","15-00580361","MD","NEW","2015-07-23T11:17:04.000","21206",-76.5637189,39.3281608
"2800  HOLLINS FERRY RD","BALTIMORE","FICIMOVA","FIN-City Motor Vehicle Accident","2015-07-07T18:45:32.000","2015-07-21T18:45:32.000","LAKELAND","15-00532405","MD","NEW","2015-07-07T18:45:32.000","21230",-76.645073,39.257533
"E FAYETTE ST & N CURLEY ST, BALTIMORE, M",NA,"FICIMOVA","FIN-City Motor Vehicle Accident","2015-07-07T10:19:04.000","2015-07-21T10:19:04.000","ELLWOOD PARK/MONUMENT","15-00529964","MD","NEW","2015-07-07T10:19:04.000",NA,-79.722638,39.8973136
"200 S BOND ST","BALTIMORE","FICIMOVA","FIN-City Motor Vehicle Accident","2015-07-22T13:09:09.000","2015-08-05T13:09:09.000","PERKINS HOMES","15-00577489","MD","NEW","2015-07-22T13:09:09.000","21231",-76.5956296,39.2891171
"E 33RD ST","BALTIMORE","FICIMOVA","FIN-City Motor Vehicle Accident","2015-05-26T17:28:16.000","2015-06-09T17:28:16.000","CHARLES VILLAGE","15-00409055","MD","NEW","2015-05-26T17:28:16.000","21218",-76.6029508,39.3284955
"515 S BROADWAY","BALTIMORE","FICIMOVA","FIN-City Motor Vehicle Accident","2015-06-09T15:49:39.000","2015-06-23T15:49:39.000","FELLS POINT","15-00448638","MD","NEW","2015-06-09T15:49:39.000","21231",-76.593026,39.285176
"1800  RUTLAND AVE","BALTIMORE","FICIMOVA","FIN-City Motor Vehicle Accident","2015-07-23T16:56:58.000","2015-08-06T16:56:58.000","BROADWAY EAST","15-00582557","MD","NEW","2015-07-23T16:56:58.000","21213",-76.593315,39.311043
"6 W MOUNT VERNON PL","BALTIMORE","FICIMOVA","FIN-City Motor Vehicle Accident","2015-07-06T13:04:06.000","2015-07-20T13:04:06.000","MOUNT VERNON","15-00527406","MD","NEW","2015-07-06T13:04:06.000","21201",-76.6160007,39.2977402
"1700 N WOLFE ST","BALTIMORE","FICIMOVA","FIN-City Motor Vehicle Accident","2015-07-01T10:50:57.000","2015-07-15T10:50:57.000","BROADWAY EAST","15-00515153","MD","NEW","2015-07-01T10:50:57.000","21213",-76.59184,39.3098249
"5300  HAMLET AVE","BALTIMORE","FICIMOVA","FIN-City Motor Vehicle Accident","2015-07-01T10:09:11.000","2015-07-15T10:09:11.000","HARFORD-ECHODALE/PERRING PARKWAY","15-00514955","MD","NEW","2015-07-01T10:09:11.000","21214",-76.567578,39.353533
"2500  GREENMOUNT AVE","BALTIMORE","FICIMOVA","FIN-City Motor Vehicle Accident","2015-07-06T13:00:21.000","2015-07-20T13:00:21.000","HARWOOD","15-00527384","MD","NEW","2015-07-06T13:00:21.000","21218",-76.6098265,39.3183327
"3301  HAMILTON AVE","BALTIMORE","FICIMOVA","FIN-City Motor Vehicle Accident","2015-07-07T18:41:35.000","2015-07-21T18:41:35.000","WALTHERSON","15-00532389","MD","NEW","2015-07-07T18:41:35.000","21214",-76.558373,39.348327
"904 S CAREY ST","BALTIMORE","FICIMOVA","FIN-City Motor Vehicle Accident","2015-05-14T16:00:00.000","2015-05-28T16:00:00.000","WASHINGTON VILLAGE","15-00379076","MD","NEW","2015-05-14T16:00:00.000","21223",-76.637308,39.281877
"SAINT PAUL ST & E FAYETTE ST, BALTIMORE,",NA,"FICIMOVA","FIN-City Motor Vehicle Accident","2015-06-24T15:52:57.000","2015-07-08T15:52:57.000","DOWNTOWN","15-00493455","MD","NEW","2015-06-24T15:52:57.000",NA,-90.741793,38.8614405
"1441 S CLINTON ST","BALTIMORE","FICIMOVA","FIN-City Motor Vehicle Accident","2015-07-08T12:48:52.000","2015-07-22T12:48:52.000","CANTON INDUSTRIAL AREA","15-00534517","MD","NEW","2015-07-08T12:48:52.000","21224",-76.5692938,39.276366
"718 E 33RD ST","BALTIMORE","FICIMOVA","FIN-City Motor Vehicle Accident","2015-05-29T17:41:07.000","2015-06-12T17:41:07.000","WAVERLY","15-00421096","MD","NEW","2015-05-29T17:41:07.000","21218",-76.6054825,39.328672
"3655  WABASH AVE","BALTIMORE","FICIMOVA","FIN-City Motor Vehicle Accident","2015-07-08T13:09:11.000","2015-07-22T13:09:11.000","ASHBURTON","15-00534621","MD","NEW","2015-07-08T13:09:11.000","21215",-76.664659,39.326968
"6700  PULASKI HWY","BALTIMORE","FICIMOVA","FIN-City Motor Vehicle Accident","2015-05-29T11:55:23.000","2015-06-12T11:55:23.000","PULASKI INDUSTRIAL AREA","15-00419313","MD","NEW","2015-05-29T11:55:23.000","21237",-76.5375416,39.3059536
"3800  CANTERBURY RD","BALTIMORE","FICIMOVA","FIN-City Motor Vehicle Accident","2015-07-23T11:08:36.000","2015-08-06T11:08:36.000","JOHNS HOPKINS HOMEWOOD","15-00580330","MD","NEW","2015-07-23T11:08:36.000","21218",-76.620538,39.3351825
"300 E LEXINGTON ST","BALTIMORE","FICIMOVA","FIN-City Motor Vehicle Accident","2015-07-13T13:46:05.000","2015-07-27T13:46:05.000","DOWNTOWN","15-00548787","MD","NEW","2015-07-13T13:46:05.000","21202",-76.6104264,39.2913032
"2101  HARFORD RD","BALTIMORE","FICIMOVA","FIN-City Motor Vehicle Accident","2015-07-07T18:38:33.000","2015-07-21T18:38:33.000","DARLEY PARK","15-00532381","MD","NEW","2015-07-07T18:38:33.000","21213",-76.5974571,39.3144096
"3300  KESWICK RD","BALTIMORE","FICIMOVA","FIN-City Motor Vehicle Accident","2015-06-11T14:33:00.000","2015-06-25T14:33:00.000","HAMPDEN","15-00454924","MD","NEW","2015-06-11T14:33:00.000","21211",-76.628047,39.327221
"700  EASTERN AVE","BALTIMORE","FICIMOVA","FIN-City Motor Vehicle Accident","2015-07-01T10:30:47.000","2015-07-15T10:30:47.000","INNER HARBOR","15-00515097","MD","NEW","2015-07-01T10:30:47.000","21202",-76.6039335,39.2851439
"29 S MONASTERY AVE","BALTIMORE","FICIMOVA","FIN-City Motor Vehicle Accident","2015-07-13T13:42:01.000","2015-07-27T13:42:01.000","SAINT JOSEPHS","15-00548769","MD","NEW","2015-07-13T13:42:01.000","21229",-76.67843,39.285934
"1300 E 33RD ST","BALTIMORE","FICIMOVA","FIN-City Motor Vehicle Accident","2015-05-26T15:45:02.000","2015-06-09T15:45:02.000","EDNOR GARDENS-LAKESIDE","15-00408419","MD","NEW","2015-05-26T15:45:02.000","21218",-76.597662,39.328732
"215  KEY HWY","BALTIMORE","FICIMOVA","FIN-City Motor Vehicle Accident","2015-07-01T11:15:50.000","2015-07-15T11:15:50.000","FEDERAL HILL","15-00515243","MD","NEW","2015-07-01T11:15:50.000","21202",-76.610254,39.2804505
"617  ALLENDALE ST","BALTIMORE","FICIMOVA","FIN-City Motor Vehicle Accident","2015-07-01T11:10:45.000","2015-07-15T11:10:45.000","EDMONDSON VILLAGE","15-00515228","MD","NEW","2015-07-01T11:10:45.000","21229",-76.678189,39.294828
"2515 E FAYETTE ST","BALTIMORE","FICIMOVA","FIN-City Motor Vehicle Accident","2015-07-02T15:46:16.000","2015-07-16T15:46:16.000","BALTIMORE-LINWOOD","15-00520168","MD","NEW","2015-07-02T15:46:16.000","21224",-76.581115,39.294246
"2900 E FAYETTE ST","BALTIMORE","FICIMOVA","FIN-City Motor Vehicle Accident","2015-07-02T13:50:19.000","2015-07-16T13:50:19.000","ELLWOOD PARK/MONUMENT","15-00519487","MD","NEW","2015-07-02T13:50:19.000","21224",-76.5758059,39.2948133
"5301  HAMLET AVE","BALTIMORE","FICIMOVA","FIN-City Motor Vehicle Accident","2015-06-17T15:47:54.000","2015-07-01T15:47:54.000","HARFORD-ECHODALE/PERRING PARKWAY","15-00472670","MD","NEW","2015-06-17T15:47:54.000","21214",-76.567195,39.35316
"1001  EAST DR","BALTIMORE","FICIMOVA","FIN-City Motor Vehicle Accident","2015-07-01T11:07:21.000","2015-07-15T11:07:21.000","DRUID HILL PARK","15-00515217","MD","NEW","2015-07-01T11:07:21.000","21211",-76.6294664,39.3491718
"535 N DECKER AVE","BALTIMORE","FICIMOVA","FIN-City Motor Vehicle Accident","2015-07-01T11:52:44.000","2015-07-15T11:52:44.000","ELLWOOD PARK/MONUMENT","15-00515481","MD","NEW","2015-07-01T11:52:44.000","21205",-76.5741929,39.2977133
"2400 N CHARLES ST","BALTIMORE","FICIMOVA","FIN-City Motor Vehicle Accident","2015-07-16T13:39:55.000","2015-07-30T13:39:55.000","CHARLES VILLAGE","15-00560572","MD","NEW","2015-07-16T13:39:55.000","21218",-76.6169039,39.3163859
"3400  REISTERSTOWN RD","BALTIMORE","FICIMOVA","FIN-City Motor Vehicle Accident","2015-07-01T10:27:30.000","2015-07-15T10:27:30.000","PARK CIRCLE","15-00515086","MD","NEW","2015-07-01T10:27:30.000","21215",-76.658513,39.3265029
"600 E PRESTON ST","BALTIMORE","FICIMOVA","FIN-City Motor Vehicle Accident","2015-07-28T15:54:02.000","2015-08-11T15:54:02.000","JOHNSTON SQUARE","15-00596964","MD","NEW","2015-07-28T15:54:02.000","21202",-76.6087806,39.3048244
"2500 E FAYETTE ST","BALTIMORE","FICIMOVA","FIN-City Motor Vehicle Accident","2015-07-02T15:44:52.000","2015-07-16T15:44:52.000","MCELDERRY PARK","15-00520162","MD","NEW","2015-07-02T15:44:52.000","21224",-76.581884,39.294612
"3013  EDMONDSON AVE","BALTIMORE","FICIMOVA","FIN-City Motor Vehicle Accident","2015-07-01T10:45:47.000","2015-07-15T10:45:47.000","PENROSE/FAYETTE STREET OUTREACH","15-00515142","MD","NEW","2015-07-01T10:45:47.000","21223",-76.6686332,39.2941984
"400 E NORTH AVE","BALTIMORE","FICIMOVA","FIN-City Motor Vehicle Accident","2015-05-22T11:40:56.000","2015-06-05T11:40:56.000","BARCLAY","15-00401008","MD","OPEN","2015-06-10T17:02:18.000","21202",-76.6108626,39.3114082
"5700  DOWNING PL","BALTIMORE","FICIMOVA","FIN-City Motor Vehicle Accident","2015-07-02T14:13:21.000","2015-07-16T14:13:21.000","BELLONA-GITTINGS","15-00519623","MD","NEW","2015-07-02T14:13:21.000","21212",-76.622687,39.3670029
"1082 N WOLFE ST","BALTIMORE","FICIMOVA","FIN-City Motor Vehicle Accident","2015-07-08T12:18:20.000","2015-07-22T12:18:20.000","MIDDLE EAST","15-00534326","MD","NEW","2015-07-08T12:18:20.000","21205",-76.5911939,39.3031355
"2000 S HANOVER ST","BALTIMORE","FICIMOVA","FIN-City Motor Vehicle Accident","2015-06-10T13:51:34.000","2015-06-24T13:51:34.000","PORT COVINGTON","15-00451874","MD","NEW","2015-06-10T13:51:34.000","21230",-76.6148482,39.2662971
"5700  PARK HEIGHTS AVE","BALTIMORE","FICIMOVA","FIN-City Motor Vehicle Accident","2015-07-23T18:06:15.000","2015-08-06T18:06:15.000","GLEN","15-00582946","MD","NEW","2015-07-23T18:06:15.000","21215",-76.6864838,39.3530484
"4144  PARKSIDE DR","BALTIMORE","FICIMOVA","FIN-City Motor Vehicle Accident","2015-07-15T14:58:55.000","2015-07-29T14:58:55.000","BELAIR-PARKSIDE","15-00557193","MD","NEW","2015-07-15T14:58:55.000","21206",-76.566304,39.328301
"300 W MADISON ST","BALTIMORE","FICIMOVA","FIN-City Motor Vehicle Accident","2015-07-20T14:34:23.000","2015-08-03T14:34:23.000","MOUNT VERNON","15-00570218","MD","NEW","2015-07-20T14:34:23.000","21201",-76.620202,39.298433
"1901 E 32ND ST","BALTIMORE","FICIMOVA","FIN-City Motor Vehicle Accident","2015-05-28T11:54:21.000","2015-06-11T11:54:21.000","COLDSTREAM HOMESTEAD MONTEBELLO","15-00415216","MD","NEW","2015-05-28T11:54:21.000","21218",-76.589145,39.32702
"600  CHERRY HILL RD","BALTIMORE","FICIMOVA","FIN-City Motor Vehicle Accident","2015-06-09T21:47:12.000","2015-06-23T21:47:12.000","CHERRY HILL","15-00450058","MD","NEW","2015-06-09T21:47:12.000","21225",-76.6222864,39.250427
"1400 S CLINTON ST","BALTIMORE","FICIMOVA","FIN-City Motor Vehicle Accident","2015-07-07T17:11:47.000","2015-07-21T17:11:47.000","CANTON INDUSTRIAL AREA","15-00531993","MD","NEW","2015-07-07T17:11:47.000","21224",-76.569369,39.2769395
"I 83 N &W 28TH ST","BALTIMORE","FICIMOVA","FIN-City Motor Vehicle Accident","2015-05-22T18:54:20.000","2015-06-05T18:54:20.000","DRUID HILL PARK","15-00402289","MD","NEW","2015-05-22T18:54:20.000","21217",-100.7876126,50.2258272
"3600  WABASH AVE","BALTIMORE","FICIMOVA","FIN-City Motor Vehicle Accident","2015-07-07T20:34:23.000","2015-07-21T20:34:23.000","ASHBURTON","15-00532736","MD","NEW","2015-07-07T20:34:23.000","21215",-76.665526,39.325586
"1000  FRANKFURST AVE","BALTIMORE","FICIMOVA","FIN-City Motor Vehicle Accident","2015-07-02T11:34:37.000","2015-07-16T11:34:37.000","FAIRFIELD AREA","15-00518765","MD","NEW","2015-07-02T11:34:37.000","21226",-76.5943907,39.2429796
"2600 E OLIVER ST","BALTIMORE","FICIMOVA","FIN-City Motor Vehicle Accident","2015-07-13T13:49:19.000","2015-07-27T13:49:19.000","BEREA","15-00548820","MD","NEW","2015-07-13T13:49:19.000","21213",-76.581311,39.3082009
"1 E MOUNT VERNON PL","BALTIMORE","FICIMOVA","FIN-City Motor Vehicle Accident","2015-07-03T00:51:32.000","2015-07-17T00:51:32.000","MOUNT VERNON","15-00522357","MD","NEW","2015-07-03T00:51:32.000","21202",-76.6152034,39.2971828
