"address","city","code","codedescription","createddate","duedate","neighborhood","servicerequestnum","state","status","statusdate","zip","activity","outcome","updateddate","lon","lat"
"1730  BYRD ST","BALTIMORE","ECCSLOW","ECC-Street Light Out","2015-05-10T02:16:04.000","2015-05-11T02:16:04.000","RIVERSIDE","15-00365256","MD","DUPCLOSD","2015-05-10T02:16:04.000","21230",NA,NA,NA,-76.6108125,39.2700796
"201 W MONUMENT ST","BALTIMORE","ECCSLOW","ECC-Street Light Out","2015-05-09T02:12:02.000","2015-05-10T02:12:02.000","MOUNT VERNON","15-00362810","MD","DUPCLOSD","2015-05-09T02:12:02.000","21201",NA,NA,NA,-76.619012,39.296862
"641  WASHINGTON BLVD","BALTIMORE","ECCSLOW","ECC-Street Light Out","2015-05-08T23:28:18.000","2015-05-09T23:28:18.000","RIDGELY'S DELIGHT","15-00362566","MD","DUPCLOSD","2015-05-08T23:28:18.000","21230",NA,NA,NA,-76.624514,39.284011
"652  WASHINGTON BLVD","BALTIMORE","ECCSLOW","ECC-Street Light Out","2015-05-08T23:28:11.000","2015-05-09T23:28:11.000","RIDGELY'S DELIGHT","15-00362564","MD","DUPCLOSD","2015-05-08T23:28:11.000","21230",NA,NA,NA,-76.62499,39.284376
"2468  LAKEVIEW AVE","BALTIMORE","ECCSLOW","ECC-Street Light Out","2015-05-06T02:38:22.000","2015-05-07T02:38:22.000","RESERVOIR HILL","15-00352253","MD","DUPCLOSD","2015-05-06T02:38:22.000","21217",NA,NA,NA,-76.632977,39.316319
"3301  EASTERN AVE","BALTIMORE","ECCSLOW","ECC-Street Light Out","2015-05-04T23:28:40.000","2015-05-05T23:28:40.000","CANTON","15-00348558","MD","DUPCLOSD","2015-05-04T23:28:40.000","21224",NA,NA,NA,-76.569773,39.286314
"3241  EASTERN AVE","BALTIMORE","ECCSLOW","ECC-Street Light Out","2015-05-04T23:28:35.000","2015-05-05T23:28:35.000","CANTON","15-00348557","MD","DUPCLOSD","2015-05-04T23:28:35.000","21224",NA,NA,NA,-76.570157,39.286255
"614 S HANOVER ST","BALTIMORE","ECCSLOW","ECC-Street Light Out","2015-04-30T23:45:23.000","2015-05-01T23:45:23.000","OTTERBEIN","15-00339794","MD","DUPCLOSD","2015-04-30T23:45:23.000","21230",NA,NA,NA,-76.616139,39.28161
"612  PUBPED WAY","BALTIMORE","ECCSLOW","ECC-Street Light Out","2015-04-30T23:45:19.000","2015-05-01T23:45:19.000","OTTERBEIN","15-00339793","MD","DUPCLOSD","2015-04-30T23:45:19.000","21230",NA,NA,NA,-76.6169866,39.2814184
"108 W HILL ST","BALTIMORE","ECCSLOW","ECC-Street Light Out","2015-04-30T23:43:15.000","2015-05-01T23:43:15.000","OTTERBEIN","15-00339791","MD","DUPCLOSD","2015-04-30T23:43:15.000","21230",NA,NA,NA,-76.6163289,39.281163
"3204  HAYWARD AVE","BALTIMORE","ECCSLOW","ECC-Street Light Out","2015-04-15T21:16:29.000","2015-04-16T21:16:29.000","PIMLICO GOOD NEIGHBORS","15-00296717","MD","DUPCLOSD","2015-04-15T21:16:29.000","21215",NA,NA,NA,-76.6769015,39.3515225
"4500  SCARLET OAK LN","BALTIMORE","ECCSLOW","ECC-Street Light Out","2015-04-14T00:59:16.000","2015-04-15T00:59:16.000","UPLANDS","15-00289597","MD","DUPCLOSD","2015-04-14T00:59:16.000","21229",NA,NA,NA,-76.6923719,39.2913525
"2922  HUDSON ST","BALTIMORE","ECCSLOW","ECC-Street Light Out","2015-04-12T23:01:22.000","2015-04-13T23:01:22.000","CANTON","15-00285320","MD","DUPCLOSD","2015-04-12T23:01:22.000","21224",NA,NA,NA,-76.574764,39.282447
"827 S CURLEY ST","BALTIMORE","ECCSLOW","ECC-Street Light Out","2015-04-12T23:01:19.000","2015-04-13T23:01:19.000","CANTON","15-00285319","MD","DUPCLOSD","2015-04-12T23:01:19.000","21224",NA,NA,NA,-76.5746831,39.282585
"401 W REDWOOD ST","BALTIMORE","ECCSLOW","ECC-Street Light Out","2015-04-09T20:26:37.000","2015-04-10T20:26:37.000","DOWNTOWN","15-00279317","MD","DUPCLOSD","2015-04-14T16:22:45.000","21201",NA,NA,NA,-76.6213005,39.2884059
"1301 N CHARLES ST","BALTIMORE","ECCSLOW","ECC-Street Light Out","2015-04-09T09:04:50.000","2015-04-10T09:04:50.000","MID-TOWN BELVEDERE","15-00276593","MD","DUPCLOSD","2015-04-09T09:04:50.000","21201",NA,NA,NA,-76.6159875,39.3047237
"1312  BERRY ST","BALTIMORE","ECCSLOW","ECC-Street Light Out","2015-03-31T10:42:47.000","2015-04-01T10:42:47.000","HAMPDEN","15-00251420","MD","DUPCLOSD","2015-04-29T15:03:54.000","21211",NA,NA,NA,-76.637561,39.331641
"700 W BALTIMORE ST","BALTIMORE","ECCSLOW","ECC-Street Light Out","2015-03-30T16:54:58.000","2015-03-31T16:54:58.000","POPPLETON","15-00249814","MD","DUPCLOSD","2015-03-31T12:23:57.000","21201",NA,NA,NA,-76.6268033,39.2890841
"N LINWOOD AVE &E FAYETTE ST","BALTIMORE","ECCSLOW","ECC-Street Light Out","2015-03-30T16:09:23.000","2015-03-31T16:09:23.000","ELLWOOD PARK/MONUMENT","15-00249526","MD","DUPCLOSD","2015-03-31T11:30:43.000","21224",NA,NA,NA,-96.748712,36.0142419
"1321  DECATUR ST","BALTIMORE","ECCSLOW","ECC-Street Light Out","2015-03-30T00:09:35.000","2015-03-31T00:09:35.000","LOCUST POINT","15-00247644","MD","DUPCLOSD","2015-03-30T00:09:35.000","21230",NA,NA,NA,-76.593602,39.271473
"1301  DECATUR ST","BALTIMORE","ECCSLOW","ECC-Street Light Out","2015-03-30T00:07:46.000","2015-03-31T00:07:46.000","LOCUST POINT","15-00247641","MD","DUPCLOSD","2015-03-30T00:07:46.000","21230",NA,NA,NA,-76.593385,39.271856
"3305  ELGIN AVE","BALTIMORE","ECCSLOW","ECC-Street Light Out","2015-03-22T07:10:03.000","2015-03-23T07:10:03.000","WALBROOK","15-00226434","MD","DUPCLOSD","2015-03-22T07:10:03.000","21216",NA,NA,NA,-76.6732679,39.31284
"3237  EASTERN AVE","BALTIMORE","ECCSLOW","ECC-Street Light Out","2015-03-20T01:46:10.000","2015-03-21T01:46:10.000","CANTON","15-00221372","MD","DUPCLOSD","2015-03-20T01:46:10.000","21224",NA,NA,NA,-76.5702774,39.2863014
"3201  EASTERN AVE","BALTIMORE","ECCSLOW","ECC-Street Light Out","2015-03-20T01:44:11.000","2015-03-21T01:44:11.000","CANTON","15-00221371","MD","DUPCLOSD","2015-03-20T01:44:11.000","21224",NA,NA,NA,-76.5713641,39.286228
"3400  WOODBROOK AVE","BALTIMORE","ECCSLOW","ECC-Street Light Out","2015-03-19T12:47:57.000","2015-03-20T12:47:57.000","PARKVIEW/WOODBROOK","15-00218253","MD","DUPCLOSD","2015-03-19T12:47:57.000","21217",NA,NA,NA,-76.650435,39.317579
"5464  BUCKNELL RD","BALTIMORE","ECCSLOW","ECC-Street Light Out","2015-03-18T17:31:50.000","2015-03-19T17:31:50.000","CEDONIA","15-00216287","MD","DUPCLOSD","2015-03-18T17:31:50.000","21206",NA,NA,NA,-76.534209,39.334009
"101 S ANN ST","BALTIMORE","ECCSLOW","ECC-Street Light Out","2015-03-16T18:17:13.000","2015-03-17T18:17:13.000","UPPER FELLS POINT","15-00207806","MD","DUPCLOSD","2015-03-19T14:16:30.000","21231",NA,NA,NA,-76.59141,39.290193
"250 W LAFAYETTE AVE","BALTIMORE","ECCSLOW","ECC-Street Light Out","2015-03-12T00:44:18.000","2015-03-13T00:44:18.000","BOLTON HILL","15-00193207","MD","DUPCLOSD","2015-03-13T19:00:48.000","21217",NA,NA,NA,-76.62651,39.30582
"2656  NORLAND RD","BALTIMORE","ECCSLOW","ECC-Street Light Out","2015-03-12T01:57:31.000","2015-03-13T01:57:31.000","LAKELAND","15-00193300","MD","DUPCLOSD","2015-03-12T01:57:31.000","21230",NA,NA,NA,-76.644471,39.251727
"718 S MILTON AVE","BALTIMORE","ECCSLOW","ECC-Street Light Out","2015-03-11T23:14:06.000","2015-03-12T23:14:06.000","CANTON","15-00193075","MD","DUPCLOSD","2015-03-11T23:14:06.000","21224",NA,NA,NA,-76.581555,39.283425
"129 W LANVALE ST","BALTIMORE","ECCSLOW","ECC-Street Light Out","2015-03-10T23:45:14.000","2015-03-11T23:45:14.000","BOLTON HILL","15-00188730","MD","DUPCLOSD","2015-03-10T23:45:14.000","21217",NA,NA,NA,-76.621719,39.306767
"3418  EASTERN AVE","BALTIMORE","ECCSLOW","ECC-Street Light Out","2015-03-09T23:55:53.000","2015-03-10T23:55:53.000","HIGHLANDTOWN","15-00184516","MD","DUPCLOSD","2015-03-09T23:55:53.000","21224",NA,NA,NA,-76.568404,39.28685
"931 S ELLWOOD AVE","BALTIMORE","ECCSLOW","ECC-Street Light Out","2015-03-09T09:03:59.000","2015-03-10T09:03:59.000","CANTON","15-00180227","MD","DUPCLOSD","2015-03-09T09:03:59.000","21224",NA,NA,NA,-76.572389,39.281629
"6008  BAYWOOD AVE","BALTIMORE","ECCSLOW","ECC-Street Light Out","2015-03-08T00:40:49.000","2015-03-09T00:40:49.000","CHESWOLDE","15-00178499","MD","DUPCLOSD","2015-03-08T00:40:49.000","21209",NA,NA,NA,-76.68395,39.362958
"E BALTIMORE ST &S BROADWAY","BALTIMORE","ECCSLOW","ECC-Street Light Out","2015-03-03T21:46:51.000","2015-03-04T21:46:51.000","WASHINGTON HILL","15-00164471","MD","CLOSED","2015-03-13T15:32:11.000","21231",NA,NA,NA,-88.1392461,41.3101454
"600 N BELNORD AVE","BALTIMORE","ECCSLOW","ECC-Street Light Out","2015-03-03T16:15:00.000","2015-03-04T16:15:00.000","MCELDERRY PARK","15-00163396","MD","DUPCLOSD","2015-03-03T16:15:00.000","21205",NA,NA,NA,-76.5788522,39.2979796
"1409  JORDAN ST","BALTIMORE","ECCSLOW","ECC-Street Light Out","2015-03-02T23:16:26.000","2015-03-03T23:16:26.000","BOLTON HILL","15-00161568","MD","DUPCLOSD","2015-03-02T23:16:26.000","21217",NA,NA,NA,-76.6268616,39.3056826
"400 S CLINTON ST","BALTIMORE","ECCSLOW","ECC-Street Light Out","2015-03-03T01:24:00.000","2015-03-04T01:24:00.000","HIGHLANDTOWN","15-00161728","MD","DUPCLOSD","2015-03-03T01:24:00.000","21224",NA,NA,NA,-76.570297,39.287391
"3007  MARDEL AVE","BALTIMORE","ECCSLOW","ECC-Street Light Out","2015-03-01T04:09:04.000","2015-03-02T04:09:04.000","LAKELAND","15-00156619","MD","DUPCLOSD","2015-03-10T19:50:51.000","21230",NA,NA,NA,-76.6536445,39.2558076
"5200  HARFORD RD","BALTIMORE","ECCSLOW","ECC-Street Light Out","2015-02-25T01:06:33.000","2015-02-26T01:06:33.000","LAURAVILLE","15-00144403","MD","DUPCLOSD","2015-02-25T10:16:36.000","21214",NA,NA,NA,-76.564443,39.349174
"2504  RUSCOMBE LN","BALTIMORE","ECCSLOW","ECC-Street Light Out","2015-02-24T00:36:31.000","2015-02-25T00:36:31.000","CYLBURN","15-00140009","MD","DUPCLOSD","2015-03-06T16:00:20.000","21215",NA,NA,NA,-76.659954,39.34843
"5135  HARFORD RD","BALTIMORE","ECCSLOW","ECC-Street Light Out","2015-02-21T12:56:33.000","2015-02-22T12:56:33.000","WALTHERSON","15-00130069","MD","DUPCLOSD","2015-03-06T13:00:23.000","21214",NA,NA,NA,-76.564051,39.3487889
"2900  ORLEANS ST","BALTIMORE","ECCSLOW","ECC-Street Light Out","2015-02-19T12:28:22.000","2015-02-20T12:28:22.000","ELLWOOD PARK/MONUMENT","15-00121892","MD","NEW","2015-03-09T11:59:19.000","21224","Cityworks SR Comments","UPDATED","2015-02-19T12:55:45.000",-76.576012,39.296053
"1214  FRAILEY WAY","BALTIMORE","ECCSLOW","ECC-Street Light Out","2015-02-16T11:57:22.000","2015-02-17T11:57:22.000","ARMISTEAD GARDENS","15-00109845","MD","CLOSED","2015-02-16T11:58:25.000","21205",NA,NA,NA,-76.5512541,39.307877
"1001 S POTOMAC ST","BALTIMORE","ECCSLOW","ECC-Street Light Out","2015-02-14T00:51:05.000","2015-02-15T00:51:05.000","CANTON","15-00106234","MD","DUPCLOSD","2015-02-14T00:51:05.000","21224",NA,NA,NA,-76.5737169,39.2811026
"709 S LAKEWOOD AVE","BALTIMORE","ECCSLOW","ECC-Street Light Out","2015-02-11T21:26:55.000","2015-02-12T21:26:55.000","CANTON","15-00100139","MD","DUPCLOSD","2015-02-11T21:26:55.000","21224",NA,NA,NA,-76.5782399,39.283888
"5900  ROLAND AVE","BALTIMORE","ECCSLOW","ECC-Street Light Out","2015-02-10T14:47:49.000","2015-02-11T14:47:49.000","NORTH ROLAND PARK/POPLAR HILL","15-00094934","MD","DUPCLOSD","2015-02-12T10:29:45.000","21210",NA,NA,NA,-76.6339883,39.3695016
"3302  GILMAN TER","BALTIMORE","ECCSLOW","ECC-Street Light Out","2015-02-09T00:26:59.000","2015-02-10T00:26:59.000","WYMAN PARK","15-00090563","MD","DUPCLOSD","2015-02-09T00:26:59.000","21211",NA,NA,NA,-76.6259694,39.327574
"609 S SHARP ST","BALTIMORE","ECCSLOW","ECC-Street Light Out","2015-02-07T23:44:59.000","2015-02-08T23:44:59.000","OTTERBEIN","15-00089624","MD","DUPCLOSD","2015-02-07T23:44:59.000","21230",NA,NA,NA,-76.61724,39.28157
"E 39TH ST &N CHARLES ST","BALTIMORE","ECCSLOW","ECC-Street Light Out","2015-02-07T13:25:57.000","2015-02-08T13:25:57.000","GUILFORD","15-00088879","MD","NEW","2015-02-19T18:24:05.000","21218","Cityworks SR Comments","UPDATED","2015-02-07T14:59:03.000",-99.0260407,40.713871
"1020 N CHARLES ST","BALTIMORE","ECCSLOW","ECC-Street Light Out","2015-02-06T16:38:27.000","2015-02-07T16:38:27.000","MID-TOWN BELVEDERE","15-00087554","MD","DUPCLOSD","2015-02-06T16:38:27.000","21201",NA,NA,NA,-76.616249,39.301932
"1500 N DURHAM ST","BALTIMORE","ECCSLOW","ECC-Street Light Out","2015-02-03T23:35:40.000","2015-02-04T23:35:40.000","BROADWAY EAST","15-00079260","MD","DUPCLOSD","2015-02-03T23:35:40.000","21213",NA,NA,NA,-76.5922875,39.307905
"804 S SHARP ST","BALTIMORE","ECCSLOW","ECC-Street Light Out","2015-02-03T23:31:01.000","2015-02-04T23:31:01.000","OTTERBEIN","15-00079257","MD","DUPCLOSD","2015-02-03T23:31:01.000","21230",NA,NA,NA,-76.618014,39.280288
"5109  ROLAND AVE","BALTIMORE","ECCSLOW","ECC-Street Light Out","2015-01-17T20:04:39.000","2015-01-18T20:04:39.000","WYNDHURST","15-00038788","MD","DUPCLOSD","2015-01-17T20:04:39.000","21210",NA,NA,NA,-76.634064,39.355528
"5109  ROLAND AVE","BALTIMORE","ECCSLOW","ECC-Street Light Out","2015-01-17T20:03:01.000","2015-01-18T20:03:01.000","WYNDHURST","15-00038787","MD","DUPCLOSD","2015-01-17T20:03:01.000","21210",NA,NA,NA,-76.634064,39.355528
"708 S SHARP ST","BALTIMORE","ECCSLOW","ECC-Street Light Out","2015-01-13T22:14:53.000","2015-01-14T22:14:53.000","OTTERBEIN","15-00029149","MD","DUPCLOSD","2015-01-13T22:14:53.000","21230",NA,NA,NA,-76.617895,39.280634
"3300  SINCLAIR LN","BALTIMORE","ECCSLOW","ECC-Street Light Out","2015-01-13T11:52:57.000","2015-01-14T11:52:57.000","BELAIR-EDISON","15-00026948","MD","DUPCLOSD","2015-01-13T11:52:57.000","21213",NA,NA,NA,-76.571473,39.3140532
"1000  GLENWOOD AVE","BALTIMORE","ECCSLOW","ECC-Street Light Out","2015-01-08T22:52:07.000","2015-01-09T22:52:07.000","KENILWORTH PARK","15-00018776","MD","DUPCLOSD","2015-02-03T17:30:12.000","21212",NA,NA,NA,-76.600644,39.352821
"2723 N HOWARD ST","BALTIMORE","ECCSLOW","ECC-Street Light Out","2015-01-07T10:35:46.000","2015-01-08T10:35:46.000","REMINGTON","15-00012619","MD","DUPCLOSD","2015-01-07T10:35:46.000","21218",NA,NA,NA,-76.619701,39.321393
"4301  ROLAND AVE","BALTIMORE","ECCSLOW","ECC-Street Light Out","2014-12-29T20:47:25.000","2014-12-30T20:47:25.000","KESWICK","14-00964450","MD","DUPCLOSD","2014-12-29T20:47:25.000","21210",NA,NA,NA,-76.634301,39.3425417
"224 E BIDDLE ST","BALTIMORE","ECCSLOW","ECC-Street Light Out","2014-12-29T10:02:40.000","2014-12-30T10:02:40.000","MID-TOWN BELVEDERE","14-00961802","MD","DUPCLOSD","2014-12-29T10:02:40.000","21202",NA,NA,NA,-76.612063,39.303812
"227 E BIDDLE ST","BALTIMORE","ECCSLOW","ECC-Street Light Out","2014-12-29T09:59:09.000","2014-12-30T09:59:09.000","MID-TOWN BELVEDERE","14-00961801","MD","DUPCLOSD","2014-12-29T09:59:09.000","21202",NA,NA,NA,-76.612042,39.303375
"652  WASHINGTON BLVD","BALTIMORE","ECCSLOW","ECC-Street Light Out","2014-12-28T00:29:10.000","2014-12-29T00:29:10.000","RIDGELY'S DELIGHT","14-00961027","MD","DUPCLOSD","2014-12-28T00:29:10.000","21230",NA,NA,NA,-76.62499,39.284376
"2925  DILLON ST","BALTIMORE","ECCSLOW","ECC-Street Light Out","2014-12-25T21:51:11.000","2014-12-26T21:51:11.000","CANTON","14-00957476","MD","DUPCLOSD","2014-12-25T21:51:11.000","21224",NA,NA,NA,-76.574478,39.281038
"6700  BELAIR RD","RASPEBURG","ECCSLOW","ECC-Street Light Out","2014-12-15T14:50:41.000","2014-12-16T14:50:41.000","OVERLEA","14-00933348","MD","NEW","2014-12-15T14:50:41.000","21206",NA,NA,NA,-76.5293628,39.3559321
"3300  PARKLAWN AVE","BALTIMORE","ECCSLOW","ECC-Street Light Out","2014-12-13T22:17:44.000","2014-12-14T22:17:44.000","BELAIR-EDISON","14-00931203","MD","CLOSED","2014-12-13T22:21:22.000","21213",NA,NA,NA,-76.576409,39.323797
"4410  LAPLATA AVE","BALTIMORE","ECCSLOW","ECC-Street Light Out","2014-12-11T18:31:00.000","2014-12-12T18:31:00.000","MEDFIELD","14-00927310","MD","DUPCLOSD","2014-12-11T18:31:00.000","21211",NA,NA,NA,-76.6458157,39.3418386
"914 W 36TH ST","BALTIMORE","ECCSLOW","ECC-Street Light Out","2014-12-09T21:33:46.000","2014-12-10T21:33:46.000","HAMPDEN","14-00921979","MD","DUPCLOSD","2014-12-09T21:33:46.000","21211",NA,NA,NA,-76.6322428,39.3313963
"2800 N CHARLES ST","BALTIMORE","ECCSLOW","ECC-Street Light Out","2014-12-09T11:48:08.000","2014-12-10T11:48:08.000","CHARLES VILLAGE","14-00919843","MD","DUPCLOSD","2014-12-09T11:48:08.000","21218",NA,NA,NA,-76.617515,39.322148
"3400  AUCHENTOROLY TER","BALTIMORE","ECCSLOW","ECC-Street Light Out","2014-12-08T13:51:09.000","2014-12-09T13:51:09.000","PARKVIEW/WOODBROOK","14-00916944","MD","DUPCLOSD","2014-12-08T13:51:09.000","21217",NA,NA,NA,-76.648387,39.318549
"1802  FLEET ST","BALTIMORE","ECCSLOW","ECC-Street Light Out","2014-12-08T01:19:42.000","2014-12-09T01:19:42.000","FELLS POINT","14-00915755","MD","DUPCLOSD","2014-12-08T01:19:42.000","21231",NA,NA,NA,-76.5909646,39.284784
"2000 W FRANKLIN ST","BALTIMORE","ECCSLOW","ECC-Street Light Out","2014-12-04T12:31:52.000","2014-12-05T12:31:52.000","MIDTOWN-EDMONDSON","14-00908669","MD","DUPCLOSD","2014-12-04T12:31:52.000","21223",NA,NA,NA,-76.6494053,39.2939237
"2600  MARYLAND AVE","BALTIMORE","ECCSLOW","ECC-Street Light Out","2014-11-29T00:05:06.000","2014-11-30T00:05:06.000","CHARLES VILLAGE","14-00895959","MD","DUPCLOSD","2014-11-29T00:05:06.000","21218",NA,NA,NA,-76.6187209,39.319426
"2300  EASTERN AVE","BALTIMORE","ECCSLOW","ECC-Street Light Out","2014-11-28T10:36:00.000","2014-11-29T10:36:00.000","PATTERSON PARK","14-00892705","MD","DUPCLOSD","2014-12-24T14:13:04.000","21224",NA,NA,NA,-76.5842824,39.2859729
"2500  EASTERN AVE","BALTIMORE","ECCSLOW","ECC-Street Light Out","2014-11-28T10:27:50.000","2014-11-29T10:27:50.000","PATTERSON PARK","14-00892677","MD","DUPCLOSD","2014-12-30T14:36:41.000","21224",NA,NA,NA,-76.5814295,39.2860754
"5607  SAINT ALBANS WAY","BALTIMORE","ECCSLOW","ECC-Street Light Out","2014-11-27T22:08:55.000","2014-11-28T22:08:55.000","HOMELAND","14-00892300","MD","DUPCLOSD","2014-11-27T22:08:55.000","21212",NA,NA,NA,-76.621992,39.364899
"OVERHILL RD & KITTERY LN","BALTIMORE","ECCSLOW","ECC-Street Light Out","2014-11-25T23:14:27.000","2014-11-26T23:14:27.000","ROLAND PARK","14-00889073","MD","DUPCLOSD","2014-11-25T23:14:27.000","21210",NA,NA,NA,-122.1693978,37.8762422
"2023  MARYLAND AVE","BALTIMORE","ECCSLOW","ECC-Street Light Out","2014-11-25T22:39:15.000","2014-11-26T22:39:15.000","CHARLES NORTH","14-00889035","MD","DUPCLOSD","2014-11-25T22:39:15.000","21218",NA,NA,NA,-76.617653,39.3128529
"2100  MARYLAND AVE","BALTIMORE","ECCSLOW","ECC-Street Light Out","2014-11-25T22:37:03.000","2014-11-26T22:37:03.000","CHARLES NORTH","14-00889029","MD","DUPCLOSD","2014-11-25T22:37:03.000","21218",NA,NA,NA,-76.618446,39.313316
"2100  MARYLAND AVE","BALTIMORE","ECCSLOW","ECC-Street Light Out","2014-11-25T22:36:57.000","2014-11-26T22:36:57.000","CHARLES NORTH","14-00889028","MD","DUPCLOSD","2014-11-25T22:36:57.000","21218",NA,NA,NA,-76.618446,39.313316
"6711  REISTERSTOWN RD","BALTIMORE","ECCSLOW","ECC-Street Light Out","2014-11-21T19:10:38.000","2014-11-22T19:10:38.000","FALLSTAFF","14-00880011","MD","DUPCLOSD","2014-11-21T19:10:38.000","21215",NA,NA,NA,-76.7052898,39.3588649
"100  GUILFORD AVE","BALTIMORE","ECCSLOW","ECC-Street Light Out","2014-11-21T12:23:39.000","2014-11-22T12:23:39.000","DOWNTOWN","14-00878012","MD","DUPCLOSD","2014-11-21T12:23:39.000","21202",NA,NA,NA,-76.6110518,39.2904621
"253 W LANVALE ST","BALTIMORE","ECCSLOW","ECC-Street Light Out","2014-11-20T23:49:17.000","2014-11-21T23:49:17.000","BOLTON HILL","14-00877417","MD","DUPCLOSD","2014-11-20T23:49:17.000","21217",NA,NA,NA,-76.6248036,39.3045696
"5726  UFFINGTON RD","BALTIMORE","ECCSLOW","ECC-Street Light Out","2014-11-18T23:46:28.000","2014-11-19T23:46:28.000","MOUNT WASHINGTON","14-00870633","MD","DUPCLOSD","2014-11-18T23:46:28.000","21209",NA,NA,NA,-76.66255,39.365358
"5607  ROLAND AVE","BALTIMORE","ECCSLOW","ECC-Street Light Out","2014-11-16T14:21:29.000","2014-11-17T14:21:29.000","NORTH ROLAND PARK/POPLAR HILL","14-00863567","MD","DUPCLOSD","2014-11-16T14:21:29.000","21210",NA,NA,NA,-76.633569,39.365273
"2921  KESWICK RD","BALTIMORE","ECCSLOW","ECC-Street Light Out","2014-11-16T14:24:46.000","2014-11-17T14:24:46.000","HAMPDEN","14-00863719","MD","DUPCLOSD","2014-11-16T14:24:46.000","21211",NA,NA,NA,-76.6276819,39.322667
"3028  KESWICK RD","BALTIMORE","ECCSLOW","ECC-Street Light Out","2014-11-16T14:24:40.000","2014-11-17T14:24:40.000","HAMPDEN","14-00863718","MD","DUPCLOSD","2014-11-16T14:24:40.000","21211",NA,NA,NA,-76.6280625,39.3242471
"1 N EUTAW ST","BALTIMORE CITY","ECCSLOW","ECC-Street Light Out","2014-11-13T12:13:41.000","2014-11-14T12:13:41.000","DOWNTOWN","14-00856598","MD","DUPCLOSD","2014-12-08T08:09:40.000","21201",NA,NA,NA,-76.6209082,39.2893447
"336 S PATTERSON PARK AVE","BALTIMORE CITY","ECCSLOW","ECC-Street Light Out","2014-11-11T03:16:45.000","2014-11-12T03:16:45.000","PATTERSON PARK","14-00849824","MD","DUPCLOSD","2014-11-11T03:16:45.000","21224",NA,NA,NA,-76.5845862,39.2870817
"404 S PATTERSON PARK AVE","BALTIMORE CITY","ECCSLOW","ECC-Street Light Out","2014-11-11T03:14:50.000","2014-11-12T03:14:50.000","UPPER FELLS POINT","14-00849823","MD","DUPCLOSD","2014-11-11T03:14:50.000","21224",NA,NA,NA,-76.584646,39.286716
"3201  WESTERWALD AVE","BALTIMORE CITY","ECCSLOW","ECC-Street Light Out","2014-11-07T17:42:22.000","2014-11-08T17:42:22.000","BETTER WAVERLY","14-00842372","MD","DUPOPEN","2014-11-07T17:42:22.000","21218",NA,NA,NA,-76.605053,39.327539
"2921  MONTEBELLO TER","BALTIMORE CITY","ECCSLOW","ECC-Street Light Out","2014-11-03T15:37:40.000","2014-11-04T15:37:40.000","LAURAVILLE","14-00827229","MD","DUPCLOSD","2014-11-05T16:53:15.000","21214",NA,NA,NA,-76.572987,39.340068
"538 W FRANKLIN ST","BALTIMORE CITY","ECCSLOW","ECC-Street Light Out","2014-11-03T15:31:42.000","2014-11-04T15:31:42.000","SETON HILL","14-00827164","MD","DUPCLOSD","2014-11-05T16:05:44.000","21201",NA,NA,NA,-76.6238069,39.2948023
"2700  ORLEANS ST","BALTIMORE CITY","ECCSLOW","ECC-Street Light Out","2014-10-30T00:15:05.000","2014-10-31T00:15:05.000","MCELDERRY PARK","14-00814855","MD","DUPCLOSD","2014-10-30T00:15:05.000","21224",NA,NA,NA,-76.578853,39.29594
"5109  ROLAND AVE","BALTIMORE CITY","ECCSLOW","ECC-Street Light Out","2014-10-26T13:39:50.000","2014-10-27T13:39:50.000","WYNDHURST","14-00804606","MD","DUPCLOSD","2014-10-26T13:39:50.000","21210",NA,NA,NA,-76.634064,39.355528
"1027 S CURLEY ST","BALTIMORE CITY","ECCSLOW","ECC-Street Light Out","2014-10-23T23:39:46.000","2014-10-24T23:39:46.000","CANTON","14-00800363","MD","DUPCLOSD","2014-10-23T23:39:46.000","21224",NA,NA,NA,-76.5745479,39.2807198
"2900  CRESMONT AVE","BALTIMORE CITY","ECCSLOW","ECC-Street Light Out","2014-10-23T03:10:42.000","2014-10-24T03:10:42.000","REMINGTON","14-00797192","MD","DUPCLOSD","2014-10-23T03:10:42.000","21211",NA,NA,NA,-76.621435,39.322975
"512 W SARATOGA ST","BALTIMORE CITY","ECCSLOW","ECC-Street Light Out","2014-10-20T23:45:28.000","2014-10-21T23:45:28.000","DOWNTOWN","14-00790889","MD","DUPCLOSD","2014-10-20T23:45:28.000","21201",NA,NA,NA,-76.6231053,39.2929649
"3700  REXMERE RD","BALTIMORE CITY","ECCSLOW","ECC-Street Light Out","2014-10-16T22:48:18.000","2014-10-17T22:48:18.000","EDNOR GARDENS-LAKESIDE","14-00781576","MD","CLOSED","2014-10-16T22:51:01.000","21218",NA,NA,NA,-76.602216,39.333142
"W NORTHERN PKWY & ST GEORGES RD","BALTIMORE CITY","ECCSLOW","ECC-Street Light Out","2014-09-26T18:09:07.000","2014-09-27T18:09:07.000","NORTH ROLAND PARK/POPLAR HILL","14-00728562","MD","CLOSED","2014-09-26T18:09:50.000","21210",NA,NA,NA,-76.6656161,39.3557104
"520  TUNBRIDGE RD","BALTIMORE CITY","ECCSLOW","ECC-Street Light Out","2014-08-30T23:14:52.000","2014-08-31T23:14:52.000","MID-GOVANS","14-00655511","MD","DUPCLOSD","2014-08-30T23:14:52.000","21212",NA,NA,NA,-76.608651,39.356725
"2903  EASTERN AVE","BALTIMORE CITY","ECCSLOW","ECC-Street Light Out","2014-09-01T23:32:53.000","2014-09-02T23:32:53.000","CANTON","14-00657508","MD","DUPCLOSD","2014-09-02T16:31:41.000","21224",NA,NA,NA,-76.575592,39.286095
"5519  MINNOKA AVE","BALTIMORE CITY","ECCSLOW","ECC-Street Light Out","2014-08-31T03:01:08.000","2014-09-01T03:01:08.000","WOODMERE","14-00655590","MD","DUPCLOSD","2014-08-31T03:01:08.000","21215",NA,NA,NA,-76.690083,39.3489591
"600  GIBSON RD","BALTIMORE CITY","ECCSLOW","ECC-Street Light Out","2014-08-28T10:57:09.000","2014-08-29T10:57:09.000","BEECHFIELD","14-00648566","MD","DUPCLOSD","2014-08-28T10:57:09.000","21229",NA,NA,NA,-76.695568,39.273487
"137 W OSTEND ST","BALTIMORE CITY","ECCSLOW","ECC-Street Light Out","2014-08-27T14:56:55.000","2014-08-28T14:56:55.000","SHARP-LEADENHALL","14-00646215","MD","DUPCLOSD","2014-08-27T14:56:55.000","21230",NA,NA,NA,-76.61762,39.274
"135 W OSTEND ST","BALTIMORE CITY","ECCSLOW","ECC-Street Light Out","2014-08-27T00:22:48.000","2014-08-28T00:22:48.000","SHARP-LEADENHALL","14-00644804","MD","DUPCLOSD","2014-08-27T00:22:48.000","21230",NA,NA,NA,-76.6168208,39.274456
"922 E PATAPSCO AVE","BALTIMORE CITY","ECCSLOW","ECC-Street Light Out","2014-08-25T18:58:14.000","2014-08-26T18:58:14.000","BROOKLYN","14-00640516","MD","CLOSED","2014-08-25T19:00:34.000","21225",NA,NA,NA,-76.596373,39.2347899
"3700  BUENA VISTA AVE","BALTIMORE CITY","ECCSLOW","ECC-Street Light Out","2014-08-18T17:38:15.000","2014-08-19T17:38:15.000","HAMPDEN","14-00620314","MD","CLOSED","2014-08-18T17:38:38.000","21211","Abate","Duplicate Complaint","2014-08-18T17:38:00.000",-76.6398282,39.3321885
"400 S BOULDIN ST","BALTIMORE CITY","ECCSLOW","ECC-Street Light Out","2014-08-12T00:07:08.000","2014-08-13T00:07:08.000","HIGHLANDTOWN","14-00601118","MD","CLOSED","2014-08-18T16:51:35.000","21224","Abate","Duplicate Complaint","2014-08-18T16:51:00.000",-76.5709896,39.287358
"3314  ELMORA AVE","BALTIMORE","ECCSLOW","ECC-Street Light Out","2015-06-20T00:06:29.000","2015-06-21T00:06:29.000","FOUR BY FOUR","15-00481110","MD","DUPCLOSD","2015-06-20T00:06:29.000","21213",NA,NA,NA,-76.5766658,39.3160547
"702  RADNOR AVE","BALTIMORE","ECCSLOW","ECC-Street Light Out","2015-06-08T00:18:19.000","2015-06-09T00:18:19.000","WINSTON-GOVANS","15-00444411","MD","DUPCLOSD","2015-06-08T00:18:19.000","21212",NA,NA,NA,-76.6057759,39.3477017
"3600  PARK HEIGHTS AVE","BALTIMORE","ECCSLOW","ECC-Street Light Out","2015-07-27T18:13:03.000","2015-07-28T18:13:03.000","PARK CIRCLE","15-00594106","MD","OPEN","2015-07-27T18:14:24.000","21215",NA,NA,NA,-76.659391,39.329411
"154 S HOWARD ST","BALTIMORE","ECCSLOW","ECC-Street Light Out","2015-03-26T01:23:30.000","2015-03-27T01:23:30.000","INNER HARBOR","15-00238129","MD","CLOSED","2015-05-29T19:53:59.000","21201","Abate","Duplicate Complaint","2015-05-29T19:53:00.000",-76.6192723,39.2869487
"3100  POTEE ST","BALTIMORE","ECCSLOW","ECC-Street Light Out","2015-06-01T12:58:34.000","2015-06-02T12:58:34.000","MIDDLE BRANCH/REEDBIRD PARKS","15-00425589","MD","DUPCLOSD","2015-06-01T12:58:34.000","21225",NA,NA,NA,-76.6148887,39.249452
"4407  OLD YORK RD","BALTIMORE","ECCSLOW","ECC-Street Light Out","2015-07-16T22:06:45.000","2015-07-17T22:06:45.000","WILSON PARK","15-00562670","MD","NEW","2015-07-17T15:17:10.000","21212",NA,NA,NA,-76.6077467,39.3437492
"515 S HANOVER ST","BALTIMORE","ECCSLOW","ECC-Street Light Out","2015-03-26T10:20:25.000","2015-03-27T10:20:25.000","OTTERBEIN","15-00238320","MD","CLOSED","2015-05-29T19:56:45.000","21201","Abate","Duplicate Complaint","2015-05-29T19:56:00.000",-76.6156759,39.28257
"620 S STREEPER ST","BALTIMORE","ECCSLOW","ECC-Street Light Out","2015-06-15T03:57:55.000","2015-06-16T03:57:55.000","CANTON","15-00462303","MD","DUPCLOSD","2015-06-15T03:57:55.000","21224",NA,NA,NA,-76.576617,39.2847859
"3222  ELMORA AVE","BALTIMORE","ECCSLOW","ECC-Street Light Out","2015-06-20T00:08:23.000","2015-06-21T00:08:23.000","FOUR BY FOUR","15-00481115","MD","DUPCLOSD","2015-06-20T00:08:23.000","21213",NA,NA,NA,-76.577747,39.316044
"198 W CONWAY ST","BALTIMORE","ECCSLOW","ECC-Street Light Out","2015-04-15T01:35:40.000","2015-04-16T01:35:40.000","INNER HARBOR","15-00293039","MD","CLOSED","2015-05-29T19:53:27.000","21201","Abate","Duplicate Complaint","2015-05-29T19:53:00.000",-76.6176424,39.2841722
"4705  CROSSWOOD AVE","BALTIMORE","ECCSLOW","ECC-Street Light Out","2015-06-01T00:21:47.000","2015-06-02T00:21:47.000","MORAVIA-WALTHER","15-00424809","MD","DUPCLOSD","2015-06-01T00:21:47.000","21214",NA,NA,NA,-76.562763,39.340131
"3700  SPRINGWOOD AVE","BALTIMORE","ECCSLOW","ECC-Street Light Out","2015-05-24T01:03:22.000","2015-05-25T01:03:22.000","GLENHAM-BELFORD","15-00404316","MD","DUPCLOSD","2015-05-24T01:03:22.000","21206",NA,NA,NA,-76.5440969,39.350305
"6413  CEDONIA AVE","BALTIMORE","ECCSLOW","ECC-Street Light Out","2015-07-06T18:13:16.000","2015-07-07T18:13:16.000","ROSEMONT EAST","15-00528988","MD","NEW","2015-07-07T18:45:48.000","21206",NA,NA,NA,-76.533374,39.353253
"2901  EASTERN AVE","BALTIMORE","ECCSLOW","ECC-Street Light Out","2015-06-07T18:48:26.000","2015-06-08T18:48:26.000","CANTON","15-00443816","MD","DUPCLOSD","2015-06-15T10:54:52.000","21224",NA,NA,NA,-76.5756647,39.2860943
"2613  ROSELAWN AVE","BALTIMORE","ECCSLOW","ECC-Street Light Out","2015-07-13T19:38:59.000","2015-07-14T19:38:59.000","HARFORD-ECHODALE/PERRING PARKWAY","15-00550715","MD","OPEN","2015-07-13T19:40:08.000","21214",NA,NA,NA,-76.5630291,39.3580793
"1328  HAUBERT ST","BALTIMORE","ECCSLOW","ECC-Street Light Out","2015-05-27T02:48:12.000","2015-05-28T02:48:12.000","LOCUST POINT","15-00410353","MD","DUPCLOSD","2015-05-27T02:48:12.000","21230",NA,NA,NA,-76.5934893,39.2711725
"2700  ERDMAN AVE","BALTIMORE","ECCSLOW","ECC-Street Light Out","2015-06-16T12:35:51.000","2015-06-17T12:35:51.000","BELAIR-EDISON","15-00467091","MD","DUPCLOSD","2015-06-16T12:35:51.000","21213",NA,NA,NA,-76.577187,39.3238447
"5100  SINCLAIR LN","BALTIMORE","ECCSLOW","ECC-Street Light Out","2015-06-02T17:39:47.000","2015-06-03T17:39:47.000","FRANKFORD","15-00430487","MD","DUPCLOSD","2015-06-02T17:39:47.000","21206",NA,NA,NA,-76.5459657,39.3245037
"1729  JACKSON ST","BALTIMORE","ECCSLOW","ECC-Street Light Out","2015-06-13T04:29:55.000","2015-06-14T04:29:55.000","RIVERSIDE","15-00460166","MD","DUPCLOSD","2015-06-13T04:29:55.000","21230",NA,NA,NA,-76.6047205,39.2702529
"1900  SAPP ST","BALTIMORE","ECCSLOW","ECC-Street Light Out","2015-06-13T18:58:18.000","2015-06-14T18:58:18.000","EAST BALTIMORE MIDWAY","15-00460951","MD","OPEN","2015-06-13T19:00:06.000","21218",NA,NA,NA,-76.6023127,39.3123229
"S ARLINGTON AVE &W BALTIMORE ST","BALTIMORE","ECCSLOW","ECC-Street Light Out","2015-05-28T16:17:50.000","2015-05-29T16:17:50.000","POPPLETON","15-00416871","MD","NEW","2015-06-08T18:46:16.000","21223","Dispatch Work Crew",NA,"2015-06-05T12:34:00.000",-86.0635484,39.705904
"2609  TALBOT RD","BALTIMORE","ECCSLOW","ECC-Street Light Out","2015-05-25T04:34:06.000","2015-05-26T04:34:06.000","WINDSOR HILLS","15-00405036","MD","DUPCLOSD","2015-05-25T04:34:06.000","21216",NA,NA,NA,-76.690002,39.315779
"4706  CROSSWOOD AVE","BALTIMORE","ECCSLOW","ECC-Street Light Out","2015-06-01T00:25:58.000","2015-06-02T00:25:58.000","MORAVIA-WALTHER","15-00424815","MD","DUPCLOSD","2015-06-01T00:25:58.000","21214",NA,NA,NA,-76.562431,39.3405189
"1924  GRINNALDS AVE","BALTIMORE","ECCSLOW","ECC-Street Light Out","2015-06-07T18:47:13.000","2015-06-08T18:47:13.000","MORRELL PARK","15-00443779","MD","DUPCLOSD","2015-06-15T12:59:07.000","21230",NA,NA,NA,-76.650892,39.26663
"2712  LOUISE AVE","BALTIMORE","ECCSLOW","ECC-Street Light Out","2015-07-01T19:43:56.000","2015-07-02T19:43:56.000","CHRISTOPHER","15-00517808","MD","CLOSED","2015-07-02T13:10:14.000","21214",NA,NA,NA,-76.560427,39.361818
"600 W NORTHERN PKWY","BALTIMORE","ECCSLOW","ECC-Street Light Out","2015-06-04T14:09:37.000","2015-06-05T14:09:37.000","NORTH ROLAND PARK/POPLAR HILL","15-00436498","MD","CLOSED","2015-06-04T14:10:22.000","21210",NA,NA,NA,-76.631003,39.362173
"5107  KENILWORTH AVE","BALTIMORE","ECCSLOW","ECC-Street Light Out","2015-06-29T21:33:24.000","2015-06-30T21:33:24.000","KENILWORTH PARK","15-00510262","MD","NEW","2015-06-30T13:03:37.000","21212",NA,NA,NA,-76.599873,39.349702
"3315  MORAVIA RD","BALTIMORE","ECCSLOW","ECC-Street Light Out","2015-08-02T15:50:09.000","2015-08-03T15:50:09.000","BEVERLY HILLS","15-00609993","MD","NEW","2015-08-03T11:40:18.000","21214",NA,NA,NA,-76.566799,39.338352
"CANTERBURY RD & W HIGHFIELD RD, BALTIMOR",NA,"ECCSLOW","ECC-Street Light Out","2015-07-24T16:18:24.000","2015-07-25T16:18:24.000","TUSCANY-CANTERBURY","15-00586637","MD","OPEN","2015-07-24T16:26:05.000",NA,NA,NA,NA,1.287046,51.3622492
"425  COLVIN ST","BALTIMORE","ECCSLOW","ECC-Street Light Out","2015-06-07T19:07:45.000","2015-06-08T19:07:45.000","OLDTOWN","15-00443882","MD","NEW","2015-06-10T15:59:05.000","21202",NA,NA,NA,-76.6062304,39.295614
"3238  ELMORA AVE","BALTIMORE","ECCSLOW","ECC-Street Light Out","2015-06-20T00:06:35.000","2015-06-21T00:06:35.000","FOUR BY FOUR","15-00481112","MD","DUPCLOSD","2015-06-20T00:06:35.000","21213",NA,NA,NA,-76.577292,39.316047
"6905  CHAMBERS RD","BALTIMORE","ECCSLOW","ECC-Street Light Out","2015-06-26T13:46:35.000","2015-06-27T13:46:35.000","HARFORD-ECHODALE/PERRING PARKWAY","15-00501316","MD","OPEN","2015-06-26T15:03:09.000","21234",NA,NA,NA,-76.558227,39.368922
"1 S MARTIN LUTHER KING JR BLVD","BALTIMORE","ECCSLOW","ECC-Street Light Out","2015-05-12T11:58:58.000","2015-05-13T11:58:58.000","UNIVERSITY OF MARYLAND","15-00369779","MD","DUPCLOSD","2015-05-12T11:58:58.000","21201",NA,NA,NA,-76.6277786,39.2889018
"727  BROOKWOOD RD","BALTIMORE","ECCSLOW","ECC-Street Light Out","2015-06-17T16:07:20.000","2015-06-18T16:07:20.000","HUNTING RIDGE","15-00472747","MD","DUPCLOSD","2015-06-17T16:07:20.000","21229",NA,NA,NA,-76.702141,39.296149
"N DECKER AVE &E BIDDLE ST","BALTIMORE","ECCSLOW","ECC-Street Light Out","2015-05-27T14:34:02.000","2015-05-28T14:34:02.000","BIDDLE STREET","15-00412250","MD","DUPCLOSD","2015-05-27T14:34:02.000","21213",NA,NA,NA,-84.248647,39.754551
"280  DOLPHIN ST","BALTIMORE","ECCSLOW","ECC-Street Light Out","2015-05-15T00:01:11.000","2015-05-16T00:01:11.000","BOLTON HILL","15-00380643","MD","DUPCLOSD","2015-05-15T00:01:11.000","21217",NA,NA,NA,-76.6232737,39.3042496
"2221  KENTUCKY AVE","BALTIMORE","ECCSLOW","ECC-Street Light Out","2015-07-19T19:53:43.000","2015-07-20T19:53:43.000","MAYFIELD","15-00568558","MD","NEW","2015-07-20T11:37:55.000","21213",NA,NA,NA,-76.579365,39.328907
"407  JOPLIN ST","BALTIMORE","ECCSLOW","ECC-Street Light Out","2015-07-16T13:42:00.000","2015-07-17T13:42:00.000","JOSEPH LEE","15-00560589","MD","NEW","2015-07-17T13:48:04.000","21224",NA,NA,NA,-76.5378974,39.2889742
"2467  DRUID HILL AVE","BALTIMORE","ECCSLOW","ECC-Street Light Out","2015-07-21T11:48:54.000","2015-07-22T11:48:54.000","PENN NORTH","15-00572764","MD","OPEN","2015-07-21T11:49:44.000","21217",NA,NA,NA,-76.6402438,39.3126971
"900  ASHBURTON ST","BALTIMORE","ECCSLOW","ECC-Street Light Out","2015-07-05T12:04:46.000","2015-07-06T12:04:46.000","MOSHER","15-00525102","MD","NEW","2015-07-16T11:28:45.000","21216","Cityworks SR Comments","UPDATED","2015-07-06T18:19:18.000",-76.6618808,39.2982693
"800 N MARTIN LUTHER KING JR BLVD","BALTIMORE","ECCSLOW","ECC-Street Light Out","2015-05-12T11:56:45.000","2015-05-13T11:56:45.000","MADISON PARK","15-00369768","MD","DUPCLOSD","2015-05-12T11:56:45.000","21201",NA,NA,NA,-76.6233445,39.2989804
"1122  HOLLINS ST","BALTIMORE","ECCSLOW","ECC-Street Light Out","2015-05-19T23:47:12.000","2015-05-20T23:47:12.000","HOLLINS MARKET","15-00394162","MD","DUPCLOSD","2015-05-19T23:47:12.000","21223",NA,NA,NA,-76.6362387,39.2877981
"1221 N CURLEY ST","BALTIMORE","ECCSLOW","ECC-Street Light Out","2015-07-02T17:00:48.000","2015-07-03T17:00:48.000","BEREA","15-00520477","MD","NEW","2015-07-02T17:01:23.000","21213",NA,NA,NA,-76.5761531,39.3055195
