"address","city","code","codedescription","createddate","duedate","neighborhood","servicerequestnum","state","status","statusdate","zip","activity","outcome","updateddate","lon","lat"
"3900  SINCLAIR LN","BALTIMORE","FOBRBRIT","Forestry Broken Branch in Tree","2015-05-08T17:04:12.000","2015-05-09T17:04:12.000","BELAIR-EDISON","15-00361178","MD","OPEN","2015-05-11T12:18:04.000","21213",NA,NA,NA,-76.5593038,39.315314
"2229 N CHARLES ST","BALTIMORE","FOBRBRIT","Forestry Broken Branch in Tree","2015-05-08T11:33:01.000","2015-05-09T11:33:01.000","CHARLES VILLAGE","15-00359574","MD","CLOSED","2015-05-08T11:33:17.000","21218",NA,NA,NA,-76.6165181,39.3151561
"2330 N MONROE ST","BALTIMORE","FOBRBRIT","Forestry Broken Branch in Tree","2015-05-06T15:55:19.000","2015-05-07T15:55:19.000","MONDAWMIN","15-00354453","MD","CLOSED","2015-05-11T16:59:50.000","21217","Dispatch Work Crew","Removed broken branch","2015-05-11T16:59:00.000",-76.64974,39.314611
"3000  HUNTINGDON AVE","BALTIMORE","FOBRBRIT","Forestry Broken Branch in Tree","2015-05-04T22:43:21.000","2015-05-05T22:43:21.000","REMINGTON","15-00348488","MD","CLOSED","2015-05-06T13:05:04.000","21211","Dispatch Work Crew","Duplicate request","2015-05-06T13:04:00.000",-76.624576,39.322508
"E 33RD ST & GREENMOUNT AVE","BALTIMORE","FOBRBRIT","Forestry Broken Branch in Tree","2015-05-04T11:08:47.000","2015-05-05T11:08:47.000","ABELL","15-00345215","MD","CLOSED","2015-05-05T12:58:50.000","21218","Dispatch Work Crew","Removed broken branch","2015-05-05T12:58:00.000",-97.4291472,35.6237229
"100 W 39TH ST","BALTIMORE","FOBRBRIT","Forestry Broken Branch in Tree","2015-05-04T09:59:26.000","2015-05-05T09:59:26.000","TUSCANY-CANTERBURY","15-00345106","MD","CLOSED","2015-05-05T12:57:02.000","21210","Dispatch Work Crew","Removed broken branch","2015-05-05T12:56:00.000",-76.620767,39.336167
"328 E 33RD ST","BALTIMORE","FOBRBRIT","Forestry Broken Branch in Tree","2015-05-03T15:18:11.000","2015-05-04T15:18:11.000","OAKENSHAWE","15-00344360","MD","CLOSED","2015-05-05T12:59:43.000","21218","Dispatch Work Crew","Removed broken branch","2015-05-05T12:59:00.000",-76.612427,39.3285849
"229 S CHESTER ST","BALTIMORE","FOBRBRIT","Forestry Broken Branch in Tree","2015-04-30T17:44:16.000","2015-05-01T17:44:16.000","UPPER FELLS POINT","15-00338730","MD","CLOSED","2015-05-06T13:02:54.000","21231","Dispatch Work Crew","No Cause For Action","2015-05-06T13:02:00.000",-76.586939,39.288445
"4802  COLEHERNE RD","BALTIMORE","FOBRBRIT","Forestry Broken Branch in Tree","2015-04-30T13:19:51.000","2015-05-01T13:19:51.000","HUNTING RIDGE","15-00337607","MD","CLOSED","2015-05-04T12:33:01.000","21229","Dispatch Work Crew","Removed broken branch","2015-05-04T12:32:00.000",-76.701633,39.294069
"1410  STONEWOOD RD","BALTIMORE","FOBRBRIT","Forestry Broken Branch in Tree","2015-04-30T10:22:34.000","2015-05-01T10:22:34.000","NEW NORTHWOOD","15-00336841","MD","CLOSED","2015-05-01T12:31:36.000","21239","Dispatch Work Crew","No Cause For Action","2015-05-01T12:30:00.000",-76.5934222,39.3498112
"1720  JOHNSON ST","BALTIMORE","FOBRBRIT","Forestry Broken Branch in Tree","2015-04-27T14:28:50.000","2015-04-28T14:28:50.000","RIVERSIDE","15-00327727","MD","CLOSED","2015-05-01T12:25:42.000","21230","Dispatch Work Crew","Removed broken branch","2015-05-01T12:24:00.000",-76.6095689,39.2702219
"1615 E 32ND ST","BALTIMORE","FOBRBRIT","Forestry Broken Branch in Tree","2015-04-27T11:01:30.000","2015-04-28T11:01:30.000","COLDSTREAM HOMESTEAD MONTEBELLO","15-00326315","MD","CLOSED","2015-04-28T15:51:51.000","21218","Dispatch Work Crew","Removed broken branch","2015-04-28T15:51:00.000",-76.592979,39.326589
"717  HOLLEN RD","BALTIMORE","FOBRBRIT","Forestry Broken Branch in Tree","2015-04-23T16:24:31.000","2015-04-24T16:24:31.000","LAKE WALKER","15-00319661","MD","CLOSED","2015-04-27T13:06:17.000","21212","Dispatch Work Crew","Removed broken branch","2015-04-27T13:05:00.000",-76.604279,39.369959
"2330 N MONROE ST","BALTIMORE","FOBRBRIT","Forestry Broken Branch in Tree","2015-04-22T18:24:05.000","2015-04-23T18:24:05.000","MONDAWMIN","15-00316304","MD","OPEN","2015-04-22T18:49:33.000","21217",NA,NA,NA,-76.64974,39.314611
"2702  LYNDHURST AVE","BALTIMORE","FOBRBRIT","Forestry Broken Branch in Tree","2015-04-22T16:50:46.000","2015-04-23T16:50:46.000","WINDSOR HILLS","15-00315642","MD","CLOSED","2015-04-22T19:52:08.000","21216","Dispatch Inspector","No Cause For Action","2015-04-22T19:51:00.000",-76.6846565,39.3170094
"3836  ELM AVE","BALTIMORE","FOBRBRIT","Forestry Broken Branch in Tree","2015-04-22T16:16:35.000","2015-04-23T16:16:35.000","HAMPDEN","15-00315451","MD","CLOSED","2015-04-22T20:11:40.000","21211","Dispatch Inspector","No Cause For Action","2015-04-22T19:57:00.000",-76.631766,39.3352549
"1008  LENTON AVE","BALTIMORE","FOBRBRIT","Forestry Broken Branch in Tree","2015-04-22T12:54:43.000","2015-04-23T12:54:43.000","CHINQUAPIN PARK-BELVEDERE","15-00314117","MD","CLOSED","2015-04-27T12:32:31.000","21212","Dispatch Work Crew","Removed broken branch","2015-04-27T12:31:00.000",-76.5998024,39.3632108
"6300  MAYFLOWER RD","BALTIMORE","FOBRBRIT","Forestry Broken Branch in Tree","2015-04-21T19:48:24.000","2015-04-22T19:48:24.000","LAKE WALKER","15-00312428","MD","CLOSED","2015-04-23T12:51:19.000","21212","Dispatch Work Crew","Removed broken branch","2015-04-23T12:50:00.000",-76.607334,39.369577
"1523  NORTHGATE RD","BALTIMORE","FOBRBRIT","Forestry Broken Branch in Tree","2015-04-20T16:55:31.000","2015-04-21T16:55:31.000","HILLEN","15-00308363","MD","CLOSED","2015-04-27T13:08:23.000","21218","Dispatch Work Crew","No Cause For Action","2015-04-27T13:06:00.000",-76.590643,39.34493
"1337  WALKER AVE","BALTIMORE","FOBRBRIT","Forestry Broken Branch in Tree","2015-04-20T16:45:06.000","2015-04-21T16:45:06.000","IDLEWOOD","15-00308313","MD","CLOSED","2015-04-23T13:42:48.000","21239","Dispatch Work Crew","Removed broken branch","2015-04-23T13:42:00.000",-76.5879497,39.3705494
"3556  BENZINGER RD","BALTIMORE","FOBRBRIT","Forestry Broken Branch in Tree","2015-04-20T16:34:47.000","2015-04-21T16:34:47.000","VIOLETVILLE","15-00308273","MD","CLOSED","2015-04-23T13:45:34.000","21229","Dispatch Work Crew","Removed broken branch","2015-04-23T13:45:00.000",-76.6785759,39.2707741
"1507  BELT ST","BALTIMORE","FOBRBRIT","Forestry Broken Branch in Tree","2015-04-20T14:08:21.000","2015-04-21T14:08:21.000","RIVERSIDE","15-00307584","MD","CLOSED","2015-04-23T13:46:20.000","21230","Dispatch Work Crew","Removed broken branch","2015-04-23T13:46:00.000",-76.6056386,39.2725729
"5452  NARCISSUS AVE","BALTIMORE","FOBRBRIT","Forestry Broken Branch in Tree","2015-04-20T13:10:23.000","2015-04-21T13:10:23.000","ARLINGTON","15-00307286","MD","CLOSED","2015-04-23T13:44:40.000","21215","Dispatch Work Crew","No Cause For Action","2015-04-23T13:44:00.000",-76.685664,39.3501375
"642 E CLEMENT ST","BALTIMORE","FOBRBRIT","Forestry Broken Branch in Tree","2015-04-14T21:43:56.000","2015-04-15T21:43:56.000","RIVERSIDE","15-00292789","MD","CLOSED","2015-04-16T16:32:10.000","21230","Dispatch Work Crew","Removed broken branch","2015-04-16T16:28:00.000",-76.604134,39.2742383
"4510  ROLAND AVE","BALTIMORE","FOBRBRIT","Forestry Broken Branch in Tree","2015-04-12T14:31:27.000","2015-04-13T14:31:27.000","ROLAND PARK","15-00284869","MD","CLOSED","2015-04-15T14:20:29.000","21210","Dispatch Work Crew","Removed broken branch","2015-04-15T14:20:00.000",-76.636172,39.3455749
"426 E NORTH AVE","BALTIMORE","FOBRBRIT","Forestry Broken Branch in Tree","2015-03-30T16:56:05.000","2015-03-31T16:56:05.000","BARCLAY","15-00249824","MD","CLOSED","2015-03-31T17:45:18.000","21202","Dispatch Work Crew","Removed broken branch","2015-03-31T17:44:00.000",-76.610111,39.311684
"CROSS COUNTRY BLVD & GREENSPRING AVE","BALTIMORE","FOBRBRIT","Forestry Broken Branch in Tree","2015-03-27T14:15:00.000","2015-03-28T14:15:00.000","MOUNT WASHINGTON","15-00243386","MD","CLOSED","2015-03-30T14:01:44.000","21209","Dispatch Work Crew","Removed broken branch","2015-03-30T14:01:00.000",-76.6827254,39.3621183
"2720  GILES RD","BALTIMORE","FOBRBRIT","Forestry Broken Branch in Tree","2015-03-27T13:59:05.000","2015-03-28T13:59:05.000","CHERRY HILL","15-00243303","MD","CLOSED","2015-03-31T13:30:55.000","21225","Dispatch Work Crew","Removed broken branch","2015-03-31T13:30:00.000",-76.6305404,39.249519
"3  SAINT JOHNS RD","BALTIMORE","FOBRBRIT","Forestry Broken Branch in Tree","2015-03-27T13:05:23.000","2015-03-28T13:05:23.000","ROLAND PARK","15-00242967","MD","CLOSED","2015-03-31T13:31:52.000","21210","Dispatch Work Crew","Removed broken branch","2015-03-31T13:31:00.000",-76.634958,39.354459
"1624  WADSWORTH WAY","BALTIMORE","FOBRBRIT","Forestry Broken Branch in Tree","2015-03-24T14:26:20.000","2015-03-25T14:26:20.000","LOCH RAVEN","15-00232020","MD","CLOSED","2015-03-26T13:35:58.000","21239","Dispatch Work Crew","No Cause For Action","2015-03-26T13:35:00.000",-76.581461,39.362447
"S CAREY ST & JAMES ST","BALTIMORE","FOBRBRIT","Forestry Broken Branch in Tree","2015-03-18T16:10:07.000","2015-03-19T16:10:07.000","WASHINGTON VILLAGE","15-00215957","MD","CLOSED","2015-03-20T14:28:09.000","21223","Dispatch Work Crew","No Cause For Action","2015-03-20T14:27:00.000",-76.6377955,39.2834422
"2400  LAKE AVE","BALTIMORE","FOBRBRIT","Forestry Broken Branch in Tree","2015-03-17T18:35:25.000","2015-03-18T18:35:25.000","MAYFIELD","15-00212972","MD","CLOSED","2015-03-19T16:50:55.000","21213","Dispatch Work Crew","Removed broken branch","2015-03-19T16:50:00.000",-76.577954,39.32755
"4637  SCHENLEY RD","BALTIMORE","FOBRBRIT","Forestry Broken Branch in Tree","2015-03-17T11:59:21.000","2015-03-18T11:59:21.000","EVERGREEN","15-00210015","MD","CLOSED","2015-03-23T12:07:30.000","21210","Dispatch Work Crew","Removed broken branch","2015-03-23T12:06:00.000",-76.631003,39.347974
"125  DENISON ST","BALTIMORE","FOBRBRIT","Forestry Broken Branch in Tree","2015-03-16T19:22:47.000","2015-03-17T19:22:47.000","ALLENDALE","15-00208424","MD","CLOSED","2015-04-02T18:30:29.000","21229","Dispatch Work Crew","No Cause For Action","2015-04-02T18:30:00.000",-76.6760561,39.2890219
"3900  ELM AVE","BALTIMORE","FOBRBRIT","Forestry Broken Branch in Tree","2015-03-15T21:50:37.000","2015-03-16T21:50:37.000","HAMPDEN","15-00204627","MD","OPEN","2015-03-16T10:33:29.000","21211",NA,NA,NA,-76.631784,39.3354
"3823 W COLD SPRING LN","BALTIMORE","FOBRBRIT","Forestry Broken Branch in Tree","2015-03-11T16:58:49.000","2015-03-12T16:58:49.000","CALLAWAY-GARRISON","15-00191480","MD","CLOSED","2015-03-13T10:11:36.000","21215","Dispatch Work Crew","Removed broken branch","2015-03-13T10:10:00.000",NA,NA
"1905  EUTAW PL","BALTIMORE","FOBRBRIT","Forestry Broken Branch in Tree","2015-03-11T10:21:19.000","2015-03-12T10:21:19.000","BOLTON HILL","15-00189044","MD","CLOSED","2015-03-11T10:22:37.000","21217","Dispatch Work Crew","Removed broken branch","2015-03-11T10:21:00.000",-76.631743,39.3090199
"3715  SEQUOIA AVE","BALTIMORE","FOBRBRIT","Forestry Broken Branch in Tree","2015-03-06T17:47:19.000","2015-03-07T17:47:19.000","CALLAWAY-GARRISON","15-00174910","MD","CLOSED","2015-03-10T11:59:18.000","21215","Dispatch Work Crew","Removed broken branch","2015-03-10T11:58:00.000",-76.678484,39.331363
"700  YALE AVE","BALTIMORE","FOBRBRIT","Forestry Broken Branch in Tree","2015-03-02T18:28:19.000","2015-03-03T18:28:19.000","YALE HEIGHTS","15-00160658","MD","CLOSED","2015-03-04T14:56:47.000","21229","Dispatch Work Crew","Removed broken branch","2015-03-04T14:55:00.000",-76.6890343,39.2748861
"5912  YORKWOOD RD","BALTIMORE","FOBRBRIT","Forestry Broken Branch in Tree","2015-03-02T10:00:10.000","2015-03-03T10:00:10.000","LOCH RAVEN","15-00158279","MD","CLOSED","2015-03-04T14:29:30.000","21239","Dispatch Work Crew","Removed broken branch","2015-03-04T14:28:00.000",-76.584045,39.3630629
"816  CEDARCROFT RD","BALTIMORE","FOBRBRIT","Forestry Broken Branch in Tree","2015-03-01T23:56:31.000","2015-03-02T23:56:31.000","LAKE WALKER","15-00157974","MD","CLOSED","2015-03-04T14:38:52.000","21212","Dispatch Work Crew","Removed broken branch","2015-03-04T14:38:00.000",-76.604094,39.369597
"1906 E PRATT ST","BALTIMORE","FOBRBRIT","Forestry Broken Branch in Tree","2015-02-24T18:58:04.000","2015-02-25T18:58:04.000","UPPER FELLS POINT","15-00143248","MD","OPEN","2015-02-24T19:01:00.000","21231","Dispatch Inspector","Broken branch needs to be removed","2015-02-24T19:00:00.000",-76.590024,39.28958
"3929  DUDLEY AVE","BALTIMORE","FOBRBRIT","Forestry Broken Branch in Tree","2015-02-24T10:30:42.000","2015-02-25T10:30:42.000","BELAIR-EDISON","15-00140382","MD","OPEN","2015-02-24T10:48:35.000","21213",NA,NA,NA,-76.561023,39.316906
"3501  KENTUCKY AVE","BALTIMORE","FOBRBRIT","Forestry Broken Branch in Tree","2015-02-23T20:29:51.000","2015-02-24T20:29:51.000","BELAIR-EDISON","15-00139297","MD","OPEN","2015-02-24T09:20:13.000","21213",NA,NA,NA,-76.566743,39.319061
"347 S GILMOR ST","BALTIMORE","FOBRBRIT","Forestry Broken Branch in Tree","2015-02-20T13:36:57.000","2015-02-21T13:36:57.000","NEW SOUTHWEST/MOUNT CLARE","15-00126520","MD","OPEN","2015-02-20T15:58:05.000","21223",NA,NA,NA,-76.641838,39.283413
"2400  LAKE AVE","BALTIMORE","FOBRBRIT","Forestry Broken Branch in Tree","2015-02-18T16:51:06.000","2015-02-19T16:51:06.000","MAYFIELD","15-00119469","MD","CLOSED","2015-02-21T08:56:23.000","21213","Dispatch Work Crew","No Cause For Action","2015-02-21T08:55:00.000",-76.577954,39.32755
"1108  WILDWOOD PKWY","BALTIMORE","FOBRBRIT","Forestry Broken Branch in Tree","2015-02-18T16:27:56.000","2015-02-19T16:27:56.000","EDMONDSON VILLAGE","15-00119349","MD","CLOSED","2015-02-21T08:41:03.000","21229","Dispatch Work Crew","Removed broken branch","2015-02-21T08:39:00.000",-76.684054,39.299658
"FAIRVIEW AVE & WYNHAM RD","BALTIMORE","FOBRBRIT","Forestry Broken Branch in Tree","2015-02-15T10:20:03.000","2015-02-16T10:20:03.000","WEST FOREST PARK","15-00107533","MD","CLOSED","2015-02-19T11:05:29.000","21216","Dispatch Work Crew",NA,"2015-02-19T11:04:00.000",-73.762931,42.2654838
"2414  PELHAM AVE","BALTIMORE","FOBRBRIT","Forestry Broken Branch in Tree","2015-02-11T12:45:47.000","2015-02-12T12:45:47.000","MAYFIELD","15-00097900","MD","CLOSED","2015-02-13T09:56:51.000","21213",NA,NA,NA,-76.576828,39.328905
"500 S COLLINGTON AVE","BALTIMORE","FOBRBRIT","Forestry Broken Branch in Tree","2015-02-10T17:37:45.000","2015-02-11T17:37:45.000","CANTON","15-00095895","MD","CLOSED","2015-02-12T10:10:03.000","21231",NA,NA,NA,-76.5859797,39.2856474
"1724 N BOND ST","BALTIMORE","FOBRBRIT","Forestry Broken Branch in Tree","2015-02-11T09:51:15.000","2015-02-12T09:51:15.000","OLIVER","15-00096827","MD","CLOSED","2015-02-12T10:16:07.000","21213","Dispatch Work Crew","Removed broken branch","2015-02-12T10:15:00.000",-76.597199,39.31012
"2215  ANNAPOLIS RD","BALTIMORE","FOBRBRIT","Forestry Broken Branch in Tree","2015-02-10T12:56:10.000","2015-02-11T12:56:10.000","WESTPORT","15-00094255","MD","CLOSED","2015-02-11T09:15:58.000","21230",NA,NA,NA,-76.633118,39.263874
"4011  THE ALAMEDA","BALTIMORE","FOBRBRIT","Forestry Broken Branch in Tree","2015-02-10T12:18:02.000","2015-02-11T12:18:02.000","ORIGINAL NORTHWOOD","15-00094104","MD","CLOSED","2015-02-10T12:18:17.000","21218",NA,NA,NA,-76.598729,39.337608
"2532  FLEET ST","BALTIMORE","FOBRBRIT","Forestry Broken Branch in Tree","2015-02-09T12:39:02.000","2015-02-10T12:39:02.000","CANTON","15-00091497","MD","CLOSED","2015-02-11T09:22:31.000","21224",NA,NA,NA,-76.580502,39.285272
"2819  MOSHER ST","BALTIMORE","FOBRBRIT","Forestry Broken Branch in Tree","2015-02-09T12:21:47.000","2015-02-10T12:21:47.000","MOSHER","15-00091336","MD","CLOSED","2015-02-11T09:25:17.000","21216",NA,NA,NA,-76.664323,39.298922
"1909  JEFFERSON ST","BALTIMORE","FOBRBRIT","Forestry Broken Branch in Tree","2015-02-07T11:44:13.000","2015-02-08T11:44:13.000","MIDDLE EAST","15-00088745","MD","CLOSED","2015-02-10T12:04:15.000","21205",NA,NA,NA,-76.5903464,39.2962433
"4704  EDMONDSON AVE","BALTIMORE","FOBRBRIT","Forestry Broken Branch in Tree","2015-02-03T15:15:46.000","2015-02-04T15:15:46.000","HUNTING RIDGE","15-00077489","MD","CLOSED","2015-02-06T09:46:40.000","21229",NA,NA,NA,-76.698666,39.293371
"1230  COCHRAN AVE","BALTIMORE","FOBRBRIT","Forestry Broken Branch in Tree","2015-02-03T12:11:11.000","2015-02-04T12:11:11.000","WOODBOURNE HEIGHTS","15-00076357","MD","CLOSED","2015-02-06T09:38:52.000","21239",NA,NA,NA,-76.594233,39.35668
"9  SAINT JOHNS RD","BALTIMORE","FOBRBRIT","Forestry Broken Branch in Tree","2015-01-30T16:55:38.000","2015-01-31T16:55:38.000","ROLAND PARK","15-00070061","MD","CLOSED","2015-02-03T09:24:04.000","21210",NA,NA,NA,-76.635748,39.35437
"1929  JEFFERSON ST","BALTIMORE","FOBRBRIT","Forestry Broken Branch in Tree","2015-01-25T21:59:35.000","2015-01-26T21:59:35.000","MIDDLE EAST","15-00055983","MD","CLOSED","2015-01-28T13:29:24.000","21205",NA,NA,NA,-76.589833,39.296236
"4010  EDGEWOOD RD","BALTIMORE","FOBRBRIT","Forestry Broken Branch in Tree","2015-01-23T17:20:12.000","2015-01-24T17:20:12.000","EAST ARLINGTON","15-00053389","MD","CLOSED","2015-01-28T09:49:55.000","21215",NA,NA,NA,-76.6688933,39.3321975
"2425  EUTAW PL","BALTIMORE","FOBRBRIT","Forestry Broken Branch in Tree","2015-01-16T12:46:33.000","2015-01-17T12:46:33.000","RESERVOIR HILL","15-00036041","MD","CLOSED","2015-01-28T09:53:30.000","21217",NA,NA,NA,-76.637147,39.3140883
"1643  BURNWOOD RD","BALTIMORE","FOBRBRIT","Forestry Broken Branch in Tree","2015-01-15T18:34:57.000","2015-01-16T18:34:57.000","PERRING LOCH","15-00034665","MD","CLOSED","2015-01-21T12:06:23.000","21239",NA,NA,NA,-76.584866,39.353523
"W NORTHERN PKWY &W BELVEDERE AVE","BALTIMORE","FOBRBRIT","Forestry Broken Branch in Tree","2015-01-05T20:27:14.000","2015-01-06T20:27:14.000","COLDSPRING","15-00008765","MD","CLOSED","2015-01-08T14:09:29.000","21209","Dispatch Work Crew","No Cause For Action","2015-01-08T14:00:00.000",-76.6656161,39.3557104
"6119  ALTA AVE","BALTIMORE","FOBRBRIT","Forestry Broken Branch in Tree","2015-01-05T18:49:48.000","2015-01-06T18:49:48.000","ROSEMONT EAST","15-00008387","MD","CLOSED","2015-01-08T14:11:16.000","21206","Dispatch Work Crew","No Cause For Action","2015-01-08T14:10:00.000",-76.544282,39.355042
"3312  CARLISLE AVE","BALTIMORE","FOBRBRIT","Forestry Broken Branch in Tree","2014-12-31T17:55:30.000","2015-01-01T17:55:30.000","HANLON-LONGWOOD","14-00969630","MD","CLOSED","2015-01-08T14:47:06.000","21216","Dispatch Work Crew","No Cause For Action","2015-01-08T14:46:00.000",-76.674353,39.319652
"3303  MENLO DR","BALTIMORE","FOBRBRIT","Forestry Broken Branch in Tree","2014-12-30T21:18:06.000","2014-12-31T21:18:06.000","GLEN","14-00967239","MD","CLOSED","2015-01-02T13:07:33.000","21215","Dispatch Work Crew","Removed broken branch","2015-01-02T13:06:00.000",-76.685366,39.358994
"N GILMOR ST & LAURENS ST","BALTIMORE","FOBRBRIT","Forestry Broken Branch in Tree","2014-12-19T13:57:12.000","2014-12-20T13:57:12.000","SANDTOWN-WINCHESTER","14-00944804","MD","CLOSED","2014-12-22T11:25:55.000","21217","Dispatch Work Crew","Removed broken branch","2014-12-22T11:25:00.000",-76.6428841,39.2977245
"4801  NORWOOD RD","BALTIMORE","FOBRBRIT","Forestry Broken Branch in Tree","2014-12-19T11:37:42.000","2014-12-20T11:37:42.000","RADNOR-WINSTON","14-00944153","MD","CLOSED","2014-12-23T11:10:51.000","21212","Dispatch Work Crew","Removed broken branch","2014-12-23T11:00:00.000",-76.611655,39.347579
"3821 W PATAPSCO AVE","BALTIMORE","FOBRBRIT","Forestry Broken Branch in Tree","2014-12-16T21:01:05.000","2014-12-17T21:01:05.000","VIOLETVILLE","14-00937219","MD","CLOSED","2014-12-19T12:46:25.000","21229","Dispatch Work Crew","Removed broken branch","2014-12-19T12:45:00.000",-76.678145,39.26377
"800 N PATTERSON PARK AVE","BALTIMORE","FOBRBRIT","Forestry Broken Branch in Tree","2014-12-10T16:01:47.000","2014-12-11T16:01:47.000","MIDDLE EAST","14-00923941","MD","CLOSED","2014-12-15T10:51:22.000","21205","Dispatch Work Crew","Removed broken branch","2014-12-15T10:49:00.000",-76.585469,39.299887
"BATTERY AVE &E MONTGOMERY ST","BALTIMORE","FOBRBRIT","Forestry Broken Branch in Tree","2014-12-06T15:26:29.000","2014-12-07T15:26:29.000","FEDERAL HILL","14-00914533","MD","CLOSED","2014-12-10T13:00:50.000","21202","Dispatch Work Crew","Removed broken branch","2014-12-10T12:59:00.000",-74.0249026,40.6154632
"100 N COLLINGTON AVE","BALTIMORE","FOBRBRIT","Forestry Broken Branch in Tree","2014-12-02T14:37:35.000","2014-12-03T14:37:35.000","BUTCHER'S HILL","14-00903004","MD","CLOSED","2014-12-08T13:06:18.000","21231","Dispatch Work Crew","Removed broken branch","2014-12-08T13:05:00.000",-76.5865103,39.2931806
"609 W 33RD ST","BALTIMORE","FOBRBRIT","Forestry Broken Branch in Tree","2014-11-25T13:40:04.000","2014-11-26T13:40:04.000","HAMPDEN","14-00886777","MD","CLOSED","2014-12-02T13:30:18.000","21211","Dispatch Work Crew","Removed broken branch","2014-12-02T13:29:00.000",-76.626833,39.32685
"3410  LYNCHESTER RD","BALTIMORE","FOBRBRIT","Forestry Broken Branch in Tree","2014-11-25T11:19:01.000","2014-11-26T11:19:01.000","ASHBURTON","14-00885580","MD","CLOSED","2014-11-26T13:55:20.000","21215","Dispatch Inspector","Duplicate request","2014-11-26T09:34:00.000",-76.669935,39.325399
"2200  LYNDHURST AVE","BALTIMORE","FOBRBRIT","Forestry Broken Branch in Tree","2014-11-25T09:48:38.000","2014-11-26T09:48:38.000","MOUNT HOLLY","14-00885328","MD","CLOSED","2014-11-26T17:01:46.000","21216","Dispatch Inspector","Broken branch needs to be removed","2014-11-25T09:50:00.000",-76.683612,39.312367
"3410  LYNCHESTER RD","BALTIMORE","FOBRBRIT","Forestry Broken Branch in Tree","2014-11-24T18:11:56.000","2014-11-25T18:11:56.000","ASHBURTON","14-00884468","MD","CLOSED","2014-11-28T14:42:34.000","21215","Dispatch Work Crew","Removed broken branch","2014-11-28T14:41:00.000",-76.669935,39.325399
"3526  GLENMORE AVE","BALTIMORE","FOBRBRIT","Forestry Broken Branch in Tree","2014-11-24T17:21:42.000","2014-11-25T17:21:42.000","WESTFIELD","14-00884226","MD","CLOSED","2014-12-02T13:25:47.000","21206","Dispatch Work Crew","No Cause For Action","2014-12-02T13:24:00.000",-76.5456109,39.35383
"100 E PRATT ST","BALTIMORE","FOBRBRIT","Forestry Broken Branch in Tree","2014-11-21T14:44:49.000","2014-11-22T14:44:49.000","INNER HARBOR","14-00878766","MD","CLOSED","2014-11-24T18:22:46.000","21202","Dispatch Work Crew","No Cause For Action","2014-11-24T18:21:00.000",-76.6129075,39.2872198
"4801  NORWOOD RD","BALTIMORE","FOBRBRIT","Forestry Broken Branch in Tree","2014-11-21T14:09:44.000","2014-11-22T14:09:44.000","RADNOR-WINSTON","14-00878608","MD","CLOSED","2014-11-24T18:27:01.000","21212","Dispatch Work Crew","No Cause For Action","2014-11-24T18:26:00.000",-76.611655,39.347579
"4500  HARCOURT RD","BALTIMORE","FOBRBRIT","Forestry Broken Branch in Tree","2014-11-20T16:46:45.000","2014-11-21T16:46:45.000","MORAVIA-WALTHER","14-00876222","MD","CLOSED","2014-12-08T13:05:20.000","21214","Dispatch Inspector","Broken branch needs to be removed","2014-11-28T18:16:00.000",-76.5651534,39.3377146
"2811  ALLENDALE RD","BALTIMORE","FOBRBRIT","Forestry Broken Branch in Tree","2014-11-20T13:15:59.000","2014-11-21T13:15:59.000","GARWYN OAKS","14-00875154","MD","CLOSED","2014-11-26T17:02:39.000","21216","Dispatch Work Crew","Removed broken branch","2014-11-26T17:02:00.000",-76.680398,39.319991
"2919  SAINT PAUL ST","BALTIMORE","FOBRBRIT","Forestry Broken Branch in Tree","2014-11-19T15:04:54.000","2014-11-20T15:04:54.000","CHARLES VILLAGE","14-00872537","MD","CLOSED","2014-11-24T12:39:20.000","21218","Dispatch Work Crew","Removed broken branch","2014-11-24T12:38:00.000",-76.615439,39.323816
"3613  GLENMORE AVE","BALTIMORE","FOBRBRIT","Forestry Broken Branch in Tree","2014-11-18T16:19:23.000","2014-11-19T16:19:23.000","GLENHAM-BELFORD","14-00869511","MD","CLOSED","2014-11-21T14:19:18.000","21206","Dispatch Work Crew","Removed broken branch","2014-11-21T14:18:00.000",-76.543637,39.35318
"1047  ROCKHILL AVE","BALTIMORE CITY","FOBRBRIT","Forestry Broken Branch in Tree","2014-11-15T15:16:27.000","2014-11-16T15:16:27.000","VIOLETVILLE","14-00862613","MD","CLOSED","2014-11-20T11:52:07.000","21229","Dispatch Work Crew","No Cause For Action","2014-11-20T11:51:00.000",-76.676896,39.2693845
"2319 N ELLAMONT ST","BALTIMORE CITY","FOBRBRIT","Forestry Broken Branch in Tree","2014-11-15T10:12:53.000","2014-11-16T10:12:53.000","WALBROOK","14-00862044","MD","CLOSED","2014-11-18T10:21:48.000","21216","Dispatch Work Crew","Removed broken branch","2014-11-18T10:21:00.000",-76.670924,39.313872
"2131  MCCULLOH ST","BALTIMORE CITY","FOBRBRIT","Forestry Broken Branch in Tree","2014-11-12T17:30:27.000","2014-11-13T17:30:27.000","DRUID HEIGHTS","14-00854991","MD","CLOSED","2014-11-15T12:57:50.000","21217","Dispatch Work Crew","Removed broken branch","2014-11-15T12:57:00.000",-76.636134,39.3096419
"E BALTIMORE ST &N LAKEWOOD AVE","BALTIMORE CITY","FOBRBRIT","Forestry Broken Branch in Tree","2014-11-12T12:41:12.000","2014-11-13T12:41:12.000","BALTIMORE-LINWOOD","14-00853339","MD","CLOSED","2014-11-15T12:58:27.000","21224","Dispatch Work Crew","Removed broken branch","2014-11-15T12:58:00.000",-88.1392461,41.3101454
"1112  KEVIN RD","BALTIMORE CITY","FOBRBRIT","Forestry Broken Branch in Tree","2014-11-11T19:10:17.000","2014-11-12T19:10:17.000","ROGNEL HEIGHTS","14-00851830","MD","CLOSED","2014-11-15T12:59:52.000","21229","Dispatch Work Crew","Removed broken branch","2014-11-15T12:59:00.000",-76.690464,39.298374
"808 E LAKE AVE","BALTIMORE CITY","FOBRBRIT","Forestry Broken Branch in Tree","2014-11-07T17:09:15.000","2014-11-08T17:09:15.000","LAKE WALKER","14-00842189","MD","CLOSED","2014-11-15T12:56:21.000","21212","Dispatch Work Crew","Removed broken branch","2014-11-15T12:56:00.000",-76.604575,39.367126
"1371  PENTWOOD RD","BALTIMORE CITY","FOBRBRIT","Forestry Broken Branch in Tree","2014-11-06T15:49:39.000","2014-11-07T15:49:39.000","NEW NORTHWOOD","14-00838282","MD","CLOSED","2014-11-12T12:26:58.000","21239","Dispatch Work Crew","Removed broken branch","2014-11-12T12:26:00.000",-76.5927522,39.3484216
"3615  MARY AVE","BALTIMORE CITY","FOBRBRIT","Forestry Broken Branch in Tree","2014-11-06T10:52:36.000","2014-11-07T10:52:36.000","GLENHAM-BELFORD","14-00836403","MD","CLOSED","2014-11-20T11:29:03.000","21214","Dispatch Work Crew","Removed broken branch","2014-11-20T11:28:00.000",-76.5484029,39.349676
"808 E LAKE AVE","BALTIMORE CITY","FOBRBRIT","Forestry Broken Branch in Tree","2014-11-05T19:07:53.000","2014-11-06T19:07:53.000","LAKE WALKER","14-00835642","MD","CLOSED","2014-11-07T18:00:27.000","21212","Dispatch Work Crew","Removed broken branch","2014-11-07T18:00:00.000",-76.604575,39.367126
"E BELVEDERE AVE & NORTHWOOD DR","BALTIMORE CITY","FOBRBRIT","Forestry Broken Branch in Tree","2014-11-04T09:31:05.000","2014-11-05T09:31:05.000","GLEN OAKS","14-00828988","MD","CLOSED","2014-11-07T18:27:05.000","21212","Dispatch Work Crew","Removed broken branch","2014-11-07T18:26:00.000",-76.5959071,39.3604586
"911  GORSUCH AVE","BALTIMORE CITY","FOBRBRIT","Forestry Broken Branch in Tree","2014-11-03T23:13:03.000","2014-11-04T23:13:03.000","BETTER WAVERLY","14-00828830","MD","CLOSED","2014-11-07T17:58:22.000","21218","Dispatch Work Crew","Removed broken branch","2014-11-07T17:57:00.000",-76.60413,39.326043
"45 E HENRIETTA ST","BALTIMORE CITY","FOBRBRIT","Forestry Broken Branch in Tree","2014-11-03T14:00:29.000","2014-11-04T14:00:29.000","FEDERAL HILL","14-00826618","MD","CLOSED","2014-11-07T18:01:58.000","21230","Dispatch Work Crew","Removed broken branch","2014-11-07T18:01:00.000",-76.6130988,39.2788555
"1729  WADSWORTH WAY","BALTIMORE CITY","FOBRBRIT","Forestry Broken Branch in Tree","2014-11-03T12:00:32.000","2014-11-04T12:00:32.000","LOCH RAVEN","14-00825496","MD","CLOSED","2014-11-15T12:55:35.000","21239","Dispatch Work Crew","Removed broken branch","2014-11-15T12:55:00.000",-76.5797977,39.3600986
"3319  SEQUOIA AVE","BALTIMORE CITY","FOBRBRIT","Forestry Broken Branch in Tree","2014-11-01T17:06:02.000","2014-11-02T17:06:02.000","ASHBURTON","14-00822817","MD","CLOSED","2014-11-12T13:07:53.000","21215","Dispatch Work Crew","Removed broken branch","2014-11-12T13:07:00.000",-76.671083,39.3291899
"1436 E FORT AVE","BALTIMORE CITY","FOBRBRIT","Forestry Broken Branch in Tree","2014-11-01T14:27:21.000","2014-11-02T14:27:21.000","LOCUST POINT","14-00822236","MD","CLOSED","2014-11-06T15:35:30.000","21230","Dispatch Work Crew","Removed broken branch","2014-11-06T15:34:00.000",-76.593905,39.269265
"122  DENISON ST","BALTIMORE CITY","FOBRBRIT","Forestry Broken Branch in Tree","2014-10-30T13:12:35.000","2014-10-31T13:12:35.000","ALLENDALE","14-00815675","MD","CLOSED","2014-11-07T16:04:00.000","21229","Dispatch Work Crew","Removed broken branch","2014-11-07T16:03:00.000",-76.6765004,39.2892272
"1201  COCHRAN AVE","BALTIMORE CITY","FOBRBRIT","Forestry Broken Branch in Tree","2014-10-30T12:45:12.000","2014-10-31T12:45:12.000","WOODBOURNE HEIGHTS","14-00815549","MD","CLOSED","2014-11-07T16:16:55.000","21239","Dispatch Work Crew","Removed broken branch","2014-11-07T16:16:00.000",-76.595275,39.356219
"N CHARLES ST & STRATFORD RD","BALTIMORE CITY","FOBRBRIT","Forestry Broken Branch in Tree","2014-10-29T00:07:17.000","2014-10-30T00:07:17.000","GUILFORD","14-00811730","MD","CLOSED","2014-11-15T12:47:23.000","21218","Dispatch Work Crew","No Cause For Action","2014-11-15T12:47:00.000",-76.624156,39.3561528
"3913  HILTON RD","BALTIMORE CITY","FOBRBRIT","Forestry Broken Branch in Tree","2014-10-27T17:00:18.000","2014-10-28T17:00:18.000","EAST ARLINGTON","14-00807437","MD","CLOSED","2014-10-29T16:37:40.000","21215","Dispatch Work Crew","No Cause For Action","2014-10-29T16:37:00.000",-76.668165,39.3301
"2422 E MADISON ST","BALTIMORE CITY","FOBRBRIT","Forestry Broken Branch in Tree","2014-10-24T17:58:04.000","2014-10-25T17:58:04.000","MILTON-MONTFORD","14-00802360","MD","CLOSED","2014-11-12T12:54:06.000","21205","Dispatch Work Crew","Removed broken branch","2014-11-12T12:53:00.000",-76.5826846,39.3000522
"5800  WELBOURNE RD","BALTIMORE CITY","FOBRBRIT","Forestry Broken Branch in Tree","2014-10-23T20:08:11.000","2014-10-24T20:08:11.000","LOCH RAVEN","14-00800069","MD","CLOSED","2014-10-28T13:42:51.000","21239","Dispatch Inspector","No Cause For Action","2014-10-28T13:41:00.000",-76.5837381,39.3592428
"3642  BEECH AVE","BALTIMORE CITY","FOBRBRIT","Forestry Broken Branch in Tree","2014-10-23T13:41:53.000","2014-10-24T13:41:53.000","WYMAN PARK","14-00798370","MD","CLOSED","2014-11-12T13:10:56.000","21211","Dispatch Work Crew","Removed broken branch","2014-11-12T13:10:00.000",-76.627143,39.332139
"2327 E OLIVER ST","BALTIMORE CITY","FOBRBRIT","Forestry Broken Branch in Tree","2014-10-23T11:37:48.000","2014-10-24T11:37:48.000","BROADWAY EAST","14-00797732","MD","CLOSED","2014-11-12T12:25:05.000","21213","Dispatch Work Crew","Removed broken branch","2014-11-12T12:24:00.000",-76.584614,39.307684
"2521  MOORE AVE","BALTIMORE CITY","FOBRBRIT","Forestry Broken Branch in Tree","2014-10-21T13:22:49.000","2014-10-22T13:22:49.000","HARFORD-ECHODALE/PERRING PARKWAY","14-00791747","MD","CLOSED","2014-10-24T12:17:15.000","21234","Dispatch Work Crew","No Cause For Action","2014-10-24T12:16:00.000",-76.556729,39.370339
"3609  SEQUOIA AVE","BALTIMORE CITY","FOBRBRIT","Forestry Broken Branch in Tree","2014-10-21T11:27:04.000","2014-10-22T11:27:04.000","ASHBURTON","14-00791204","MD","CLOSED","2014-10-27T13:40:45.000","21215","Dispatch Work Crew","Removed broken branch","2014-10-27T13:36:00.000",-76.675225,39.330425
"3112  JUNEAU PL","BALTIMORE CITY","FOBRBRIT","Forestry Broken Branch in Tree","2014-10-20T11:24:01.000","2014-10-21T11:24:01.000","ARCADIA","14-00787826","MD","CLOSED","2014-11-18T10:24:26.000","21214","Dispatch Inspector","Broken branch needs to be removed","2014-10-30T19:02:00.000",-76.570841,39.334058
"3800  AYRDALE AVE","BALTIMORE CITY","FOBRBRIT","Forestry Broken Branch in Tree","2014-10-19T13:50:22.000","2014-10-20T13:50:22.000","CALLAWAY-GARRISON","14-00786895","MD","CLOSED","2014-10-21T12:07:42.000","21215","Dispatch Work Crew","Removed broken branch","2014-10-21T12:07:00.000",-76.6786731,39.3317579
"230 W LAFAYETTE AVE","BALTIMORE CITY","FOBRBRIT","Forestry Broken Branch in Tree","2014-10-16T11:19:38.000","2014-10-17T11:19:38.000","BOLTON HILL","14-00779005","MD","CLOSED","2014-10-17T11:50:12.000","21217",NA,NA,NA,-76.625583,39.306042
"2300 N ROSEDALE ST","BALTIMORE CITY","FOBRBRIT","Forestry Broken Branch in Tree","2014-10-12T23:13:23.000","2014-10-13T23:13:23.000","WALBROOK","14-00770238","MD","CLOSED","2014-10-20T15:28:06.000","21216","Dispatch Work Crew","Removed broken branch","2014-10-20T15:27:00.000",-76.669861,39.313384
"LAWINA RD & WAKEFIELD RD","BALTIMORE CITY","FOBRBRIT","Forestry Broken Branch in Tree","2014-10-10T16:57:07.000","2014-10-11T16:57:07.000","WEST FOREST PARK","14-00766430","MD","CLOSED","2014-11-19T18:30:16.000","21216","Dispatch Work Crew","Removed broken branch","2014-11-19T18:29:00.000",-76.6891965,39.3177181
"2636  WILKENS AVE","BALTIMORE CITY","FOBRBRIT","Forestry Broken Branch in Tree","2014-10-10T10:24:10.000","2014-10-11T10:24:10.000","MILLHILL","14-00764812","MD","CLOSED","2014-10-14T12:46:03.000","21223","Dispatch Work Crew","Removed broken branch","2014-10-14T12:45:00.000",-76.65723,39.2787037
"1651  RAMBLEWOOD RD","BALTIMORE CITY","FOBRBRIT","Forestry Broken Branch in Tree","2014-10-08T20:16:59.000","2014-10-09T20:16:59.000","LOCH RAVEN","14-00760612","MD","CLOSED","2014-10-14T12:49:06.000","21239","Dispatch Work Crew","Removed broken branch","2014-10-14T12:48:00.000",-76.584044,39.359067
"202  CEDARCROFT RD","BALTIMORE CITY","FOBRBRIT","Forestry Broken Branch in Tree","2014-10-07T18:18:41.000","2014-10-08T18:18:41.000","CEDARCROFT","14-00756538","MD","CLOSED","2014-10-09T12:02:04.000","21212","Dispatch Work Crew","Removed broken branch","2014-10-09T12:01:00.000",-76.617588,39.3695329
"1121  FALLSHILL DR","BALTIMORE CITY","FOBRBRIT","Forestry Broken Branch in Tree","2014-10-07T13:51:15.000","2014-10-08T13:51:15.000","HOES HEIGHTS","14-00755131","MD","CLOSED","2014-10-15T11:35:54.000","21211","Dispatch Work Crew","Removed broken branch","2014-10-15T11:34:00.000",-76.638442,39.339998
"5722  LEITH WALK","BALTIMORE CITY","FOBRBRIT","Forestry Broken Branch in Tree","2014-10-07T00:31:39.000","2014-10-08T00:31:39.000","RAMBLEWOOD","14-00753937","MD","CLOSED","2014-10-14T12:49:47.000","21239","Dispatch Work Crew","Removed broken branch","2014-10-14T12:49:00.000",-76.591622,39.361977
"8  LONGWOOD RD","BALTIMORE CITY","FOBRBRIT","Forestry Broken Branch in Tree","2014-10-06T18:52:40.000","2014-10-07T18:52:40.000","ROLAND PARK","14-00753122","MD","CLOSED","2014-10-20T15:26:56.000","21210","Dispatch Inspector","No Cause For Action","2014-10-16T18:07:00.000",-76.635871,39.355896
"131 N EDGEWOOD ST","BALTIMORE CITY","FOBRBRIT","Forestry Broken Branch in Tree","2014-09-26T17:01:47.000","2014-09-27T17:01:47.000","ALLENDALE","14-00728322","MD","CLOSED","2014-09-29T10:42:00.000","21229","Dispatch Inspector","Duplicate request","2014-09-29T10:40:00.000",-76.6765989,39.2895715
"625 S BELNORD AVE","BALTIMORE CITY","FOBRBRIT","Forestry Broken Branch in Tree","2014-09-25T18:41:05.000","2014-09-26T18:41:05.000","CANTON","14-00725640","MD","CLOSED","2014-10-02T14:54:38.000","21224","Dispatch Work Crew","No Cause For Action","2014-10-02T14:54:00.000",-76.57765,39.2846806
"4900  NELSON AVE","BALTIMORE CITY","FOBRBRIT","Forestry Broken Branch in Tree","2014-09-25T16:57:53.000","2014-09-26T16:57:53.000","LANGSTON HUGHES","14-00725273","MD","CLOSED","2014-10-17T11:52:39.000","21215",NA,NA,NA,-76.6797724,39.3426834
"3617  HARFORD RD","BALTIMORE CITY","FOBRBRIT","Forestry Broken Branch in Tree","2014-09-25T16:49:56.000","2014-09-26T16:49:56.000","MAYFIELD","14-00725235","MD","CLOSED","2014-10-02T15:06:32.000","21218","Dispatch Work Crew","No Cause For Action","2014-10-02T15:05:00.000",-76.5794512,39.3310726
"3819  DOLFIELD AVE","BALTIMORE CITY","FOBRBRIT","Forestry Broken Branch in Tree","2014-09-24T20:20:10.000","2014-09-25T20:20:10.000","DOLFIELD","14-00722743","MD","CLOSED","2014-09-26T11:49:09.000","21215","Dispatch Work Crew","No Cause For Action","2014-09-26T11:47:00.000",-76.680643,39.338974
"2106  POPLAR GROVE ST","BALTIMORE CITY","FOBRBRIT","Forestry Broken Branch in Tree","2014-09-24T13:14:06.000","2014-09-25T13:14:06.000","PANWAY/BRADDISH AVENUE","14-00720796","MD","CLOSED","2014-11-20T12:06:34.000","21216","Dispatch Work Crew","No Cause For Action","2014-11-20T12:06:00.000",-76.666219,39.312047
"1222  SHERWOOD AVE","BALTIMORE CITY","FOBRBRIT","Forestry Broken Branch in Tree","2014-09-23T21:02:09.000","2014-09-24T21:02:09.000","RAMBLEWOOD","14-00719197","MD","CLOSED","2014-09-24T18:19:22.000","21239","Dispatch Work Crew","Removed broken branch","2014-09-24T18:18:00.000",-76.591654,39.366022
"3819  DOLFIELD AVE","BALTIMORE CITY","FOBRBRIT","Forestry Broken Branch in Tree","2014-09-19T19:23:39.000","2014-09-20T19:23:39.000","DOLFIELD","14-00710249","MD","CLOSED","2014-09-23T18:16:44.000","21215","Dispatch Work Crew","Removed broken branch","2014-09-23T18:16:00.000",-76.680643,39.338974
"3659  COTTAGE AVE","BALTIMORE CITY","FOBRBRIT","Forestry Broken Branch in Tree","2014-09-19T14:18:26.000","2014-09-20T14:18:26.000","PARK CIRCLE","14-00708838","MD","CLOSED","2014-09-23T18:19:39.000","21215","Dispatch Work Crew","Removed broken branch","2014-09-23T18:18:00.000",-76.658125,39.3312839
"5921  CHINQUAPIN PKWY","BALTIMORE CITY","FOBRBRIT","Forestry Broken Branch in Tree","2014-09-12T11:45:31.000","2014-09-13T11:45:31.000","GLEN OAKS","14-00688806","MD","CLOSED","2014-09-17T10:45:28.000","21239","Dispatch Inspector","Removed broken branch","2014-09-12T11:45:00.000",-76.5967919,39.364449
"4935  SCHAUB AVE","BALTIMORE CITY","FOBRBRIT","Forestry Broken Branch in Tree","2014-09-11T12:42:48.000","2014-09-12T12:42:48.000","FRANKFORD","14-00685604","MD","CLOSED","2014-09-16T12:27:32.000","21206","Dispatch Inspector","No Cause For Action","2014-09-16T12:27:00.000",-76.539283,39.322854
"1563  SHERWOOD AVE","BALTIMORE","FOBRBRIT","Forestry Broken Branch in Tree","2014-09-10T12:26:37.000","2014-09-11T12:26:37.000","LOCH RAVEN","14-00681764","MD","CLOSED","2014-09-17T11:45:44.000","21239","Dispatch Inspector","Broken branch needs to be removed","2014-09-11T18:24:00.000",-76.584349,39.36164
"2200  FLEETWOOD AVE","BALTIMORE","FOBRBRIT","Forestry Broken Branch in Tree","2014-09-09T13:07:40.000","2014-09-10T13:07:40.000","HARFORD-ECHODALE/PERRING PARKWAY","14-00678376","MD","CLOSED","2014-09-12T11:10:19.000",NA,"Dispatch Inspector","Removed broken branch","2014-09-12T11:00:00.000",-76.5714079,39.3670683
"3435  GUILFORD TER","BALTIMORE","FOBRBRIT","Forestry Broken Branch in Tree","2014-09-09T12:36:51.000","2014-09-10T12:36:51.000","OAKENSHAWE","14-00678184","MD","CLOSED","2014-09-11T11:37:30.000","21218","Dispatch Work Crew","No Cause For Action","2014-09-11T11:36:00.000",-76.612288,39.330805
"1502  KENHILL AVE","BALTIMORE","FOBRBRIT","Forestry Broken Branch in Tree","2014-09-09T10:04:40.000","2014-09-10T10:04:40.000","BEREA","14-00677623","MD","CLOSED","2014-09-11T11:33:55.000","21213","Dispatch Work Crew","Removed broken branch","2014-09-11T11:33:00.000",-76.57794,39.308311
"600  BARTLETT AVE","BALTIMORE","FOBRBRIT","Forestry Broken Branch in Tree","2014-09-08T18:16:57.000","2014-09-09T18:16:57.000","EAST BALTIMORE MIDWAY","14-00676631","MD","CLOSED","2014-09-11T11:24:32.000","21218","Dispatch Work Crew","Removed broken branch","2014-09-11T11:24:00.000",-76.607687,39.317345
"32 S CALVERTON RD","BALTIMORE CITY","FOBRBRIT","Forestry Broken Branch in Tree","2014-09-05T20:02:56.000","2014-09-06T20:02:56.000","BOOTH-BOYD","14-00671118","MD","CLOSED","2014-09-09T14:16:27.000","21223","Dispatch Work Crew","Removed broken branch","2014-09-09T14:16:00.000",-76.653155,39.287048
"3516  HARFORD RD","BALTIMORE CITY","FOBRBRIT","Forestry Broken Branch in Tree","2014-09-03T15:11:28.000","2014-09-04T15:11:28.000","MAYFIELD","14-00662716","MD","CLOSED","2014-09-08T13:32:56.000","21218","Dispatch Work Crew","Removed broken branch","2014-09-08T13:32:00.000",-76.581474,39.3300241
"7  SAINT GEORGES RD","BALTIMORE CITY","FOBRBRIT","Forestry Broken Branch in Tree","2014-09-02T11:57:36.000","2014-09-03T11:57:36.000","THE ORCHARDS","14-00657961","MD","CLOSED","2014-09-04T11:23:28.000","21210","Dispatch Work Crew","Removed broken branch","2014-09-04T11:23:00.000",-76.626459,39.3644869
"3425  SAINT AMBROSE AVE","BALTIMORE CITY","FOBRBRIT","Forestry Broken Branch in Tree","2014-08-28T19:56:28.000","2014-08-29T19:56:28.000","CENTRAL PARK HEIGHTS","14-00651027","MD","CLOSED","2014-11-21T14:18:08.000","21215","Dispatch Work Crew","Removed broken branch","2014-11-21T14:16:00.000",-76.671027,39.340782
"4100  GREENSPRING AVE","BALTIMORE CITY","FOBRBRIT","Forestry Broken Branch in Tree","2014-08-28T12:06:24.000","2014-08-29T12:06:24.000","WOODBERRY","14-00648803","MD","CLOSED","2014-09-02T11:45:02.000","21209","Dispatch Work Crew","Removed broken branch","2014-09-02T11:44:00.000",-76.657023,39.337905
"4400  GREENSPRING AVE","BALTIMORE CITY","FOBRBRIT","Forestry Broken Branch in Tree","2014-08-27T13:45:39.000","2014-08-28T13:45:39.000","PARKLANE","14-00645878","MD","CLOSED","2014-09-02T12:16:36.000","21209","Dispatch Work Crew","No Cause For Action","2014-09-02T12:16:00.000",-76.6581821,39.3406792
"3502  ROSEDALE RD","BALTIMORE CITY","FOBRBRIT","Forestry Broken Branch in Tree","2014-08-27T13:35:07.000","2014-08-28T13:35:07.000","ASHBURTON","14-00645818","MD","CLOSED","2014-09-02T12:13:21.000","21215","Dispatch Work Crew","Removed broken branch","2014-09-02T12:12:00.000",-76.6668399,39.325159
"122 N HIGHLAND AVE","BALTIMORE CITY","FOBRBRIT","Forestry Broken Branch in Tree","2014-08-26T17:35:11.000","2014-08-27T17:35:11.000","BALTIMORE-LINWOOD","14-00643640","MD","CLOSED","2014-08-28T14:33:43.000","21224","Dispatch Work Crew","Removed broken branch","2014-08-28T14:33:00.000",-76.569787,39.294137
"631  MCKEWIN AVE","BALTIMORE CITY","FOBRBRIT","Forestry Broken Branch in Tree","2014-08-26T17:31:19.000","2014-08-27T17:31:19.000","WAVERLY","14-00643619","MD","CLOSED","2014-09-02T12:18:03.000","21218","Dispatch Work Crew","Removed broken branch","2014-09-02T12:17:00.000",-76.606548,39.332707
"POWDER MILL LN & WAYNE AVE","BALTIMORE CITY","FOBRBRIT","Forestry Broken Branch in Tree","2014-08-26T13:04:04.000","2014-08-27T13:04:04.000","HOWARD PARK","14-00642064","MD","CLOSED","2014-10-17T11:54:21.000","21207",NA,NA,NA,-75.285081,39.9853127
"HILLEN RD & LYDONLEA WADSWORTH","BALTIMORE CITY","FOBRBRIT","Forestry Broken Branch in Tree","2014-08-25T18:03:09.000","2014-08-26T18:03:09.000","LOCH RAVEN","14-00640265","MD","CLOSED","2014-08-26T17:43:52.000","21239","Dispatch Inspector","No Cause For Action","2014-08-26T17:42:00.000",-76.5816433,39.3595487
"WINDSOR MILL RD & GWYNNS FALLS PKWY","BALTIMORE CITY","FOBRBRIT","Forestry Broken Branch in Tree","2014-08-21T10:46:12.000","2014-08-22T10:46:12.000","WINDSOR HILLS","14-00628693","MD","CLOSED","2014-08-28T14:50:04.000","21216","Dispatch Work Crew","Removed broken branch","2014-08-28T14:49:00.000",-72.3750834,43.5193237
"MAYBERRY AVE & BROOK AVE","BALTIMORE CITY","FOBRBRIT","Forestry Broken Branch in Tree","2014-08-20T20:15:36.000","2014-08-21T20:15:36.000","ROSEMONT EAST","14-00627888","MD","CLOSED","2014-08-21T18:11:05.000","21206","Dispatch Work Crew","Removed broken branch","2014-08-21T18:00:00.000",-116.9254144,33.7405136
"1523  SHERWOOD AVE","BALTIMORE CITY","FOBRBRIT","Forestry Broken Branch in Tree","2014-08-19T17:41:46.000","2014-08-20T17:41:46.000","LOCH RAVEN","14-00623742","MD","CLOSED","2014-08-26T13:09:57.000","21239","Dispatch Work Crew","Removed broken branch","2014-08-26T13:00:00.000",-76.5854222,39.3626673
"3608  EDGEWOOD RD","BALTIMORE CITY","FOBRBRIT","Forestry Broken Branch in Tree","2014-08-18T12:34:50.000","2014-08-19T12:34:50.000","ASHBURTON","14-00618390","MD","CLOSED","2014-08-28T13:48:04.000","21215","Dispatch Work Crew","Removed broken branch","2014-08-28T13:41:00.000",-76.673194,39.328685
"2307  SIDNEY AVE","BALTIMORE CITY","FOBRBRIT","Forestry Broken Branch in Tree","2014-08-18T12:25:40.000","2014-08-19T12:25:40.000","WESTPORT","14-00618293","MD","CLOSED","2014-08-28T14:48:24.000","21230","Dispatch Work Crew","Removed broken branch","2014-08-28T14:47:00.000",-76.633033,39.262466
"205 S TREMONT RD","BALTIMORE CITY","FOBRBRIT","Forestry Broken Branch in Tree","2014-08-17T18:36:18.000","2014-08-18T18:36:18.000","TREMONT","14-00617275","MD","CLOSED","2014-08-19T11:16:15.000","21229","Dispatch Work Crew","Removed broken branch","2014-08-19T11:15:00.000",-76.6946318,39.2819445
"1724 E 30TH ST","BALTIMORE CITY","FOBRBRIT","Forestry Broken Branch in Tree","2014-08-17T15:51:30.000","2014-08-18T15:51:30.000","COLDSTREAM HOMESTEAD MONTEBELLO","14-00617026","MD","CLOSED","2014-08-28T15:07:55.000","21218","Dispatch Work Crew","Removed broken branch","2014-08-28T15:07:00.000",-76.5912339,39.3255274
"4100  ELDERON AVE","BALTIMORE CITY","FOBRBRIT","Forestry Broken Branch in Tree","2014-08-15T20:13:57.000","2014-08-16T20:13:57.000","WEST ARLINGTON","14-00614902","MD","CLOSED","2014-08-26T12:38:39.000","21215","Dispatch Work Crew","No Cause For Action","2014-08-26T12:38:00.000",-76.6872269,39.341964
"4402  KESWICK RD","BALTIMORE CITY","FOBRBRIT","Forestry Broken Branch in Tree","2014-08-14T13:18:54.000","2014-08-15T13:18:54.000","KESWICK","14-00609513","MD","CLOSED","2014-08-15T10:14:20.000","21210","Dispatch Inspector","Duplicate request","2014-08-15T10:13:00.000",-76.630088,39.344026
"1406 N POTOMAC ST","BALTIMORE CITY","FOBRBRIT","Forestry Broken Branch in Tree","2014-08-13T11:41:10.000","2014-08-14T11:41:10.000","BEREA","14-00605302","MD","CLOSED","2014-08-13T14:53:01.000","21213","Dispatch Inspector","Duplicate request","2014-08-13T14:52:00.000",-76.57605,39.307436
"1400  RIVERSIDE AVE","BALTIMORE CITY","FOBRBRIT","Forestry Broken Branch in Tree","2014-08-12T18:25:44.000","2014-08-13T18:25:44.000","RIVERSIDE","14-00603601","MD","CLOSED","2014-08-13T10:07:41.000","21230","Dispatch Inspector","Duplicate request","2014-08-13T10:07:00.000",-76.6088246,39.2740359
"3720  CLARENELL RD","BALTIMORE CITY","FOBRBRIT","Forestry Broken Branch in Tree","2014-08-12T17:27:22.000","2014-08-13T17:27:22.000","VIOLETVILLE","14-00603272","MD","CLOSED","2014-08-18T12:06:32.000","21229","Dispatch Work Crew","Removed broken branch","2014-08-18T12:06:00.000",-76.678323,39.26483
"2602  AISQUITH ST","BALTIMORE CITY","FOBRBRIT","Forestry Broken Branch in Tree","2014-08-10T21:01:17.000","2014-08-11T21:01:17.000","COLDSTREAM HOMESTEAD MONTEBELLO","14-00597265","MD","CLOSED","2014-08-14T11:31:59.000","21218","Dispatch Work Crew","Removed broken branch","2014-08-14T11:30:00.000",-76.5966927,39.3191768
"2207 E LOMBARD ST","BALTIMORE CITY","FOBRBRIT","Forestry Broken Branch in Tree","2014-08-08T16:44:32.000","2014-08-09T16:44:32.000","BUTCHER'S HILL","14-00594137","MD","CLOSED","2014-08-14T11:30:06.000","21231","Dispatch Work Crew","Removed broken branch","2014-08-14T11:29:00.000",-76.5858098,39.2904383
"1512  HENRY ST","BALTIMORE CITY","FOBRBRIT","Forestry Broken Branch in Tree","2014-08-07T12:46:07.000","2014-08-08T12:46:07.000","RIVERSIDE","14-00588891","MD","CLOSED","2014-08-26T11:42:52.000","21230","Dispatch Work Crew","Removed broken branch","2014-08-26T11:42:00.000",-76.607714,39.272271
"FALLS RD & CROSS KEYS RD","BALTIMORE CITY","FOBRBRIT","Forestry Broken Branch in Tree","2014-08-06T20:45:38.000","2014-08-07T20:45:38.000","CROSS KEYS","14-00587438","MD","CLOSED","2014-08-26T11:41:35.000","21210","Dispatch Work Crew","Removed broken branch","2014-08-26T11:41:00.000",-76.7121307,39.5052964
"3927  BROOKLYN AVE","BALTIMORE CITY","FOBRBRIT","Forestry Broken Branch in Tree","2014-08-05T22:29:45.000","2014-08-06T22:29:45.000","BROOKLYN","14-00584087","MD","CLOSED","2014-12-19T12:44:37.000","21225","Dispatch Work Crew","No Cause For Action","2014-12-19T12:43:00.000",-76.602096,39.231855
"5823  FAIRWOOD AVE","BALTIMORE CITY","FOBRBRIT","Forestry Broken Branch in Tree","2014-08-04T20:49:15.000","2014-08-05T20:49:15.000","GLENHAM-BELFORD","14-00580116","MD","CLOSED","2014-12-19T12:32:10.000","21206","Dispatch Work Crew","Broken branch needs to be removed","2014-12-19T12:31:00.000",-76.5444009,39.346126
"2314  WHITTIER AVE","BALTIMORE CITY","FOBRBRIT","Forestry Broken Branch in Tree","2014-08-04T17:31:20.000","2014-08-05T17:31:20.000","PARKVIEW/WOODBROOK","14-00579307","MD","CLOSED","2014-08-14T11:03:17.000","21217","Dispatch Work Crew","Removed broken branch","2014-08-14T11:02:00.000",-76.647748,39.316783
"CLARKS LN & CROSS COUNTRY BLVD","BALTIMORE CITY","FOBRBRIT","Forestry Broken Branch in Tree","2014-08-04T16:40:51.000","2014-08-05T16:40:51.000","CROSS COUNTRY","14-00579063","MD","CLOSED","2014-08-05T17:48:02.000","21215","Dispatch Work Crew","Removed broken branch","2014-08-05T17:47:00.000",-76.6974173,39.36463
"2307  SIDNEY AVE","BALTIMORE CITY","FOBRBRIT","Forestry Broken Branch in Tree","2014-08-04T16:29:09.000","2014-08-05T16:29:09.000","WESTPORT","14-00579007","MD","CLOSED","2014-08-14T11:49:44.000","21230","Dispatch Work Crew","Removed broken branch","2014-08-14T11:49:00.000",-76.633033,39.262466
"202  CEDARCROFT RD","BALTIMORE CITY","FOBRBRIT","Forestry Broken Branch in Tree","2014-08-04T14:25:34.000","2014-08-05T14:25:34.000","CEDARCROFT","14-00578423","MD","CLOSED","2014-08-07T11:26:42.000","21212","Dispatch Work Crew","Removed broken branch","2014-08-07T11:26:00.000",-76.617588,39.3695329
"GREEN MEADOW PKWY & PIMLICO RD","BALTIMORE CITY","FOBRBRIT","Forestry Broken Branch in Tree","2014-08-04T14:04:50.000","2014-08-05T14:04:50.000","CHESWOLDE","14-00578281","MD","CLOSED","2014-08-14T11:12:57.000","21209","Dispatch Work Crew","No Cause For Action","2014-08-14T11:11:00.000",-76.6751534,39.3698733
"2210 W FAYETTE ST","BALTIMORE CITY","FOBRBRIT","Forestry Broken Branch in Tree","2014-08-03T03:58:49.000","2014-08-04T03:58:49.000","PENROSE/FAYETTE STREET OUTREACH","14-00575858","MD","CLOSED","2014-08-19T12:02:24.000","21223","Dispatch Work Crew","Removed broken branch","2014-08-19T12:02:00.000",-76.6519431,39.2894719
"415  RADNOR RD","BALTIMORE CITY","FOBRBRIT","Forestry Broken Branch in Tree","2014-08-02T16:08:11.000","2014-08-03T16:08:11.000","RADNOR-WINSTON","14-00575206","MD","CLOSED","2014-08-26T18:43:29.000","21212","Dispatch Inspector","No Cause For Action","2014-08-26T18:42:00.000",-76.610404,39.347891
"3752  BEECH AVE","BALTIMORE","FOBRBRIT","Forestry Broken Branch in Tree","2015-07-10T17:33:07.000","2015-07-11T17:33:07.000","WYMAN PARK","15-00543710","MD","CLOSED","2015-07-14T12:30:31.000","21211","Dispatch Work Crew","Removed broken branch","2015-07-14T12:30:00.000",-76.6272369,39.334301
"6700  PARK HEIGHTS AVE","BALTIMORE","FOBRBRIT","Forestry Broken Branch in Tree","2015-07-27T12:06:56.000","2015-07-28T12:06:56.000","FALLSTAFF","15-00592201","MD","CLOSED","2015-07-30T17:50:41.000","21215","Dispatch Work Crew","Removed broken branch","2015-07-30T17:50:00.000",-76.7002739,39.362277
"3039  CHESTERFIELD AVE","BALTIMORE","FOBRBRIT","Forestry Broken Branch in Tree","2015-06-24T17:35:28.000","2015-06-25T17:35:28.000","BELAIR-EDISON","15-00494206","MD","CLOSED","2015-06-29T12:15:43.000","21213","Dispatch Work Crew","Removed broken branch","2015-06-29T12:14:00.000",-76.56873,39.3237809
"W MOUNT ROYAL AVE &W LAFAYETTE AVE","BALTIMORE","FOBRBRIT","Forestry Broken Branch in Tree","2015-06-01T14:46:54.000","2015-06-02T14:46:54.000","BOLTON HILL","15-00426329","MD","CLOSED","2015-06-03T16:16:51.000","21217","Dispatch Work Crew","No Cause For Action","2015-06-03T16:16:00.000",-76.6238427,39.3101519
"807 E LAKE AVE","BALTIMORE","FOBRBRIT","Forestry Broken Branch in Tree","2015-06-10T12:58:25.000","2015-06-11T12:58:25.000","CHINQUAPIN PARK-BELVEDERE","15-00451518","MD","CLOSED","2015-06-24T12:47:37.000","21212","Dispatch Work Crew","Removed broken branch","2015-06-24T12:44:00.000",-76.60464,39.366642
"3001  OAK HILL AVE","BALTIMORE","FOBRBRIT","Forestry Broken Branch in Tree","2015-07-11T11:40:48.000","2015-07-12T11:40:48.000","HOWARD PARK","15-00545298","MD","CLOSED","2015-07-14T12:47:12.000","21207","Dispatch Work Crew","Duplicate request","2015-07-14T12:46:00.000",-76.7032739,39.32662
"807 E LAKE AVE","BALTIMORE","FOBRBRIT","Forestry Broken Branch in Tree","2015-06-24T16:59:53.000","2015-06-25T16:59:53.000","CHINQUAPIN PARK-BELVEDERE","15-00493926","MD","CLOSED","2015-06-26T12:34:06.000","21212","Dispatch Work Crew","Removed broken branch","2015-06-26T12:33:00.000",-76.60464,39.366642
"3521  PELHAM AVE","BALTIMORE","FOBRBRIT","Forestry Broken Branch in Tree","2015-07-13T19:13:54.000","2015-07-14T19:13:54.000","BELAIR-EDISON","15-00550604","MD","CLOSED","2015-07-30T17:47:48.000","21213","Dispatch Work Crew","Removed broken branch","2015-07-30T17:47:00.000",-76.565439,39.320388
"3508  GRANTLEY RD","BALTIMORE","FOBRBRIT","Forestry Broken Branch in Tree","2015-07-15T17:13:59.000","2015-07-16T17:13:59.000","ASHBURTON","15-00557710","MD","CLOSED","2015-07-17T15:39:34.000","21215","Dispatch Work Crew","Removed broken branch","2015-07-17T15:39:00.000",-76.675529,39.32836
"W OSTEND ST & W HAMBURG ST, BALTIMORE, M","BALTIMORE","FOBRBRIT","Forestry Broken Branch in Tree","2015-06-30T20:12:06.000","2015-07-01T20:12:06.000","CARROLL - CAMDEN INDUSTRIAL AREA","15-00514059","MD","CLOSED","2015-07-13T13:38:07.000","21230","Dispatch Work Crew","No Cause For Action","2015-07-13T13:37:00.000",-76.6260897,39.2769399
"10 E LANVALE ST","BALTIMORE","FOBRBRIT","Forestry Broken Branch in Tree","2015-05-21T21:10:53.000","2015-05-22T21:10:53.000","CHARLES NORTH","15-00400084","MD","CLOSED","2015-05-26T17:41:02.000","21202","Dispatch Work Crew","Removed broken branch","2015-05-26T17:40:00.000",-76.6158734,39.3087747
"2702  OAKLEY AVE","BALTIMORE","FOBRBRIT","Forestry Broken Branch in Tree","2015-05-13T12:30:23.000","2015-05-14T12:30:23.000","CYLBURN","15-00374173","MD","CLOSED","2015-05-14T12:10:47.000","21215","Dispatch Work Crew","No Cause For Action","2015-05-14T12:10:00.000",-76.663435,39.349187
"2111  EASTERN AVE","BALTIMORE","FOBRBRIT","Forestry Broken Branch in Tree","2015-05-20T14:51:10.000","2015-05-21T14:51:10.000","CANTON","15-00395524","MD","CLOSED","2015-05-26T17:36:46.000","21231","Dispatch Work Crew","Duplicate request","2015-05-26T17:36:00.000",-76.586418,39.285693
"3300  WESTERWALD AVE","BALTIMORE","FOBRBRIT","Forestry Broken Branch in Tree","2015-07-23T14:33:56.000","2015-07-24T14:33:56.000","WAVERLY","15-00581858","MD","CLOSED","2015-07-30T17:46:59.000","21218","Dispatch Work Crew","Removed broken branch","2015-07-30T17:46:00.000",-76.60529,39.328888
"3912  BROOKLYN AVE","BALTIMORE","FOBRBRIT","Forestry Broken Branch in Tree","2015-06-26T13:08:33.000","2015-06-27T13:08:33.000","BROOKLYN","15-00501114","MD","OPEN","2015-06-26T16:25:31.000","21225","Dispatch Inspector","Broken branch needs to be removed","2015-06-30T12:16:00.000",-76.6026927,39.2321409
"320 E 21ST ST","BALTIMORE","FOBRBRIT","Forestry Broken Branch in Tree","2015-05-18T13:34:01.000","2015-05-19T13:34:01.000","BARCLAY","15-00388318","MD","CLOSED","2015-05-22T17:37:44.000","21218","Dispatch Work Crew","Removed broken branch","2015-05-22T17:35:00.000",-76.61194,39.313621
"1230  COCHRAN AVE","BALTIMORE","FOBRBRIT","Forestry Broken Branch in Tree","2015-06-16T15:25:18.000","2015-06-17T15:25:18.000","WOODBOURNE HEIGHTS","15-00468252","MD","CLOSED","2015-07-21T16:55:21.000","21239",NA,NA,NA,-76.594233,39.35668
"333  WASHBURN AVE","BALTIMORE","FOBRBRIT","Forestry Broken Branch in Tree","2015-06-18T15:58:42.000","2015-06-19T15:58:42.000","BROOKLYN","15-00476145","MD","OPEN","2015-06-19T10:14:28.000","21225","Dispatch Inspector","Broken branch needs to be removed","2015-07-29T13:17:00.000",-76.607089,39.235052
"4319 N CHARLES ST","BALTIMORE","FOBRBRIT","Forestry Broken Branch in Tree","2015-07-27T17:39:24.000","2015-07-28T17:39:24.000","GUILFORD","15-00593961","MD","CLOSED","2015-07-30T17:46:31.000","21218","Dispatch Work Crew","Removed broken branch","2015-07-30T17:46:00.000",-76.621021,39.341501
"3821 W PATAPSCO AVE","BALTIMORE","FOBRBRIT","Forestry Broken Branch in Tree","2015-07-28T16:35:54.000","2015-07-29T16:35:54.000","VIOLETVILLE","15-00597137","MD","OPEN","2015-07-29T10:05:24.000","21229",NA,NA,NA,-76.678145,39.26377
"4800  EDMONDSON AVE","BALTIMORE","FOBRBRIT","Forestry Broken Branch in Tree","2015-06-15T14:34:33.000","2015-06-16T14:34:33.000","HUNTING RIDGE","15-00463958","MD","CLOSED","2015-06-17T16:54:57.000","21229","Dispatch Work Crew","Removed broken branch","2015-06-17T16:54:00.000",-76.700868,39.2929559
"1247  WALKER AVE","BALTIMORE","FOBRBRIT","Forestry Broken Branch in Tree","2015-07-14T16:18:02.000","2015-07-15T16:18:02.000","IDLEWOOD","15-00553863","MD","OPEN","2015-07-14T16:52:05.000","21239",NA,NA,NA,-76.592156,39.370844
"135 NORTH BEND RD","BALTIMORE","FOBRBRIT","Forestry Broken Branch in Tree","2015-07-01T20:27:11.000","2015-07-02T20:27:11.000","WESTGATE","15-00517927","MD","OPEN","2015-07-02T09:49:23.000","21229",NA,NA,NA,-76.704848,39.282194
"6234  LAURELTON AVE","BALTIMORE","FOBRBRIT","Forestry Broken Branch in Tree","2015-06-24T17:57:43.000","2015-06-25T17:57:43.000","HARFORD-ECHODALE/PERRING PARKWAY","15-00494291","MD","CLOSED","2015-06-26T12:39:36.000","21214","Dispatch Work Crew","Removed broken branch","2015-06-26T12:39:00.000",-76.565461,39.362604
"1123 W HAMBURG ST","BALTIMORE","FOBRBRIT","Forestry Broken Branch in Tree","2015-06-08T20:39:19.000","2015-06-09T20:39:19.000","WASHINGTON VILLAGE","15-00446244","MD","CLOSED","2015-07-30T18:20:01.000","21230","Dispatch Work Crew","Removed broken branch","2015-07-30T18:19:00.000",-76.629949,39.279946
"4064  EDGEWOOD RD","BALTIMORE","FOBRBRIT","Forestry Broken Branch in Tree","2015-06-05T12:50:42.000","2015-06-06T12:50:42.000","EAST ARLINGTON","15-00440479","MD","CLOSED","2015-06-11T15:16:26.000","21215","Dispatch Work Crew","Removed broken branch","2015-06-11T15:16:00.000",-76.667355,39.3335409
"5452  NARCISSUS AVE","BALTIMORE","FOBRBRIT","Forestry Broken Branch in Tree","2015-06-08T19:13:58.000","2015-06-09T19:13:58.000","ARLINGTON","15-00445867","MD","CLOSED","2015-07-17T15:37:16.000","21215","Dispatch Work Crew","No Cause For Action","2015-07-17T15:36:00.000",-76.685664,39.3501375
"3700  GLENGYLE AVE","BALTIMORE","FOBRBRIT","Forestry Broken Branch in Tree","2015-07-08T13:15:35.000","2015-07-09T13:15:35.000","FALLSTAFF","15-00534667","MD","CLOSED","2015-07-13T13:00:20.000","21215","Dispatch Work Crew","Removed broken branch","2015-07-13T13:00:00.000",-76.708051,39.365916
"813  VENABLE AVE","BALTIMORE","FOBRBRIT","Forestry Broken Branch in Tree","2015-06-30T15:26:48.000","2015-07-01T15:26:48.000","WAVERLY","15-00512905","MD","CLOSED","2015-07-02T14:51:28.000","21218","Dispatch Work Crew","Removed broken branch","2015-07-02T14:51:00.000",-76.604197,39.328982
"1913  WADSWORTH WAY","BALTIMORE","FOBRBRIT","Forestry Broken Branch in Tree","2015-06-12T12:12:19.000","2015-06-13T12:12:19.000","LOCH RAVEN","15-00457484","MD","CLOSED","2015-06-15T16:55:54.000","21239","Dispatch Work Crew","Removed broken branch","2015-06-15T16:55:00.000",-76.5783455,39.359148
"2308  MONTEBELLO TERR","BALTIMORE","FOBRBRIT","Forestry Broken Branch in Tree","2015-06-24T22:55:49.000","2015-06-25T22:55:49.000","MORGAN PARK","15-00495788","MD","CLOSED","2015-06-26T12:38:18.000","21214","Dispatch Work Crew","Removed broken branch","2015-06-26T12:38:00.000",-76.579761,39.348315
"2205  GOUGH ST","BALTIMORE","FOBRBRIT","Forestry Broken Branch in Tree","2015-06-01T14:42:07.000","2015-06-02T14:42:07.000","UPPER FELLS POINT","15-00426278","MD","CLOSED","2015-06-02T12:40:00.000","21231","Dispatch Inspector",NA,"2015-06-02T12:37:00.000",-76.5857178,39.2876811
"1055  PARKSLEY AVE","BALTIMORE","FOBRBRIT","Forestry Broken Branch in Tree","2015-07-01T14:03:55.000","2015-07-02T14:03:55.000","MORRELL PARK","15-00516372","MD","CLOSED","2015-07-27T16:39:59.000","21223","Dispatch Inspector","No Cause For Action","2015-07-27T16:39:00.000",-76.662557,39.273195
"628  SCOTT ST","BALTIMORE","FOBRBRIT","Forestry Broken Branch in Tree","2015-06-28T19:23:04.000","2015-06-29T19:23:04.000","WASHINGTON VILLAGE","15-00505514","MD","OPEN","2015-06-29T10:44:18.000","21230",NA,NA,NA,-76.629011,39.281485
"1254  GITTINGS AVE","BALTIMORE","FOBRBRIT","Forestry Broken Branch in Tree","2015-06-29T12:22:15.000","2015-06-30T12:22:15.000","IDLEWOOD","15-00506545","MD","CLOSED","2015-07-09T14:04:33.000","21239","Dispatch Work Crew","No Cause For Action","2015-07-09T14:04:00.000",-76.591615,39.3704759
"3834  KIMBLE RD","BALTIMORE","FOBRBRIT","Forestry Broken Branch in Tree","2015-06-03T16:48:56.000","2015-06-04T16:48:56.000","EDNOR GARDENS-LAKESIDE","15-00433670","MD","CLOSED","2015-06-03T16:50:15.000","21218","Dispatch Work Crew","Removed broken branch","2015-06-03T16:49:00.000",-76.601324,39.3351619
"300 S COLLINGTON AVE","BALTIMORE","FOBRBRIT","Forestry Broken Branch in Tree","2015-06-09T14:29:16.000","2015-06-10T14:29:16.000","UPPER FELLS POINT","15-00448259","MD","CLOSED","2015-06-11T15:36:28.000","21231","Dispatch Work Crew","No Cause For Action","2015-06-11T15:35:00.000",-76.586213,39.287805
"2817 E FEDERAL ST","BALTIMORE","FOBRBRIT","Forestry Broken Branch in Tree","2015-06-12T21:54:34.000","2015-06-13T21:54:34.000","BEREA","15-00459925","MD","CLOSED","2015-06-17T16:52:38.000","21213","Dispatch Work Crew","No Cause For Action","2015-06-17T16:52:00.000",-76.577973,39.308876
"5305  EDMONDSON AVE","BALTIMORE","FOBRBRIT","Forestry Broken Branch in Tree","2015-07-22T17:42:24.000","2015-07-23T17:42:24.000","WESTGATE","15-00578931","MD","CLOSED","2015-07-28T16:42:32.000","21229","Dispatch Work Crew","No Cause For Action","2015-07-28T16:41:00.000",-76.7111836,39.2873828
"1901  DRUID HILL AVE","BALTIMORE","FOBRBRIT","Forestry Broken Branch in Tree","2015-07-16T12:40:40.000","2015-07-17T12:40:40.000","DRUID HEIGHTS","15-00560140","MD","OPEN","2015-07-16T12:43:43.000","21217",NA,NA,NA,-76.634283,39.306942
"2213 N DUKELAND ST","BALTIMORE","FOBRBRIT","Forestry Broken Branch in Tree","2015-07-19T19:20:47.000","2015-07-20T19:20:47.000","PANWAY/BRADDISH AVENUE","15-00568524","MD","CLOSED","2015-07-21T17:40:26.000","21216","Dispatch Work Crew","No Cause For Action","2015-07-21T17:40:00.000",-76.663954,39.312854
"1400  JACKSON ST","BALTIMORE","FOBRBRIT","Forestry Broken Branch in Tree","2015-07-23T12:12:41.000","2015-07-24T12:12:41.000","RIVERSIDE","15-00580602","MD","CLOSED","2015-07-30T18:19:32.000","21230","Dispatch Work Crew","Removed broken branch","2015-07-30T18:19:00.000",-76.605608,39.27391
"3929  DUDLEY AVE","BALTIMORE","FOBRBRIT","Forestry Broken Branch in Tree","2015-07-28T12:20:45.000","2015-07-29T12:20:45.000","BELAIR-EDISON","15-00595547","MD","OPEN","2015-07-28T15:48:25.000","21213",NA,NA,NA,-76.561023,39.316906
"705  BAKER ST","BALTIMORE","FOBRBRIT","Forestry Broken Branch in Tree","2015-07-03T14:22:23.000","2015-07-04T14:22:23.000","SANDTOWN-WINCHESTER","15-00523279","MD","CLOSED","2015-07-08T16:57:17.000","21217","Dispatch Work Crew","No Cause For Action","2015-07-08T16:57:00.000",-76.641453,39.307232
"5425  TODD AVE","BALTIMORE","FOBRBRIT","Forestry Broken Branch in Tree","2015-06-23T23:54:16.000","2015-06-24T23:54:16.000","FRANKFORD","15-00491091","MD","CLOSED","2015-07-13T13:35:25.000","21206","Dispatch Work Crew","Removed broken branch","2015-07-13T13:35:00.000",-76.538989,39.331767
"2111  EASTERN AVE","BALTIMORE","FOBRBRIT","Forestry Broken Branch in Tree","2015-05-19T13:16:51.000","2015-05-20T13:16:51.000","CANTON","15-00391767","MD","CLOSED","2015-05-26T17:35:50.000","21231","Dispatch Work Crew","Removed broken branch","2015-05-26T17:34:00.000",-76.586418,39.285693
"3733 S HANOVER ST","BALTIMORE","FOBRBRIT","Forestry Broken Branch in Tree","2015-07-24T14:02:56.000","2015-07-25T14:02:56.000","BROOKLYN","15-00585939","MD","OPEN","2015-07-24T15:30:49.000","21225",NA,NA,NA,-76.610392,39.2366254
"1004  ARGONNE DR","BALTIMORE","FOBRBRIT","Forestry Broken Branch in Tree","2015-06-25T15:29:48.000","2015-06-26T15:29:48.000","ORIGINAL NORTHWOOD","15-00498432","MD","CLOSED","2015-07-13T13:36:59.000","21218","Dispatch Work Crew","No Cause For Action","2015-07-13T13:36:00.000",-76.599407,39.34026
"1501  PATAPSCO ST","BALTIMORE","FOBRBRIT","Forestry Broken Branch in Tree","2015-06-25T20:13:33.000","2015-06-26T20:13:33.000","SBIC","15-00499677","MD","CLOSED","2015-07-13T13:37:32.000","21230","Dispatch Work Crew","Removed broken branch","2015-07-13T13:37:00.000",-76.6129653,39.2723659
"4243  SHAMROCK AVE","BALTIMORE","FOBRBRIT","Forestry Broken Branch in Tree","2015-06-23T23:00:39.000","2015-06-24T23:00:39.000","BELAIR-EDISON","15-00491014","MD","CLOSED","2015-07-01T10:23:51.000","21206","Dispatch Work Crew","Removed broken branch","2015-07-01T10:22:00.000",-76.5642172,39.3271122
"3027  WEAVER AVE","BALTIMORE","FOBRBRIT","Forestry Broken Branch in Tree","2015-06-25T18:48:10.000","2015-06-26T18:48:10.000","ARCADIA","15-00499327","MD","CLOSED","2015-07-02T14:43:45.000","21214","Dispatch Work Crew","No Cause For Action","2015-07-02T14:43:00.000",-76.572263,39.337005
"904  MYRTLE AVE","BALTIMORE","FOBRBRIT","Forestry Broken Branch in Tree","2015-06-25T15:45:02.000","2015-06-26T15:45:02.000","HERITAGE CROSSING","15-00498478","MD","CLOSED","2015-06-30T17:42:54.000","21201","Dispatch Inspector","Removed broken branch","2015-06-30T17:42:00.000",-76.629209,39.295424
"2227  ESSEX ST","BALTIMORE","FOBRBRIT","Forestry Broken Branch in Tree","2015-07-20T18:06:28.000","2015-07-21T18:06:28.000","CANTON","15-00571228","MD","CLOSED","2015-07-30T17:49:16.000","21231","Dispatch Work Crew","Removed broken branch","2015-07-30T17:48:00.000",-76.584362,39.283882
"3807  MIDHEIGHTS RD","BALTIMORE","FOBRBRIT","Forestry Broken Branch in Tree","2015-06-29T15:10:28.000","2015-06-30T15:10:28.000","GLEN","15-00507971","MD","CLOSED","2015-07-02T14:40:04.000","21215","Dispatch Work Crew","Removed broken branch","2015-07-02T14:39:00.000",-76.7013353,39.3591195
"2323 N LONGWOOD ST","BALTIMORE","FOBRBRIT","Forestry Broken Branch in Tree","2015-07-23T14:47:07.000","2015-07-24T14:47:07.000","WALBROOK","15-00581946","MD","CLOSED","2015-07-30T17:50:10.000","21216","Dispatch Work Crew","Removed broken branch","2015-07-30T17:49:00.000",-76.667523,39.31392
"PINKNEY RD & PARK HEIGHTS AVE, BALTIMORE",NA,"FOBRBRIT","Forestry Broken Branch in Tree","2015-07-15T13:18:54.000","2015-07-16T13:18:54.000","GLEN","15-00556661","MD","CLOSED","2015-07-17T15:38:48.000",NA,"Dispatch Work Crew","No Cause For Action","2015-07-17T15:38:00.000",-78.0751703,35.5248383
"120 W HILL ST","BALTIMORE","FOBRBRIT","Forestry Broken Branch in Tree","2015-07-22T15:59:59.000","2015-07-23T15:59:59.000","OTTERBEIN","15-00578467","MD","CLOSED","2015-07-22T16:02:21.000","21230",NA,NA,NA,-76.616544,39.2810694
"BRENTWOOD AVE & E LAFAYETTE AVE, BALTIMO",NA,"FOBRBRIT","Forestry Broken Branch in Tree","2015-07-29T19:04:00.000","2015-07-30T19:04:00.000","GREENMOUNT WEST","15-00601415","MD","OPEN","2015-07-30T10:36:15.000",NA,NA,NA,NA,-94.5999469,41.8895255
"4007  ROSECREST AVE","BALTIMORE","FOBRBRIT","Forestry Broken Branch in Tree","2015-05-15T17:41:52.000","2015-05-16T17:41:52.000","GLEN","15-00383162","MD","CLOSED","2015-05-19T15:49:34.000","21215","Dispatch Work Crew","Removed broken branch","2015-05-19T15:49:00.000",-76.696741,39.354011
"3703  GLEN AVE","BALTIMORE","FOBRBRIT","Forestry Broken Branch in Tree","2015-05-22T18:28:42.000","2015-05-23T18:28:42.000","GLEN","15-00402233","MD","CLOSED","2015-05-27T15:41:34.000","21215","Dispatch Work Crew","Removed broken branch","2015-05-27T15:41:00.000",-76.689853,39.354548
"4110  DUANE AVE","BALTIMORE","FOBRBRIT","Forestry Broken Branch in Tree","2015-07-14T17:12:34.000","2015-07-15T17:12:34.000","BROOKLYN","15-00554063","MD","OPEN","2015-07-15T09:46:37.000","21225","Dispatch Inspector","Broken branch needs to be removed","2015-07-27T12:27:00.000",-76.6018986,39.2276664
"2521  MOORE AVE","BALTIMORE","FOBRBRIT","Forestry Broken Branch in Tree","2015-06-17T19:36:12.000","2015-06-18T19:36:12.000","HARFORD-ECHODALE/PERRING PARKWAY","15-00473864","MD","CLOSED","2015-07-17T17:05:07.000","21234","Dispatch Work Crew","No Cause For Action","2015-07-17T17:04:00.000",-76.556729,39.370339
"LONGWOOD RD & ELMWOOD RD","BALTIMORE","FOBRBRIT","Forestry Broken Branch in Tree","2015-06-05T14:31:33.000","2015-06-06T14:31:33.000","ROLAND PARK","15-00440935","MD","CLOSED","2015-06-09T17:25:24.000","21210",NA,NA,NA,-72.9176426,40.8667389
"3611  GWYNN OAK AVE","BALTIMORE","FOBRBRIT","Forestry Broken Branch in Tree","2015-06-18T13:00:00.000","2015-06-19T13:00:00.000","HOWARD PARK","15-00475271","MD","CLOSED","2015-06-22T14:33:06.000","21207","Dispatch Work Crew","Duplicate request","2015-06-22T14:32:00.000",-76.6946619,39.332381
"3728  SAINT VICTOR ST","BALTIMORE","FOBRBRIT","Forestry Broken Branch in Tree","2015-06-15T17:06:55.000","2015-06-16T17:06:55.000","BROOKLYN","15-00464764","MD","CLOSED","2015-06-17T16:54:33.000","21225","Dispatch Work Crew","Removed broken branch","2015-06-17T16:54:00.000",-76.597651,39.232856
"2819  INDIANA ST","BALTIMORE","FOBRBRIT","Forestry Broken Branch in Tree","2015-06-26T12:52:29.000","2015-06-27T12:52:29.000","WESTPORT","15-00501045","MD","OPEN","2015-06-26T16:25:02.000","21230",NA,NA,NA,-76.6341939,39.2609319
"4719  DARTFORD AVE","BALTIMORE","FOBRBRIT","Forestry Broken Branch in Tree","2015-06-21T20:58:06.000","2015-06-22T20:58:06.000","TREMONT","15-00483584","MD","CLOSED","2015-06-23T17:25:44.000","21229","Dispatch Work Crew","Removed broken branch","2015-06-23T17:25:00.000",-76.693794,39.282679
"2228  LAKE AVE","BALTIMORE","FOBRBRIT","Forestry Broken Branch in Tree","2015-06-23T17:51:48.000","2015-06-24T17:51:48.000","MAYFIELD","15-00489997","MD","CLOSED","2015-06-24T10:51:58.000","21213","Dispatch Inspector","Duplicate request","2015-06-24T10:51:00.000",-76.579111,39.3282839
"4908  ANNTANA AVE","BALTIMORE","FOBRBRIT","Forestry Broken Branch in Tree","2015-05-28T15:18:38.000","2015-05-29T15:18:38.000","FRANKFORD","15-00416621","MD","CLOSED","2015-06-01T13:32:01.000","21206","Dispatch Work Crew","Removed broken branch","2015-06-01T13:31:00.000",-76.540105,39.331877
"CYLBURN AVE & GREENSPRING AVE, BALTIMORE",NA,"FOBRBRIT","Forestry Broken Branch in Tree","2015-06-21T21:42:45.000","2015-06-22T21:42:45.000","CYLBURN","15-00483623","MD","CLOSED","2015-06-22T16:54:43.000",NA,"Dispatch Work Crew","Removed broken branch","2015-06-22T16:54:00.000",-76.6619949,39.3507981
"2417  KEN OAK RD","BALTIMORE","FOBRBRIT","Forestry Broken Branch in Tree","2015-05-20T16:14:25.000","2015-05-21T16:14:25.000","MOUNT WASHINGTON","15-00395939","MD","CLOSED","2015-05-29T17:04:58.000","21209","Dispatch Work Crew","Removed broken branch","2015-05-29T17:04:00.000",-76.669367,39.358127
"37 S KOSSUTH ST","BALTIMORE","FOBRBRIT","Forestry Broken Branch in Tree","2015-07-14T11:15:41.000","2015-07-15T11:15:41.000","SAINT JOSEPHS","15-00551809","MD","CLOSED","2015-07-16T10:31:07.000","21229","Dispatch Inspector","No Cause For Action","2015-07-16T10:30:00.000",-76.675473,39.286204
"1913  WADSWORTH WAY","BALTIMORE","FOBRBRIT","Forestry Broken Branch in Tree","2015-06-18T22:15:23.000","2015-06-19T22:15:23.000","LOCH RAVEN","15-00477480","MD","CLOSED","2015-06-19T11:38:46.000","21239","Dispatch Inspector","Duplicate request","2015-06-19T11:37:00.000",-76.5783455,39.359148
"3905 N CHARLES ST","BALTIMORE","FOBRBRIT","Forestry Broken Branch in Tree","2015-07-01T10:39:56.000","2015-07-02T10:39:56.000","GUILFORD","15-00515129","MD","OPEN","2015-07-01T10:43:30.000","21218",NA,NA,NA,-76.617825,39.336394
"3116  ABELL AVE","BALTIMORE","FOBRBRIT","Forestry Broken Branch in Tree","2015-06-02T15:17:24.000","2015-06-03T15:17:24.000","ABELL","15-00429925","MD","CLOSED","2015-06-03T16:37:02.000","21218","Dispatch Work Crew","Removed broken branch","2015-06-03T16:36:00.000",-76.612342,39.3264
"5315  HERRING RUN DR","BALTIMORE","FOBRBRIT","Forestry Broken Branch in Tree","2015-06-12T13:59:19.000","2015-06-13T13:59:19.000","HARFORD-ECHODALE/PERRING PARKWAY","15-00458093","MD","CLOSED","2015-07-21T17:35:00.000","21214",NA,NA,NA,-76.571858,39.354887
"6905  PROCTMAN AVE","BALTIMORE","FOBRBRIT","Forestry Broken Branch in Tree","2015-07-27T12:31:20.000","2015-07-28T12:31:20.000","PULASKI INDUSTRIAL AREA","15-00592353","MD","OPEN","2015-07-27T12:38:47.000","21237",NA,NA,NA,-76.535307,39.309128
"4402  FLOWERTON RD","BALTIMORE","FOBRBRIT","Forestry Broken Branch in Tree","2015-05-22T20:18:23.000","2015-05-23T20:18:23.000","ROGNEL HEIGHTS","15-00402508","MD","CLOSED","2015-06-11T15:32:29.000","21229","Dispatch Work Crew","Removed broken branch","2015-06-11T15:32:00.000",-76.691361,39.295807
"2737  PELHAM AVE","BALTIMORE","FOBRBRIT","Forestry Broken Branch in Tree","2015-07-15T09:42:56.000","2015-07-16T09:42:56.000","BELAIR-EDISON","15-00555628","MD","CLOSED","2015-07-17T17:04:03.000","21213","Dispatch Work Crew","Removed broken branch","2015-07-17T17:03:00.000",-76.573031,39.325895
"3700  3RD ST","BALTIMORE","FOBRBRIT","Forestry Broken Branch in Tree","2015-06-02T17:29:13.000","2015-06-03T17:29:13.000","BROOKLYN","15-00430437","MD","OPEN","2015-06-03T10:10:13.000","21225",NA,NA,NA,-76.607919,39.23665
"4006  DORCHESTER RD","BALTIMORE","FOBRBRIT","Forestry Broken Branch in Tree","2015-05-14T15:11:34.000","2015-05-15T15:11:34.000","DORCHESTER","15-00378876","MD","CLOSED","2015-05-19T15:58:45.000","21207","Dispatch Work Crew","Removed broken branch","2015-05-19T15:57:00.000",-76.685583,39.329763
"4243  SHAMROCK AVE","BALTIMORE","FOBRBRIT","Forestry Broken Branch in Tree","2015-06-20T22:18:43.000","2015-06-21T22:18:43.000","BELAIR-EDISON","15-00482786","MD","CLOSED","2015-06-26T12:21:12.000","21214","Dispatch Work Crew","Removed broken branch","2015-06-26T12:20:00.000",-76.5642172,39.3271122
"1029  PARKSLEY AVE","BALTIMORE","FOBRBRIT","Forestry Broken Branch in Tree","2015-06-16T21:21:50.000","2015-06-17T21:21:50.000","MORRELL PARK","15-00469894","MD","CLOSED","2015-07-27T16:41:31.000","21223","Dispatch Inspector","No Cause For Action","2015-07-27T16:41:00.000",-76.663056,39.273578
"YORK RD & WOODBOURNE AVE","BALTIMORE","FOBRBRIT","Forestry Broken Branch in Tree","2015-05-27T12:20:13.000","2015-05-28T12:20:13.000","WOODBOURNE-MCCABE","15-00411321","MD","CLOSED","2015-05-27T16:31:38.000","21212","Dispatch Inspector","Duplicate request","2015-05-27T16:31:00.000",-77.109057,39.862392
"200  NORTH BEND RD","BALTIMORE","FOBRBRIT","Forestry Broken Branch in Tree","2015-07-01T15:48:29.000","2015-07-02T15:48:29.000","WESTGATE","15-00516843","MD","CLOSED","2015-07-01T16:38:01.000","21229","Dispatch Inspector","Duplicate request","2015-07-01T16:37:00.000",-76.7058081,39.2828771
"3111  PRESSTMAN ST","BALTIMORE","FOBRBRIT","Forestry Broken Branch in Tree","2015-06-25T14:19:20.000","2015-06-26T14:19:20.000","ROSEMONT","15-00498123","MD","CLOSED","2015-07-27T16:46:29.000","21216","Dispatch Inspector","Removed broken branch","2015-07-27T16:46:00.000",-76.669828,39.303944
"609 W 40TH ST","BALTIMORE","FOBRBRIT","Forestry Broken Branch in Tree","2015-05-26T18:08:55.000","2015-05-27T18:08:55.000","ROLAND PARK","15-00409262","MD","CLOSED","2015-05-28T16:56:27.000","21211","Dispatch Work Crew","No Cause For Action","2015-05-28T16:56:00.000",-76.627764,39.33693
"LONGWOOD RD & ELMWOOD RD","BALTIMORE","FOBRBRIT","Forestry Broken Branch in Tree","2015-05-19T19:44:48.000","2015-05-20T19:44:48.000","ROLAND PARK","15-00393733","MD","CLOSED","2015-05-22T14:22:33.000","21210","Dispatch Work Crew","No Cause For Action","2015-05-22T14:21:00.000",-72.9176426,40.8667389
"1600 W LOMBARD ST","BALTIMORE","FOBRBRIT","Forestry Broken Branch in Tree","2015-06-26T14:01:48.000","2015-06-27T14:01:48.000","UNION SQUARE","15-00501453","MD","OPEN","2015-06-26T16:27:07.000","21223",NA,NA,NA,-76.6422587,39.2863929
"NORTH BEND RD & FREDERICK AVE, BALTIMORE",NA,"FOBRBRIT","Forestry Broken Branch in Tree","2015-07-01T13:42:43.000","2015-07-02T13:42:43.000","WESTGATE","15-00516255","MD","OPEN","2015-07-01T16:34:55.000",NA,NA,NA,NA,-84.7092913,39.0812241
"4116  FALLS RD","BALTIMORE","FOBRBRIT","Forestry Broken Branch in Tree","2015-06-22T21:49:43.000","2015-06-23T21:49:43.000","MEDFIELD","15-00487065","MD","CLOSED","2015-06-24T12:38:13.000","21211","Dispatch Work Crew","Removed broken branch","2015-06-24T12:37:00.000",-76.63787,39.337905
"120 W HILL ST","BALTIMORE","FOBRBRIT","Forestry Broken Branch in Tree","2015-07-22T14:15:28.000","2015-07-23T14:15:28.000","OTTERBEIN","15-00577890","MD","CLOSED","2015-07-27T12:25:36.000","21230","Dispatch Inspector","No Cause For Action","2015-07-27T12:25:00.000",-76.616544,39.2810694
"4243  SHAMROCK AVE","BALTIMORE","FOBRBRIT","Forestry Broken Branch in Tree","2015-06-19T14:45:08.000","2015-06-20T14:45:08.000","BELAIR-EDISON","15-00479169","MD","CLOSED","2015-06-22T14:19:34.000","21206","Dispatch Work Crew","Removed broken branch","2015-06-22T14:18:00.000",-76.5642172,39.3271122
"6302 W FORDHAM DR","BALTIMORE","FOBRBRIT","Forestry Broken Branch in Tree","2015-07-14T17:52:07.000","2015-07-15T17:52:07.000","GLEN","15-00554245","MD","CLOSED","2015-07-17T17:07:43.000","21215","Dispatch Work Crew","Duplicate request","2015-07-17T17:07:00.000",-76.6997449,39.355905
"150 N KENWOOD AVE","BALTIMORE","FOBRBRIT","Forestry Broken Branch in Tree","2015-06-11T17:29:13.000","2015-06-12T17:29:13.000","BALTIMORE-LINWOOD","15-00455684","MD","CLOSED","2015-06-17T16:51:27.000","21224","Dispatch Work Crew","Removed broken branch","2015-06-17T16:49:00.000",-76.578005,39.29434
"2426  PELHAM AVE","BALTIMORE","FOBRBRIT","Forestry Broken Branch in Tree","2015-06-16T18:13:30.000","2015-06-17T18:13:30.000","MAYFIELD","15-00469082","MD","CLOSED","2015-06-19T16:42:00.000","21213","Dispatch Work Crew","Removed broken branch","2015-06-19T16:41:00.000",-76.576356,39.3286
"5318  WESLEY AVE","BALTIMORE","FOBRBRIT","Forestry Broken Branch in Tree","2015-07-17T13:10:34.000","2015-07-18T13:10:34.000","HOWARD PARK","15-00564202","MD","OPEN","2015-07-17T15:42:03.000","21207",NA,NA,NA,-76.705568,39.332395
"3310  CHESTERFIELD AVE","BALTIMORE","FOBRBRIT","Forestry Broken Branch in Tree","2015-06-29T11:13:16.000","2015-06-30T11:13:16.000","BELAIR-EDISON","15-00506179","MD","CLOSED","2015-07-04T09:47:44.000","21213","Dispatch Work Crew","Removed broken branch","2015-07-04T09:47:00.000",-76.5661636,39.3224208
"1105 W 36TH ST","BALTIMORE","FOBRBRIT","Forestry Broken Branch in Tree","2015-05-26T13:20:44.000","2015-05-27T13:20:44.000","HAMPDEN","15-00407586","MD","CLOSED","2015-05-28T16:55:50.000","21211","Dispatch Work Crew","Removed broken branch","2015-05-28T16:55:00.000",-76.6340453,39.3308821
"326  ALLENDALE ST","BALTIMORE","FOBRBRIT","Forestry Broken Branch in Tree","2015-05-30T00:25:05.000","2015-05-31T00:25:05.000","ALLENDALE","15-00422104","MD","CLOSED","2015-06-01T09:44:50.000","21229","Dispatch Inspector","Duplicate request","2015-06-01T09:43:00.000",-76.6785217,39.2914977
"426  DREW ST","BALTIMORE","FOBRBRIT","Forestry Broken Branch in Tree","2015-06-25T17:02:49.000","2015-06-26T17:02:49.000","JOSEPH LEE","15-00498778","MD","CLOSED","2015-07-13T13:38:33.000","21224","Dispatch Work Crew","No Cause For Action","2015-07-13T13:38:00.000",-76.5440778,39.2883358
"I 83 N &W NORTHERN PKWY","BALTIMORE","FOBRBRIT","Forestry Broken Branch in Tree","2015-05-17T13:24:17.000","2015-05-18T13:24:17.000","CROSS KEYS","15-00386110","MD","CLOSED","2015-05-19T18:56:18.000","21210","Dispatch Work Crew","Removed broken branch","2015-05-19T18:55:00.000",-100.7876126,50.2258272
"3729  SAINT VICTOR ST","BALTIMORE","FOBRBRIT","Forestry Broken Branch in Tree","2015-06-14T23:27:37.000","2015-06-15T23:27:37.000","BROOKLYN","15-00462179","MD","CLOSED","2015-06-15T17:22:28.000","21225","Dispatch Inspector","Duplicate request","2015-06-15T17:21:00.000",-76.5971543,39.232875
"2003  EAGLE ST","BALTIMORE","FOBRBRIT","Forestry Broken Branch in Tree","2015-07-27T14:55:34.000","2015-07-28T14:55:34.000","CARROLLTON RIDGE","15-00593186","MD","CLOSED","2015-07-30T17:59:48.000","21223","Dispatch Work Crew","Removed broken branch","2015-07-30T17:59:00.000",-76.64747,39.280736
"334  PRESSTMAN ST","BALTIMORE","FOBRBRIT","Forestry Broken Branch in Tree","2015-06-22T19:33:57.000","2015-06-23T19:33:57.000","MADISON PARK","15-00486710","MD","CLOSED","2015-06-24T12:39:28.000","21217","Dispatch Work Crew","No Cause For Action","2015-06-24T12:39:00.000",-76.633612,39.309066
"W NORTHERN PKWY & CYLBURN AVE","BALTIMORE","FOBRBRIT","Forestry Broken Branch in Tree","2015-05-17T10:43:15.000","2015-05-18T10:43:15.000","COLDSPRING","15-00385810","MD","CLOSED","2015-05-19T18:58:42.000","21209","Dispatch Work Crew","Removed broken branch","2015-05-19T18:58:00.000",-76.6656161,39.3557104
"2200  LAKE AVE","BALTIMORE","FOBRBRIT","Forestry Broken Branch in Tree","2015-06-23T23:12:21.000","2015-06-24T23:12:21.000","MAYFIELD","15-00491029","MD","CLOSED","2015-07-15T18:45:41.000","21213","Dispatch Work Crew","No Cause For Action","2015-07-15T18:45:00.000",-76.5810039,39.32951
"4334  PARKSIDE DR","BALTIMORE","FOBRBRIT","Forestry Broken Branch in Tree","2015-08-04T16:48:58.000","2015-08-05T16:48:58.000","BELAIR-EDISON","15-00617792","MD","NEW","2015-08-04T16:48:58.000","21206",NA,NA,NA,-76.563085,39.325871
"3307  TANEY RD","BALTIMORE","FOBRBRIT","Forestry Broken Branch in Tree","2015-07-02T21:50:39.000","2015-07-03T21:50:39.000","GLEN","15-00522030","MD","CLOSED","2015-07-08T16:59:14.000","21215","Dispatch Work Crew","No Cause For Action","2015-07-08T16:59:00.000",-76.6890839,39.360013
"925  LENTON AVE","BALTIMORE","FOBRBRIT","Forestry Broken Branch in Tree","2015-06-25T15:35:34.000","2015-06-26T15:35:34.000","CHINQUAPIN PARK-BELVEDERE","15-00498451","MD","CLOSED","2015-07-13T13:32:07.000","21212","Dispatch Work Crew","No Cause For Action","2015-07-13T13:31:00.000",-76.60073,39.363181
"4100  ROKEBY RD","BALTIMORE","FOBRBRIT","Forestry Broken Branch in Tree","2015-07-22T17:35:17.000","2015-07-23T17:35:17.000","EDMONDSON VILLAGE","15-00578885","MD","CLOSED","2015-07-28T16:18:02.000","21229","Dispatch Work Crew","Removed broken branch","2015-07-28T16:17:00.000",-76.684344,39.299484
"3717  3RD ST","BALTIMORE","FOBRBRIT","Forestry Broken Branch in Tree","2015-06-10T13:23:21.000","2015-06-11T13:23:21.000","BROOKLYN","15-00451755","MD","CLOSED","2015-06-17T16:53:37.000","21225","Dispatch Work Crew","No Cause For Action","2015-06-17T16:53:00.000",-76.607714,39.235791
"2412 E PRESTON ST","BALTIMORE","FOBRBRIT","Forestry Broken Branch in Tree","2015-07-31T18:38:41.000","2015-08-01T18:38:41.000","BROADWAY EAST","15-00607772","MD","OPEN","2015-08-03T10:27:52.000","21213",NA,NA,NA,-76.5837109,39.3059749
"4805  REISTERSTOWN RD","BALTIMORE","FOBRBRIT","Forestry Broken Branch in Tree","2015-07-29T14:28:42.000","2015-07-30T14:28:42.000","CENTRAL PARK HEIGHTS","15-00599889","MD","NEW","2015-07-29T14:28:42.000","21215",NA,NA,NA,-76.6757959,39.3418275
"615 W 40TH ST","BALTIMORE","FOBRBRIT","Forestry Broken Branch in Tree","2015-06-25T16:24:18.000","2015-06-26T16:24:18.000","ROLAND PARK","15-00498629","MD","CLOSED","2015-06-25T16:24:34.000","21211","Dispatch Work Crew","Removed broken branch","2015-06-25T16:24:00.000",-76.628111,39.336916
"900  ARGYLE AVE","BALTIMORE","FOBRBRIT","Forestry Broken Branch in Tree","2015-07-25T20:38:16.000","2015-07-26T20:38:16.000","HERITAGE CROSSING","15-00590611","MD","CLOSED","2015-07-30T18:01:33.000","21201","Dispatch Work Crew","Removed broken branch","2015-07-30T18:00:00.000",-76.6277123,39.2961919
"ROKEBY RD & WALNUT AVE, BALTIMORE, MD, 2",NA,"FOBRBRIT","Forestry Broken Branch in Tree","2015-08-04T18:13:30.000","2015-08-05T18:13:30.000","ROGNEL HEIGHTS","15-00618183","MD","NEW","2015-08-04T18:13:30.000",NA,NA,NA,NA,-96.5540316,40.7118609
"1095  JOH AVE","BALTIMORE","FOBRBRIT","Forestry Broken Branch in Tree","2015-08-03T19:28:15.000","2015-08-04T19:28:15.000","VIOLETVILLE","15-00614370","MD","OPEN","2015-08-04T09:42:05.000","21229",NA,NA,NA,-76.680708,39.267282
"4608  FAIRVIEW AVE","BALTIMORE","FOBRBRIT","Forestry Broken Branch in Tree","2015-06-08T21:23:43.000","2015-06-09T21:23:43.000","WEST FOREST PARK","15-00446370","MD","CLOSED","2015-06-11T15:35:31.000","21216","Dispatch Work Crew","Removed broken branch","2015-06-11T15:34:00.000",-76.694798,39.320568
"3305  DEVONSHIRE DR","BALTIMORE","FOBRBRIT","Forestry Broken Branch in Tree","2015-07-27T14:30:42.000","2015-07-28T14:30:42.000","GLEN","15-00593042","MD","CLOSED","2015-07-30T17:58:27.000","21215","Dispatch Work Crew","Removed broken branch","2015-07-30T17:58:00.000",-76.684929,39.358261
"3834  KIMBLE RD","BALTIMORE","FOBRBRIT","Forestry Broken Branch in Tree","2015-06-01T13:21:13.000","2015-06-02T13:21:13.000","EDNOR GARDENS-LAKESIDE","15-00425723","MD","CLOSED","2015-06-01T18:59:27.000","21218","Dispatch Inspector","No Cause For Action","2015-06-01T18:57:00.000",-76.601324,39.3351619
