"UniqueID","StreetAddress","City","State","ZIP","i"
5001,"3200 CHELSEA TER","BALTIMORE","Maryland","21216",3
5002,"3000 CHELSEA TER","BALTIMORE","Maryland","21216",3
5003,"100 E PRESTON ST","BALTIMORE","Maryland","21202",3
5004,"3000 BOSTON ST","BALTIMORE","Maryland","21224",3
5005,"2900 BOSTON ST","BALTIMORE","Maryland","21224",3
5006,"2800 BOSTON ST","BALTIMORE","Maryland","21224",3
5007,"2500 BOSTON ST","BALTIMORE","Maryland","21224",3
5008,"1700 E FAIRMOUNT AVE","BALTIMORE","Maryland","21231",3
5009,"500 E 39TH ST","BALTIMORE","Maryland","21218",3
5010,"1200 S POTOMAC ST","BALTIMORE","Maryland","21224",3
5011,"1400 PATAPSCO ST","BALTIMORE","Maryland","21230",3
5012,"600 E NORTHERN PKWY","BALTIMORE","Maryland","21212",3
5013,"3500 SPAULDING AVE","BALTIMORE","Maryland","21215",3
5014,"606 COOKS LN","BALTIMORE","Maryland","21229",3
5015,"2700 W FRANKLIN ST","BALTIMORE","Maryland","21223",3
5016,"2600 FREDERICK AVE","BALTIMORE","Maryland","21223",3
5017,"2900 BOSTON ST","BALTIMORE","Maryland","21224",3
5018,"3115 MORAVIA RD","BALTIMORE","Maryland","21214",3
5019,"4200 NICHOLAS AVE","BALTIMORE","Maryland","21206",3
5020,"502 E 39TH ST","BALTIMORE","Maryland","21218",3
5021,"1200 E NORTH AVE","BALTIMORE","Maryland","21202",3
5022,"116 W UNIVERSITY PKWY","BALTIMORE","Maryland","21210",3
5023,"3811 SAINT PAUL ST","BALTIMORE","Maryland","21218",3
5024,"1304 ARGONNE DR","BALTIMORE","Maryland","21218",3
5025,"4001 HARFORD RD","BALTIMORE","Maryland","21214",3
5026,"5200 CEDONIA AVE","BALTIMORE","Maryland","21206",3
5027,"2000 E PRATT ST","BALTIMORE","Maryland","21231",3
5028,"630 W NORTHERN PKWY","BALTIMORE","Maryland","21210",3
5029,"N EUTAW ST & DRUID HILL AVE","BALTIMORE","Maryland","21201",3
5030,"CEDONIA AVE & RADECKE AVE","BALTIMORE","Maryland","21206",3
5031,"GARRISON BLVD","BALTIMORE","Maryland","21215",3
5032,"E 39TH ST & OLD YORK RD","BALTIMORE","Maryland","21218",3
5033,"900 N BENTALOU ST","BALTIMORE","Maryland","21216",3
5034,"HILLSDALE RD &W FOREST PARK AVE","BALTIMORE","Maryland","21207",3
5035,"ROLAND AVE &W NORTHERN PKWY","BALTIMORE","Maryland","21210",3
5036,"1 W MONTGOMERY ST","BALTIMORE","Maryland","21230",3
5037,"PULASKI HWY & ERDMAN AVE","BALTIMORE","Maryland","21205",3
5038,"E FRANKLIN ST & ORLEANS ST","BALTIMORE","Maryland","21202",3
5039,"TAYLOR AVE & MOYER AVE","BALTIMORE","Maryland","21234",3
5040,"4708 HADDON AVE","BALTIMORE","Maryland","21207",3
5041,"4600 HADDON AVE","BALTIMORE","Maryland","21207",3
5042,"1539 SHADYSIDE RD","BALTIMORE","Maryland","21218",3
5043,"2800 ROSALIND AVE","BALTIMORE","Maryland","21215",3
5044,"WATERVIEW AVE & HOLLINS FERRY RD","BALTIMORE","Maryland","21230",3
5045,"4000 HARFORD RD","BALTIMORE","Maryland","21214",3
5046,"3100 SINCLAIR LN","BALTIMORE","Maryland","21213",3
5047,"E FAYETTE ST &N COLLINGTON AVE","BALTIMORE","Maryland","21231",3
5048,"5500 LIBERTY HEIGHTS AVE","BALTIMORE","Maryland","21207",3
5049,"5300 LIBERTY HEIGHTS AVE","BALTIMORE","Maryland","21207",3
5050,"500 E NORTH AVE","BALTIMORE","Maryland","21202",3
5051,"602 E 38TH ST","BALTIMORE","Maryland","21218",3
5052,"1200 SHERIDAN AVE","BALTIMORE","Maryland","21239",3
5053,"1000 N HOWARD ST","BALTIMORE","Maryland","21201",3
5054,"900 N HOWARD ST","BALTIMORE","Maryland","21201",3
5055,"400 E 39TH ST","BALTIMORE","Maryland","21218",3
5056,"500 E 39TH ST","BALTIMORE","Maryland","21218",3
5057,"100 N BROADWAY","BALTIMORE","Maryland","21231",3
5058,"1600 N HILTON ST","BALTIMORE","Maryland","21216",3
5059,"HARFORD RD & WALTHER AVE","BALTIMORE","Maryland","21214",3
5060,"E MCCOMAS ST & KEY HWY","BALTIMORE","Maryland","21230",3
5061,"N CHARLES ST &W NORTHERN PKWY","BALTIMORE","Maryland","21210",3
5062,"3509 CROSSLAND AVE","BALTIMORE","Maryland","21213",3
5063,"3540 ELMLEY AVE","BALTIMORE","Maryland","21213",3
5064,"4032 FALLS RD","BALTIMORE","Maryland","21211",3
5065,"600 N BENTALOU ST","BALTIMORE","Maryland","21216",3
5066,"WALTHER AVE & HARFORD RD","BALTIMORE","Maryland","21214",3
5067,"5601 PULASKI HWY","BALTIMORE","Maryland","21205",3
5068,"1217 S POTOMAC ST","BALTIMORE","Maryland","21224",3
5069,"3500 FLEET ST","BALTIMORE","Maryland","21224",3
5070,"3900 HARFORD RD","BALTIMORE","Maryland","21218",3
5071,"6100 LOCH RAVEN BLVD","BALTIMORE","Maryland","21239",3
5072,"POTEE ST & FRANKFURST AVE","BALTIMORE","Maryland","21225",3
5073,"4000 HARFORD RD","BALTIMORE","Maryland","21214",3
5074,"PARKSIDE DR & HARFORD RD","BALTIMORE","Maryland","21214",3
5075,"HARFORD RD & WALTHER AVE","BALTIMORE","Maryland","21214",3
5076,"4100 WINDSOR MILL RD","BALTIMORE","Maryland","21216",3
5077,"POTEE ST & REEDBIRD AVE","BALTIMORE","Maryland","21225",3
5078,"2800 GREENMOUNT AVE","BALTIMORE","Maryland","21218",3
5079,"500 E 39TH ST","BALTIMORE","Maryland","21218",3
5080,"2502 HARFORD RD","BALTIMORE","Maryland","21213",3
5081,"2200 ERDMAN AVE","BALTIMORE","Maryland","21218",3
5082,"1300 CHURCH ST","BALTIMORE","Maryland","21226",3
5083,"E NORTHERN PKWY &N CHARLES ST","BALTIMORE","Maryland","21210",3
5084,"600 W NORTHERN PKWY","BALTIMORE","Maryland","21210",3
5085,"3700 E BALTIMORE ST","BALTIMORE","Maryland","21224",3
5086,"328 TUNBRIDGE RD","BALTIMORE","Maryland","21212",3
5087,"2200 E FAYETTE ST","BALTIMORE","Maryland","21231",3
5088,"2000 HOLLINS FERRY RD","BALTIMORE","Maryland","21230",3
5089,"E MONUMENT ST & PULASKI HWY","BALTIMORE","Maryland","21205",3
5090,"2004 HOLLINS FERRY RD","BALTIMORE","Maryland","21230",3
5091,"1900 HOLLINS FERRY RD","BALTIMORE","Maryland","21230",3
5092,"4601 WHITE AVE","BALTIMORE","Maryland","21206",3
5093,"4200 GLENMORE AVE","BALTIMORE","Maryland","21206",3
5094,"106 HOMELAND AVE","BALTIMORE","Maryland","21212",3
5095,"CEDONIA AVE & SINCLAIR LN","BALTIMORE","Maryland","21206",3
5096,"MOUNT HOLLY ST & WINDSOR MILL RD","BALTIMORE","Maryland","21216",3
5097,"PARKSIDE DR & BREHMS LN","BALTIMORE","Maryland","21206",3
5098,"W NORTHERN PKWY","BALTIMORE","Maryland","21209",3
5099,"CEDONIA AVE & CEDGATE RD","BALTIMORE","Maryland","21206",3
5100,"W NORTHERN PKWY &N CHARLES ST","BALTIMORE","Maryland","21210",3
5101,"BINNEY ST & DILLON ST","BALTIMORE","Maryland","21224",3
5102,"602 E 38TH ST","BALTIMORE","Maryland","21218",3
5103,"FLEET ST &S DEAN ST","BALTIMORE","Maryland","21224",3
5104,"S WARWICK AVE & HOLLINS ST","BALTIMORE","Maryland","21223",3
5105,"3400 FLEET ST","BALTIMORE","Maryland","21224",3
5106,"N CENTRAL AVE &E FAYETTE ST","BALTIMORE","Maryland","21202",3
5107,"5600 NORTHWOOD DR","BALTIMORE","Maryland","21212",3
5108,"E NORTH AVE & GREENMOUNT AVE","BALTIMORE","Maryland","21202",3
5109,"700 E BELVEDERE AVE","BALTIMORE","Maryland","21212",3
5110,"SINCLAIR LN","BALTIMORE","Maryland","21206",3
5111,"800 WINSTON AVE","BALTIMORE","Maryland","21212",3
5112,"4000 TIVOLY AVE","BALTIMORE","Maryland","21218",3
5113,"3100 PARKSIDE DR","BALTIMORE","Maryland","21214",3
5114,"200 HOMELAND AVE","BALTIMORE","Maryland","21212",3
5115,"800 W NORTHERN PKWY","BALTIMORE","Maryland","21210",3
5116,"4900 HARFORD RD","BALTIMORE","Maryland","21214",3
5117,"WALTHER AVE & HARFORD RD","BALTIMORE","Maryland","21214",3
5118,"4023 PULASKI HWY","BALTIMORE","Maryland","21224",3
5119,"4401 REISTERSTOWN RD","BALTIMORE","Maryland","21215",3
5120,"WINDSOR MILL RD & LYNDHURST AVE","BALTIMORE","Maryland","21216",3
5121,"5500 PERRING PKWY","BALTIMORE","Maryland","21239",3
5122,"700 W NORTHERN PKWY","BALTIMORE","Maryland","21210",3
5123,"3542 ELMLEY AVE","BALTIMORE","Maryland","21213",3
5124,"MILLINGTON AVE & FREDERICK AVE","BALTIMORE","Maryland","21223",3
5125,"2600 WASHINGTON BLVD","BALTIMORE","Maryland","21230",3
5126,"1801 KEY HWY","BALTIMORE","Maryland","21230",3
5127,"3700 PULASKI HWY","BALTIMORE","Maryland","21224",3
5128,"E BELVEDERE AVE & PERRING PKWY","BALTIMORE","Maryland","21239",3
5129,"6215 BELAIR RD","BALTIMORE","Maryland","21206",3
5130,"5600 SINCLAIR LN","BALTIMORE","Maryland","21206",3
5131,"5000 SINCLAIR LN","BALTIMORE","Maryland","21206",3
5132,"720 ALLENDALE ST","BALTIMORE","Maryland","21229",3
5133,"4700 SINCLAIR LN","BALTIMORE","Maryland","21206",3
5134,"3600 SINCLAIR LN","BALTIMORE","Maryland","21213",3
5135,"3300 SINCLAIR LN","BALTIMORE","Maryland","21213",3
5136,"CARTER AVE & ECHODALE AVE","BALTIMORE","Maryland","21214",3
5137,"400 MOUNT HOLLY ST","BALTIMORE","Maryland","21229",3
5138,"ROLAND AVE &W NORTHERN PKWY","BALTIMORE","Maryland","21210",3
5139,"900 W NORTHERN PKWY","BALTIMORE","Maryland","21210",3
5140,"700 W NORTHERN PKWY","BALTIMORE","Maryland","21210",3
5141,"4200 WHITE AVE","BALTIMORE","Maryland","21206",3
5142,"4000 LELAND AVE","BALTIMORE","Maryland","21224",3
5143,"1501 S CLINTON ST","BALTIMORE","Maryland","21224",3
5144,"1536 NORTHWICK RD","BALTIMORE","Maryland","21218",3
5145,"JEFFERSON ST &N LINWOOD AVE","BALTIMORE","Maryland","21205",3
5146,"E NORTH AVE & HARFORD RD","BALTIMORE","Maryland","21213",3
5147,"40 E MONTGOMERY ST","BALTIMORE","Maryland","21230",3
5148,"1700 HARDEN CT","BALTIMORE","Maryland","21230",3
5149,"1400 WOODBOURNE AVE","BALTIMORE","Maryland","21239",3
5150,"1300 W NORTH AVE","BALTIMORE","Maryland","21217",3
5151,"2500 E OLIVER ST","BALTIMORE","Maryland","21213",3
5152,"620 FALLSWAY","BALTIMORE","Maryland","21202",3
5153,"1841 E LOMBARD ST","BALTIMORE","Maryland","21231",3
5154,"W NORTH AVE & PARK AVE","BALTIMORE","Maryland","21217",3
5155,"123 N CAREY ST","BALTIMORE","Maryland","21223",3
5156,"TAYLOR AVE & DANIELS AVE","BALTIMORE","Maryland","21234",3
5157,"600 W NORTH AVE","BALTIMORE","Maryland","21217",3
5158,"400 ELRINO ST","BALTIMORE","Maryland","21224",3
5159,"3400 ERDMAN AVE","BALTIMORE","Maryland","21213",3
5160,"HAYWARD AVE & FLORENCE AVE","BALTIMORE","Maryland","21215",3
5161,"E NORTHERN PKWY & PERRING PKWY","BALTIMORE","Maryland","21239",3
5162,"MORAVIA RD & MORAVIA RD","BALTIMORE","Maryland","21214",3
5163,"EDMONDSON AVE & BROOKWOOD RD","BALTIMORE","Maryland","21229",3
5164,"2300 MONTEBELLO TER","BALTIMORE","Maryland","21214",3
5165,"WINDSOR MILL RD & GWYNNS FALLS PKWY","BALTIMORE","Maryland","21216",3
5166,"703 WINSTON AVE","BALTIMORE","Maryland","21212",3
5167,"7501 HARFORD RD","BALTIMORE","Maryland","21234",3
5168,"3900 W FRANKLIN ST","BALTIMORE","Maryland","21229",3
5169,"228 S CHESTER ST","BALTIMORE","Maryland","21231",3
5170,"ELMWOOD RD & EDGEVALE RD","BALTIMORE","Maryland","21210",3
5171,"3800 FOSTER AVE","BALTIMORE","Maryland","21224",3
5172,"2111 CLOVILLE AVE","BALTIMORE","Maryland","21214",3
5173,"3517 KENYON AVE","BALTIMORE","Maryland","21213",3
5174,"NOTTINGHAM RD & EDMONDSON AVE","BALTIMORE","Maryland","21229",3
5175,"GREENMOUNT AVE &E NORTH AVE","BALTIMORE","Maryland","21202",3
5176,"ERDMAN AVE & EDISON HWY","BALTIMORE","Maryland","21213",3
5177,"2800 LOCH RAVEN RD","BALTIMORE","Maryland","21218",3
5178,"3102 ORLANDO AVE","BALTIMORE","Maryland","21234",3
5179,"6101 LOCH RAVEN BLVD","BALTIMORE","Maryland","21239",3
5180,"400 S BOULDIN ST","BALTIMORE","Maryland","21224",3
5181,"1233 ANGLESEA ST","BALTIMORE","Maryland","21224",3
5182,"3300 SOUTHERN AVE","BALTIMORE","Maryland","21214",3
5183,"STRICKLAND ST &S CATON AVE","BALTIMORE","Maryland","21229",3
5184,"500 N CURLEY ST","BALTIMORE","Maryland","21205",3
5185,"4900 KEITH AVE","BALTIMORE","Maryland","21224",3
5186,"6513 ALTA AVE","BALTIMORE","Maryland","21206",3
5187,"1839 LIGHT ST","BALTIMORE","Maryland","21230",3
5188,"3039 CHESTERFIELD AVE","BALTIMORE","Maryland","21213",3
5189,"4200 ERDMAN AVE","BALTIMORE","Maryland","21213",3
5190,"VINE ST","BALTIMORE","Maryland","21223",3
5191,"106 SAINT DUNSTANS RD","BALTIMORE","Maryland","21212",3
5192,"6607 OLD HARFORD RD","BALTIMORE","Maryland","21214",3
5193,"2700 SOUTHERN AVE","BALTIMORE","Maryland","21214",3
5194,"GLENMORE AVE & WALTHER AVE","BALTIMORE","Maryland","21206",3
5195,"3001 O'DONNELL ST","BALTIMORE","Maryland","21224",3
5196,"3900 HARFORD RD","BALTIMORE","Maryland","21218",3
5197,"3900 WINDSOR MILL RD","BALTIMORE","Maryland","21216",3
5198,"W CATON AVE &N CULVER ST","BALTIMORE","Maryland","21229",3
5199,"WINDSOR MILL RD & WETHEREDSVILLE RD","BALTIMORE","Maryland","21207",3
5200,"S WARWICK AVE & HOLLINS ST","BALTIMORE","Maryland","21223",3
5201,"2600 CHESLEY AVE","BALTIMORE","Maryland","21234",3
5202,"1700 N HILTON ST","BALTIMORE","Maryland","21216",3
5203,"1700 E 31ST ST","BALTIMORE","Maryland","21218",3
5204,"3500 W CATON AVE","BALTIMORE","Maryland","21229",3
5205,"1200 E NORTH AVE","BALTIMORE","Maryland","21202",3
5206,"5000 PENNINGTON AVE","BALTIMORE","Maryland","21226",3
5207,"OLD HARFORD RD &E NORTHERN PKWY","BALTIMORE","Maryland","21214",3
5208,"4600 FALLS RD","BALTIMORE","Maryland","21209",3
5209,"EDMONDSON AVE & GLEN ALLEN DR","BALTIMORE","Maryland","21229",3
5210,"2000 W 41ST ST","BALTIMORE","Maryland","21211",3
5211,"MELBOURNE RD & MARKHAM RD","BALTIMORE","Maryland","21229",3
5212,"3135 STRICKLAND ST","BALTIMORE","Maryland","21229",3
5213,"EUTAW PL & MCMECHEN ST","BALTIMORE","Maryland","21217",3
5214,"4904 WILMSLOW RD","BALTIMORE","Maryland","21210",3
5215,"2701 INGLEWOOD AVE","BALTIMORE","Maryland","21234",3
5216,"6200 PENNINGTON AVE","BALTIMORE","Maryland","21226",3
5217,"1120 E COLD SPRING LN","BALTIMORE","Maryland","21239",3
5218,"1000 E NORTH AVE","BALTIMORE","Maryland","21202",3
5219,"4418 ROLAND AVE","BALTIMORE","Maryland","21210",3
5220,"WATERVIEW AVE & HOLLINS FERRY RD","BALTIMORE","Maryland","21230",3
5221,"1200 N LAKEWOOD AVE","BALTIMORE","Maryland","21213",3
5222,"3100 MILFORD AVE","BALTIMORE","Maryland","21207",3
5223,"783 YALE WILKENS AVE","BALTIMORE","Maryland","21229",3
5224,"4900 EASTERN AVE","BALTIMORE","Maryland","21224",3
5225,"344 N CHARLES ST","BALTIMORE","Maryland","21201",3
5226,"4200 GRANADA AVE","BALTIMORE","Maryland","21215",3
5227,"5750 CROSS COUNTRY BLVD","BALTIMORE","Maryland","21209",3
5228,"134 W RANDALL ST","BALTIMORE","Maryland","21230",3
5229,"3900 GLENGYLE AVE","BALTIMORE","Maryland","21215",3
5230,"W LAKE AVE &N CHARLES ST","BALTIMORE","Maryland","21210",3
5231,"ERDMAN AVE & BELAIR RD","BALTIMORE","Maryland","21213",3
5232,"W COLD SPRING LN & FALLS RD","BALTIMORE","Maryland","21209",3
5233,"6102 OLD HARFORD RD","BALTIMORE","Maryland","21214",3
5234,"617 W 40TH ST","BALTIMORE","Maryland","21211",3
5235,"EUTAW PL & MCMECHEN ST","BALTIMORE","Maryland","21217",3
5236,"501 W UNIVERSITY PKWY","BALTIMORE","Maryland","21210",3
5237,"2000 E NORTH AVE","BALTIMORE","Maryland","21213",3
5238,"700 E NORTH AVE","BALTIMORE","Maryland","21202",3
5239,"E LOMBARD ST &S GAY ST","BALTIMORE","Maryland","21202",3
5240,"3000 GLENDALE AVE","BALTIMORE","Maryland","21234",3
5241,"6100 YORK RD","BALTIMORE","Maryland","21212",3
5242,"4000 WINDSOR MILL RD","BALTIMORE","Maryland","21216",3
5243,"1200 W FRANKLIN ST","BALTIMORE","Maryland","21223",3
5244,"HOLLINS FERRY RD & WATERVIEW AVE","BALTIMORE","Maryland","21230",3
5245,"200 N HILTON ST","BALTIMORE","Maryland","21229",3
5246,"805 BROOKS LN","BALTIMORE","Maryland","21217",3
5247,"1600 E 29TH ST","BALTIMORE","Maryland","21218",3
5248,"1265 E FORT AVE","BALTIMORE","Maryland","21230",3
5249,"5505 RICHARD AVE","BALTIMORE","Maryland","21214",3
5250,"W 40TH ST & KESWICK RD","BALTIMORE","Maryland","21211",3
5251,"1 S GREENE ST","BALTIMORE","Maryland","21201",3
5252,"KESWICK RD &W 40TH ST","BALTIMORE","Maryland","21211",3
5253,"1221 N BENTALOU ST","BALTIMORE","Maryland","21216",3
5254,"1410 S CLINTON ST","BALTIMORE","Maryland","21231",3
5255,"500 LYNDHURST ST","BALTIMORE","Maryland","21229",3
5256,"W 41ST ST & HICKORY AVE","BALTIMORE","Maryland","21211",3
5257,"FALLS RD & COLD SPRING WOOD HEIGHTS","BALTIMORE","Maryland","21211",3
5258,"5516 MATTFELDT AVE","BALTIMORE","Maryland","21209",3
5259,"3900 RIDGECROFT RD","BALTIMORE","Maryland","21206",3
5260,"2600 E NORTHERN PKWY","BALTIMORE","Maryland","21214",3
5261,"1204 HOLLINS ST","BALTIMORE","Maryland","21223",3
5262,"5200 PENNINGTON AVE","BALTIMORE","Maryland","21226",3
5263,"4100 N CHARLES ST","BALTIMORE","Maryland","21218",3
5264,"S ELLWOOD AVE & FOSTER AVE","BALTIMORE","Maryland","21224",3
5265,"5199 DICKEY HILL RD","BALTIMORE","Maryland","21207",3
5266,"1524 OLIVE ST","BALTIMORE","Maryland","21230",3
5267,"1 N LUZERNE AVE","BALTIMORE","Maryland","21224",3
5268,"4227 SPRINGWOOD AVE","BALTIMORE","Maryland","21206",3
5269,"1807 HARLEM AVE","BALTIMORE","Maryland","21217",3
5270,"4001 KESWICK RD","BALTIMORE","Maryland","21211",3
5271,"738 S CHARLES ST","BALTIMORE","Maryland","21230",3
5272,"3400 MERTENS AVE","BALTIMORE","Maryland","21224",3
5273,"1620 S CLINTON ST","BALTIMORE","Maryland","21224",3
5274,"1000 S LAKEWOOD AVE","BALTIMORE","Maryland","21224",3
5275,"2400 W BALTIMORE ST","BALTIMORE","Maryland","21223",3
5276,"5600 PENNINGTON AVE","BALTIMORE","Maryland","21226",3
5277,"601 E 38TH ST","BALTIMORE","Maryland","21218",3
5278,"656 PARKWYRTH AVE","BALTIMORE","Maryland","21218",3
5279,"6331 GREEN MEADOW PKWY","BALTIMORE","Maryland","21209",3
5280,"3300 CLARKS LN","BALTIMORE","Maryland","21215",3
5281,"1000 DRUID PARK LAKE DR","BALTIMORE","Maryland","21217",3
5282,"4299 WINDSOR MILL RD","BALTIMORE","Maryland","21216",3
5283,"GREENMOUNT AVE & EXETER HALL AVE","BALTIMORE","Maryland","21218",3
5284,"GREENMOUNT AVE &E 28TH ST","BALTIMORE","Maryland","21218",3
5285,"1313 DUNDALK AVE","BALTIMORE","Maryland","21222",3
5286,"W COLD SPRING LN","BALTIMORE","Maryland","21209",3
5287,"160 N GAY ST","BALTIMORE","Maryland","21202",3
5288,"PATTERSON AVE & PARSONS AVE","BALTIMORE","Maryland","21215",3
5289,"E MADISON ST &N LINWOOD AVE","BALTIMORE","Maryland","21205",3
5290,"E SARATOGA ST","BALTIMORE","Maryland","21202",3
5291,"164 N GAY ST","BALTIMORE","Maryland","21202",3
5292,"E COLD SPRING LN & HILLEN RD","BALTIMORE","Maryland","21218",3
5293,"315 S DUNCAN ST","BALTIMORE","Maryland","21231",3
5294,"1100 E MCCOMAS ST","BALTIMORE","Maryland","21230",3
5295,"2400 MONTEBELLO TER","BALTIMORE","Maryland","21214",3
5296,"2601 TOLLEY ST","BALTIMORE","Maryland","21230",3
5297,"900 WOODBOURNE AVE","BALTIMORE","Maryland","21212",3
5298,"1100 WOODBOURNE AVE","BALTIMORE","Maryland","21239",3
5299,"3100 LOCH RAVEN RD","BALTIMORE","Maryland","21218",3
5300,"905 WICKLOW RD","BALTIMORE","Maryland","21229",3
5301,"5808 THE ALAMEDA","BALTIMORE","Maryland","21239",3
5302,"2600 INSULATOR DR","BALTIMORE","Maryland","21230",3
5303,"2400 S HANOVER ST","BALTIMORE","Maryland","21230",3
5304,"E COLD SPRING LN & OVERLAND AVE","BALTIMORE","Maryland","21214",3
5305,"2300 E COLD SPRING LN","BALTIMORE","Maryland","21214",3
5306,"1812 FLEET ST","BALTIMORE","Maryland","21231",3
5307,"N FULTON AVE & SARATOGA LEXINGTON","BALTIMORE","Maryland","21223",3
5308,"120 W DICKMAN ST","BALTIMORE","Maryland","21230",3
5309,"N ROSEDALE ST & GWYNNS FALLS PKWY","BALTIMORE","Maryland","21216",3
5310,"300 N MONROE ST","BALTIMORE","Maryland","21223",3
5311,"4300 WINDSOR MILL RD","BALTIMORE","Maryland","21216",3
5312,"300 N FULTON AVE","BALTIMORE","Maryland","21223",3
5313,"N GAY ST &E SARATOGA ST","BALTIMORE","Maryland","21202",3
5314,"1501 S CLINTON ST","BALTIMORE","Maryland","21224",3
5315,"1433 OLIVE ST","BALTIMORE","Maryland","21230",3
5316,"1900 S HANOVER ST","BALTIMORE","Maryland","21230",3
5317,"HARFORD RD & INGLEWOOD AVE","BALTIMORE","Maryland","21234",3
5318,"300 E MADISON ST","BALTIMORE","Maryland","21202",3
5319,"600 PARKWYRTH AVE","BALTIMORE","Maryland","21218",3
5320,"100 E PONTIAC AVE","BALTIMORE","Maryland","21225",3
5321,"PULASKI HWY & MORAVIA RD","BALTIMORE","Maryland","21205",3
5322,"1524 OLIVE ST","BALTIMORE","Maryland","21230",3
5323,"200 W MCCOMAS ST","BALTIMORE","Maryland","21230",3
5324,"MORAVIA RD & I 95 N","BALTIMORE","Maryland","21237",3
5325,"100 S GAY ST","BALTIMORE","Maryland","21202",3
5326,"3200 E BALTIMORE ST","BALTIMORE","Maryland","21224",3
5327,"ERDMAN AVE & HARFORD RD","BALTIMORE","Maryland","21218",3
5328,"LORENA AVE & MARBOURNE AVE","BALTIMORE","Maryland","21230",3
5329,"301 E 28TH ST","BALTIMORE","Maryland","21218",3
5330,"4420 E EAGER ST","BALTIMORE","Maryland","21205",3
5331,"4200 ASHLAND AVE","BALTIMORE","Maryland","21205",3
5332,"1520 S CATON AVE","BALTIMORE","Maryland","21227",3
5333,"3500 ELMLEY AVE","BALTIMORE","Maryland","21213",3
5334,"312 E UNIVERSITY PKWY","BALTIMORE","Maryland","21218",3
5335,"5100 LOCH RAVEN BLVD","BALTIMORE","Maryland","21239",3
5336,"ERDMAN AVE","BALTIMORE","Maryland","21205",3
5337,"PULASKI HWY & RAMP","BALTIMORE","Maryland","21205",3
5338,"4500 BELAIR RD","BALTIMORE","Maryland","21206",3
5339,"2200 ERDMAN AVE","BALTIMORE","Maryland","21213",3
5340,"220 S CHESTER ST","BALTIMORE","Maryland","21231",3
5341,"YORK RD &E NORTHERN PKWY","BALTIMORE","Maryland","21212",3
5342,"4500 YORK RD","BALTIMORE","Maryland","21212",3
5343,"609 W 40TH ST","BALTIMORE","Maryland","21211",3
5344,"6300 YORK RD","BALTIMORE","Maryland","21212",3
5345,"1400 ALICEANNA ST","BALTIMORE","Maryland","21231",3
5346,"6400 YORK RD","BALTIMORE","Maryland","21212",3
5347,"YORK RD &E LAKE AVE","BALTIMORE","Maryland","21212",3
5348,"3643 KEYSTONE AVE","BALTIMORE","Maryland","21211",3
5349,"1128 ROLAND HEIGHTS AVE","BALTIMORE","Maryland","21211",3
5350,"3622 KEYSTONE AVE","BALTIMORE","Maryland","21211",3
5351,"2900 W COLD SPRING LN","BALTIMORE","Maryland","21215",3
5352,"740 YALE AVE","BALTIMORE","Maryland","21229",3
5353,"1855 KEY HWY","BALTIMORE","Maryland","21230",3
5354,"MCMECHEN ST &W MOUNT ROYAL AVE","BALTIMORE","Maryland","21217",3
5355,"3100 S HANOVER ST","BALTIMORE","Maryland","21225",3
5356,"312 E UNIVERSITY PKWY","BALTIMORE","Maryland","21218",3
5357,"2300 WASHINGTON BLVD","BALTIMORE","Maryland","21230",3
5358,"PERRING PKWY &E BELVEDERE AVE","BALTIMORE","Maryland","21239",3
5359,"2200 N FOREST PARK AVE","BALTIMORE","Maryland","21207",3
5360,"HARFORD RD & CHESTERFIELD AVE","BALTIMORE","Maryland","21218",3
5361,"NEWKIRK ST & NEWGATE AVE","BALTIMORE","Maryland","21224",3
5362,"1800 KEY HWY","BALTIMORE","Maryland","21230",3
5363,"3401 ELMORA AVE","BALTIMORE","Maryland","21213",3
5364,"1400 ARGYLE AVE","BALTIMORE","Maryland","21217",3
5365,"4000 LOCH RAVEN BLVD","BALTIMORE","Maryland","21218",3
5366,"5000 W FOREST PARK AVE","BALTIMORE","Maryland","21207",3
5367,"3800 PARKMONT AVE","BALTIMORE","Maryland","21206",3
5368,"DAVIS AVE &N ATHOL AVE","BALTIMORE","Maryland","21229",3
5369,"164 N GAY ST","BALTIMORE","Maryland","21202",3
5370,"1741 GORSUCH AVE","BALTIMORE","Maryland","21218",3
5371,"1600 E NORTH AVE","BALTIMORE","Maryland","21213",3
5372,"3435 ERDMAN AVE","BALTIMORE","Maryland","21213",3
5373,"2304 E COLD SPRING LN","BALTIMORE","Maryland","21214",3
5374,"3100 SOUTHERN AVE","BALTIMORE","Maryland","21214",3
5375,"600 E 38TH ST","BALTIMORE","Maryland","21218",3
5376,"1500 N BENTALOU ST","BALTIMORE","Maryland","21216",3
5377,"1400 N BENTALOU ST","BALTIMORE","Maryland","21216",3
5378,"1300 N BENTALOU ST","BALTIMORE","Maryland","21216",3
5379,"1200 N BENTALOU ST","BALTIMORE","Maryland","21216",3
5380,"3200 WASHINGTON BLVD","BALTIMORE","Maryland","21230",3
5381,"2000 RUXTON AVE","BALTIMORE","Maryland","21216",3
5382,"2217 EASTERN AVE","BALTIMORE","Maryland","21231",3
5383,"600 E PATAPSCO AVE","BALTIMORE","Maryland","21225",3
5384,"2507 W COLD SPRING LN","BALTIMORE","Maryland","21215",3
5385,"1600 N ROSEDALE ST","BALTIMORE","Maryland","21216",3
5386,"1600 N ROSEDALE ST","BALTIMORE","Maryland","21216",3
5387,"RAMP","BALTIMORE","Maryland","21206",3
5388,"900 N IRIS AVE","BALTIMORE","Maryland","21205",3
5389,"1000 N IRIS AVE","BALTIMORE","Maryland","21205",3
5390,"2300 E COLD SPRING LN","BALTIMORE","Maryland","21214",3
5391,"400 ELRINO ST","BALTIMORE","Maryland","21224",3
5392,"E COLD SPRING LN & HARFORD RD","BALTIMORE","Maryland","21214",3
5393,"1512 EUTAW PL","BALTIMORE","Maryland","21217",3
5394,"N FOREST PARK AVE & WETHEREDSVILLE RD","BALTIMORE","Maryland","21207",3
5395,"S MARTIN LUTHER KING JR BLVD & WASHINGTO","BALTIMORE","Maryland","21201",3
5396,"2300 E COLD SPRING LN","BALTIMORE","Maryland","21214",3
5397,"PURNELL DR &W FOREST PARK AVE","GWYNN OAK","Maryland","21207",3
5398,"E COLD SPRING LN & CHARLTON AVE","BALTIMORE","Maryland","21214",3
5399,"MORAVIA RD & HARFORD RD","BALTIMORE","Maryland","21214",3
5400,"430 S PATTERSON PARK AVE","BALTIMORE","Maryland","21224",3
5401,"LOCH RAVEN BLVD &E 33RD ST","BALTIMORE","Maryland","21218",3
5402,"449 E 25TH ST","BALTIMORE","Maryland","21218",3
5403,"S HANOVER ST &E PONTIAC AVE","BALTIMORE","Maryland","21225",3
5404,"W PLEASANT ST","BALTIMORE","Maryland","21201",3
5405,"123 W OSTEND ST","BALTIMORE","Maryland","21230",3
5406,"1423 WINCHESTER ST","BALTIMORE","Maryland","21217",3
5407,"N BENTALOU ST & BAKER ST","BALTIMORE","Maryland","21216",3
5408,"1800 COLE ST","BALTIMORE","Maryland","21223",3
5409,"5118 CRAIG AVE","BALTIMORE","Maryland","21212",3
5410,"3400 MERTENS AVE","BALTIMORE","Maryland","21224",3
5411,"4200 SPRINGDALE AVE","BALTIMORE","Maryland","21207",3
5412,"3300 ELDORADO AVE","BALTIMORE","Maryland","21207",3
5413,"5411 THE ALAMEDA","BALTIMORE","Maryland","21239",3
5414,"700 E BELVEDERE AVE","BALTIMORE","Maryland","21212",3
5415,"W 41ST ST & FALLS RD","BALTIMORE","Maryland","21211",3
5416,"2001 SWANSEA RD","BALTIMORE","Maryland","21239",3
5417,"140 W WEST ST","BALTIMORE","Maryland","21230",3
5418,"SUMTER AVE & PIMLICO RD","BALTIMORE","Maryland","21215",3
5419,"2800 MOSHER ST","BALTIMORE","Maryland","21216",3
5420,"1501 S CLINTON ST","BALTIMORE","Maryland","21224",3
5421,"2800 MOSHER ST","BALTIMORE","Maryland","21216",3
5422,"2902 SYLVAN AVE","BALTIMORE","Maryland","21214",3
5423,"2201 RUSSELL ST","BALTIMORE","Maryland","21230",3
5424,"105 W SARATOGA ST","BALTIMORE","Maryland","21201",3
5425,"FALLS RD & HILLSIDE RD","BALTIMORE","Maryland","21209",3
5426,"6600 WALTHER AVE","BALTIMORE","Maryland","21206",3
5427,"217 W LAFAYETTE AVE","BALTIMORE","Maryland","21217",3
5428,"2150 S HANOVER ST","BALTIMORE","Maryland","21230",3
5429,"2403 W COLD SPRING LN","BALTIMORE","Maryland","21215",3
5430,"606 E PATAPSCO AVE","BALTIMORE","Maryland","21225",3
5431,"5600 THE ALAMEDA","BALTIMORE","Maryland","21239",3
5432,"545 N HIGH ST","BALTIMORE","Maryland","21202",3
5433,"601 W PATAPSCO AVE","BALTIMORE","Maryland","21225",3
5434,"2500 KIRK AVE","BALTIMORE","Maryland","21218",3
5435,"5500 KEMPER RD","BALTIMORE","Maryland","21210",3
5436,"918 S ROBINSON ST","BALTIMORE","Maryland","21224",3
5437,"S CATON AVE & JOH AVE","BALTIMORE","Maryland","21227",3
5438,"2400 W BALTIMORE ST","BALTIMORE","Maryland","21223",3
5439,"305 WINSTON AVE","BALTIMORE","Maryland","21212",3
5440,"3500 ELMORA AVE","BALTIMORE","Maryland","21213",3
5441,"E NORTHERN PKWY & RAMP","BALTIMORE","Maryland","21239",3
5442,"402 N WASHINGTON ST","BALTIMORE","Maryland","21231",3
5443,"4900 E FEDERAL ST","BALTIMORE","Maryland","21205",3
5444,"2903 SPRINGHILL AVE","BALTIMORE","Maryland","21215",3
5445,"700 PENNSYLVANIA AVE","BALTIMORE","Maryland","21201",3
5446,"3306 OAKFIELD AVE","BALTIMORE","Maryland","21207",3
5447,"4300 WINDSOR MILL RD","BALTIMORE","Maryland","21216",3
5448,"111 LANDWEHR LN","BALTIMORE","Maryland","21223",3
5449,"3300 CLARKS LN","BALTIMORE","Maryland","21215",3
5450,"6602 PARK HEIGHTS AVE","BALTIMORE","Maryland","21215",3
5451,"6200 PARK HEIGHTS AVE","BALTIMORE","Maryland","21215",3
5452,"2229 VAN DEMAN ST","BALTIMORE","Maryland","21224",3
5453,"4201 BOSTON ST","BALTIMORE","Maryland","21224",3
5454,"FLEET ST &S WASHINGTON ST","BALTIMORE","Maryland","21231",3
5455,"400 BAYVIEW BLVD","BALTIMORE","Maryland","21224",3
5456,"3700 HARFORD RD","BALTIMORE","Maryland","21218",3
5457,"3200 RAMONA AVE","BALTIMORE","Maryland","21213",3
5458,"2700 CHESTERFIELD AVE","BALTIMORE","Maryland","21213",3
5459,"4100 GROVELAND AVE","BALTIMORE","Maryland","21215",3
5460,"908 WICKLOW RD","BALTIMORE","Maryland","21229",3
5461,"2801 W PATAPSCO AVE","BALTIMORE","Maryland","21230",3
5462,"3400 CLAREMONT ST","BALTIMORE","Maryland","21224",3
5463,"100 MCPHAIL ST","BALTIMORE","Maryland","21223",3
5464,"2500 FREDERICK AVE","BALTIMORE","Maryland","21223",3
5465,"1904 SULGRAVE AVE","BALTIMORE","Maryland","21209",3
5466,"BAYVIEW BLVD &E LOMBARD ST","BALTIMORE","Maryland","21224",3
5467,"906 WICKLOW RD","BALTIMORE","Maryland","21229",3
5468,"842 HILLEN ST","BALTIMORE","Maryland","21202",3
5469,"2100 E FAYETTE ST","BALTIMORE","Maryland","21231",3
5470,"2600 EDMONDSON AVE","BALTIMORE","Maryland","21223",3
5471,"1100 ELBANK AVE","BALTIMORE","Maryland","21239",3
5472,"2200 WESTFIELD AVE","BALTIMORE","Maryland","21214",3
5473,"ANNAPOLIS RD &W PATAPSCO AVE","BALTIMORE","Maryland","21230",3
5474,"5503 BELLE VISTA AVE","BALTIMORE","Maryland","21206",3
5475,"900 S WOLFE ST","BALTIMORE","Maryland","21231",3
5476,"3800 W FRANKLIN ST","BALTIMORE","Maryland","21229",3
5477,"4000 W FRANKLIN ST","BALTIMORE","Maryland","21229",3
5478,"3600 W FRANKLIN ST","BALTIMORE","Maryland","21229",3
5479,"3501 EDNOR RD","BALTIMORE","Maryland","21218",3
5480,"5620 MAYVIEW AVE","BALTIMORE","Maryland","21206",3
5481,"1308 ARGONNE DR","BALTIMORE","Maryland","21218",3
5482,"2621 ASHLAND AVE","BALTIMORE","Maryland","21205",3
5483,"6300 BELAIR RD","BALTIMORE","Maryland","21206",3
5484,"5770 BELAIR RD","BALTIMORE","Maryland","21206",3
5485,"N FRANKLINTOWN RD & GWYNNS FALLS PKWY","BALTIMORE","Maryland","21216",3
5486,"5301 CURTIS AVE","BALTIMORE","Maryland","21226",3
5487,"100 PARK AVE","BALTIMORE","Maryland","21201",3
5488,"6801 EASTERN AVE","BALTIMORE","Maryland","21224",3
5489,"BELLE VISTA AVE & HAMILTON AVE","BALTIMORE","Maryland","21206",3
5490,"1750 EASTERN AVE","BALTIMORE","Maryland","21231",3
5491,"EASTERN AVE &S EDEN ST","BALTIMORE","Maryland","21202",3
5492,"BROENING HWY & DANVILLE AVE","BALTIMORE","Maryland","21224",3
5493,"1441 BROENING HWY","BALTIMORE","Maryland","21224",3
5494,"1418 BROENING HWY","BALTIMORE","Maryland","21224",3
5495,"BROENING HWY & CARDIFF AVE","BALTIMORE","Maryland","21224",3
5496,"111 LANDWEHR LN","BALTIMORE","Maryland","21223",3
5497,"1600 WILKENS AVE","BALTIMORE","Maryland","21223",3
5498,"6144 LOCH RAVEN BLVD","BALTIMORE","Maryland","21239",3
5499,"5719 LOCH RAVEN BLVD","BALTIMORE","Maryland","21239",3
5500,"2401 HAWKINS POINT RD","BALTIMORE","Maryland","21226",3
5501,"4400 LOCH RAVEN BLVD","BALTIMORE","Maryland","21218",3
5502,"800 LYNDHURST ST","BALTIMORE","Maryland","21229",3
5503,"5900 THE ALAMEDA","BALTIMORE","Maryland","21239",3
5504,"PINE HEIGHTS AVE & WILKENS AVE","BALTIMORE","Maryland","21229",3
5505,"3702 THE ALAMEDA","BALTIMORE","Maryland","21218",3
5506,"4600 TAMARIND RD","BALTIMORE","Maryland","21209",3
5507,"2601 SOUTHERN AVE","BALTIMORE","Maryland","21214",3
5508,"2916 FLEETWOOD AVE","BALTIMORE","Maryland","21214",3
5509,"2900 FLEETWOOD AVE","BALTIMORE","Maryland","21214",3
5510,"203 E 39TH ST","BALTIMORE","Maryland","21218",3
5511,"12 EDGEVALE RD","BALTIMORE","Maryland","21210",3
5512,"4000 BALFERN AVE","BALTIMORE","Maryland","21213",3
5513,"601 LIGHT ST","BALTIMORE","Maryland","21230",3
5514,"6501 PULASKI HWY","BALTIMORE","Maryland","21237",3
5515,"LIBERTY HEIGHTS AVE &N ROGERS AVE","BALTIMORE","Maryland","21207",3
5516,"3800 BONVIEW AVE","BALTIMORE","Maryland","21213",3
5517,"N CENTRAL AVE &E FAYETTE ST","BALTIMORE","Maryland","21202",3
5518,"5417 KNELL AVE","BALTIMORE","Maryland","21206",3
5519,"3301 BOSTON ST","BALTIMORE","Maryland","21224",3
5520,"4300 BOSTON ST","BALTIMORE","Maryland","21224",3
5521,"3706 CHESTLE PL","BALTIMORE","Maryland","21224",3
5522,"3319 W CATON AVE","BALTIMORE","Maryland","21229",3
5523,"ERDMAN AVE & PULASKI HWY","BALTIMORE","Maryland","21205",3
5524,"1500 W NORTH AVE","BALTIMORE","Maryland","21217",3
5525,"1400 W NORTH AVE","BALTIMORE","Maryland","21217",3
5526,"1300 W NORTH AVE","BALTIMORE","Maryland","21217",3
5527,"1200 W NORTH AVE","BALTIMORE","Maryland","21217",3
5528,"1100 W NORTH AVE","BALTIMORE","Maryland","21217",3
5529,"300 N CHAPELGATE LN","BALTIMORE","Maryland","21229",3
5530,"E MONUMENT ST & PULASKI HWY","BALTIMORE","Maryland","21205",3
5531,"5501 PULASKI HWY","BALTIMORE","Maryland","21205",3
5532,"N CHARLES ST &W LAKE AVE","BALTIMORE","Maryland","21210",3
5533,"1500 N PATTERSON PARK AVE","BALTIMORE","Maryland","21213",3
5534,"100 N PULASKI ST","BALTIMORE","Maryland","21223",3
5535,"5800 PLAINFIELD AVE","BALTIMORE","Maryland","21206",3
5536,"6618 FAIRDEL AVE","BALTIMORE","Maryland","21206",3
5537,"2738 BAKER ST","BALTIMORE","Maryland","21216",3
5538,"123 W OSTEND ST","BALTIMORE","Maryland","21230",3
5539,"3955 GREENMOUNT AVE","BALTIMORE","Maryland","21218",3
5540,"3955 GREENMOUNT AVE","BALTIMORE","Maryland","21218",3
5541,"233 S EXETER ST","BALTIMORE","Maryland","21202",3
5542,"100 MCMECHEN ST","BALTIMORE","Maryland","21217",3
5543,"PARK AVE &W LEXINGTON ST","BALTIMORE","Maryland","21201",3
5544,"2800 MCELDERRY ST","BALTIMORE","Maryland","21205",3
5545,"3000 MCELDERRY ST","BALTIMORE","Maryland","21205",3
5546,"3100 MCELDERRY ST","BALTIMORE","Maryland","21205",3
5547,"N HOWARD ST","BALTIMORE","Maryland","21201",3
5548,"3214 TOONE ST","BALTIMORE","Maryland","21224",3
5549,"1500 E LANVALE ST","BALTIMORE","Maryland","21213",3
5550,"4200 BOSTON ST","BALTIMORE","Maryland","21224",3
5551,"1801 PORTAL ST","BALTIMORE","Maryland","21224",3
5552,"4900 ANNTANA AVE","BALTIMORE","Maryland","21206",3
5553,"MARYLAND AVE &W PRESTON ST","BALTIMORE","Maryland","21201",3
5554,"3551 EDNOR RD","BALTIMORE","Maryland","21218",3
5555,"3309 TAYLOR AVE","BALTIMORE","Maryland","21234",3
5556,"6303 WEIDNER AVE","BALTIMORE","Maryland","21212",3
5557,"718 HOLLEN RD","BALTIMORE","Maryland","21212",3
5558,"2133 E FAIRMOUNT AVE","BALTIMORE","Maryland","21231",3
5559,"207 CHURCHWARDENS RD","BALTIMORE","Maryland","21212",3
5560,"786 N GRANTLEY ST","BALTIMORE","Maryland","21229",3
5561,"205 W MADISON ST","BALTIMORE","Maryland","21201",3
5562,"1600 E MADISON ST","BALTIMORE","Maryland","21205",3
5563,"434 S PATTERSON PARK AVE","BALTIMORE","Maryland","21231",3
5564,"3900 FLEETWOOD AVE","BALTIMORE","Maryland","21206",3
5565,"2201 SOUTHPORT AVE","BALTIMORE","Maryland","21226",3
5566,"4701 FREDERICK AVE","BALTIMORE","Maryland","21229",3
5567,"300 W PRATT ST","BALTIMORE","Maryland","21201",3
5568,"3301 BOSTON ST","BALTIMORE","Maryland","21224",3
5569,"414 LIGHT ST","BALTIMORE","Maryland","21202",3
5570,"5425 FORCE RD","BALTIMORE","Maryland","21206",3
5571,"100 S MONASTERY AVE","BALTIMORE","Maryland","21229",3
5572,"OVERHILL RD &N CHARLES ST","BALTIMORE","Maryland","21210",3
5573,"3306 HAMILTON AVE","BALTIMORE","Maryland","21214",3
5574,"300 S CHESTER ST","BALTIMORE","Maryland","21231",3
5575,"1100 W LANVALE ST","BALTIMORE","Maryland","21217",3
5576,"843 E FORT AVE","BALTIMORE","Maryland","21230",3
5577,"800 EVESHAM AVE","BALTIMORE","Maryland","21212",3
5578,"5600 NORTHWOOD DR","BALTIMORE","Maryland","21212",3
5579,"400 S BOULDIN ST","BALTIMORE","Maryland","21224",3
5580,"113 N HIGHLAND AVE","BALTIMORE","Maryland","21224",3
5581,"400 S BOULDIN ST","BALTIMORE","Maryland","21224",3
5582,"2200 BOSTON ST","BALTIMORE","Maryland","21231",3
5583,"6600 ALTA AVE","BALTIMORE","Maryland","21206",3
5584,"600 S ANN ST","BALTIMORE","Maryland","21231",3
5585,"3500 FOSTER AVE","BALTIMORE","Maryland","21224",3
5586,"3400 FOSTER AVE","BALTIMORE","Maryland","21224",3
5587,"1 E CHASE ST","BALTIMORE","Maryland","21202",3
5588,"1020 SAINT PAUL ST","BALTIMORE","Maryland","21202",3
5589,"3410 E PRATT ST","BALTIMORE","Maryland","21224",3
5590,"1312 BAYLIS ST","BALTIMORE","Maryland","21224",3
5591,"900 DRUID PARK LAKE DR","BALTIMORE","Maryland","21217",3
5592,"GUILFORD AVE & CHASE ALLEY EAGER","BALTIMORE","Maryland","21202",3
5593,"3700 ELMORA AVE","BALTIMORE","Maryland","21213",3
5594,"POTEE ST &W PATAPSCO AVE","BALTIMORE","Maryland","21225",3
5595,"1540 S HANOVER ST","BALTIMORE","Maryland","21230",3
5596,"1200 S HANOVER ST","BALTIMORE","Maryland","21230",3
5597,"S HANOVER ST & WASHBURN AVE","BALTIMORE","Maryland","21225",3
5598,"3800 FLEET ST","BALTIMORE","Maryland","21224",3
5599,"3908 S HANOVER ST","BALTIMORE","Maryland","21225",3
5600,"3900 FLEET ST","BALTIMORE","Maryland","21224",3
5601,"HAWKINS POINT RD & COVE AVE","BALTIMORE","Maryland","21226",3
5602,"PENNINGTON AVE & ELMTREE ST","BALTIMORE","Maryland","21226",3
5603,"1400 E LOMBARD ST","BALTIMORE","Maryland","21231",3
5604,"10 ART MUSEUM DR","BALTIMORE","Maryland","21218",3
5605,"3600 SAINT PAUL ST","BALTIMORE","Maryland","21218",3
5606,"1800 RUSSELL ST","BALTIMORE","Maryland","21230",3
5607,"2700 WASHINGTON BLVD","BALTIMORE","Maryland","21230",3
5608,"3501 ECHODALE AVE","BALTIMORE","Maryland","21214",3
5609,"ARGONNE DR & TIVOLY AVE","BALTIMORE","Maryland","21218",3
5610,"2507 FAIT AVE","BALTIMORE","Maryland","21224",3
5611,"2401 FAIT AVE","BALTIMORE","Maryland","21224",3
5612,"I 83 N &W NORTHERN PKWY","BALTIMORE","Maryland","21210",3
5613,"5000 GREENSPRING AVE","BALTIMORE","Maryland","21215",3
5614,"POTEE ST &W PATAPSCO AVE","BALTIMORE","Maryland","21225",3
5615,"1000 SAINT GEORGES RD","BALTIMORE","Maryland","21210",3
5616,"3327 RUECKERT AVE","BALTIMORE","Maryland","21214",3
5617,"4820 O'DONNELL ST","BALTIMORE","Maryland","21224",3
5618,"S PRESIDENT ST &E LOMBARD ST","BALTIMORE","Maryland","21202",3
5619,"347 MARTINGALE AVE","BALTIMORE","Maryland","21229",3
5620,"4000 WOODRIDGE RD","BALTIMORE","Maryland","21229",3
5621,"3107 EVERGREEN AVE","BALTIMORE","Maryland","21214",3
5622,"SEVEN MILE LN & SHELBURNE RD","BALTIMORE","Maryland","21208",3
5623,"2401 HAWKINS POINT RD","BALTIMORE","Maryland","21226",3
5624,"3600 SAINT PAUL ST","BALTIMORE","Maryland","21218",3
5625,"6117 BERKELEY AVE","BALTIMORE","Maryland","21209",3
5626,"1000 MARLAU DR","BALTIMORE","Maryland","21212",3
5627,"5800 NORTHWOOD DR","BALTIMORE","Maryland","21212",3
5628,"BOSTON ST &S PONCA ST","BALTIMORE","Maryland","21224",3
5629,"HOLABIRD AVE & PONCABIRD PASS","BALTIMORE","Maryland","21224",3
5630,"BOSTON ST & ALICEANNA ST","BALTIMORE","Maryland","21231",3
5631,"3800 WILKENS AVE","BALTIMORE","Maryland","21229",3
5632,"4000 WILKENS AVE","BALTIMORE","Maryland","21229",3
5633,"BREMEN ST & HOLLINS FERRY RD","BALTIMORE","Maryland","21230",3
5634,"3900 MORAVIA RD","BALTIMORE","Maryland","21206",3
5635,"5200 REISTERSTOWN RD","BALTIMORE","Maryland","21215",3
5636,"7200 HARFORD RD","BALTIMORE","Maryland","21234",3
5637,"600 W PATAPSCO AVE","BALTIMORE","Maryland","21225",3
5638,"3700 HARFORD RD","BALTIMORE","Maryland","21218",3
5639,"1259 WALKER AVE","BALTIMORE","Maryland","21239",3
5640,"200 SOUTHWAY","BALTIMORE","Maryland","21218",3
5641,"1259 WALKER AVE","BALTIMORE","Maryland","21239",3
5642,"200 W MCCOMAS ST","BALTIMORE","Maryland","21230",3
5643,"914 W 37TH ST","BALTIMORE","Maryland","21211",3
5644,"3100 W BALTIMORE ST","BALTIMORE","Maryland","21229",3
5645,"3900 TUDOR ARMS AVE","BALTIMORE","Maryland","21210",3
5646,"500 ASHBURTON ST","BALTIMORE","Maryland","21223",3
5647,"2600 W FRANKLIN ST","BALTIMORE","Maryland","21223",3
5648,"1500 HOLLINS ST","BALTIMORE","Maryland","21223",3
5649,"1 E LAKE AVE","BALTIMORE","Maryland","21212",3
5650,"1800 FREDERICK AVE","BALTIMORE","Maryland","21223",3
5651,"4000 ERDMAN AVE","BALTIMORE","Maryland","21213",3
5652,"3916 ERDMAN AVE","BALTIMORE","Maryland","21213",3
5653,"500 E 39TH ST","BALTIMORE","Maryland","21218",3
5654,"5400 TRAMORE RD","BALTIMORE","Maryland","21214",3
5655,"5107 CROSSWOOD AVE","BALTIMORE","Maryland","21214",3
5656,"3711 FLEETWOOD AVE","BALTIMORE","Maryland","21206",3
5657,"DRUID HILL AVE & DRUID PARK LAKE DR","BALTIMORE","Maryland","21217",3
5658,"3300 TAYLOR AVE","BALTIMORE","Maryland","21234",3
5659,"7700 VICTORY AVE","BALTIMORE","Maryland","21234",3
5660,"414 E LAKE AVE","BALTIMORE","Maryland","21212",3
5661,"E LOMBARD ST","BALTIMORE","Maryland","21202",3
5662,"1259 WALKER AVE","BALTIMORE","Maryland","21239",3
5663,"900 E MADISON ST","BALTIMORE","Maryland","21201",3
5664,"3310 PINKNEY RD","BALTIMORE","Maryland","21215",3
5665,"6000 OLD HARFORD RD","BALTIMORE","Maryland","21214",3
5666,"516 DRUID HILL AVE","BALTIMORE","Maryland","21201",3
5667,"3700 GLENMORE AVE","BALTIMORE","Maryland","21206",3
5668,"3810 BELLE AVE","BALTIMORE","Maryland","21215",3
5669,"3730 SAINT PAUL ST","BALTIMORE","Maryland","21218",3
5670,"111 S CATON AVE","BALTIMORE","Maryland","21229",3
5671,"700 N WOODINGTON RD","BALTIMORE","Maryland","21229",3
5672,"3600 EDMONDSON AVE","BALTIMORE","Maryland","21229",3
5673,"4200 ROKEBY RD","BALTIMORE","Maryland","21229",3
5674,"6025 OLD HARFORD RD","BALTIMORE","Maryland","21214",3
5675,"3800 RAVENWOOD AVE","BALTIMORE","Maryland","21213",3
5676,"1516 N ELLWOOD AVE","BALTIMORE","Maryland","21213",3
5677,"BOSTON ST & INTERSTATE AVE","BALTIMORE","Maryland","21224",3
5678,"MOYER AVE & TAYLOR AVE","BALTIMORE","Maryland","21234",3
5679,"PONCABIRD PASS","BALTIMORE","Maryland","21224",3
5680,"800 QUAIL ST","BALTIMORE","Maryland","21224",3
5681,"700 W COLD SPRING LN","BALTIMORE","Maryland","21210",3
5682,"1509 N CAROLINE ST","BALTIMORE","Maryland","21213",3
5683,"316 S DURHAM ST","BALTIMORE","Maryland","21231",3
5684,"1919 GOUGH ST","BALTIMORE","Maryland","21231",3
5685,"1600 E OLIVER ST","BALTIMORE","Maryland","21213",3
5686,"2400 S HANOVER ST","BALTIMORE","Maryland","21230",3
5687,"1800 N WARWICK AVE","BALTIMORE","Maryland","21216",3
5688,"2700 BRENDAN AVE","BALTIMORE","Maryland","21213",3
5689,"1900 AISQUITH ST","BALTIMORE","Maryland","21218",3
5690,"4900 NORTHWOOD DR","BALTIMORE","Maryland","21239",3
5691,"3819 BEECH AVE","BALTIMORE","Maryland","21211",3
5692,"1700 SWANSEA RD","BALTIMORE","Maryland","21239",3
5693,"119 E CLEMENT ST","BALTIMORE","Maryland","21230",3
5694,"400 ALLENDALE ST","BALTIMORE","Maryland","21229",3
5695,"3600 WOODLEA AVE","BALTIMORE","Maryland","21214",3
5696,"5400 LOCH RAVEN BLVD","BALTIMORE","Maryland","21239",3
5697,"ELLICOTT DWY","BALTIMORE","Maryland","21216",3
5698,"2311 N CALVERT ST","BALTIMORE","Maryland","21218",3
5699,"4500 FAIRVIEW AVE","BALTIMORE","Maryland","21216",3
5700,"2605 DULANY ST","BALTIMORE","Maryland","21223",3
5701,"3900 EDMONDSON AVE","BALTIMORE","Maryland","21229",3
5702,"3300 EDMONDSON AVE","BALTIMORE","Maryland","21229",3
5703,"2511 GLENCOE RD","BALTIMORE","Maryland","21234",3
5704,"4700 EDMONDSON AVE","BALTIMORE","Maryland","21229",3
5705,"EDMONDSON AVE","BALTIMORE","Maryland","21229",3
5706,"400 E BIDDLE ST","BALTIMORE","Maryland","21202",3
5707,"2201 W LAFAYETTE AVE","BALTIMORE","Maryland","21216",3
5708,"800 SPEDDEN ST","BALTIMORE","Maryland","21216",3
5709,"1800 HOLLINS ST","BALTIMORE","Maryland","21223",3
5710,"700 N EUTAW ST","BALTIMORE","Maryland","21201",3
5711,"2911 BAYONNE AVE","BALTIMORE","Maryland","21214",3
5712,"6300 BELAIR RD","BALTIMORE","Maryland","21206",3
5713,"5902 HARFORD RD","BALTIMORE","Maryland","21214",3
5714,"1127 E MADISON ST","BALTIMORE","Maryland","21201",3
5715,"4328 N CHARLES ST","BALTIMORE","Maryland","21218",3
5716,"4338 N CHARLES ST","BALTIMORE","Maryland","21218",3
5717,"4560 N CHARLES ST","BALTIMORE","Maryland","21210",3
5718,"6200 E LOMBARD ST","BALTIMORE","Maryland","21224",3
5719,"TAYLOR AVE & MOYER AVE","BALTIMORE","Maryland","21234",3
5720,"3313 LERCH DR","BALTIMORE","Maryland","21214",3
5721,"4643 MANORDENE RD","BALTIMORE","Maryland","21229",3
5722,"2304 N FOREST PARK AVE","BALTIMORE","Maryland","21207",3
5723,"E FAYETTE ST & COLVIN ST","BALTIMORE","Maryland","21202",3
5724,"6505 ROSEMONT AVE","BALTIMORE","Maryland","21206",3
5725,"11 E OSTEND ST","BALTIMORE","Maryland","21230",3
5726,"1100 E NORTHERN PKWY","BALTIMORE","Maryland","21239",3
5727,"1220 WILLIAM ST","BALTIMORE","Maryland","21230",3
5728,"3400 EDNOR RD","BALTIMORE","Maryland","21218",3
5729,"E NORTHERN PKWY & RAMP","BALTIMORE","Maryland","21239",3
5730,"GREENWAY & MILLBROOK RD","BALTIMORE","Maryland","21218",3
5731,"STRATFORD RD & UNDERWOOD RD","BALTIMORE","Maryland","21218",3
5732,"204 STRATFORD RD","BALTIMORE","Maryland","21218",3
5733,"OVERHILL RD &N CHARLES ST","BALTIMORE","Maryland","21210",3
5734,"1000 OGDEN ST","BALTIMORE","Maryland","21224",3
5735,"6201 E LOMBARD ST","BALTIMORE","Maryland","21224",3
5736,"4100 MARY AVE","BALTIMORE","Maryland","21206",3
5737,"2201 W COLD SPRING LN","BALTIMORE","Maryland","21209",3
5738,"4700 BANK ST","BALTIMORE","Maryland","21224",3
5739,"1201 WINDEMERE AVE","BALTIMORE","Maryland","21218",3
5740,"3009 GUILFORD AVE","BALTIMORE","Maryland","21218",3
5741,"3210 GUILFORD AVE","BALTIMORE","Maryland","21218",3
5742,"2923 GUILFORD AVE","BALTIMORE","Maryland","21218",3
5743,"2300 FREDERICK AVE","BALTIMORE","Maryland","21228",3
5744,"5100 FREDERICK AVE","BALTIMORE","Maryland","21229",3
5745,"1900 W PRATT ST","BALTIMORE","Maryland","21223",3
5746,"1400 W PRATT ST","BALTIMORE","Maryland","21223",3
5747,"1000 W PRATT ST","BALTIMORE","Maryland","21223",3
5748,"6400 FAIR OAKS AVE","BALTIMORE","Maryland","21214",3
5749,"HOLABIRD AVE & PONCABIRD PASS","BALTIMORE","Maryland","21224",3
5750,"3900 RIDGEWOOD AVE","BALTIMORE","Maryland","21215",3
5751,"600 N PAYSON ST","BALTIMORE","Maryland","21217",3
5752,"2 W 25TH ST","BALTIMORE","Maryland","21218",3
5753,"1709 FLEET ST","BALTIMORE","Maryland","21231",3
5754,"4300 LIBERTY HEIGHTS AVE","BALTIMORE","Maryland","21207",3
5755,"BRENDAN AVE & WOODSTOCK AVE","BALTIMORE","Maryland","21213",3
5756,"BRENDAN AVE & PARKLAWN AVE","BALTIMORE","Maryland","21213",3
5757,"W FRANKLIN ST &N HOWARD ST","BALTIMORE","Maryland","21201",3
5758,"3800 GLENMORE AVE","BALTIMORE","Maryland","21206",3
5759,"618 CHESTNUT HILL AVE","BALTIMORE","Maryland","21218",3
5760,"6100 MOYER AVE","BALTIMORE","Maryland","21206",3
5761,"N HOWARD ST &W FRANKLIN ST","BALTIMORE","Maryland","21201",3
5762,"3600 PARKVIEW AVE","BALTIMORE","Maryland","21207",3
5763,"2044 GOUGH ST","BALTIMORE","Maryland","21231",3
5764,"EUTAW PL & DOLPHIN ST","BALTIMORE","Maryland","21217",3
5765,"5923 KAVON AVE","BALTIMORE","Maryland","21206",3
5766,"PLAINFIELD AVE & WHITE AVE","BALTIMORE","Maryland","21206",3
5767,"900 S ELLWOOD AVE","BALTIMORE","Maryland","21224",3
5768,"2301 W PATAPSCO AVE","BALTIMORE","Maryland","21230",3
5769,"11 W LAKE AVE","BALTIMORE","Maryland","21210",3
5770,"3242 E NORTHERN PKWY","BALTIMORE","Maryland","21214",3
5771,"3000 S HANOVER ST","BALTIMORE","Maryland","21225",3
5772,"2100 N CALVERT ST","BALTIMORE","Maryland","21218",3
5773,"2004 HOLLINS FERRY RD","BALTIMORE","Maryland","21230",3
5774,"1606 GLENEAGLE RD","BALTIMORE","Maryland","21239",3
5775,"N ELLAMONT ST","BALTIMORE","Maryland","21216",3
5776,"HOLLINS FERRY RD & BREMEN ST","BALTIMORE","Maryland","21230",3
5777,"ELLICOTT DWY","BALTIMORE","Maryland","21216",3
5778,"1926 E FAYETTE ST","BALTIMORE","Maryland","21231",3
5779,"5200 TRAMORE RD","BALTIMORE","Maryland","21214",3
5780,"W NORTH AVE & PENNSYLVANIA AVE","BALTIMORE","Maryland","21217",3
5781,"4200 KELWAY RD","BALTIMORE","Maryland","21218",3
5782,"3500 GLEN AVE","BALTIMORE","Maryland","21215",3
5783,"3105 EVERGREEN AVE","BALTIMORE","Maryland","21214",3
5784,"3901 JUNIPER RD","BALTIMORE","Maryland","21218",3
5785,"1109 HARRITON RD","BALTIMORE","Maryland","21210",3
5786,"1116 BRYN MAWR RD","BALTIMORE","Maryland","21210",3
5787,"1109 HARRITON RD","BALTIMORE","Maryland","21210",3
5788,"1110 BELLEMORE RD","BALTIMORE","Maryland","21210",3
5789,"1104 BELLEMORE RD","BALTIMORE","Maryland","21210",3
5790,"1010 BELLEMORE RD","BALTIMORE","Maryland","21210",3
5791,"1007 BELLEMORE RD","BALTIMORE","Maryland","21210",3
5792,"801 BELLEMORE RD","BALTIMORE","Maryland","21210",3
5793,"1700 S CHARLES ST","BALTIMORE","Maryland","21230",3
5794,"801 LYNDHURST ST","BALTIMORE","Maryland","21229",3
5795,"4814 BRIARCLIFT RD","BALTIMORE","Maryland","21229",3
5796,"5400 HAMLET AVE","BALTIMORE","Maryland","21214",3
5797,"3300 TAYLOR AVE","BALTIMORE","Maryland","21234",3
5798,"3022 CHESLEY AVE","BALTIMORE","Maryland","21234",3
5799,"2100 E PRATT ST","BALTIMORE","Maryland","21231",3
5800,"1923 E PRATT ST","BALTIMORE","Maryland","21231",3
5801,"3724 ROLAND AVE","BALTIMORE","Maryland","21211",3
5802,"2700 W PATAPSCO AVE","BALTIMORE","Maryland","21230",3
5803,"ROLAND AVE & UNION AVE","BALTIMORE","Maryland","21211",3
5804,"4100 MONTANA AVE","BALTIMORE","Maryland","21206",3
5805,"STAMFORD RD & WESTHILLS RD","BALTIMORE","Maryland","21229",3
5806,"729 LYNDHURST ST","BALTIMORE","Maryland","21229",3
5807,"1500 N PAYSON ST","BALTIMORE","Maryland","21217",3
5808,"1800 CHERRY HILL RD","BALTIMORE","Maryland","21230",3
5809,"2601 LIBERTY HEIGHTS AVE","BALTIMORE","Maryland","21215",3
5810,"LYNDHURST ST & CRANSTON AVE","BALTIMORE","Maryland","21229",3
5811,"55 W TALBOTT ST","BALTIMORE","Maryland","21225",3
5812,"4208 VALLEY VIEW AVE","BALTIMORE","Maryland","21206",3
5813,"503 COLLEEN RD","BALTIMORE","Maryland","21229",3
5814,"100 WILLARD ST","BALTIMORE","Maryland","21223",3
5815,"2080 ECHODALE AVE","BALTIMORE","Maryland","21214",3
5816,"2406 ERDMAN AVE","BALTIMORE","Maryland","21213",3
5817,"5314 TILBURY WAY","BALTIMORE","Maryland","21212",3
5818,"FLEET ST &S CENTRAL AVE","BALTIMORE","Maryland","21202",3
5819,"BOSTON ST & LAKEWOOD AVE","BALTIMORE","Maryland","21224",3
5820,"307 E 30TH ST","BALTIMORE","Maryland","21218",3
5821,"400 E BIDDLE ST","BALTIMORE","Maryland","21202",3
5822,"1200 E BIDDLE ST","BALTIMORE","Maryland","21202",3
5823,"3700 WILKENS AVE","BALTIMORE","Maryland","21229",3
5824,"3925 WILKENS AVE","BALTIMORE","Maryland","21229",3
5825,"W 29TH ST &N HOWARD ST","BALTIMORE","Maryland","21211",3
5826,"W 28TH ST &N HOWARD ST","BALTIMORE","Maryland","21211",3
5827,"5738 WHITE AVE","BALTIMORE","Maryland","21206",3
5828,"1810 CHERRY HILL RD","BALTIMORE","Maryland","21230",3
5829,"E NORTH AVE & HARFORD RD","BALTIMORE","Maryland","21213",3
5830,"5200 SINCLAIR LN","BALTIMORE","Maryland","21206",3
5831,"4100 SINCLAIR LN","BALTIMORE","Maryland","21213",3
5832,"3800 SINCLAIR LN","BALTIMORE","Maryland","21213",3
5833,"DRUID PARK LAKE DR","BALTIMORE","Maryland","21217",3
5834,"1800 HOLLINS ST","BALTIMORE","Maryland","21223",3
5835,"4819 MIDWOOD AVE","BALTIMORE","Maryland","21212",3
5836,"4400 MANNASOTA AVE","BALTIMORE","Maryland","21206",3
5837,"N CHARLES ST &E COLD SPRING LN","BALTIMORE","Maryland","21210",3
5838,"5000 CURTIS AVE","BALTIMORE","Maryland","21226",3
5839,"MOSHER ST &W MOUNT ROYAL AVE","BALTIMORE","Maryland","21217",3
5840,"MADISON AVE &W LAFAYETTE AVE","BALTIMORE","Maryland","21217",3
5841,"5713 BELAIR RD","BALTIMORE","Maryland","21206",3
5842,"3701 MARMON AVE","BALTIMORE","Maryland","21207",3
5843,"335 TUNBRIDGE RD","BALTIMORE","Maryland","21212",3
5844,"3100 FALLS RD","BALTIMORE","Maryland","21211",3
5845,"305 CEDARCROFT RD","BALTIMORE","Maryland","21212",3
5846,"700 ARGONNE DR","BALTIMORE","Maryland","21218",3
5847,"S CAREY ST &W PRATT ST","BALTIMORE","Maryland","21223",3
5848,"BELAIR RD & HAMILTON AVE","BALTIMORE","Maryland","21206",3
5849,"223 S FULTON AVE","BALTIMORE","Maryland","21223",3
5850,"I 83 N &W NORTHERN PKWY","BALTIMORE","Maryland","21210",3
5851,"800 EVESHAM AVE","BALTIMORE","Maryland","21212",3
5852,"4516 BELVIEU AVE","BALTIMORE","Maryland","21215",3
5853,"825 LYNDHURST ST","BALTIMORE","Maryland","21229",3
5854,"3100 PARKSIDE DR","BALTIMORE","Maryland","21214",3
5855,"4000 TIVOLY AVE","BALTIMORE","Maryland","21218",3
5856,"4300 MARBLE HALL RD","BALTIMORE","Maryland","21218",3
5857,"4600 MARBLE HALL RD","BALTIMORE","Maryland","21239",3
5858,"5600 NORTHWOOD DR","BALTIMORE","Maryland","21212",3
5859,"2034 N CALVERT ST","BALTIMORE","Maryland","21218",3
5860,"6300 HARFORD RD","BALTIMORE","Maryland","21214",3
5861,"E NORTHERN PKWY","BALTIMORE","Maryland","21239",3
5862,"1 W 39TH ST","BALTIMORE","Maryland","21218",3
5863,"4106 WILKE AVE","BALTIMORE","Maryland","21206",3
5864,"1705 WICKES AVE","BALTIMORE","Maryland","21230",3
5865,"5000 HERRING RUN DR","BALTIMORE","Maryland","21214",3
5866,"PERRING PKWY & HILLEN RD","BALTIMORE","Maryland","21239",3
5867,"4800 GILRAY DR","BALTIMORE","Maryland","21214",3
5868,"5600 WOODMONT AVE","BALTIMORE","Maryland","21239",3
5869,"1300 E 33RD ST","BALTIMORE","Maryland","21218",3
5870,"108 W JEFFREY ST","BALTIMORE","Maryland","21225",3
5871,"1800 HOLLINS ST","BALTIMORE","Maryland","21223",3
5872,"E COLD SPRING LN &N CHARLES ST","BALTIMORE","Maryland","21212",3
5873,"500 E 33RD ST","BALTIMORE","Maryland","21218",3
5874,"103 E 33RD ST","BALTIMORE","Maryland","21218",3
5875,"5100 PERRING PKWY","BALTIMORE","Maryland","21239",3
5876,"800 EVESHAM AVE","BALTIMORE","Maryland","21212",3
5877,"700 NORTH PT RD","BALTIMORE","Maryland","21224",3
5878,"5300 GOODNOW RD","BALTIMORE","Maryland","21206",3
5879,"5100 NORTHWOOD DR","BALTIMORE","Maryland","21239",3
5880,"SAINT PAUL ST &E 27TH ST","BALTIMORE","Maryland","21218",3
5881,"LOVEGROVE ST &E 27TH ST","BALTIMORE","Maryland","21218",3
5882,"2715 W BELVEDERE AVE","BALTIMORE","Maryland","21215",3
5883,"2406 ERDMAN AVE","BALTIMORE","Maryland","21213",3
5884,"5100 ERDMAN AVE","BALTIMORE","Maryland","21205",3
5885,"300 E NORTHERN PKWY","BALTIMORE","Maryland","21212",3
5886,"6500 PULASKI HWY","BALTIMORE","Maryland","21205",3
5887,"6401 PULASKI HWY","BALTIMORE","Maryland","21205",3
5888,"501 W FRANKLIN ST","BALTIMORE","Maryland","21201",3
5889,"3207 HAMILTON AVE","BALTIMORE","Maryland","21214",3
5890,"N CHARLES ST &E COLD SPRING LN","BALTIMORE","Maryland","21210",3
5891,"1000 CHURCH ST","BALTIMORE","Maryland","21225",3
5892,"1001 E 25TH ST","BALTIMORE","Maryland","21218",3
5893,"3100 GWYNNS FALLS PKWY","BALTIMORE","Maryland","21216",3
5894,"1002 HILLMAN ST","BALTIMORE","Maryland","21202",3
5895,"700 E NORTHERN PKWY","BALTIMORE","Maryland","21212",3
5896,"S MARTIN LUTHER KING JR BLVD & WASHINGTO","BALTIMORE","Maryland","21201",3
5897,"539 S CATHERINE ST","BALTIMORE","Maryland","21223",3
5898,"1700 EAGLE ST","BALTIMORE","Maryland","21223",3
5899,"1800 EAGLE ST","BALTIMORE","Maryland","21223",3
5900,"3300 CLARKS LN","BALTIMORE","Maryland","21215",3
5901,"920 MOUNT HOLLY ST","BALTIMORE","Maryland","21229",3
5902,"2001 FAIRBANK RD","BALTIMORE","Maryland","21209",3
5903,"4119 HAMILTON AVE","BALTIMORE","Maryland","21206",3
5904,"6300 HARFORD RD","BALTIMORE","Maryland","21214",3
5905,"HARFORD RD & ERDMAN AVE","BALTIMORE","Maryland","21218",3
5906,"3300 CLIFTMONT AVE","BALTIMORE","Maryland","21213",3
5907,"1700 W SARATOGA ST","BALTIMORE","Maryland","21223",3
5908,"3400 E BIDDLE ST","BALTIMORE","Maryland","21213",3
5909,"1800 DESOTO RD","BALTIMORE","Maryland","21230",3
5910,"5400 CEDELLA AVE","BALTIMORE","Maryland","21206",3
5911,"6100 LOCH RAVEN BLVD","BALTIMORE","Maryland","21239",3
5912,"PERRING PKWY &E NORTHERN PKWY","BALTIMORE","Maryland","21239",3
5913,"3815 BAYONNE AVE","BALTIMORE","Maryland","21206",3
5914,"5400 CEDONIA AVE","BALTIMORE","Maryland","21206",3
5915,"1400 PENNSYLVANIA AVE","BALTIMORE","Maryland","21217",3
5916,"E COLD SPRING LN & MILLBROOK RD","BALTIMORE","Maryland","21212",3
5917,"110 W 39TH ST","BALTIMORE","Maryland","21210",3
5918,"E LOMBARD ST","BALTIMORE","Maryland","21202",3
5919,"246 S CHESTER ST","BALTIMORE","Maryland","21231",3
5920,"698 E FAYETTE ST","BALTIMORE","Maryland","21202",3
5921,"601 WARWICK RD","BALTIMORE","Maryland","21229",3
5922,"3500 THE ALAMEDA","BALTIMORE","Maryland","21218",3
5923,"N CHARLES ST &E COLD SPRING LN","BALTIMORE","Maryland","21210",3
5924,"CLARKS LN & BANCROFT RD","BALTIMORE","Maryland","21215",3
5925,"BANCROFT RD & WESTERN RUN DR","BALTIMORE","Maryland","21215",3
5926,"1666 E COLD SPRING LN","BALTIMORE","Maryland","21218",3
5927,"6109 CARDIFF AVE","BALTIMORE","Maryland","21224",3
5928,"2200 LOUISE AVE","BALTIMORE","Maryland","21214",3
5929,"300 W 30TH ST","BALTIMORE","Maryland","21211",3
5930,"OAKMONT AVE & BEAUFORT AVE","BALTIMORE","Maryland","21215",3
5931,"I 83 N &W COLD SPRING LN","BALTIMORE","Maryland","21209",3
5932,"3700 SINCLAIR LN","BALTIMORE","Maryland","21213",3
5933,"100 N WASHINGTON ST","BALTIMORE","Maryland","21231",3
5934,"1900 MCELDERRY ST","BALTIMORE","Maryland","21205",3
5935,"6200 E LOMBARD ST","BALTIMORE","Maryland","21224",3
5936,"303 S COLLINGTON AVE","BALTIMORE","Maryland","21231",3
5937,"1400 DELLWOOD AVE","BALTIMORE","Maryland","21211",3
5938,"300 E OLD COLD SPRING LN","BALTIMORE","Maryland","21218",3
5939,"4100 BOSTON ST","BALTIMORE","Maryland","21224",3
5940,"2717 HUDSON ST","BALTIMORE","Maryland","21224",3
5941,"2920 BOSTON ST","BALTIMORE","Maryland","21224",3
5942,"2809 BOSTON ST","BALTIMORE","Maryland","21224",3
5943,"3600 W MULBERRY ST","BALTIMORE","Maryland","21229",3
5944,"300 N GRANTLEY ST","BALTIMORE","Maryland","21229",3
5945,"503 COLLEEN RD","BALTIMORE","Maryland","21229",3
5946,"5400 MOORES RUN DR","BALTIMORE","Maryland","21206",3
5947,"800 BELGIAN AVE","BALTIMORE","Maryland","21218",3
5948,"PARK HEIGHTS AVE & REISTERSTOWN RD","BALTIMORE","Maryland","21215",3
5949,"3600 EVERETT ST","BALTIMORE","Maryland","21226",3
5950,"DICKEY HILL RD &N FOREST PARK AVE","BALTIMORE","Maryland","21207",3
5951,"N PARRISH ST & RIGGS AVE","BALTIMORE","Maryland","21217",3
5952,"2200 BROENING HWY","BALTIMORE","Maryland","21224",3
5953,"33 S KOSSUTH ST","BALTIMORE","Maryland","21229",3
5954,"500 ORKNEY RD","BALTIMORE","Maryland","21212",3
5955,"E 33RD ST & LOCH RAVEN BLVD","BALTIMORE","Maryland","21218",3
5956,"2401 CHESTERFIELD AVE","BALTIMORE","Maryland","21213",3
5957,"2801 CHESTERFIELD AVE","BALTIMORE","Maryland","21213",3
5958,"2300 CHESTERFIELD AVE","BALTIMORE","Maryland","21213",3
5959,"2315 MONTICELLO RD","BALTIMORE","Maryland","21216",3
5960,"2213 CHESTERFIELD AVE","BALTIMORE","Maryland","21213",3
5961,"SINCLAIR LN & ERDMAN AVE","BALTIMORE","Maryland","21213",3
5962,"4100 MARY AVE","BALTIMORE","Maryland","21206",3
5963,"SINCLAIR LN & GLADDEN AVE","BALTIMORE","Maryland","21213",3
5964,"1535 POPLAR GROVE ST","BALTIMORE","Maryland","21216",3
5965,"SINCLAIR LN & COLEMAN AVE","BALTIMORE","Maryland","21213",3
5966,"SINCLAIR LN & EASTMONT AVE","BALTIMORE","Maryland","21213",3
5967,"2601 CHESTERFIELD AVE","BALTIMORE","Maryland","21213",3
5968,"5 E COLD SPRING LN","BALTIMORE","Maryland","21212",3
5969,"HAMILTON AVE & WALTHER AVE","BALTIMORE","Maryland","21214",3
5970,"OLD HARFORD RD &E NORTHERN PKWY","BALTIMORE","Maryland","21214",3
5971,"2213 CHESTERFIELD AVE","BALTIMORE","Maryland","21213",3
5972,"2500 W COLD SPRING LN","BALTIMORE","Maryland","21215",3
5973,"E LOMBARD ST &S CENTRAL AVE","BALTIMORE","Maryland","21202",3
5974,"4711 EDMONDSON AVE","BALTIMORE","Maryland","21229",3
5975,"1300 E LOMBARD ST","BALTIMORE","Maryland","21202",3
5976,"WAVERLY WAY &E NORTHERN PKWY","BALTIMORE","Maryland","21239",3
5977,"832 E COLD SPRING LN","BALTIMORE","Maryland","21212",3
5978,"2601 CHESTERFIELD AVE","BALTIMORE","Maryland","21213",3
5979,"4205 ROLAND AVE","BALTIMORE","Maryland","21210",3
5980,"2500 CHESTERFIELD AVE","BALTIMORE","Maryland","21213",3
5981,"4100 SINCLAIR LN","BALTIMORE","Maryland","21213",3
5982,"LOCH RAVEN BLVD &E NORTHERN PKWY","BALTIMORE","Maryland","21239",3
5983,"2700 SAINT PAUL ST","BALTIMORE","Maryland","21218",3
5984,"S CENTRAL AVE &E LOMBARD ST","BALTIMORE","Maryland","21202",3
5985,"211 W 28TH ST","BALTIMORE","Maryland","21211",3
5986,"3100 WEAVER AVE","BALTIMORE","Maryland","21214",3
5987,"SOUTHERN AVE & BELAIR RD","BALTIMORE","Maryland","21206",3
5988,"5400 REISTERSTOWN RD","BALTIMORE","Maryland","21215",3
5989,"4900 LIBERTY HEIGHTS AVE","BALTIMORE","Maryland","21207",3
5990,"E NORTHERN PKWY & FENWICK AVE","BALTIMORE","Maryland","21239",3
5991,"W COLD SPRING LN & GREENSPRING AVE","BALTIMORE","Maryland","21215",3
5992,"3500 PINKNEY RD","BALTIMORE","Maryland","21215",3
5993,"3600 E NORTHERN PKWY","BALTIMORE","Maryland","21206",3
5994,"100 W COLD SPRING LN","BALTIMORE","Maryland","21210",3
5995,"300 E 28TH ST","BALTIMORE","Maryland","21218",3
5996,"W NORTHERN PKWY & ROLAND AVE","BALTIMORE","Maryland","21210",3
5997,"1300 W NORTHERN PKWY","BALTIMORE","Maryland","21209",3
5998,"5206 THE ALAMEDA","BALTIMORE","Maryland","21239",3
5999,"LUERSSEN AVE & SOUTHERN AVE","BALTIMORE","Maryland","21206",3
6000,"3900 SOUTHERN AVE","BALTIMORE","Maryland","21206",3
6001,"3600 PARKVIEW AVE","BALTIMORE","Maryland","21207",3
6002,"MOYER AVE & GLENMORE AVE","BALTIMORE","Maryland","21206",3
6003,"1401 WOODALL ST","BALTIMORE","Maryland","21230",3
6004,"654 MELVIN DR","BALTIMORE","Maryland","21230",3
6005,"623 PORTLAND ST","BALTIMORE","Maryland","21230",3
6006,"327 S FREMONT AVE","BALTIMORE","Maryland","21230",3
6007,"327 S FREMONT AVE","BALTIMORE","Maryland","21230",3
6008,"300 E NORTHERN PKWY","BALTIMORE","Maryland","21212",3
6009,"900 E NORTHERN PKWY","BALTIMORE","Maryland","21212",3
6010,"3700 CHESTLE PL","BALTIMORE","Maryland","21224",3
6011,"700 E COLD SPRING LN","BALTIMORE","Maryland","21212",3
6012,"THE ALAMEDA & RAMBLEWOOD RD","BALTIMORE","Maryland","21239",3
6013,"5115 ROLAND AVE","BALTIMORE","Maryland","21210",3
6014,"1401 WOODALL ST","BALTIMORE","Maryland","21230",3
6015,"2701 INGLEWOOD AVE","BALTIMORE","Maryland","21234",3
6016,"5805 STONY RUN DR","BALTIMORE","Maryland","21210",3
6017,"5115 ROLAND AVE","BALTIMORE","Maryland","21210",3
6018,"5129 ROLAND AVE","BALTIMORE","Maryland","21210",3
6019,"5119 ROLAND AVE","BALTIMORE","Maryland","21210",3
6020,"HILLEN RD &E COLD SPRING LN","BALTIMORE","Maryland","21218",3
6021,"3626 ROLAND AVE","BALTIMORE","Maryland","21211",3
6022,"4300 FRANKFORD AVE","BALTIMORE","Maryland","21206",3
6023,"WABASH AVE &N ROGERS AVE","BALTIMORE","Maryland","21215",3
6024,"W COLD SPRING LN & GREENSPRING AVE","BALTIMORE","Maryland","21209",3
6025,"802 E COLD SPRING LN","BALTIMORE","Maryland","21212",3
6026,"4011 W FRANKLIN ST","BALTIMORE","Maryland","21229",3
6027,"1240 W CROSS ST","BALTIMORE","Maryland","21230",3
6028,"1234 N BROADWAY","BALTIMORE","Maryland","21213",3
6029,"1600 CHERRY ST","BALTIMORE","Maryland","21226",3
6030,"211 E MADISON ST","BALTIMORE","Maryland","21202",3
6031,"E GITTINGS ST & PATAPSCO ST","BALTIMORE","Maryland","21230",3
6032,"1900 HOLLINS FERRY RD","BALTIMORE","Maryland","21230",3
6033,"2421 CHESTERFIELD AVE","BALTIMORE","Maryland","21213",3
6034,"1322 E 33RD ST","BALTIMORE","Maryland","21218",3
6035,"800 N CHARLES ST","BALTIMORE","Maryland","21201",3
6036,"WABASH AVE & HILLSDALE RD","BALTIMORE","Maryland","21215",3
6037,"S GREENE ST &W BALTIMORE ST","BALTIMORE","Maryland","21201",3
6038,"3614 FRANKFORD AVE","BALTIMORE","Maryland","21214",3
6039,"916 BELGIAN AVE","BALTIMORE","Maryland","21218",3
6040,"122 S ARLINGTON AVE","BALTIMORE","Maryland","21223",3
6041,"1200 PONCA ST","BALTIMORE","Maryland","21224",3
6042,"2400 W COLD SPRING LN","BALTIMORE","Maryland","21215",3
6043,"600 N DECKER AVE","BALTIMORE","Maryland","21205",3
6044,"200 W LAFAYETTE AVE","BALTIMORE","Maryland","21217",3
6045,"1700 S CATON AVE","BALTIMORE","Maryland","21227",3
6046,"E COLD SPRING LN & HILLEN RD","BALTIMORE","Maryland","21218",3
6047,"1600 E COLD SPRING LN","BALTIMORE","Maryland","21218",3
6048,"HAWKINS POINT RD & CHEMICAL RD","BALTIMORE","Maryland","21226",3
6049,"EDMONDSON AVE & BALTIMORE NATIONAL PIKE","BALTIMORE","Maryland","21229",3
6050,"WALSHIRE AVE & PLYMOUTH RD","BALTIMORE","Maryland","21214",3
6051,"1000 S LAKEWOOD AVE","BALTIMORE","Maryland","21224",3
6052,"927 STUBBLEFIELD LN","BALTIMORE","Maryland","21202",3
6053,"900 W NORTHERN PKWY","BALTIMORE","Maryland","21210",3
6054,"3612 MARY AVE","BALTIMORE","Maryland","21206",3
6055,"3028 WINDSOR AVE","BALTIMORE","Maryland","21216",3
6056,"504 S CLINTON ST","BALTIMORE","Maryland","21224",3
6057,"4820 O'DONNELL ST","BALTIMORE","Maryland","21224",3
6058,"6000 HILLEN RD","BALTIMORE","Maryland","21239",3
6059,"1200 N GAY ST","BALTIMORE","Maryland","21213",3
6060,"N WOODINGTON RD & WOODRIDGE RD","BALTIMORE","Maryland","21229",3
6061,"4001 HAMILTON AVE","BALTIMORE","Maryland","21206",3
6062,"6600 FRANKFORD AVE","BALTIMORE","Maryland","21206",3
6063,"2300 GARRETT AVE","BALTIMORE","Maryland","21218",3
6064,"5514 PILGRIM RD","BALTIMORE","Maryland","21214",3
6065,"N CHARLES ST &W COLD SPRING LN","BALTIMORE","Maryland","21210",3
6066,"ALLENDALE ST & EDMONDSON AVE","BALTIMORE","Maryland","21229",3
6067,"4600 WHITE AVE","BALTIMORE","Maryland","21206",3
6068,"E 22ND ST &N CALVERT ST","BALTIMORE","Maryland","21218",3
6069,"1401 WOODALL ST","BALTIMORE","Maryland","21230",3
6070,"300 W 28TH ST","BALTIMORE","Maryland","21211",3
6071,"3716 FLEETWOOD AVE","BALTIMORE","Maryland","21206",3
6072,"5500 ALBAN AVE","BALTIMORE","Maryland","21214",3
6073,"800 E 33RD ST","BALTIMORE","Maryland","21218",3
6074,"1825 S CHARLES ST","BALTIMORE","Maryland","21230",3
6075,"3100 GUILFORD AVE","BALTIMORE","Maryland","21218",3
6076,"800 DRUID PARK LAKE DR","BALTIMORE","Maryland","21217",3
6077,"33 E 21ST ST","BALTIMORE","Maryland","21218",3
6078,"1825 S CHARLES ST","BALTIMORE","Maryland","21230",3
6079,"E MONUMENT ST & CONSTITUTION ST","BALTIMORE","Maryland","21202",3
6080,"3310 N CALVERT ST","BALTIMORE","Maryland","21218",3
6081,"SOMERSET ST &E CHASE ST","BALTIMORE","Maryland","21202",3
6082,"GREENSPRING AVE & CREST RD","BALTIMORE","Maryland","21209",3
6083,"1 N CHARLES ST","BALTIMORE","Maryland","21201",3
6084,"DENISON ST & PIEDMONT AVE","BALTIMORE","Maryland","21216",3
6085,"4900 TRUESDALE AVE","BALTIMORE","Maryland","21206",3
6086,"MILTON LN & WESTFIELD AVE","BALTIMORE","Maryland","21214",3
6087,"1220 W LEXINGTON ST","BALTIMORE","Maryland","21223",3
6088,"5903 THE ALAMEDA","BALTIMORE","Maryland","21239",3
6089,"2900 NORFOLK AVE","BALTIMORE","Maryland","21215",3
6090,"3500 MANNASOTA AVE","BALTIMORE","Maryland","21213",3
6091,"3316 LAWNVIEW AVE","BALTIMORE","Maryland","21213",3
6092,"1802 PATAPSCO ST","BALTIMORE","Maryland","21230",3
6093,"3700 MARMON AVE","BALTIMORE","Maryland","21207",3
6094,"3300 N CALVERT ST","BALTIMORE","Maryland","21218",3
6095,"W 28TH ST &N HOWARD ST","BALTIMORE","Maryland","21211",3
6096,"6201 HOPETON AVE","BALTIMORE","Maryland","21215",3
6097,"3700 SAINT PAUL ST","BALTIMORE","Maryland","21218",3
6098,"3600 SAINT PAUL ST","BALTIMORE","Maryland","21218",3
6099,"900 DRUID PARK LAKE DR","BALTIMORE","Maryland","21217",3
6100,"2300 W COLD SPRING LN","BALTIMORE","Maryland","21209",3
6101,"100 E COLD SPRING LN","BALTIMORE","Maryland","21212",3
6102,"5300 FENWICK AVE","BALTIMORE","Maryland","21239",3
6103,"5500 LIBERTY HEIGHTS AVE","BALTIMORE","Maryland","21207",3
6104,"3050 LIBERTY HEIGHTS AVE","BALTIMORE","Maryland","21215",3
6105,"6300 LOCH RAVEN BLVD","BALTIMORE","Maryland","21239",3
6106,"4033 GREENMOUNT AVE","BALTIMORE","Maryland","21218",3
6107,"2800 GREENMOUNT AVE","BALTIMORE","Maryland","21218",3
6108,"2000 N CALVERT ST","BALTIMORE","Maryland","21218",3
6109,"1900 N CALVERT ST","BALTIMORE","Maryland","21218",3
6110,"SINCLAIR LN & ERDMAN AVE","BALTIMORE","Maryland","21213",3
6111,"3700 EDMONDSON AVE","BALTIMORE","Maryland","21229",3
6112,"1231 ETTING ST","BALTIMORE","Maryland","21217",3
6113,"4304 COOK AVE","BALTIMORE","Maryland","21206",3
6114,"2117 JEFFERSON ST","BALTIMORE","Maryland","21205",3
6115,"2000 FLEET ST","BALTIMORE","Maryland","21231",3
6116,"3400 FLEET ST","BALTIMORE","Maryland","21224",3
6117,"ROSALIE AVE & GLENOAK AVE","BALTIMORE","Maryland","21234",3
6118,"5247 DOWNING RD","BALTIMORE","Maryland","21212",3
6119,"305 BROXTON RD","BALTIMORE","Maryland","21212",3
6120,"1100 S PONCA ST","BALTIMORE","Maryland","21224",3
6121,"3400 ERDMAN AVE","BALTIMORE","Maryland","21213",3
6122,"3500 MANNASOTA AVE","BALTIMORE","Maryland","21213",3
6123,"1259 WALKER AVE","BALTIMORE","Maryland","21239",3
6124,"801 YALE AVE","BALTIMORE","Maryland","21229",3
6125,"700 YALE AVE","BALTIMORE","Maryland","21229",3
6126,"3500 FALLS RD","BALTIMORE","Maryland","21211",3
6127,"5464 CEDONIA AVE","BALTIMORE","Maryland","21206",3
6128,"GLADDEN AVE & SINCLAIR LN","BALTIMORE","Maryland","21213",3
6129,"100 W OSTEND ST","BALTIMORE","Maryland","21230",3
6130,"1100 W OSTEND ST","BALTIMORE","Maryland","21230",3
6131,"1440 RIVERSIDE AVE","BALTIMORE","Maryland","21230",3
6132,"600 W 39TH ST","BALTIMORE","Maryland","21211",3
6133,"3100 E LOMBARD ST","BALTIMORE","Maryland","21224",3
6134,"100 N CONKLING ST","BALTIMORE","Maryland","21224",3
6135,"3200 E NORTHERN PKWY","BALTIMORE","Maryland","21214",3
6136,"1600 E MADISON ST","BALTIMORE","Maryland","21205",3
6137,"4900 LIBERTY HEIGHTS AVE","BALTIMORE","Maryland","21207",3
6138,"3700 PULASKI HWY","BALTIMORE","Maryland","21224",3
6139,"33 S KOSSUTH ST","BALTIMORE","Maryland","21229",3
6140,"N PULASKI ST & RAMP","BALTIMORE","Maryland","21223",3
6141,"GWYNNS FALLS PKWY & HOLMES AVE","BALTIMORE","Maryland","21217",3
6142,"1217 W OSTEND ST","BALTIMORE","Maryland","21230",3
6143,"108 W JEFFREY ST","BALTIMORE","Maryland","21225",3
6144,"1 S FULTON AVE","BALTIMORE","Maryland","21223",3
6145,"700 NORTH POINT RD","BALTIMORE","Maryland","21224",3
6146,"5300 GOODNOW RD","BALTIMORE","Maryland","21206",3
6147,"5803 ROYAL OAK AVE","BALTIMORE","Maryland","21207",3
6148,"5400 CEDONIA AVE","BALTIMORE","Maryland","21206",3
6149,"ELLERSLIE AVE &E 39TH ST","BALTIMORE","Maryland","21218",3
6150,"2650 W FRANKLIN ST","BALTIMORE","Maryland","21223",3
6151,"W FRANKLIN ST &N WHEELER AVE","BALTIMORE","Maryland","21223",3
6152,"THE ALAMEDA & WOODBOURNE AVE","BALTIMORE","Maryland","21239",3
6153,"4001 ERDMAN AVE","BALTIMORE","Maryland","21213",3
6154,"4500 ERDMAN AVE","BALTIMORE","Maryland","21213",3
6155,"1649 S HANOVER ST","BALTIMORE","Maryland","21230",3
6156,"4900 W FOREST PARK AVE","BALTIMORE","Maryland","21207",3
6157,"N CALVERT ST &E 21ST ST","BALTIMORE","Maryland","21218",3
6158,"1300 E MADISON ST","BALTIMORE","Maryland","21205",3
6159,"6000 WALTHER AVE","BALTIMORE","Maryland","21206",3
6160,"2400 ERDMAN AVE","BALTIMORE","Maryland","21213",3
6161,"2 S CULVER ST","BALTIMORE","Maryland","21229",3
6162,"3400 W CATON AVE","BALTIMORE","Maryland","21229",3
6163,"400 YALE AVE","BALTIMORE","Maryland","21229",3
6164,"JUNEWAY & ERDMAN AVE","BALTIMORE","Maryland","21213",3
6165,"1725 OLIVE ST","BALTIMORE","Maryland","21230",3
6166,"5400 ROLAND AVE","BALTIMORE","Maryland","21210",3
6167,"5401 HAMLET AVE","BALTIMORE","Maryland","21214",3
6168,"123 W OSTEND ST","BALTIMORE","Maryland","21230",3
6169,"300 CEDARCROFT RD","BALTIMORE","Maryland","21212",3
6170,"N MONROE ST &W FAYETTE ST","BALTIMORE","Maryland","21223",3
6171,"3916 ERDMAN AVE","BALTIMORE","Maryland","21213",3
6172,"2 E WELLS ST","BALTIMORE","Maryland","21230",3
6173,"4001 ERDMAN AVE","BALTIMORE","Maryland","21213",3
6174,"100 S BOULDIN ST","BALTIMORE","Maryland","21224",3
6175,"3672 ASH ST","BALTIMORE","Maryland","21211",3
6176,"2700 FENWICK AVE","BALTIMORE","Maryland","21218",3
6177,"2327 BOSTON ST","BALTIMORE","Maryland","21224",3
6178,"W NORTH AVE & PARK AVE","BALTIMORE","Maryland","21217",3
6179,"2524 KIRK AVE","BALTIMORE","Maryland","21218",3
6180,"5600 NORTHWOOD DR","BALTIMORE","Maryland","21212",3
6181,"1000 WILMINGTON AVE","BALTIMORE","Maryland","21223",3
6182,"2087 DRUID PARK DR","BALTIMORE","Maryland","21211",3
6183,"2109 BANK ST","BALTIMORE","Maryland","21231",3
6184,"2700 E NORTHERN PKWY","BALTIMORE","Maryland","21214",3
6185,"1460 BATTERY AVE","BALTIMORE","Maryland","21230",3
6186,"1500 N ELLAMONT ST","BALTIMORE","Maryland","21216",3
6187,"3200 PRESBURY ST","BALTIMORE","Maryland","21216",3
6188,"212 E CROSS ST","BALTIMORE","Maryland","21230",3
6189,"400 E CROSS ST","BALTIMORE","Maryland","21230",3
6190,"6100 N CHARLES ST","BALTIMORE","Maryland","21212",3
6191,"507 S COLLINGTON AVE","BALTIMORE","Maryland","21231",3
6192,"400 E 27TH ST","BALTIMORE","Maryland","21218",3
6193,"5109 ROLAND AVE","BALTIMORE","Maryland","21210",3
6194,"6331 PIONEER DR","BALTIMORE","Maryland","21214",3
6195,"1800 PARK AVE","BALTIMORE","Maryland","21217",3
6196,"W NORTH AVE","BALTIMORE","Maryland","21217",3
6197,"702 DOLPHIN ST","BALTIMORE","Maryland","21217",3
6198,"1 E BALTIMORE ST","BALTIMORE","Maryland","21222",3
6199,"2406 ERDMAN AVE","BALTIMORE","Maryland","21213",3
6200,"1251 CEDARCROFT RD","BALTIMORE","Maryland","21239",3
6201,"1647 N PATTERSON PARK AVE","BALTIMORE","Maryland","21213",3
6202,"N WARWICK AVE & EDMONDSON AVE","BALTIMORE","Maryland","21223",3
6203,"1754 GORSUCH AVE","BALTIMORE","Maryland","21218",3
6204,"1900 S HANOVER ST","BALTIMORE","Maryland","21230",3
6205,"2100 S HANOVER ST","BALTIMORE","Maryland","21230",3
6206,"4000 SINCLAIR LN","BALTIMORE","Maryland","21213",3
6207,"1118 CATHEDRAL ST","BALTIMORE","Maryland","21201",3
6208,"6102 OLD HARFORD RD","BALTIMORE","Maryland","21214",3
6209,"1823 S CHARLES ST","BALTIMORE","Maryland","21230",3
6210,"5200 CRAIG AVE","BALTIMORE","Maryland","21212",3
6211,"1704 WINDEMERE AVE","BALTIMORE","Maryland","21218",3
6212,"3600 DILLON ST","BALTIMORE","Maryland","21224",3
6213,"3104 PARKSIDE DR","BALTIMORE","Maryland","21214",3
6214,"5722 NORTHWOOD DR","BALTIMORE","Maryland","21212",3
6215,"4352 PARKSIDE DR","BALTIMORE","Maryland","21206",3
6216,"401 E 32ND ST","BALTIMORE","Maryland","21218",3
6217,"3022 GUILFORD AVE","BALTIMORE","Maryland","21218",3
6218,"2751 FENWICK AVE","BALTIMORE","Maryland","21218",3
6219,"601 W 40TH ST","BALTIMORE","Maryland","21211",3
6220,"200 S HOWARD ST","BALTIMORE","Maryland","21201",3
6221,"2100 N WOLFE ST","BALTIMORE","Maryland","21213",3
6222,"1022 N PATTERSON PARK AVE","BALTIMORE","Maryland","21205",3
6223,"ALICEANNA ST &S SPRING ST","BALTIMORE","Maryland","21202",3
6224,"FLEET ST &S BOND ST","BALTIMORE","Maryland","21231",3
6225,"FLEET ST &S BETHEL ST","BALTIMORE","Maryland","21231",3
6226,"3600 BOSTON ST","BALTIMORE","Maryland","21224",3
6227,"4109 BOSTON ST","BALTIMORE","Maryland","21224",3
6228,"2700 BOSTON ST","BALTIMORE","Maryland","21224",3
6229,"2809 BOSTON ST","BALTIMORE","Maryland","21224",3
6230,"7401 HARFORD RD","BALTIMORE","Maryland","21234",3
6231,"4000 HARFORD RD","BALTIMORE","Maryland","21214",3
6232,"5900 GIST AVE","BALTIMORE","Maryland","21215",3
6233,"5600 PERRING PKWY","BALTIMORE","Maryland","21239",3
6234,"3112 ROSEKEMP AVE","BALTIMORE","Maryland","21214",3
6235,"300 E LOMBARD ST","BALTIMORE","Maryland","21202",3
6236,"900 E 20TH ST","BALTIMORE","Maryland","21218",3
6237,"FOREST HEIGHTS DR & OAKLAWN RD","BALTIMORE","Maryland","21207",3
6238,"334 SAINT PAUL PL","BALTIMORE","Maryland","21202",3
6239,"600 CEDARCROFT RD","BALTIMORE","Maryland","21212",3
6240,"LOVEGROVE ST &E MULBERRY ST","BALTIMORE","Maryland","21201",3
6241,"N HOWARD ST & CLAY ST","BALTIMORE","Maryland","21201",3
6242,"E FEDERAL ST & ERDMAN AVE","BALTIMORE","Maryland","21213",3
6243,"5304 SAINT ALBANS WAY","BALTIMORE","Maryland","21212",3
6244,"1001 E MCCOMAS ST","BALTIMORE","Maryland","21230",3
6245,"1410 S CLINTON ST","BALTIMORE","Maryland","21231",3
6246,"1605 KEY HWY","BALTIMORE","Maryland","21230",3
6247,"1022 N PATTERSON PARK AVE","BALTIMORE","Maryland","21205",3
6248,"5923 KAVON AVE","BALTIMORE","Maryland","21206",3
6249,"100 PONTIAC AVE","BALTIMORE","Maryland","21225",3
6250,"200 N SCHROEDER ST","BALTIMORE","Maryland","21223",3
6251,"SHANNON DR & LYNDALE AVE","BALTIMORE","Maryland","21213",3
6252,"4400 COLBORNE RD","BALTIMORE","Maryland","21229",3
6253,"3200 SEQUOIA AVE","BALTIMORE","Maryland","21215",3
6254,"400 DRUID HILL AVE","BALTIMORE","Maryland","21201",3
6255,"700 N GILMOR ST","BALTIMORE","Maryland","21217",3
6256,"710 E BELVEDERE AVE","BALTIMORE","Maryland","21212",3
6257,"2127 SINCLAIR LN","BALTIMORE","Maryland","21213",3
6258,"3921 GREENMOUNT AVE","BALTIMORE","Maryland","21218",3
6259,"4028 WALRAD ST","BALTIMORE","Maryland","21229",3
6260,"EASTERN AVE &S ANN ST","BALTIMORE","Maryland","21231",3
6261,"2217 EASTERN AVE","BALTIMORE","Maryland","21231",3
6262,"1200 S CAREY ST","BALTIMORE","Maryland","21230",3
6263,"5802 THE ALAMEDA","BALTIMORE","Maryland","21239",3
6264,"5300 THE ALAMEDA","BALTIMORE","Maryland","21239",3
6265,"5700 PENNINGTON AVE","BALTIMORE","Maryland","21226",3
6266,"3000 SAINT PAUL ST","BALTIMORE","Maryland","21218",3
6267,"800 N CHARLES ST","BALTIMORE","Maryland","21201",3
6268,"SAINT PAUL ST","BALTIMORE","Maryland","21218",3
6269,"3210 HAMILTON AVE","BALTIMORE","Maryland","21214",3
6270,"5923 KAVON AVE","BALTIMORE","Maryland","21206",3
6271,"3612 DUDLEY AVE","BALTIMORE","Maryland","21213",3
6272,"3700 CLIFTMONT AVE","BALTIMORE","Maryland","21213",3
6273,"4200 FRANKFORD AVE","BALTIMORE","Maryland","21206",3
6274,"101 N CENTRAL AVE","BALTIMORE","Maryland","21202",3
6275,"4001 HUDSON ST","BALTIMORE","Maryland","21224",3
6276,"4303 FRANKFORD AVE","BALTIMORE","Maryland","21206",3
6277,"1400 E NORTH AVE","BALTIMORE","Maryland","21213",3
6278,"S HANOVER ST &E PATAPSCO AVE","BALTIMORE","Maryland","21225",3
6279,"700 APPLETON ST","BALTIMORE","Maryland","21217",3
6280,"S MARTIN LUTHER KING JR BLVD & I 395","BALTIMORE","Maryland","21230",3
6281,"2800 INGLEWOOD AVE","BALTIMORE","Maryland","21234",3
6282,"6 E MULBERRY ST","BALTIMORE","Maryland","21202",3
6283,"600 COKESBURY AVE","BALTIMORE","Maryland","21218",3
6284,"E FORT AVE & HENRY ST","BALTIMORE","Maryland","21230",3
6285,"1442 GITTINGS AVE","BALTIMORE","Maryland","21239",3
6286,"749 BARTLETT AVE","BALTIMORE","Maryland","21218",3
6287,"1300 CEDARCROFT RD","BALTIMORE","Maryland","21239",3
6288,"700 N KENWOOD AVE","BALTIMORE","Maryland","21205",3
6289,"2800 WASHINGTON BLVD","BALTIMORE","Maryland","21230",3
6290,"E FAYETTE ST &N CENTRAL AVE","BALTIMORE","Maryland","21202",3
6291,"2100 N CALVERT ST","BALTIMORE","Maryland","21218",3
6292,"3300 N LOUDON AVE","BALTIMORE","Maryland","21207",3
6293,"5900 WALTHER AVE","BALTIMORE","Maryland","21206",3
6294,"FOREST GLEN RD &W FOREST PARK AVE","BALTIMORE","Maryland","21207",3
6295,"WALSHIRE AVE","BALTIMORE","Maryland","21214",3
6296,"2800 W COLD SPRING LN","BALTIMORE","Maryland","21215",3
6297,"5500 WABASH AVE","BALTIMORE","Maryland","21215",3
6298,"2201 W COLD SPRING LN","BALTIMORE","Maryland","21209",3
6299,"E 21ST ST","BALTIMORE","Maryland","21218",3
6300,"2100 N CALVERT ST","BALTIMORE","Maryland","21218",3
6301,"2100 N CALVERT ST","BALTIMORE","Maryland","21218",3
6302,"4900 HARFORD RD","BALTIMORE","Maryland","21214",3
6303,"4800 HARFORD RD","BALTIMORE","Maryland","21214",3
6304,"E 21ST ST &N CALVERT ST","BALTIMORE","Maryland","21218",3
6305,"800 E FAYETTE ST","BALTIMORE","Maryland","21202",3
6306,"200 N WASHINGTON ST","BALTIMORE","Maryland","21231",3
6307,"100 N WASHINGTON ST","BALTIMORE","Maryland","21231",3
6308,"HARFORD RD & AILSA AVE","BALTIMORE","Maryland","21214",3
6309,"1300 CEDARCROFT RD","BALTIMORE","Maryland","21239",3
6310,"2051 S HANOVER ST","BALTIMORE","Maryland","21230",3
6311,"201 W 28TH ST","BALTIMORE","Maryland","21211",3
6312,"1200 E FAYETTE ST","BALTIMORE","Maryland","21202",3
6313,"2814 INGLEWOOD AVE","BALTIMORE","Maryland","21234",3
6314,"3600 MONTEREY RD","BALTIMORE","Maryland","21218",3
6315,"125 N ANN ST","BALTIMORE","Maryland","21231",3
6316,"W 28TH ST & REMINGTON AVE","BALTIMORE","Maryland","21211",3
6317,"1000 UPNOR RD","BALTIMORE","Maryland","21212",3
6318,"E FAYETTE ST &N CENTRAL AVE","BALTIMORE","Maryland","21202",3
6319,"5700 BENTON HEIGHTS AVE","BALTIMORE","Maryland","21206",3
6320,"N CALVERT ST &E FAYETTE ST","BALTIMORE","Maryland","21202",3
6321,"BOSTON ST &S CLINTON ST","BALTIMORE","Maryland","21224",3
6322,"I 83N BRENTWOOD &E BIDDLE ST","BALTIMORE","Maryland","21202",3
6323,"1 E OSTEND ST","BALTIMORE","Maryland","21230",3
6324,"1522 GORSUCH AVE","BALTIMORE","Maryland","21218",3
6325,"301 W 28TH ST","BALTIMORE","Maryland","21211",3
6326,"N CENTRAL AVE &E FAYETTE ST","BALTIMORE","Maryland","21202",3
6327,"1010 PATAPSCO ST","BALTIMORE","Maryland","21230",3
6328,"E MONUMENT ST & PULASKI HWY","BALTIMORE","Maryland","21205",3
6329,"1033 SAINT PAUL ST","BALTIMORE","Maryland","21202",3
6330,"1328 HAUBERT ST","BALTIMORE","Maryland","21230",3
6331,"1801 KEY HWY","BALTIMORE","Maryland","21230",3
6332,"500 COLLEEN RD","BALTIMORE","Maryland","21229",3
6333,"E FAYETTE ST & COLVIN ST","BALTIMORE","Maryland","21202",3
6334,"HARFORD RD & HALCYON AVE","BALTIMORE","Maryland","21214",3
6335,"3217 BAYONNE AVE","BALTIMORE","Maryland","21214",3
6336,"E FAYETTE ST & AISQUITH ST","BALTIMORE","Maryland","21202",3
6337,"800 W BARRE ST","BALTIMORE","Maryland","21230",3
6338,"300 E NORTHERN PKWY","BALTIMORE","Maryland","21212",3
6339,"200 E READ ST","BALTIMORE","Maryland","21202",3
6340,"4900 HARFORD RD","BALTIMORE","Maryland","21214",3
6341,"26 W JEFFREY ST","BALTIMORE","Maryland","21225",3
6342,"300 E JEFFREY ST","BALTIMORE","Maryland","21225",3
6343,"1823 S CHARLES ST","BALTIMORE","Maryland","21230",3
6344,"5400 SAGRA RD","BALTIMORE","Maryland","21239",3
6345,"5301 ERDMAN AVE","BALTIMORE","Maryland",NA,3
6346,"305 S CHAPELGATE LN","BALTIMORE","Maryland","21229",3
6347,"300 NORTH BEND RD","BALTIMORE","Maryland","21204",3
6348,"2700 RALLS AVE","BALTIMORE","Maryland","21222",3
6349,"HAWKINS PT RD & COVE AVE","BALTIMORE","Maryland","21226",3
6350,"6500 WALTHER AVE","BALTIMORE","Maryland","21206",3
6351,"WALTHER AVE & FLEETWOOD AVE","BALTIMORE","Maryland","21206",3
6352,"E 31ST ST &N CALVERT ST","BALTIMORE","Maryland","21218",3
6353,"300 W LAFAYETTE AVE","BALTIMORE","Maryland","21217",3
6354,"300 W LAFAYETTE AVE","BALTIMORE","Maryland","21217",3
6355,"2616 W LAFAYETTE AVE","BALTIMORE","Maryland","21216",3
6356,"3100 GUILFORD AVE","BALTIMORE","Maryland","21218",3
6357,"PRESSTMAN ST &N BRUCE ST","BALTIMORE","Maryland","21217",3
6358,"E MADISON ST","BALTIMORE","Maryland","21205",3
6359,"3400 ERDMAN AVE","BALTIMORE","Maryland","21213",3
6360,"100 N ATHOL AVE","BALTIMORE","Maryland","21229",3
6361,"165 N STREEPER ST","BALTIMORE","Maryland","21224",3
6362,"1200 WALKER AVE","BALTIMORE","Maryland","21239",3
6363,"4700 HAZELWOOD AVE","BALTIMORE","Maryland","21206",3
6364,"5400 BUCKNELL RD","BALTIMORE","Maryland","21206",3
6365,"ERDMAN AVE & SINCLAIR LN","BALTIMORE","Maryland","21213",3
6366,"24 E WEST ST","BALTIMORE","Maryland","21230",3
6367,"RADECKE AVE","BALTIMORE","Maryland","21206",3
6368,"2800 MARYLAND AVE","BALTIMORE","Maryland","21218",3
6369,"3700 E NORTHERN PKWY","BALTIMORE","Maryland","21206",3
6370,"1720 OLIVE ST","BALTIMORE","Maryland","21230",3
6371,"100 E SARATOGA ST","BALTIMORE","Maryland","21202",3
6372,"300 SAINT PAUL PL","BALTIMORE","Maryland","21202",3
6373,"100 W MULBERRY ST","BALTIMORE","Maryland","21201",3
6374,"200 W MULBERRY ST","BALTIMORE","Maryland","21201",3
6375,"100 W MULBERRY ST","BALTIMORE","Maryland","21201",3
6376,"400 N GREENE ST","BALTIMORE","Maryland","21201",3
6377,"300 W MULBERRY ST","BALTIMORE","Maryland","21201",3
6378,"600 ASHBURTON ST","BALTIMORE","Maryland","21216",3
6379,"300 BRIDGEVIEW RD","BALTIMORE","Maryland","21225",3
6380,"W COLD SPRING LN & GREENSPRING AVE","BALTIMORE","Maryland","21209",3
6381,"WHITMORE AVE &W LAFAYETTE AVE","BALTIMORE","Maryland","21216",3
6382,"2100 LONGVIEW AVE","BALTIMORE","Maryland","21213",3
6383,"PARK HEIGHTS AVE & PINKNEY RD","BALTIMORE","Maryland","21215",3
6384,"3132 HARVIEW AVE","BALTIMORE","Maryland","21234",3
6385,"N FOREST PARK AVE & WINDSOR MILL RD","BALTIMORE","Maryland","21207",3
6386,"800 WASHBURN AVE","BALTIMORE","Maryland","21225",3
6387,"228 AISQUITH ST","BALTIMORE","Maryland","21202",3
6388,"2000 W FAYETTE ST","BALTIMORE","Maryland","21223",3
6389,"1941 W FAYETTE ST","BALTIMORE","Maryland","21223",3
6390,"1741 GORSUCH AVE","BALTIMORE","Maryland","21218",3
6391,"5400 CEDONIA AVE","BALTIMORE","Maryland","21206",3
6392,"2800 W FRANKLIN ST","BALTIMORE","Maryland","21223",3
6393,"RAMBLE AVE & GOVANE AVE","BALTIMORE","Maryland","21212",3
6394,"5000 GOVANE AVE","BALTIMORE","Maryland","21212",3
6395,"3600 SINCLAIR LN","BALTIMORE","Maryland","21213",3
6396,"3800 HARFORD RD","BALTIMORE","Maryland","21214",3
6397,"531 BENNINGHAUS RD","BALTIMORE","Maryland","21212",3
6398,"3900 MAYBERRY AVE","BALTIMORE","Maryland","21206",3
6399,"6400 RIDGEVIEW AVE","BALTIMORE","Maryland","21206",3
6400,"5400 CEDONIA AVE","BALTIMORE","Maryland","21206",3
6401,"3100 E PRATT ST","BALTIMORE","Maryland","21224",3
6402,"3223 E PRATT ST","BALTIMORE","Maryland",NA,3
6403,"200 S BOULDIN ST","BALTIMORE","Maryland","21224",3
6404,"6000 HENDERSON AVE","BALTIMORE","Maryland","21212",3
6405,"3800 PARKMONT AVE","BALTIMORE","Maryland","21206",3
6406,"2100 RUSSELL ST","BALTIMORE","Maryland","21230",3
6407,"HARFORD RD & CHESTERFIELD AVE","BALTIMORE","Maryland","21218",3
6408,"3901 HILLEN RD","BALTIMORE","Maryland","21218",3
6409,"3015 CHESLEY AVE","BALTIMORE","Maryland","21234",3
6410,"100 E TRENTON ST","BALTIMORE","Maryland","21202",3
6411,"2100 E NORTH AVE","BALTIMORE","Maryland","21213",3
6412,"3708 GLENMORE AVE","BALTIMORE","Maryland","21206",3
6413,"100 W MONUMENT ST","BALTIMORE","Maryland","21201",3
6414,"2442 GUILFORD AVE","BALTIMORE","Maryland","21218",3
6415,"1200 LAKESIDE AVE","BALTIMORE","Maryland","21218",3
6416,"3239 ELMLEY AVE","BALTIMORE","Maryland","21213",3
6417,"7300 HARFORD RD","BALTIMORE","Maryland","21234",3
6418,"7208 HARFORD RD","BALTIMORE","Maryland","21234",3
6419,"7100 HARFORD RD","BALTIMORE","Maryland","21234",3
6420,"801 N BROADWAY","BALTIMORE","Maryland","21205",3
6421,"800 ENSOR ST","BALTIMORE","Maryland","21202",3
6422,"N POTOMAC ST &E MONUMENT ST","BALTIMORE","Maryland","21205",3
6423,"21 N DUNCAN ST","BALTIMORE","Maryland","21231",3
6424,"1202 HAVERHILL RD","BALTIMORE","Maryland","21229",3
6425,"548 E NORTHERN PKWY","BALTIMORE","Maryland","21212",3
6426,"4911 LITCHFIELD AVE","BALTIMORE","Maryland","21215",3
6427,"7527 HARFORD RD","BALTIMORE","Maryland","21234",3
6428,"3005 WOODRING AVE","BALTIMORE","Maryland","21234",3
6429,"144 N DUNCAN ST","BALTIMORE","Maryland","21231",3
6430,"TAYLOR AVE & MOYER AVE","BALTIMORE","Maryland","21234",3
6431,"4800 EDMONDSON AVE","BALTIMORE","Maryland","21229",3
6432,"3805 S HANOVER ST","BALTIMORE","Maryland","21225",3
6433,"190 W OSTEND ST","BALTIMORE","Maryland","21230",3
6434,"4400 IVANHOE AVE","BALTIMORE","Maryland","21212",3
6435,"1300 MERIDENE DR","BALTIMORE","Maryland","21239",3
6436,"5804 THE ALAMEDA","BALTIMORE","Maryland","21239",3
6437,"WOODLAND AVE & LANIER AVE","BALTIMORE","Maryland","21215",3
6438,"3836 THE ALAMEDA","BALTIMORE","Maryland","21218",3
6439,"2623 WOODLAND AVE","BALTIMORE","Maryland","21215",3
6440,"1200 DUNDALK AVE","BALTIMORE","Maryland","21224",3
6441,"4820 O'DONNELL ST","BALTIMORE","Maryland","21224",3
6442,"306 CEDARCROFT RD","BALTIMORE","Maryland","21212",3
6443,"N BENTALOU ST & PRESBURY ST","BALTIMORE","Maryland","21216",3
6444,"5600 CEDONIA AVE","BALTIMORE","Maryland","21206",3
6445,"2516 WILLOW GLEN DR","BALTIMORE","Maryland","21209",3
6446,"E PATAPSCO AVE & SHELL RD","BALTIMORE","Maryland","21225",3
6447,"1007 PATAPSCO ST","BALTIMORE","Maryland","21230",3
6448,"1400 HAUBERT ST","BALTIMORE","Maryland","21230",3
6449,"6400 PIONEER DR","BALTIMORE","Maryland","21214",3
6450,"700 S BOULDIN ST","BALTIMORE","Maryland","21224",3
6451,"2717 BEETHOVEN AVE","BALTIMORE","Maryland","21207",3
6452,"5026 THE ALAMEDA","BALTIMORE","Maryland","21239",3
6453,"6500 HARTWAIT ST","BALTIMORE","Maryland","21224",3
6454,"FOREST HEIGHTS DR & OAKLAWN RD","BALTIMORE","Maryland","21207",3
6455,"2500 GREENMOUNT AVE","BALTIMORE","Maryland","21218",3
6456,"6700 DULUTH AVE","BALTIMORE","Maryland","21222",3
6457,"1700 N BENTALOU ST","BALTIMORE","Maryland","21216",3
6458,"2100 WINDSOR AVE","BALTIMORE","Maryland","21217",3
6459,"BOSTON ST & EATON ST","BALTIMORE","Maryland","21224",3
6460,"1900 E 20TH ST","BALTIMORE","Maryland","21213",3
6461,"5000 CLIFTON AVE","BALTIMORE","Maryland","21207",3
6462,"1600 N BENTALOU ST","BALTIMORE","Maryland","21216",3
6463,"112 N MADEIRA ST","BALTIMORE","Maryland","21231",3
6464,"601 E 43RD ST","BALTIMORE","Maryland","21212",3
6465,"4301 OLD YORK RD","BALTIMORE","Maryland","21212",3
6466,"2800 PROSPECT ST","BALTIMORE","Maryland","21216",3
6467,"1325 S CHARLES ST","BALTIMORE","Maryland","21230",3
6468,"W MCCOMAS ST &S HANOVER ST","BALTIMORE","Maryland","21230",3
6469,"1240 CEDARCROFT RD","BALTIMORE","Maryland","21239",3
6470,"1265 LIMIT AVE","BALTIMORE","Maryland","21239",3
6471,"WILLIAMSON AVE & CLARINTH RD","BALTIMORE","Maryland","21215",3
6472,"13 N DUNCAN ST","BALTIMORE","Maryland","21231",3
6473,"3200 BOWERS AVE","BALTIMORE","Maryland","21207",3
6474,"HARFORD RD & CHESTERFIELD AVE","BALTIMORE","Maryland","21218",3
6475,"6400 EASTERN AVE","BALTIMORE","Maryland","21224",3
6476,"99 W PRESTON ST","BALTIMORE","Maryland","21201",3
6477,"3716 FLEETWOOD AVE","BALTIMORE","Maryland","21206",3
6478,"5196 INTERSTATE AVE","BALTIMORE","Maryland","21224",3
6479,"4208 VALLEY VIEW AVE","BALTIMORE","Maryland","21206",3
6480,"4200 GLENMORE AVE","BALTIMORE","Maryland","21206",3
6481,"2617 CHESTERFIELD AVE","BALTIMORE","Maryland","21213",3
6482,"5700 GILPIN RD","BALTIMORE","Maryland","21212",3
6483,"RUSSELL ST & WASHINGTON BLVD","BALTIMORE","Maryland","21230",3
6484,"500 N FRANKLINTOWN RD","BALTIMORE","Maryland","21223",3
6485,"426 MILLINGTON AVE","BALTIMORE","Maryland","21223",3
6486,"1446 BOYLE ST","BALTIMORE","Maryland","21230",3
6487,"3525 W CATON AVE","BALTIMORE","Maryland","21229",3
6488,"UPLANDS PKWY & EDMONDSON AVE","BALTIMORE","Maryland","21229",3
6489,"BELAIR RD & GLENMORE AVE","BALTIMORE","Maryland","21206",3
6490,"900 ELLICOTT DWY","BALTIMORE","Maryland","21216",3
6491,"400 E PRESTON ST","BALTIMORE","Maryland","21202",3
6492,"1900 BOONE ST","BALTIMORE","Maryland","21218",3
6493,"2200 N FOREST PARK AVE","BALTIMORE","Maryland","21207",3
6494,"6 W LAKE AVE","BALTIMORE","Maryland","21210",3
6495,"2000 E NORTHERN PKWY","BALTIMORE","Maryland","21214",3
6496,"400 E NORTHERN PKWY","BALTIMORE","Maryland","21212",3
6497,"W MOUNT ROYAL AVE &W LAFAYETTE AVE","BALTIMORE","Maryland","21217",3
6498,"W LAFAYETTE AVE & MADISON AVE","BALTIMORE","Maryland","21217",3
6499,"DIVISION ST &W LANVALE ST","BALTIMORE","Maryland","21217",3
6500,"W PRATT ST &S FULTON AVE","BALTIMORE","Maryland","21223",3
6501,"400 N PACA ST","BALTIMORE","Maryland","21201",3
6502,"W PATAPSCO AVE & WASHINGTON BLVD","BALTIMORE","Maryland","21227",3
6503,"136 N BRADFORD ST","BALTIMORE","Maryland","21224",3
6504,"2226 CEDLEY ST","BALTIMORE","Maryland","21230",3
6505,"2703 LAWINA RD","BALTIMORE","Maryland","21216",3
6506,"4700 EDMONDSON AVE","BALTIMORE","Maryland","21229",3
6507,"2700 W FRANKLIN ST","BALTIMORE","Maryland","21223",3
6508,"400 NORMANDY AVE","BALTIMORE","Maryland","21229",3
6509,"RAMBLEWOOD RD & THE ALAMEDA","BALTIMORE","Maryland","21239",3
6510,"PRESSTMAN ST &N ROSEDALE ST","BALTIMORE","Maryland","21216",3
6511,"RAMBLEWOOD RD & THE ALAMEDA","BALTIMORE","Maryland","21239",3
6512,"RAMBLEWOOD RD & THE ALAMEDA","BALTIMORE","Maryland","21239",3
6513,"4802 EDMONDSON AVE","BALTIMORE","Maryland","21229",3
6514,"3401 SEVEN MILE LN","BALTIMORE","Maryland","21208",3
6515,"6109 BESSEMER AVE","BALTIMORE","Maryland","21224",3
6516,"1200 RAMBLEWOOD RD","BALTIMORE","Maryland","21239",3
6517,"6203 CARTER AVE","BALTIMORE","Maryland","21214",3
6518,"2717 WHITNEY AVE","BALTIMORE","Maryland","21215",3
6519,"2712 SOUTHERN AVE","BALTIMORE","Maryland","21214",3
6520,"2709 HALCYON AVE","BALTIMORE","Maryland","21214",3
6521,"4711 EDMONDSON AVE","BALTIMORE","Maryland","21229",3
6522,"4364 PARKSIDE DR","BALTIMORE","Maryland","21206",3
6523,"4378 NICHOLAS AVE","BALTIMORE","Maryland","21206",3
6524,"2304 N FOREST PARK AVE","BALTIMORE","Maryland","21207",3
6525,"4315 RASPE AVE","BALTIMORE","Maryland","21206",3
6526,"100 S POTOMAC ST","BALTIMORE","Maryland","21224",3
6527,"3736 BROOKLYN AVE","BALTIMORE","Maryland","21225",3
6528,"3300 EDNOR RD","BALTIMORE","Maryland","21218",3
6529,"THE ALAMEDA & THE ALAMEDA WOODBOURNE","BALTIMORE","Maryland","21239",3
6530,"4000 ERDMAN AVE","BALTIMORE","Maryland","21213",3
6531,"3436 ELMORA AVE","BALTIMORE","Maryland","21213",3
6532,"WETHEREDSVILLE RD &N FOREST PARK AVE","BALTIMORE","Maryland","21207",3
6533,"5620 BELAIR RD","BALTIMORE","Maryland","21206",3
6534,"4312 MAINE AVE","BALTIMORE","Maryland","21207",3
6535,"3700 HARFORD RD","BALTIMORE","Maryland","21218",3
6536,"1000 HARFORD AVE","BALTIMORE","Maryland","21202",3
6537,"EDMONDSON AVE & NOTTINGHAM RD","BALTIMORE","Maryland","21229",3
6538,"WINDSOR MILL RD &N FOREST PARK AVE","BALTIMORE","Maryland","21207",3
6539,"2200 N FOREST PARK AVE","BALTIMORE","Maryland","21207",3
6540,"W FRANKLIN ST &N FRANKLINTOWN RD","BALTIMORE","Maryland","21223",3
6541,"4400 RASPE AVE","BALTIMORE","Maryland","21206",3
6542,"5500 TODD AVE","BALTIMORE","Maryland","21206",3
6543,"300 W 28TH ST","BALTIMORE","Maryland","21211",3
6544,"949 GORSUCH AVE","BALTIMORE","Maryland","21218",3
6545,"3300 EDNOR RD","BALTIMORE","Maryland","21218",3
6546,"111 W DICKMAN ST","BALTIMORE","Maryland","21230",3
6547,"2100 N FOREST PARK AVE","BALTIMORE","Maryland","21207",3
6548,"5000 W FOREST PARK AVE","BALTIMORE","Maryland","21207",3
6549,"2400 N FOREST PARK AVE","BALTIMORE","Maryland","21207",3
6550,"WINDSOR MILL RD &N FOREST PARK AVE","BALTIMORE","Maryland","21207",3
6551,"N CHARLES ST &E READ ST","BALTIMORE","Maryland","21201",3
6552,"3600 SINCLAIR LN","BALTIMORE","Maryland","21213",3
6553,"PURNELL DR &N FOREST PARK AVE","GWYNN OAK","Maryland","21207",3
6554,"3700 SINCLAIR LN","BALTIMORE","Maryland","21213",3
6555,"508 S PAYSON ST","BALTIMORE","Maryland","21223",3
6556,"CHESAPEAKE AVE & 5TH ST","BALTIMORE","Maryland","21225",3
6557,"E NORTHERN PKWY & HILLTOP AVE","BALTIMORE","Maryland","21206",3
6558,"1800 EAGLE ST","BALTIMORE","Maryland","21223",3
6559,"620 WYNDHURST AVE","BALTIMORE","Maryland","21210",3
6560,"3400 ERDMAN AVE","BALTIMORE","Maryland","21213",3
6561,"3400 WOODSTOCK AVE","BALTIMORE","Maryland","21213",3
6562,"2200 WESTFIELD AVE","BALTIMORE","Maryland","21214",3
6563,"E BALTIMORE ST &N HAVEN ST","BALTIMORE","Maryland","21224",3
6564,"THE ALAMEDA & WOODBOURNE AVE","BALTIMORE","Maryland","21239",3
6565,"3222 SHELBURNE RD","BALTIMORE","Maryland","21208",3
6566,"3429 E NORTHERN PKWY","BALTIMORE","Maryland","21206",3
6567,"2319 ARUNAH AVE","BALTIMORE","Maryland","21216",3
6568,"2000 N CALVERT ST","BALTIMORE","Maryland","21218",3
6569,"1800 N CALVERT ST","BALTIMORE","Maryland","21202",3
6570,"3700 SINCLAIR LN","BALTIMORE","Maryland","21213",3
6571,"SINCLAIR LN & ERDMAN AVE","BALTIMORE","Maryland","21213",3
6572,"2910 FLEETWOOD AVE","BALTIMORE","Maryland","21214",3
6573,"2802 ROSELAWN AVE","BALTIMORE","Maryland","21214",3
6574,"6104 OLD HARFORD RD","BALTIMORE","Maryland","21214",3
6575,"2500 CECIL AVE","BALTIMORE","Maryland","21218",3
6576,"2143 WHISTLER AVE","BALTIMORE","Maryland","21230",3
6577,"OLD HARFORD RD & BEECHLAND AVE","BALTIMORE","Maryland","21214",3
6578,"POPLAR GROVE ST","BALTIMORE","Maryland","21216",3
6579,"1909 BRUNT ST","BALTIMORE","Maryland","21217",3
6580,"W FRANKLIN ST &N FRANKLINTOWN RD","BALTIMORE","Maryland","21223",3
6581,"3903 GREENMOUNT AVE","BALTIMORE","Maryland","21218",3
6582,"LANIER AVE &W GARRISON AVE","BALTIMORE","Maryland","21215",3
6583,"2906 WYMAN PKWY","BALTIMORE","Maryland","21211",3
6584,"601 N ELLWOOD AVE","BALTIMORE","Maryland","21205",3
6585,"CARTER AVE & ECHODALE AVE","BALTIMORE","Maryland","21214",3
6586,"1800 N BENTALOU ST","BALTIMORE","Maryland","21216",3
6587,"5430 CEDONIA AVE","BALTIMORE","Maryland","21206",3
6588,"2600 CECIL AVE","BALTIMORE","Maryland","21218",3
6589,"2631 GARRETT AVE","BALTIMORE","Maryland","21218",3
6590,"2208 PINEWOOD AVE","BALTIMORE","Maryland","21214",3
6591,"3301 N CHARLES ST","BALTIMORE","Maryland","21218",3
6592,"4301 NORWOOD RD","BALTIMORE","Maryland","21218",3
6593,"N MARTIN LUTHER KING JR BLVD & MADISON A","BALTIMORE","Maryland","21201",3
6594,"E MADISON ST &N LINWOOD AVE","BALTIMORE","Maryland","21205",3
6595,"816 E BELVEDERE AVE","BALTIMORE","Maryland","21212",3
6596,"816 E BELVEDERE AVE","BALTIMORE","Maryland","21212",3
6597,"1100 W FRANKLIN ST","BALTIMORE","Maryland","21223",3
6598,"4600 EDMONDSON AVE","BALTIMORE","Maryland","21229",3
6599,"CEDONIA AVE & WAYCROSS RD","BALTIMORE","Maryland","21206",3
6600,"2200 GARRETT AVE","BALTIMORE","Maryland","21218",3
6601,"CHESTERFIELD AVE & BELAIR RD","BALTIMORE","Maryland","21213",3
6602,"SUMMIT AVE","BALTIMORE","Maryland","21210",3
6603,"900 HENDLER LN","BALTIMORE","Maryland","21217",3
6604,"10 E LAKE AVE","BALTIMORE","Maryland","21212",3
6605,"5200 PURLINGTON WAY","BALTIMORE","Maryland","21212",3
6606,"200 UPNOR RD","BALTIMORE","Maryland","21212",3
6607,"200 SAINT DUNSTANS RD","BALTIMORE","Maryland","21212",3
6608,"N EUTAW ST &N MARTIN LUTHER KING JR BLVD","BALTIMORE","Maryland","21201",3
6609,"5466 CEDONIA AVE","BALTIMORE","Maryland","21206",3
6610,"728 E BELVEDERE AVE","BALTIMORE","Maryland","21212",3
6611,"5800 NARCISSUS AVE","BALTIMORE","Maryland","21215",3
6612,"5800 JONQUIL AVE","BALTIMORE","Maryland","21215",3
6613,"5700 NARCISSUS AVE","BALTIMORE","Maryland","21215",3
6614,"5302 REISTERSTOWN RD","BALTIMORE","Maryland","21215",3
6615,"850 N MARTIN LUTHER KING JR BLVD","BALTIMORE","Maryland","21201",3
6616,"1540 ABBOTSTON ST","BALTIMORE","Maryland","21218",3
6617,"3500 COTTAGE AVE","BALTIMORE","Maryland","21215",3
6618,"3400 CLARKS LN","BALTIMORE","Maryland","21215",3
6619,"3300 CLARKS LN","BALTIMORE","Maryland","21215",3
6620,"3300 CLARKS LN","BALTIMORE","Maryland","21215",3
6621,"2 E GITTINGS ST","BALTIMORE","Maryland","21230",3
6622,"4800 BOWLAND AVE","BALTIMORE","Maryland","21206",3
6623,"3729 S HANOVER ST","BALTIMORE","Maryland","21225",3
6624,"1622 BELT ST","BALTIMORE","Maryland","21230",3
6625,"3800 SINCLAIR LN","BALTIMORE","Maryland","21213",3
6626,"5565 CEDONIA AVE","BALTIMORE","Maryland","21206",3
6627,"WESTBURY AVE","BALTIMORE","Maryland","21215",3
6628,"1400 CATHEDRAL ST","BALTIMORE","Maryland","21201",3
6629,"4617 ROKEBY RD","BALTIMORE","Maryland","21229",3
6630,"3302 KEITH AVE","BALTIMORE","Maryland","21224",3
6631,"GWYNNS FALLS PKWY & WINDSOR MILL RD","BALTIMORE","Maryland","21216",3
6632,"4013 PARKSIDE DR","BALTIMORE","Maryland","21206",3
6633,"NORTHWAY DR & HARFORD RD","BALTIMORE","Maryland","21234",3
6634,"N FOREST PARK AVE & WETHEREDSVILLE RD","BALTIMORE","Maryland","21207",3
6635,"BOSTON ST &S EAST AVE","BALTIMORE","Maryland","21224",3
6636,"4800 BOWLAND AVE","BALTIMORE","Maryland","21206",3
6637,"5200 FREDERICK AVE","BALTIMORE","Maryland","21229",3
6638,"900 W PRATT ST","BALTIMORE","Maryland","21223",3
6639,"1200 E 20TH ST","BALTIMORE","Maryland","21218",3
6640,"3700 HARFORD RD","BALTIMORE","Maryland","21218",3
6641,"5833 YORK RD","BALTIMORE","Maryland","21212",3
6642,"N FRANKLINTOWN RD & WINANS WAY","BALTIMORE","Maryland","21229",3
6643,"HICKORY AVE &W 40TH ST","BALTIMORE","Maryland","21211",3
6644,"3524 GLENMORE AVE","BALTIMORE","Maryland","21206",3
6645,"3822 RIDGECROFT RD","BALTIMORE","Maryland","21206",3
6646,"5600 NORTHWOOD DR","BALTIMORE","Maryland","21212",3
6647,"3524 GLENMORE AVE","BALTIMORE","Maryland","21206",3
6648,"3915 RIDGECROFT RD","BALTIMORE","Maryland","21206",3
6649,"500 NORMANDY AVE","BALTIMORE","Maryland","21229",3
6650,"JASPER ST &W FRANKLIN ST","BALTIMORE","Maryland","21201",3
6651,"ERDMAN AVE &E FEDERAL ST","BALTIMORE","Maryland","21213",3
6652,"POPLAR GROVE ST & RIGGS AVE","BALTIMORE","Maryland","21216",3
6653,"100 S WASHINGTON ST","BALTIMORE","Maryland","21231",3
6654,"742 S POTOMAC ST","BALTIMORE","Maryland","21224",3
6655,"3609 WOODLEA AVE","BALTIMORE","Maryland","21214",3
6656,"2151 W PATAPSCO AVE","BALTIMORE","Maryland","21230",3
6657,"EDMONDSON AVE & NOTTINGHAM RD","BALTIMORE","Maryland","21229",3
6658,"4013 BELWOOD AVE","BALTIMORE","Maryland","21206",3
6659,"3000 N HILTON ST","BALTIMORE","Maryland","21216",3
6660,"2400 HUDSON ST","BALTIMORE","Maryland","21224",3
6661,"5700 BELLE VISTA AVE","BALTIMORE","Maryland","21206",3
6662,"6500 HARTWAIT ST","BALTIMORE","Maryland","21224",3
6663,"1026 EASTERN AVE","BALTIMORE","Maryland","21202",3
6664,"1242 W COLD SPRING LN","BALTIMORE","Maryland","21209",3
6665,"5602 HAMLET AVE","BALTIMORE","Maryland","21214",3
6666,"1242 W COLD SPRING LN","BALTIMORE","Maryland","21209",3
6667,"6100 HAMLET AVE","BALTIMORE","Maryland","21214",3
6668,"5500 THE ALAMEDA","BALTIMORE","Maryland","21239",3
6669,"3801 HOWARD PARK AVE","BALTIMORE","Maryland","21207",3
6670,"7100 PARK PL","BALTIMORE","Maryland","21234",3
6671,"3821 BOWERS AVE","BALTIMORE","Maryland","21207",3
6672,"800 N HOWARD ST","BALTIMORE","Maryland","21201",3
6673,"2708 HEMLOCK AVE","BALTIMORE","Maryland","21214",3
6674,"2525 CREIGHTON AVE","BALTIMORE","Maryland","21234",3
6675,"2625 E NORTHERN PKWY","BALTIMORE","Maryland","21214",3
6676,"6700 FAIRDEL AVE","BALTIMORE","Maryland","21234",3
6677,"5006 GRINDON AVE","BALTIMORE","Maryland","21214",3
6678,"900 LENTON AVE","BALTIMORE","Maryland","21212",3
6679,"1717 BROENING HWY","BALTIMORE","Maryland","21224",3
6680,"1500 BROENING HWY","BALTIMORE","Maryland","21224",3
6681,"1436 BROENING HWY","BALTIMORE","Maryland","21224",3
6682,"3400 ERDMAN AVE","BALTIMORE","Maryland","21213",3
6683,"4000 ERDMAN AVE","BALTIMORE","Maryland","21213",3
6684,"3955 GREENMOUNT AVE","BALTIMORE","Maryland","21218",3
6685,"6800 FAIRDEL AVE","BALTIMORE","Maryland","21234",3
6686,"BRUCE ST & RETREAT ST","BALTIMORE","Maryland","21217",3
6687,"100 E LAKE AVE","BALTIMORE","Maryland","21212",3
6688,"3603 GREENMOUNT AVE","BALTIMORE","Maryland","21218",3
6689,"4919 MIDWOOD AVE","BALTIMORE","Maryland","21212",3
6690,"4510 SIMMS AVE","BALTIMORE","Maryland","21206",3
6691,"3318 ELM AVE","BALTIMORE","Maryland","21211",3
6692,"415 CEDARCROFT RD","BALTIMORE","Maryland","21212",3
6693,"S HANOVER ST","BALTIMORE","Maryland","21230",3
6694,"4400 OLD FREDERICK RD","BALTIMORE","Maryland","21229",3
6695,"2418 E MADISON ST","BALTIMORE","Maryland","21205",3
6696,"2200 WOODBOURNE AVE","BALTIMORE","Maryland","21214",3
6697,"ROYSTON AVE & HARFORD RD","BALTIMORE","Maryland","21214",3
6698,"800 YALE AVE","BALTIMORE","Maryland","21229",3
6699,"5100 GOVANE AVE","BALTIMORE","Maryland","21212",3
6700,"BLOOMFIELD AVE & DULANY ST","BALTIMORE","Maryland","21229",3
6701,"2700 RALLS AVE","BALTIMORE","Maryland","21222",3
6702,"200 W FRANKLIN ST","BALTIMORE","Maryland","21225",3
6703,"4200 EDMONDSON AVE","BALTIMORE","Maryland","21229",3
6704,"3100 EDMONDSON AVE","BALTIMORE","Maryland","21229",3
6705,"2700 W FRANKLIN ST","BALTIMORE","Maryland","21223",3
6706,"2609 LINWOOD RD","BALTIMORE","Maryland","21234",3
6707,"4000 FLEETWOOD AVE","BALTIMORE","Maryland","21206",3
6708,"4111 E NORTHERN PKWY","BALTIMORE","Maryland","21206",3
6709,"E MOUNT VERNON PL &W MOUNT VERNON PL","BALTIMORE","Maryland","21201",3
6710,"610 N CHESTER ST","BALTIMORE","Maryland","21205",3
6711,"5603 THE ALAMEDA","BALTIMORE","Maryland","21239",3
6712,"3400 HILLSDALE RD","BALTIMORE","Maryland","21207",3
6713,"1516 N LINWOOD AVE","BALTIMORE","Maryland","21213",3
6714,"2901 E FEDERAL ST","BALTIMORE","Maryland","21213",3
6715,"2238 E OLIVER ST","BALTIMORE","Maryland","21213",3
6716,"2242 E FAIRMOUNT AVE","BALTIMORE","Maryland","21231",3
6717,"301 GITTINGS AVE","BALTIMORE","Maryland","21212",3
6718,"301 W FRANKLIN ST","BALTIMORE","Maryland","21201",3
6719,"POTEE ST &W PATAPSCO AVE","BALTIMORE","Maryland","21225",3
6720,"S HANOVER ST & REEDBIRD AVE","BALTIMORE","Maryland","21225",3
6721,"S HANOVER ST & WATERVIEW AVE","BALTIMORE","Maryland","21225",3
6722,"3200 KINGSLEY ST","BALTIMORE","Maryland","21229",3
6723,"200 W FRANKLIN ST","BALTIMORE","Maryland","21225",3
6724,"N EUTAW ST &W FRANKLIN ST","BALTIMORE","Maryland","21201",3
6725,"1 E MOUNT VERNON PL","BALTIMORE","Maryland","21202",3
6726,"3300 HILLSDALE RD","BALTIMORE","Maryland","21207",3
6727,"W FRANKLIN ST &N HOWARD ST","BALTIMORE","Maryland","21201",3
6728,"6300 SEAFORTH ST","BALTIMORE","Maryland","21224",3
6729,"2500 EUTAW PL","BALTIMORE","Maryland","21217",3
6730,"4606 RENWICK AVE","BALTIMORE","Maryland","21206",3
6731,"4011 W FRANKLIN ST","BALTIMORE","Maryland","21229",3
6732,"1101 PONCA ST","BALTIMORE","Maryland","21224",3
6733,"1500 W PRATT ST","BALTIMORE","Maryland","21223",3
6734,"4900 FREDERICK AVE","BALTIMORE","Maryland","21229",3
6735,"4924 LASALLE AVE","BALTIMORE","Maryland","21206",3
6736,"4900 ANNTANA AVE","BALTIMORE","Maryland","21206",3
6737,"2525 EUTAW PL","BALTIMORE","Maryland","21217",3
6738,"5100 FREDERICK AVE","BALTIMORE","Maryland","21229",3
6739,"3418 ROLAND AVE","BALTIMORE","Maryland","21211",3
6740,"1500 E COLD SPRING LN","BALTIMORE","Maryland","21218",3
6741,"111 S HANOVER ST","BALTIMORE","Maryland","21201",3
6742,"419 NORTH BEND RD","BALTIMORE","Maryland","21229",3
6743,"2000 BOONE ST","BALTIMORE","Maryland","21218",3
6744,"2202 GREENMOUNT AVE","BALTIMORE","Maryland","21218",3
6745,"ELDORADO AVE & LIBERTY HEIGHTS MAINE","BALTIMORE","Maryland","21207",3
6746,"42 S KOSSUTH ST","BALTIMORE","Maryland","21229",3
6747,"13 TAMWORTH RD","BALTIMORE","Maryland","21210",3
6748,"ALICEANNA ST &S EDEN ST","BALTIMORE","Maryland","21202",3
6749,"3401 ERDMAN AVE","BALTIMORE","Maryland","21213",3
6750,"N ELLAMONT ST","BALTIMORE","Maryland","21216",3
6751,"112 S HOWARD ST","BALTIMORE","Maryland","21201",3
6752,"2200 W LAFAYETTE AVE","BALTIMORE","Maryland","21216",3
6753,"2620 ERDMAN AVE","BALTIMORE","Maryland","21213",3
6754,"MCMECHEN ST & PARK AVE","BALTIMORE","Maryland","21217",3
6755,"1519 S CLINTON ST","BALTIMORE","Maryland","21224",3
6756,"3300 WHITE AVE","BALTIMORE","Maryland","21214",3
6757,"3700 SINCLAIR LN","BALTIMORE","Maryland","21213",3
6758,"3408 WHITE AVE","BALTIMORE","Maryland","21214",3
6759,"6801 EVERALL AVE","BALTIMORE","Maryland","21206",3
6760,"4600 N CHARLES ST","BALTIMORE","Maryland","21210",3
6761,"3700 WHITE AVE","BALTIMORE","Maryland","21206",3
6762,"3400 WHITE AVE","BALTIMORE","Maryland","21214",3
6763,"1300 MAY ST","BALTIMORE","Maryland","21202",3
6764,"6425 EASTERN AVE","BALTIMORE","Maryland","21224",3
6765,"600 W PATAPSCO AVE","BALTIMORE","Maryland","21225",3
6766,"2900 N CALVERT ST","BALTIMORE","Maryland","21218",3
6767,"5507 GOVANE AVE","BALTIMORE","Maryland","21212",3
6768,"2032 EASTERN AVE","BALTIMORE","Maryland","21231",3
6769,"1622 N BENTALOU ST","BALTIMORE","Maryland","21216",3
6770,"100 ALLENDALE ST","BALTIMORE","Maryland","21229",3
6771,"3815 WHITE AVE","BALTIMORE","Maryland","21206",3
6772,"5200 N CHARLES ST","BALTIMORE","Maryland","21210",3
6773,"303 GITTINGS AVE","BALTIMORE","Maryland","21212",3
6774,"3300 CLIFTMONT AVE","BALTIMORE","Maryland","21213",3
6775,"3100 PARKSIDE DR","BALTIMORE","Maryland","21214",3
6776,"333 CASSELL DR","BALTIMORE","Maryland","21224",3
6777,"3300 E NORTHERN PKWY","BALTIMORE","Maryland","21206",3
6778,"4720 YORK RD","BALTIMORE","Maryland","21212",3
6779,"2271 S CLINTON ST","BALTIMORE","Maryland","21224",3
6780,"845 S MONTFORD AVE","BALTIMORE","Maryland","21224",3
6781,"1322 S HANOVER ST","BALTIMORE","Maryland","21230",3
6782,"1035 SAINT PAUL ST","BALTIMORE","Maryland","21202",3
6783,"911 E BELVEDERE AVE","BALTIMORE","Maryland","21212",3
6784,"615 E FORT AVE","BALTIMORE","Maryland","21230",3
6785,"713 E FORT AVE","BALTIMORE","Maryland","21230",3
6786,"1609 EASTERN AVE","BALTIMORE","Maryland","21231",3
6787,"1810 N CALVERT ST","BALTIMORE","Maryland","21202",3
6788,"E COLD SPRING LN & LOCH RAVEN BLVD","BALTIMORE","Maryland","21239",3
6789,"6600 WALLIS AVE","BALTIMORE","Maryland","21215",3
6790,"4021 RAYMONN AVE","BALTIMORE","Maryland","21213",3
6791,"YORK RD &E COLD SPRING LN","BALTIMORE","Maryland","21212",3
6792,"1900 N CASTLE ST","BALTIMORE","Maryland","21213",3
6793,"3700 GREENSPRING AVE","BALTIMORE","Maryland","21215",3
6794,"3821 RAVENWOOD AVE","BALTIMORE","Maryland","21213",3
6795,"1100 E 25TH ST","BALTIMORE","Maryland","21218",3
6796,"1 N GREENE ST","BALTIMORE","Maryland","21201",3
6797,"BROOKLYN AVE &E PATAPSCO AVE","BALTIMORE","Maryland","21225",3
6798,"2702 ERDMAN AVE","BALTIMORE","Maryland","21213",3
6799,"6401 WESTERN RUN DR","BALTIMORE","Maryland","21215",3
6800,"6300 WESTERN RUN DR","BALTIMORE","Maryland","21215",3
6801,"3400 SINCLAIR LN","BALTIMORE","Maryland","21213",3
6802,"ERDMAN AVE & CARDENAS AVE","BALTIMORE","Maryland","21213",3
6803,"2800 KENNEDY AVE","BALTIMORE","Maryland","21218",3
6804,"200 W CONWAY ST","BALTIMORE","Maryland","21201",3
6805,"2600 W PATAPSCO AVE","BALTIMORE","Maryland","21227",3
6806,"427 E PATAPSCO AVE","BALTIMORE","Maryland","21225",3
6807,"PENNINGTON AVE","BALTIMORE","Maryland","21226",3
6808,"300 N MONROE ST","BALTIMORE","Maryland","21223",3
6809,"2529 FAIT AVE","BALTIMORE","Maryland","21224",3
6810,"2600 MARYLAND AVE","BALTIMORE","Maryland","21218",3
6811,"2302 WICHITA AVE","BALTIMORE","Maryland","21215",3
6812,"100 N GREENE ST","BALTIMORE","Maryland","21201",3
6813,"3900 FREDERICK AVE","BALTIMORE","Maryland","21229",3
6814,"2200 W PRATT ST","BALTIMORE","Maryland","21223",3
6815,"1100 S PONCA ST","BALTIMORE","Maryland","21224",3
6816,"E LOMBARD ST &S BOULDIN ST","BALTIMORE","Maryland","21224",3
6817,"3300 ERDMAN AVE","BALTIMORE","Maryland","21213",3
6818,"2300 N FOREST PARK AVE","BALTIMORE","Maryland","21207",3
6819,"ERDMAN AVE & WOODSTOCK AVE","BALTIMORE","Maryland","21213",3
6820,"3800 SOUTHERN AVE","BALTIMORE","Maryland","21206",3
6821,"2702 ERDMAN AVE","BALTIMORE","Maryland","21213",3
6822,"2900 SOUTHERN AVE","BALTIMORE","Maryland","21214",3
6823,"W FOREST PARK AVE & HILLSDALE RD","BALTIMORE","Maryland","21207",3
6824,"4100 ERDMAN AVE","BALTIMORE","Maryland","21213",3
6825,"2500 E 32ND ST","BALTIMORE","Maryland","21213",3
6826,"845 S MONTFORD AVE","BALTIMORE","Maryland","21224",3
6827,"2307 N HILTON ST","BALTIMORE","Maryland","21216",3
6828,"5199 DICKEY HILL RD","BALTIMORE","Maryland","21207",3
6829,"3400 ELDORADO AVE","BALTIMORE","Maryland","21207",3
6830,"207 LONGWOOD RD","BALTIMORE","Maryland","21210",3
6831,"207 LONGWOOD RD","BALTIMORE","Maryland","21210",3
6832,"121 WOODLAWN RD","BALTIMORE","Maryland","21210",3
6833,"WOODBOURNE AVE & HAMILTON AVE","BALTIMORE","Maryland","21214",3
6834,"3300 WHITE AVE","BALTIMORE","Maryland","21214",3
6835,"603 E FORT AVE","BALTIMORE","Maryland","21230",3
6836,"1300 W PRATT ST","BALTIMORE","Maryland","21223",3
6837,"N KRESSON ST &E FAIRMOUNT AVE","BALTIMORE","Maryland","21224",3
6838,"GREENSPRING AVE & CYLBURN AVE","BALTIMORE","Maryland","21215",3
6839,"4700 SINCLAIR LN","BALTIMORE","Maryland","21206",3
6840,"4000 SINCLAIR LN","BALTIMORE","Maryland","21213",3
6841,"4891 YELLOWWOOD AVE","BALTIMORE","Maryland","21209",3
6842,"3413 GLENMORE AVE","BALTIMORE","Maryland","21214",3
6843,"E 33RD ST & THE ALAMEDA","BALTIMORE","Maryland","21218",3
6844,"3024 STRICKLAND ST","BALTIMORE","Maryland","21223",3
6845,"3000 GWYNNS FALLS PKWY","BALTIMORE","Maryland","21216",3
6846,"2400 N ROSEDALE ST","BALTIMORE","Maryland","21216",3
6847,"1500 E COLD SPRING LN","BALTIMORE","Maryland","21218",3
6848,"3511 WOODLEA AVE","BALTIMORE","Maryland","21214",3
6849,"837 LYNDHURST ST","BALTIMORE","Maryland","21229",3
6850,"4200 ERDMAN AVE","BALTIMORE","Maryland","21213",3
6851,"1325 TOWSON ST","BALTIMORE","Maryland","21230",3
6852,"301 GITTINGS AVE","BALTIMORE","Maryland","21212",3
6853,"1810 N CALVERT ST","BALTIMORE","Maryland","21202",3
6854,"RAMP","BALTIMORE","Maryland","21211",3
6855,"2300 WINCHESTER ST","BALTIMORE","Maryland","21216",3
6856,"1200 E 20TH ST","BALTIMORE","Maryland","21218",3
6857,"2701 BAYONNE AVE","BALTIMORE","Maryland","21214",3
6858,"3800 HARFORD RD","BALTIMORE","Maryland","21214",3
6859,"W PATAPSCO AVE & ANNAPOLIS RD","BALTIMORE","Maryland","21230",3
6860,"DEERING AVE & MAUDLIN AVE","BALTIMORE","Maryland","21230",3
6861,"1000 S LAKEWOOD AVE","BALTIMORE","Maryland","21224",3
6862,"2500 FLEET ST","BALTIMORE","Maryland","21224",3
6863,"3000 MARY AVE","BALTIMORE","Maryland","21214",3
6864,"2600 STEELE RD","BALTIMORE","Maryland","21209",3
6865,"406 S AUGUSTA AVE","BALTIMORE","Maryland","21229",3
6866,"1800 W FRANKLIN ST","BALTIMORE","Maryland","21223",3
6867,"3301 E NORTHERN PKWY","BALTIMORE","Maryland","21206",3
6868,"1400 DECATUR ST","BALTIMORE","Maryland","21230",3
6869,"2000 E MADISON ST","BALTIMORE","Maryland","21205",3
6870,"3043 CHESTERFIELD AVE","BALTIMORE","Maryland","21213",3
6871,"2103 E MADISON ST","BALTIMORE","Maryland","21205",3
6872,"3800 HUDSON ST","BALTIMORE","Maryland","21224",3
6873,"1700 CHILTON ST","BALTIMORE","Maryland","21218",3
6874,"1600 CHILTON ST","BALTIMORE","Maryland","21218",3
6875,"128 W MOUNT ROYAL AVE","BALTIMORE","Maryland","21201",3
6876,"3900 GLENMORE AVE","BALTIMORE","Maryland","21206",3
6877,"3800 GLENMORE AVE","BALTIMORE","Maryland","21206",3
6878,"3600 WINTERBOURNE RD","BALTIMORE","Maryland","21216",3
6879,"100 FRANKFURST AVE","BALTIMORE","Maryland","21225",3
6880,"2201 W COLD SPRING LN","BALTIMORE","Maryland","21209",3
6881,"3601 ELM AVE","BALTIMORE","Maryland","21211",3
6882,"5920 EASTERN AVE","BALTIMORE","Maryland","21224",3
6883,"5903 LOCH RAVEN BLVD","BALTIMORE","Maryland","21239",3
6884,"2502 E COLD SPRING LN","BALTIMORE","Maryland","21214",3
6885,"2 GITTINGS AVE","BALTIMORE","Maryland","21212",3
6886,"2306 SOUTHERN AVE","BALTIMORE","Maryland","21214",3
6887,"QUEENSBERRY AVE &W GARRISON AVE","BALTIMORE","Maryland","21215",3
6888,"515 STAMFORD RD","BALTIMORE","Maryland","21229",3
6889,"926 CHURCH ST","BALTIMORE","Maryland","21225",3
6890,"6128 THE ALAMEDA","BALTIMORE","Maryland","21239",3
6891,"5300 THE ALAMEDA","BALTIMORE","Maryland","21239",3
6892,"6100 MARLORA RD","BALTIMORE","Maryland","21239",3
6893,"3600 THE ALAMEDA","BALTIMORE","Maryland","21218",3
6894,"3200 FRISBY ST","BALTIMORE","Maryland","21218",3
6895,"3700 SINCLAIR LN","BALTIMORE","Maryland","21213",3
6896,"5801 BELLONA AVE","BALTIMORE","Maryland","21212",3
6897,"2215 LAKE AVE","BALTIMORE","Maryland","21213",3
6898,"1500 BANK ST","BALTIMORE","Maryland","21231",3
6899,"1628 CLIFTVIEW AVE","BALTIMORE","Maryland","21213",3
6900,"1700 CLIFTVIEW AVE","BALTIMORE","Maryland","21213",3
6901,"2116 N WOLFE ST","BALTIMORE","Maryland","21213",3
6902,"500 GORSUCH AVE","BALTIMORE","Maryland","21218",3
6903,"3100 ERDMAN AVE","BALTIMORE","Maryland","21213",3
6904,"1500 SHERWOOD AVE","BALTIMORE","Maryland","21239",3
6905,"1500 HARTSDALE RD","BALTIMORE","Maryland","21239",3
6906,"5100 CROSSWOOD AVE","BALTIMORE","Maryland","21214",3
6907,"5400 LOCH RAVEN BLVD","BALTIMORE","Maryland","21239",3
6908,"4499 LOCH RAVEN BLVD","BALTIMORE","Maryland","21218",3
6909,"4499 LOCH RAVEN BLVD","BALTIMORE","Maryland","21218",3
6910,"1600 DARLEY AVE","BALTIMORE","Maryland","21213",3
6911,"E 32ND ST","BALTIMORE","Maryland","21218",3
6912,"5700 LOCH RAVEN BLVD","BALTIMORE","Maryland","21239",3
6913,"3043 CHESTERFIELD AVE","BALTIMORE","Maryland","21213",3
6914,"WINSTON AVE & UNDERWOOD RD","BALTIMORE","Maryland","21212",3
6915,"6694 PIONEER DR","BALTIMORE","Maryland","21214",3
6916,"E MADISON ST &N CHESTER ST","BALTIMORE","Maryland","21205",3
6917,"620 GUTMAN AVE","BALTIMORE","Maryland","21218",3
6918,"401 S EDEN ST","BALTIMORE","Maryland","21231",3
6919,"FALLS CLIFF RD & HARDING PL","BALTIMORE","Maryland","21211",3
6920,"3300 SEQUOIA AVE","BALTIMORE","Maryland","21215",3
6921,"4301 FALLS RD","BALTIMORE","Maryland","21211",3
6922,"4500 FALLS RD","BALTIMORE","Maryland","21209",3
6923,"1347 W 42ND ST","BALTIMORE","Maryland","21211",3
6924,"2100 WHISTLER AVE","BALTIMORE","Maryland","21230",3
6925,"WETHEREDSVILLE RD &N FOREST PARK AVE","BALTIMORE","Maryland","21207",3
6926,"601 W 40TH ST","BALTIMORE","Maryland","21211",3
6927,"100 W UNIVERSITY PKWY","BALTIMORE","Maryland","21210",3
6928,"4737 AMBERLEY AVE","BALTIMORE","Maryland","21229",3
6929,"104 ALLENDALE ST","BALTIMORE","Maryland","21229",3
6930,"1907 BARCLAY ST","BALTIMORE","Maryland","21218",3
6931,"2400 N FOREST PARK AVE","BALTIMORE","Maryland","21207",3
6932,"2408 N FOREST PARK AVE","BALTIMORE","Maryland","21207",3
6933,"6401 PIONEER DR","BALTIMORE","Maryland",NA,3
6934,"DEERING AVE & MAUDLIN AVE","BALTIMORE","Maryland","21230",3
6935,"700 S CAROLINE ST","BALTIMORE","Maryland","21231",3
6936,"1012 CHERRY HILL RD","BALTIMORE","Maryland","21225",3
6937,"1 E FRANKLIN ST","BALTIMORE","Maryland","21201",3
6938,"400 ALLENDALE ST","BALTIMORE","Maryland","21229",3
6939,"4100 EMMART AVE","BALTIMORE","Maryland","21215",3
6940,"LOCH RAVEN BLVD","BALTIMORE","Maryland","21218",3
6941,"2200 KERNAN DR","BALTIMORE","Maryland","21207",3
6942,"PINKNEY RD & WIRT AVE","BALTIMORE","Maryland","21215",3
6943,"2300 N FOREST PARK AVE","BALTIMORE","Maryland","21207",3
6944,"2000 N FOREST PARK AVE","BALTIMORE","Maryland","21207",3
6945,"200 S HOWARD ST","BALTIMORE","Maryland","21201",3
6946,"5800 BELLONA AVE","BALTIMORE","Maryland","21212",3
6947,"1500 N ROSEDALE ST","BALTIMORE","Maryland","21216",3
6948,"2215 LAKE AVE","BALTIMORE","Maryland","21213",3
6949,"3801 ELMLEY AVE","BALTIMORE","Maryland","21213",3
6950,"4017 PARKSIDE DR","BALTIMORE","Maryland","21206",3
6951,"EDMONDSON AVE &N WHEELER AVE","BALTIMORE","Maryland","21223",3
6952,"27 S FRANKLINTOWN RD","BALTIMORE","Maryland","21223",3
6953,"4917 MIDWOOD AVE","BALTIMORE","Maryland","21212",3
6954,"S HANOVER ST & WATERVIEW AVE","BALTIMORE","Maryland","21230",3
6955,"3500 CLARKS LN","BALTIMORE","Maryland","21215",3
6956,"2100 WILKENS AVE","BALTIMORE","Maryland","21223",3
6957,"6401 PIONEER DR","BALTIMORE","Maryland",NA,3
6958,"YORK RD &E COLD SPRING LN","BALTIMORE","Maryland","21212",3
6959,"EDMONDSON AVE & WILDWOOD PKWY","BALTIMORE","Maryland","21229",3
6960,"3118 BERKSHIRE RD","BALTIMORE","Maryland","21214",3
6961,"4002 ERDMAN AVE","BALTIMORE","Maryland","21213",3
6962,"WOODSTOCK AVE & ERDMAN AVE","BALTIMORE","Maryland","21213",3
6963,"1700 W LOMBARD ST","BALTIMORE","Maryland","21223",3
6964,"2200 N HILTON ST","BALTIMORE","Maryland","21216",3
6965,"1810 N CALVERT ST","BALTIMORE","Maryland","21202",3
6966,"3100 ERDMAN AVE","BALTIMORE","Maryland","21213",3
6967,"4000 COLBORNE RD","BALTIMORE","Maryland","21229",3
6968,"2809 SOUTHERN AVE","BALTIMORE","Maryland","21214",3
6969,"2809 HALCYON AVE","BALTIMORE","Maryland","21214",3
6970,"2600 ERDMAN AVE","BALTIMORE","Maryland","21213",3
6971,"2704 ERDMAN AVE","BALTIMORE","Maryland","21213",3
6972,"BELAIR RD & BRENDAN AVE","BALTIMORE","Maryland","21213",3
6973,"2400 S HANOVER ST","BALTIMORE","Maryland","21230",3
6974,"1800 SWANSEA RD","BALTIMORE","Maryland","21239",3
6975,"2702 ERDMAN AVE","BALTIMORE","Maryland","21213",3
6976,"1227 POPLAR GROVE ST","BALTIMORE","Maryland","21216",3
6977,"4000 W FRANKLIN ST","BALTIMORE","Maryland","21229",3
6978,"2043 WILKENS AVE","BALTIMORE","Maryland","21223",3
6979,"6301 OLD HARFORD RD","BALTIMORE","Maryland","21214",3
6980,"5100 CROSSWOOD AVE","BALTIMORE","Maryland","21214",3
6981,"5400 LOCH RAVEN BLVD","BALTIMORE","Maryland","21239",3
6982,"1500 HARTSDALE RD","BALTIMORE","Maryland","21239",3
6983,"3600 PARKVIEW AVE","BALTIMORE","Maryland","21207",3
6984,"4499 LOCH RAVEN BLVD","BALTIMORE","Maryland","21218",3
6985,"624 E FORT AVE","BALTIMORE","Maryland","21230",3
6986,"2300 BROENING HWY","BALTIMORE","Maryland","21224",3
6987,"5800 BOSTON ST","BALTIMORE","Maryland","21224",3
6988,"4011 W FRANKLIN ST","BALTIMORE","Maryland","21229",3
6989,"2900 SYLVAN AVE","BALTIMORE","Maryland","21214",3
6990,"4000 EDMONDSON AVE","BALTIMORE","Maryland","21229",3
6991,"4200 FRANKFORD AVE","BALTIMORE","Maryland","21206",3
6992,"1200 E BIDDLE ST","BALTIMORE","Maryland","21202",3
6993,"1800 E BIDDLE ST","BALTIMORE","Maryland","21213",3
6994,"1 E UNIVERSITY PKWY","BALTIMORE","Maryland","21218",3
6995,"800 BENNINGHAUS RD","BALTIMORE","Maryland","21212",3
6996,"5400 SINCLAIR LN","BALTIMORE","Maryland","21206",3
6997,"910 GRUNDY ST","BALTIMORE","Maryland","21224",3
6998,"1100 W LOMBARD ST","BALTIMORE","Maryland","21223",3
6999,"150 N GAY ST","BALTIMORE","Maryland","21202",3
7000,"WILKENS AVE & BRUNSWICK ST","BALTIMORE","Maryland","21223",3
7001,"3153 RAVENWOOD AVE","BALTIMORE","Maryland","21213",3
7002,"209 W MADISON ST","BALTIMORE","Maryland","21201",3
7003,"3411 CROSSLAND AVE","BALTIMORE","Maryland","21213",3
7004,"2810 BRIGHTON ST","BALTIMORE","Maryland","21216",3
7005,"1100 S PONCA ST","BALTIMORE","Maryland","21224",3
7006,"2600 HERMOSA AVE","BALTIMORE","Maryland","21214",3
7007,"3506 BANCROFT RD","BALTIMORE","Maryland","21215",3
7008,"3301 TANEY RD","BALTIMORE","Maryland","21215",3
7009,"3906 E NORTHERN PKWY","BALTIMORE","Maryland","21206",3
7010,"4000 GREENMOUNT AVE","BALTIMORE","Maryland","21218",3
7011,"400 E NORTHERN PKWY","BALTIMORE","Maryland","21212",3
7012,"162 N GAY ST","BALTIMORE","Maryland","21202",3
7013,"1100 BELLEMORE RD","BALTIMORE","Maryland","21210",3
7014,"1100 BELLEMORE RD","BALTIMORE","Maryland","21210",3
7015,"200 EDGEVALE RD","BALTIMORE","Maryland","21210",3
7016,"4900 EUGENE AVE","BALTIMORE","Maryland","21206",3
7017,"GRANTLEY RD & SEQUOIA AVE","BALTIMORE","Maryland","21215",3
7018,"3000 W BALTIMORE ST","BALTIMORE","Maryland","21229",3
7019,"2700 HUDSON ST","BALTIMORE","Maryland","21224",3
7020,"2500 HUDSON ST","BALTIMORE","Maryland","21224",3
7021,"3555 ELMORA AVE","BALTIMORE","Maryland","21213",3
7022,"1500 SCHOOL ST","BALTIMORE","Maryland","21217",3
7023,"100 W CHASE ST","BALTIMORE","Maryland","21201",3
7024,"1467 STEVENSON ST","BALTIMORE","Maryland","21230",3
7025,"7305 HARFORD RD","BALTIMORE","Maryland","21234",3
7026,"701 E 43RD ST","BALTIMORE","Maryland","21212",3
7027,"4400 IVANHOE AVE","BALTIMORE","Maryland","21212",3
7028,"3400 E BIDDLE ST","BALTIMORE","Maryland","21213",3
7029,"2500 E NORTHERN PKWY","BALTIMORE","Maryland","21214",3
7030,"2400 NORTHERN PKWY","BALTIMORE","Maryland","21234",3
7031,"3808 OLD YORK RD","BALTIMORE","Maryland","21218",3
7032,"1615 S HANOVER ST","BALTIMORE","Maryland","21230",3
7033,"3413 WOODLAND AVE","BALTIMORE","Maryland","21215",3
7034,"4510 NORFOLK AVE","BALTIMORE","Maryland","21216",3
7035,"5206 THE ALAMEDA","BALTIMORE","Maryland","21239",3
7036,"N LONGWOOD ST & BLOOMINGDALE RD","BALTIMORE","Maryland","21216",3
7037,"7350 HARFORD RD","BALTIMORE","Maryland","21234",3
7038,"7300 HARFORD RD","BALTIMORE","Maryland","21234",3
7039,"2410 ERDMAN AVE","BALTIMORE","Maryland","21213",3
7040,"4404 THE ALAMEDA","BALTIMORE","Maryland","21239",3
7041,"3700 RIDGECROFT RD","BALTIMORE","Maryland","21206",3
7042,"5100 HOLABIRD AVE","BALTIMORE","Maryland","21224",3
7043,"5910 MORAVIA RD","BALTIMORE CITY","Maryland","21206",3
7044,"1100 INTERSTATE AVE","BALTIMORE","Maryland","21224",3
7045,"926 CATOR AVE","BALTIMORE","Maryland","21218",3
7046,"1501 W PATAPSCO AVE","BALTIMORE","Maryland","21230",3
7047,"219 DENISON ST","BALTIMORE","Maryland","21229",3
7048,"1542 WINDEMERE AVE","BALTIMORE","Maryland","21218",3
7049,"1542 WINDEMERE AVE","BALTIMORE","Maryland","21218",3
7050,"1542 WINDEMERE AVE","BALTIMORE","Maryland","21218",3
7051,"RAMP","BALTIMORE","Maryland","21206",3
7052,"1500 ROUNDHILL RD","BALTIMORE","Maryland","21218",3
7053,"810 N CARROLLTON AVE","BALTIMORE","Maryland","21217",3
7054,"1022 SAINT PAUL ST","BALTIMORE","Maryland","21202",3
7055,"HOPE ST &E 20TH ST","BALTIMORE","Maryland","21218",3
7056,"5500 MIDWOOD AVE","BALTIMORE","Maryland","21212",3
7057,"4800 CLAYBURY AVE","BALTIMORE","Maryland","21206",3
7058,"2418 FAIT AVE","BALTIMORE","Maryland","21224",3
7059,"ERDMAN AVE & BONVIEW AVE","BALTIMORE","Maryland","21213",3
7060,"412 NORTH BEND RD","BALTIMORE","Maryland","21229",3
7061,"502 N LINWOOD AVE","BALTIMORE","Maryland","21205",3
7062,"2543 LAURETTA AVE","BALTIMORE","Maryland","21223",3
7063,"BROENING HWY & RAMP","BALTIMORE","Maryland","21224",3
7064,"700 W FRANKLIN ST","BALTIMORE","Maryland","21201",3
7065,"3716 FLEETWOOD AVE","BALTIMORE","Maryland","21206",3
7066,"MORAVIA RD & RAMP","BALTIMORE","Maryland","21237",3
7067,"6401 PIONEER DR","BALTIMORE","Maryland",NA,3
7068,"2042 EASTERN AVE","BALTIMORE","Maryland","21231",3
7069,"1800 WILHELM ST","BALTIMORE","Maryland","21223",3
7070,"4006 PARKSIDE DR","BALTIMORE","Maryland","21206",3
7071,"4700 SHAMROCK AVE","BALTIMORE","Maryland","21206",3
7072,"4200 ROBERTON AVE","BALTIMORE","Maryland","21206",3
7073,"5500 BELAIR RD","BALTIMORE","Maryland","21206",3
7074,"224 MALLOW HILL RD","BALTIMORE","Maryland","21229",3
7075,"4900 EASTERN AVE","BALTIMORE","Maryland","21224",3
7076,"S KENWOOD AVE & FLEET ST","BALTIMORE","Maryland","21224",3
7077,"FLEET ST &S LAKEWOOD AVE","BALTIMORE","Maryland","21224",3
7078,"926 CATOR AVE","BALTIMORE","Maryland","21218",3
7079,"2700 LYNDHURST AVE","BALTIMORE","Maryland","21216",3
7080,"802 EASTERN AVE","BALTIMORE CITY","Maryland","21202",3
7081,"5600 ALBANENE PL","BALTIMORE CITY","Maryland","21206",3
7082,"4700 HAMILTON AVE","BALTIMORE CITY","Maryland","21206",3
7083,"5500 CEDONIA AVE","BALTIMORE CITY","Maryland","21206",3
7084,"1200 E 20TH ST","BALTIMORE CITY","Maryland","21218",3
7085,"1 E UNIVERSITY PKWY","BALTIMORE CITY","Maryland","21218",3
7086,"FALLS RD &W COLD SPRING LN","BALTIMORE CITY","Maryland","21209",3
7087,"2600 FLEET ST","BALTIMORE CITY","Maryland","21224",3
7088,"1600 GERTRUDE ST","BALTIMORE CITY","Maryland","21216",3
7089,"500 E PATAPSCO AVE","BALTIMORE CITY","Maryland","21225",3
7090,"BOSTON ST &S LINWOOD AVE","BALTIMORE CITY","Maryland","21224",3
7091,"S WOLFE ST & THAMES ST","BALTIMORE CITY","Maryland","21231",3
7092,"W BALTIMORE ST &N HILTON ST","BALTIMORE CITY","Maryland","21229",3
7093,"2201 W COLD SPRING LN","BALTIMORE CITY","Maryland","21209",3
7094,"3228 E NORTHERN PKWY","BALTIMORE CITY","Maryland","21214",3
7095,"1700 SHERWOOD AVE","BALTIMORE CITY","Maryland","21239",3
7096,"23 S KOSSUTH ST","BALTIMORE CITY","Maryland","21229",3
7097,"549 E 38TH ST","BALTIMORE CITY","Maryland","21218",3
7098,"2652 W FRANKLIN ST","BALTIMORE CITY","Maryland","21223",3
7099,"1322 S HANOVER ST","BALTIMORE CITY","Maryland","21230",3
7100,"4900 GILRAY DR","BALTIMORE CITY","Maryland","21214",3
7101,"2926 E COLD SPRING LN","BALTIMORE CITY","Maryland","21214",3
7102,"701 SHERIDAN AVE","BALTIMORE CITY","Maryland","21212",3
7103,"2 E BISHOPS RD","BALTIMORE CITY","Maryland","21218",3
7104,"926 CATOR AVE","BALTIMORE CITY","Maryland","21218",3
7105,"11 ELMWOOD RD","BALTIMORE CITY","Maryland","21210",3
7106,"1200 S PONCA ST","BALTIMORE CITY","Maryland","21224",3
7107,"5901 DARIEN CT","BALTIMORE CITY","Maryland","21206",3
7108,"2500 HUDSON ST","BALTIMORE CITY","Maryland","21224",3
7109,"1463 STEVENSON ST","BALTIMORE CITY","Maryland","21230",3
7110,"3400 BOSTON ST","BALTIMORE CITY","Maryland","21224",3
7111,"150 N GAY ST","BALTIMORE CITY","Maryland","21202",3
7112,"JAMES ST","BALTIMORE CITY","Maryland","21227",3
7113,"4200 KELWAY RD","BALTIMORE CITY","Maryland","21218",3
7114,"6009 SYCAMORE RD","BALTIMORE CITY","Maryland","21212",3
7115,"533 FREEMAN ST","BALTIMORE CITY","Maryland","21225",3
7116,"1014 VINE ST","BALTIMORE CITY","Maryland","21223",3
7117,"6051 YORKSHIRE DR","BALTIMORE CITY","Maryland","21212",3
7118,"801 GLEN ALLEN DR","BALTIMORE CITY","Maryland","21229",3
7119,"2600 ORLEANS ST","BALTIMORE CITY","Maryland","21224",3
7120,"3600 W CATON AVE","BALTIMORE CITY","Maryland","21229",3
7121,"LOCH RAVEN BLVD & STONEWOOD RD","BALTIMORE CITY","Maryland","21239",3
7122,"533 FREEMAN ST","BALTIMORE CITY","Maryland","21225",3
7123,"3500 HARLEM AVE","BALTIMORE CITY","Maryland","21229",3
7124,"1400 DURST ST","BALTIMORE CITY","Maryland","21230",3
7125,"800 EVESHAM AVE","BALTIMORE CITY","Maryland","21212",3
7126,"3700 EDMONDSON AVE","BALTIMORE CITY","Maryland","21229",3
7127,"3224 SHELBURNE RD","BALTIMORE CITY","Maryland","21208",3
7128,"1201 S HANOVER ST","BALTIMORE CITY","Maryland","21230",3
7129,"BROOKLYN AVE &E PATAPSCO AVE","BALTIMORE CITY","Maryland","21225",3
7130,"5515 LEITH RD","BALTIMORE CITY","Maryland","21239",3
7131,"23 S KOSSUTH ST","BALTIMORE CITY","Maryland","21229",3
7132,"6699 WALTHER AVE","BALTIMORE CITY","Maryland","21206",3
7133,"2400 HARRIET AVE","BALTIMORE CITY","Maryland","21230",3
7134,"505 S CHAPEL ST","BALTIMORE CITY","Maryland","21231",3
7135,"1500 SCHOOL ST","BALTIMORE CITY","Maryland","21217",3
7136,"22 S FULTON AVE","BALTIMORE CITY","Maryland","21223",3
7137,"EDMONDSON AVE &N EDGEWOOD ST","BALTIMORE CITY","Maryland","21229",3
7138,"5300 HERRING RUN DR","BALTIMORE CITY","Maryland","21214",3
7139,"4200 KELWAY RD","BALTIMORE CITY","Maryland","21218",3
7140,"6205 CARDIFF AVE","BALTIMORE CITY","Maryland","21224",3
7141,"1000 FELL ST","BALTIMORE CITY","Maryland","21231",3
7142,"2518 E HOFFMAN ST","BALTIMORE CITY","Maryland","21213",3
7143,"1353 SHERWOOD AVE","BALTIMORE CITY","Maryland","21239",3
7144,"2010 FLEET ST","BALTIMORE CITY","Maryland","21231",3
7145,"4400 RASPE AVE","BALTIMORE CITY","Maryland","21206",3
7146,"2000 DEERING AVE","BALTIMORE CITY","Maryland","21230",3
7147,"3207 CLARINDA AVE","BALTIMORE CITY","Maryland","21230",3
7148,"7412 HARFORD RD","BALTIMORE CITY","Maryland","21234",3
7149,"7012 HARFORD RD","BALTIMORE CITY","Maryland","21234",3
7150,"1353 SHERWOOD AVE","BALTIMORE CITY","Maryland","21239",3
7151,"3400 W CATON AVE","BALTIMORE CITY","Maryland","21229",3
7152,"2216 CORBIN RD","BALTIMORE CITY","Maryland","21214",3
7153,"100 N HOWARD ST","BALTIMORE CITY","Maryland","21201",3
7154,"1312 W 41ST ST","BALTIMORE CITY","Maryland","21211",3
7155,"923 E BELVEDERE AVE","BALTIMORE CITY","Maryland","21212",3
7156,"1300 W 41ST ST","BALTIMORE CITY","Maryland","21211",3
7157,"501 N ATHOL AVE","BALTIMORE CITY","Maryland","21229",3
7158,"2900 GREENMOUNT AVE","BALTIMORE CITY","Maryland","21218",3
7159,"4436 RASPE AVE","BALTIMORE CITY","Maryland","21206",3
7160,"N BROADWAY & ASHLAND AVE","BALTIMORE CITY","Maryland","21205",3
7161,"1040 PARK AVE","BALTIMORE CITY","Maryland","21201",3
7162,"3400 DENNLYN RD","BALTIMORE CITY","Maryland","21215",3
7163,"3800 LYNDALE AVE","BALTIMORE CITY","Maryland","21213",3
7164,"800 WYMAN PARK DR","BALTIMORE CITY","Maryland","21211",3
7165,"6616 BELFORD RD","BALTIMORE CITY","Maryland","21206",3
7166,"3400 PINKNEY RD","BALTIMORE CITY","Maryland","21215",3
7167,"3902 BEECH AVE","BALTIMORE CITY","Maryland","21211",3
7168,"137 W LAFAYETTE AVE","BALTIMORE CITY","Maryland","21217",3
7169,"5300 SAINT ALBANS WAY","BALTIMORE CITY","Maryland","21212",3
7170,"4200 KELWAY RD","BALTIMORE CITY","Maryland","21218",3
7171,"NIEMAN AVE &W PATAPSCO AVE","BALTIMORE CITY","Maryland","21230",3
7172,"LORENA AVE &W PATAPSCO AVE","BALTIMORE CITY","Maryland","21227",3
7173,"943 S BOULDIN ST","BALTIMORE CITY","Maryland","21224",3
7174,"943 S BOULDIN ST","BALTIMORE CITY","Maryland","21224",3
7175,"708 BAYLIS ST","BALTIMORE CITY","Maryland","21224",3
7176,"4700 EDMONDSON AVE","BALTIMORE CITY","Maryland","21229",3
7177,"4613 VIRGINIA AVE","BALTIMORE CITY","Maryland","21225",3
7178,"622 S BROADWAY","BALTIMORE CITY","Maryland","21231",3
7179,"3900 CLAREMONT ST","BALTIMORE CITY","Maryland","21224",3
7180,"2701 WASHINGTON BLVD","BALTIMORE CITY","Maryland","21230",3
7181,"6411 BELAIR RD","BALTIMORE CITY","Maryland","21206",3
7182,"143 S CENTRAL AVE","BALTIMORE CITY","Maryland","21202",3
7183,"5604 BLAND AVE","BALTIMORE CITY","Maryland","21215",3
7184,"2400 PERRING MANOR RD","BALTIMORE CITY","Maryland","21234",3
7185,"400 E CROSS ST","BALTIMORE CITY","Maryland","21230",3
7186,"AIKEN ST &E NORTH AVE","BALTIMORE CITY","Maryland","21202",3
7187,"DANTREY CT & GRETNA CT","BALTIMORE CITY","Maryland","21225",3
7188,"3500 WOODSTOCK AVE","BALTIMORE CITY","Maryland","21213",3
7189,"6105 HARFORD RD","BALTIMORE CITY","Maryland","21214",3
7190,"6100 LOCH RAVEN BLVD","BALTIMORE CITY","Maryland","21239",3
7191,"5700 YORK RD","BALTIMORE CITY","Maryland","21212",3
7192,"2907 ROCKWOOD AVE","BALTIMORE CITY","Maryland","21215",3
7193,"2000 E BALTIMORE ST","BALTIMORE CITY","Maryland","21231",3
7194,"7212 HARFORD RD","BALTIMORE CITY","Maryland","21234",3
7195,"4800 HAZELWOOD AVE","BALTIMORE CITY","Maryland","21206",3
7196,"1400 W PRATT ST","BALTIMORE CITY","Maryland","21223",3
7197,"751 CARROLL ST","BALTIMORE CITY","Maryland","21230",3
7198,"6045 ARIZONA AVE","BALTIMORE CITY","Maryland","21206",3
7199,"1800 E EAGER ST","BALTIMORE CITY","Maryland","21205",3
7200,"2200 BROENING HWY","BALTIMORE CITY","Maryland","21224",3
7201,"2700 BROENING HWY","BALTIMORE CITY","Maryland","21222",3
7202,"ROUND RD & WOODVIEW RD","BALTIMORE CITY","Maryland","21225",3
7203,"108 CEDARCROFT RD","BALTIMORE CITY","Maryland","21212",3
7204,"521 E EAGER ST","BALTIMORE CITY","Maryland","21202",3
7205,"3100 N CALVERT ST","BALTIMORE CITY","Maryland","21218",3
7206,"3000 N CALVERT ST","BALTIMORE CITY","Maryland","21218",3
7207,"1500 SCHOOL ST","BALTIMORE CITY","Maryland","21217",3
7208,"BELAIR RD & SINCLAIR LN","BALTIMORE CITY","Maryland","21213",3
7209,"708 NOTTINGHAM RD","BALTIMORE CITY","Maryland","21229",3
7210,"6703 ROBERTS AVE","BALTIMORE CITY","Maryland","21222",3
7211,"3200 HARFORD RD","BALTIMORE CITY","Maryland","21218",3
7212,"EASTERN AVE & PRESIDENT ST","BALTIMORE CITY","Maryland","21202",3
7213,"3312 PINKNEY RD","BALTIMORE CITY","Maryland","21215",3
7214,"4200 KELWAY RD","BALTIMORE CITY","Maryland","21218",3
7215,"2610 BRENDAN AVE","BALTIMORE CITY","Maryland","21213",3
7216,"900 E BELVEDERE AVE","BALTIMORE CITY","Maryland","21212",3
7217,"SINCLAIR LN &N PATTERSON PARK AVE","BALTIMORE CITY","Maryland","21213",3
7218,"3600 REISTERSTOWN RD","BALTIMORE CITY","Maryland","21215",3
7219,"913 SAINT PAUL ST","BALTIMORE CITY","Maryland","21202",3
7220,"806 HARGROVE ALY","BALTIMORE CITY","Maryland","21202",3
7221,"W BALTIMORE ST &N MONROE ST","BALTIMORE CITY","Maryland","21223",3
7222,"5 FRANKFURST AVE","BALTIMORE CITY","Maryland","21225",3
7223,"5721 LOCH RAVEN BLVD","BALTIMORE CITY","Maryland","21239",3
7224,"1226 N BENTALOU ST","BALTIMORE CITY","Maryland","21216",3
7225,"3600 FRISBY ST","BALTIMORE CITY","Maryland","21218",3
7226,"4104 WILKE AVE","BALTIMORE CITY","Maryland","21206",3
7227,"5625 MIDWOOD AVE","BALTIMORE CITY","Maryland","21212",3
7228,"E 29TH ST & SAINT PAUL ST","BALTIMORE CITY","Maryland","21218",3
7229,"5000 BALTIMORE NATIONAL PIKE","BALTIMORE CITY","Maryland","21229",3
7230,"900 S LAKEWOOD AVE","BALTIMORE CITY","Maryland","21224",3
7231,"1400 E MADISON ST","BALTIMORE CITY","Maryland","21205",3
7232,"POPLAR GROVE ST & RIGGS AVE","BALTIMORE CITY","Maryland","21216",3
7233,"900 GREYSTONE RD","BALTIMORE CITY","Maryland","21218",3
7234,"3300 GLEN AVE","BALTIMORE CITY","Maryland","21215",3
7235,"RAMP","BALTIMORE CITY","Maryland","21210",3
7236,"806 HARGROVE ALY","BALTIMORE CITY","Maryland","21202",3
7237,"806 HARGROVE ALY","BALTIMORE CITY","Maryland","21202",3
7238,"1 E UNIVERSITY PKWY","BALTIMORE CITY","Maryland","21218",3
7239,"1525 BENHILL AVE","BALTIMORE CITY","Maryland","21226",3
7240,"1525 W 41ST ST","BALTIMORE CITY","Maryland","21211",3
7241,"5500 PERRING PKWY","BALTIMORE CITY","Maryland","21239",3
7242,"HARFORD RD & WALTHER AVE","BALTIMORE CITY","Maryland","21214",3
7243,"200 E 28TH ST","BALTIMORE CITY","Maryland","21218",3
7244,"1001 W SARATOGA ST","BALTIMORE CITY","Maryland","21223",3
7245,"LIBERTY HEIGHTS AVE","BALTIMORE CITY","Maryland","21215",3
7246,"6000 ROLAND AVE","BALTIMORE CITY","Maryland","21210",3
7247,"E BELVEDERE AVE & PERRING PKWY","BALTIMORE CITY","Maryland","21239",3
7248,"606 HARWOOD AVE","BALTIMORE CITY","Maryland","21212",3
7249,"E PRESTON ST &N LAKEWOOD AVE","BALTIMORE CITY","Maryland","21213",3
7250,"43 GITTINGS AVE","BALTIMORE CITY","Maryland","21212",3
7251,"E LOMBARD ST & BAYVIEW BLVD","BALTIMORE CITY","Maryland","21224",3
7252,"309 SUFFOLK RD","BALTIMORE CITY","Maryland","21218",3
7253,"E 28TH ST &N CALVERT ST","BALTIMORE CITY","Maryland","21218",3
7254,"3817 E NORTHERN PKWY","BALTIMORE CITY","Maryland","21206",3
7255,"901 HARGROVE ALY","BALTIMORE CITY","Maryland","21202",3
7256,"3310 OAKFIELD AVE","BALTIMORE CITY","Maryland","21207",3
7257,"5500 KEITH AVE","BALTIMORE CITY","Maryland","21224",3
7258,"PENNINGTON AVE","BALTIMORE CITY","Maryland","21226",3
7259,"HOMEWOOD AVE & COKESBURY AVE","BALTIMORE CITY","Maryland","21218",3
7260,"1 E 39TH ST","BALTIMORE CITY","Maryland","21218",3
7261,"200 E 39TH ST","BALTIMORE CITY","Maryland","21218",3
7262,"220 W BALTIMORE ST","BALTIMORE CITY","Maryland","21201",3
7263,"529 PONTIAC AVE","BALTIMORE CITY","Maryland","21225",3
7264,"862 LEMMON ST","BALTIMORE CITY","Maryland","21201",3
7265,"RIGGS AVE & POPLAR GROVE ST","BALTIMORE CITY","Maryland","21216",3
7266,"6200 PENNINGTON AVE","BALTIMORE CITY","Maryland","21226",3
7267,"6200 PENNINGTON AVE","BALTIMORE CITY","Maryland","21226",3
7268,"1500 PLUM ST","BALTIMORE CITY","Maryland","21226",3
7269,"1403 OLMSTEAD ST","BALTIMORE CITY","Maryland","21226",3
7270,"706 N WOODINGTON RD","BALTIMORE CITY","Maryland","21229",3
7271,"2700 ROUND RD","BALTIMORE CITY","Maryland","21225",3
7272,"4435 FOREST VIEW AVE","BALTIMORE CITY","Maryland","21206",3
7273,"3224 WASHINGTON BLVD","BALTIMORE CITY","Maryland","21227",3
7274,"373 MARYDELL RD","BALTIMORE CITY","Maryland","21229",3
7275,"S HANOVER ST & CHERRY HILL RD","BALTIMORE CITY","Maryland","21225",3
7276,"4301 ERDMAN AVE","BALTIMORE CITY","Maryland","21213",3
7277,"800 N HOWARD ST","BALTIMORE CITY","Maryland","21201",3
7278,"1000 DUNDALK AVE","BALTIMORE CITY","Maryland","21224",3
7279,"ECHODALE AVE &E BELVEDERE AVE","BALTIMORE CITY","Maryland","21239",3
7280,"5615 REISTERSTOWN RD","BALTIMORE CITY","Maryland","21215",3
7281,"HARFORD AVE &E NORTH AVE","BALTIMORE CITY","Maryland","21213",3
7282,"W PATAPSCO AVE & WASHINGTON BLVD","BALTIMORE CITY","Maryland","21227",3
7283,"2400 W BALTIMORE ST","BALTIMORE CITY","Maryland","21223",3
7284,"HAWKINS POINT RD & QUARANTINE RD","BALTIMORE CITY","Maryland","21226",3
7285,"3700 WILKENS AVE","BALTIMORE CITY","Maryland","21229",3
7286,"2500 WHITNEY AVE","BALTIMORE CITY","Maryland","21215",3
7287,"2600 MANHATTAN AVE","BALTIMORE CITY","Maryland","21215",3
7288,"2200 E FAYETTE ST","BALTIMORE CITY","Maryland","21231",3
7289,"804 WINSTON AVE","BALTIMORE CITY","Maryland","21212",3
7290,"3500 WOODLEA AVE","BALTIMORE CITY","Maryland","21214",3
7291,"2503 MANHATTAN AVE","BALTIMORE CITY","Maryland","21215",3
7292,"3145 STRICKLAND ST","BALTIMORE CITY","Maryland","21229",3
7293,"1409 BROENING HWY","BALTIMORE CITY","Maryland","21224",3
7294,"100 W LAFAYETTE AVE","BALTIMORE CITY","Maryland","21217",3
7295,"2210 GREENMOUNT AVE","BALTIMORE CITY","Maryland","21218",3
7296,"2000 GREENMOUNT AVE","BALTIMORE CITY","Maryland","21218",3
7297,"900 GREENMOUNT AVE","BALTIMORE CITY","Maryland","21202",3
7298,"MANSION HOUSE DR","BALTIMORE CITY","Maryland","21217",3
7299,"4100 PARKSIDE DR","BALTIMORE CITY","Maryland","21206",3
7300,"317 SUFFOLK RD","BALTIMORE CITY","Maryland","21218",3
7301,"4300 GREENWAY","BALTIMORE CITY","Maryland","21218",3
7302,"W BALTIMORE ST &S CATHERINE ST","BALTIMORE CITY","Maryland","21223",3
7303,"5600 PRICE AVE","BALTIMORE CITY","Maryland","21215",3
7304,"2900 E NORTHERN PKWY","BALTIMORE CITY","Maryland","21214",3
7305,"E OLD COLD SPRING LN & RESERVOIR","BALTIMORE CITY","Maryland","21212",3
7306,"4423 LAPLATA AVE","BALTIMORE CITY","Maryland","21211",3
7307,"923 E BELVEDERE AVE","BALTIMORE CITY","Maryland","21212",3
7308,"700 DOLPHIN ST","BALTIMORE CITY","Maryland","21217",3
7309,"3700 WILKENS AVE","BALTIMORE CITY","Maryland","21229",3
7310,"4557 THE STRAND","BALTIMORE CITY","Maryland","21215",3
7311,"3600 HARFORD RD","BALTIMORE CITY","Maryland","21218",3
7312,"1012 PARK AVE","BALTIMORE CITY","Maryland","21201",3
7313,"HARFORD RD & CHESTERFIELD AVE","BALTIMORE CITY","Maryland","21218",3
7314,"400 W 26TH ST","BALTIMORE CITY","Maryland","21211",3
7315,"W BALTIMORE ST &N CATHERINE ST","BALTIMORE CITY","Maryland","21223",3
7316,"GUSRYAN ST & DUNDALK AVE","BALTIMORE CITY","Maryland","21224",3
7317,"3400 ANNAPOLIS RD","BALTIMORE CITY","Maryland","21230",3
7318,"4 YORK CT","BALTIMORE CITY","Maryland","21218",3
7319,"23 S CALHOUN ST","BALTIMORE CITY","Maryland","21223",3
7320,"N BENTALOU ST & BAKER ST","BALTIMORE CITY","Maryland","21216",3
7321,"3118 MCELDERRY ST","BALTIMORE CITY","Maryland","21205",3
7322,"618 N ROBINSON ST","BALTIMORE CITY","Maryland","21205",3
7323,"5618 FERNPARK AVE","BALTIMORE CITY","Maryland","21207",3
7324,"E EAGER ST & HOMEWOOD AVE","BALTIMORE CITY","Maryland","21202",3
7325,"5800 GREENSPRING AVE","BALTIMORE CITY","Maryland","21209",3
7326,"313 E WEST ST","BALTIMORE CITY","Maryland","21230",3
7327,"1060 UPNOR RD","BALTIMORE CITY","Maryland","21212",3
7328,"1403 OLMSTEAD ST","BALTIMORE CITY","Maryland","21226",3
7329,"3000 E NORTHERN PKWY","BALTIMORE CITY","Maryland","21214",3
7330,"ERDMAN AVE & BELAIR RD","BALTIMORE CITY","Maryland","21213",3
7331,"1410 S HANOVER ST","BALTIMORE CITY","Maryland","21230",3
7332,"3433 S HANOVER ST","BALTIMORE CITY","Maryland","21225",3
7333,"1213 S HANOVER ST","BALTIMORE CITY","Maryland","21230",3
7334,"PENNINGTON AVE & SPRUCE ST","BALTIMORE CITY","Maryland","21226",3
7335,"PENNINGTON AVE","BALTIMORE CITY","Maryland","21226",3
7336,"426 W 23RD ST","BALTIMORE CITY","Maryland","21211",3
7337,"2500 W FRANKLIN ST","BALTIMORE CITY","Maryland","21223",3
7338,"5500 PERRING PKWY","BALTIMORE CITY","Maryland","21239",3
7339,"1414 KEY HWY","BALTIMORE CITY","Maryland","21230",3
7340,"1643 PENTWOOD RD","BALTIMORE CITY","Maryland","21239",3
7341,"1420 NORTHGATE RD","BALTIMORE CITY","Maryland","21218",3
7342,"835 S PONCA ST","BALTIMORE CITY","Maryland","21224",3
7343,"3200 PIEDMONT AVE","BALTIMORE CITY","Maryland","21216",3
7344,"3700 COLUMBUS DR","BALTIMORE CITY","Maryland","21215",3
7345,"1901 WALBROOK AVE","BALTIMORE CITY","Maryland","21217",3
7346,"1800 WALBROOK AVE","BALTIMORE CITY","Maryland","21217",3
7347,"3819 PASCAL AVE","BALTIMORE CITY","Maryland","21226",3
7348,"2300 CHESTERFIELD AVE","BALTIMORE CITY","Maryland","21213",3
7349,"3600 KEYSTONE AVE","BALTIMORE CITY","Maryland","21211",3
7350,"E 28TH ST &N CALVERT ST","BALTIMORE CITY","Maryland","21218",3
7351,"4401 WAKEFIELD RD","BALTIMORE CITY","Maryland","21216",3
7352,"121 E 25TH ST","BALTIMORE CITY","Maryland","21218",3
7353,"1200 DESOTO RD","BALTIMORE CITY","Maryland","21230",3
7354,"420 S WASHINGTON ST","BALTIMORE CITY","Maryland","21231",3
7355,"POPLAR TER &N LONGWOOD ST","BALTIMORE CITY","Maryland","21216",3
7356,"2002 W NORTH AVE","BALTIMORE CITY","Maryland","21217",3
7357,"1901 W NORTH AVE","BALTIMORE CITY","Maryland","21217",3
7358,"1801 W NORTH AVE","BALTIMORE CITY","Maryland","21217",3
7359,"2700 HUGO AVE","BALTIMORE CITY","Maryland","21218",3
7360,"2200 CREST RD","BALTIMORE CITY","Maryland","21209",3
7361,"1400 NORTHGATE RD","BALTIMORE CITY","Maryland","21218",3
7362,"THE ALAMEDA & WOODBOURNE AVE","BALTIMORE CITY","Maryland","21239",3
7363,"300 E CROSS ST","BALTIMORE CITY","Maryland","21230",3
7364,"5552 FORCE RD","BALTIMORE CITY","Maryland","21206",3
7365,"3100 LAWNVIEW AVE","BALTIMORE CITY","Maryland","21213",3
7366,"2700 SPELMAN RD","BALTIMORE CITY","Maryland","21225",3
7367,"1918 MOSHER ST","BALTIMORE CITY","Maryland","21217",3
7368,"1700 EAGLE ST","BALTIMORE CITY","Maryland","21223",3
7369,"5300 THE ALAMEDA","BALTIMORE CITY","Maryland","21239",3
7370,"5300 GREENSPRING AVE","BALTIMORE CITY","Maryland","21209",3
7371,"3433 S HANOVER ST","BALTIMORE CITY","Maryland","21225",3
7372,"5703 BELLE VISTA AVE","BALTIMORE CITY","Maryland","21206",3
7373,"3602 WOODLEA AVE","BALTIMORE CITY","Maryland","21214",3
7374,"535 S ANN ST","BALTIMORE CITY","Maryland","21231",3
7375,"FALLS RD &W COLD SPRING LN","BALTIMORE CITY","Maryland","21209",3
7376,"1207 W 41ST ST","BALTIMORE CITY","Maryland","21211",3
7377,"2101 HARGROVE ST","BALTIMORE CITY","Maryland","21218",3
7378,"700 PRESIDENT ST","BALTIMORE CITY","Maryland","21202",3
7379,"201 ATHOLGATE LN","BALTIMORE CITY","Maryland","21229",3
7380,"3900 CLAREMONT ST","BALTIMORE CITY","Maryland","21224",3
7381,"3910 FLEETWOOD AVE","BALTIMORE CITY","Maryland","21206",3
7382,"5501 FREDERICK AVE","BALTIMORE CITY","Maryland","21228",3
7383,"300 E NORTHERN PKWY","BALTIMORE CITY","Maryland","21212",3
7384,"1532 MEDFORD RD","BALTIMORE CITY","Maryland","21218",3
7385,"RUSK AVE & MANHATTAN AVE","BALTIMORE CITY","Maryland","21215",3
7386,"1700 PRESSTMAN ST","BALTIMORE CITY","Maryland","21217",3
7387,"10 E EAGER ST","BALTIMORE CITY","Maryland","21202",3
7388,"817 NORTH POINT RD","BALTIMORE CITY","Maryland","21237",3
7389,"3853 QUARRY AVE","BALTIMORE CITY","Maryland","21211",3
7390,"4249 ROKEBY RD","BALTIMORE CITY","Maryland","21229",3
7391,"ROBERT ST","BALTIMORE CITY","Maryland","21217",3
7392,"LAURENS ST","BALTIMORE CITY","Maryland","21217",3
7393,"LAURENS ST & BOLTON ST","BALTIMORE CITY","Maryland","21217",3
7394,"3100 N CALVERT ST","BALTIMORE CITY","Maryland","21218",3
7395,"3400 MERTENS ST","BALTIMORE CITY","Maryland","21224",3
7396,"1501 S CLINTON ST","BALTIMORE CITY","Maryland","21224",3
7397,"SPRINGLAKE WAY & HOMELAND AVE","BALTIMORE CITY","Maryland","21212",3
7398,"W 33RD ST & CHESTNUT AVE","BALTIMORE CITY","Maryland","21211",3
7399,"3400 MERTENS ST","BALTIMORE CITY","Maryland","21224",3
7400,"4000 LELAND AVE","BALTIMORE CITY","Maryland","21224",3
7401,"3400 MERTENS ST","BALTIMORE CITY","Maryland","21224",3
7402,"1551 S CLINTON ST","BALTIMORE CITY","Maryland","21224",3
7403,"3300 ELDORADO AVE","BALTIMORE CITY","Maryland","21207",3
7404,"4408 SPRINGDALE AVE","BALTIMORE CITY","Maryland","21207",3
7405,"BELLONA AVE &E LAKE AVE","BALTIMORE CITY","Maryland","21212",3
7406,"N CHARLES ST & BLYTHEWOOD RD","BALTIMORE CITY","Maryland","21210",3
7407,"3301 BOSTON ST","BALTIMORE CITY","Maryland","21224",3
7408,"2901 FOREST GLEN RD","BALTIMORE CITY","Maryland","21216",3
7409,"4104 ERDMAN AVE","BALTIMORE CITY","Maryland","21213",3
7410,"600 S BROADWAY","BALTIMORE CITY","Maryland","21231",3
7411,"400 E BIDDLE ST","BALTIMORE CITY","Maryland","21202",3
7412,"5008 PLYMOUTH RD","BALTIMORE CITY","Maryland","21214",3
7413,"3131 HAWKINS POINT RD","BALTIMORE CITY","Maryland","21226",3
7414,"621 E 29TH ST","BALTIMORE CITY","Maryland","21218",3
7415,"1603 E 30TH ST","BALTIMORE CITY","Maryland","21218",3
7416,"TOONE ST & WISE CT","BALTIMORE CITY","Maryland","21224",3
7417,"1214 W NORTHERN PKWY","BALTIMORE CITY","Maryland","21209",3
7418,"1500 S EDGEWOOD ST","BALTIMORE CITY","Maryland","21227",3
7419,"4201 PATTERSON AVE","BALTIMORE CITY","Maryland","21215",3
7420,"4300 WINDSOR MILL RD","BALTIMORE CITY","Maryland","21216",3
7421,"WINDSOR MILL RD & GWYNNS FALLS PKWY","BALTIMORE CITY","Maryland","21216",3
7422,"1001 SAINT GEORGE RD","BALTIMORE CITY","Maryland","21210",3
7423,"5008 PLYMOUTH RD","BALTIMORE CITY","Maryland","21214",3
7424,"RAMP","BALTIMORE CITY","Maryland","21224",3
7425,"621 E 29TH ST","BALTIMORE CITY","Maryland","21218",3
7426,"527 W MULBERRY ST","BALTIMORE CITY","Maryland","21201",3
7427,"400 N GREENE ST","BALTIMORE CITY","Maryland","21201",3
7428,"3617 LOCH RAVEN BLVD","BALTIMORE CITY","Maryland","21218",3
7429,"3011 GUILFORD AVE","BALTIMORE CITY","Maryland","21218",3
7430,"WOODBOURNE AVE & HAMILTON AVE","BALTIMORE CITY","Maryland","21214",3
7431,"409 VENABLE AVE","BALTIMORE CITY","Maryland","21218",3
7432,"3006 GUILFORD AVE","BALTIMORE CITY","Maryland","21218",3
7433,"3006 GUILFORD AVE","BALTIMORE CITY","Maryland","21218",3
7434,"6100 LOCH RAVEN BLVD","BALTIMORE CITY","Maryland","21239",3
7435,"N GREENE ST &W MULBERRY ST","BALTIMORE CITY","Maryland","21201",3
7436,"ORLEANS ST &N WASHINGTON ST","BALTIMORE CITY","Maryland","21231",3
7437,"2700 E NORTHERN PKWY","BALTIMORE CITY","Maryland","21214",3
7438,"N ELLAMONT ST & BELMONT AVE","BALTIMORE CITY","Maryland","21216",3
7439,"4266 ROKEBY RD","BALTIMORE CITY","Maryland","21229",3
7440,"4266 ROKEBY RD","BALTIMORE CITY","Maryland","21229",3
7441,"2803 N DUKELAND ST","BALTIMORE CITY","Maryland","21216",3
7442,"5600 WABASH AVE","BALTIMORE CITY","Maryland","21215",3
7443,"100 W MULBERRY ST","BALTIMORE CITY","Maryland","21201",3
7444,"6311 WEIDNER AVE","BALTIMORE CITY","Maryland","21212",3
7445,"2900 GREENMOUNT AVE","BALTIMORE CITY","Maryland","21218",3
7446,"2511 GREENMOUNT AVE","BALTIMORE CITY","Maryland","21218",3
7447,"1118 SHERWOOD AVE","BALTIMORE CITY","Maryland","21239",3
7448,"TOWANDA AVE & OSWEGO AVE","BALTIMORE CITY","Maryland","21215",3
7449,"WOODBOURNE AVE & HAMILTON AVE","BALTIMORE CITY","Maryland","21214",3
7450,"4500 OLNEY RD","BALTIMORE CITY","Maryland","21215",3
7451,"BELAIR RD & SINCLAIR LN","BALTIMORE CITY","Maryland","21213",3
7452,"200 W MULBERRY ST","BALTIMORE CITY","Maryland","21201",3
7453,"100 W MULBERRY ST","BALTIMORE CITY","Maryland","21201",3
7454,"1800 N ROSEDALE ST","BALTIMORE CITY","Maryland","21216",3
7455,"417 DRURY LN","BALTIMORE CITY","Maryland","21229",3
7456,"3914 LOCH RAVEN BLVD","BALTIMORE CITY","Maryland","21218",3
7457,"3907 FLEET ST","BALTIMORE CITY","Maryland","21224",3
7458,"2400 CYLBURN AVE","BALTIMORE CITY","Maryland","21215",3
7459,"5000 GREENSPRING AVE","BALTIMORE CITY","Maryland","21215",3
7460,"2601 TOLLEY ST","BALTIMORE CITY","Maryland","21230",3
7461,"3106 GREENMOUNT AVE","BALTIMORE CITY","Maryland","21218",3
7462,"E CHASE ST &N WASHINGTON ST","BALTIMORE CITY","Maryland","21213",3
7463,"3500 ERDMAN AVE","BALTIMORE CITY","Maryland","21213",3
7464,"402 GRINDALL ST","BALTIMORE CITY","Maryland","21230",3
7465,"HARFORD RD & GLENMORE AVE","BALTIMORE CITY","Maryland","21214",3
7466,"1425 KEY HWY","BALTIMORE CITY","Maryland","21230",3
7467,"HOLLINS FERRY RD","BALTIMORE CITY","Maryland","21230",3
7468,"211 SOUTHWAY","BALTIMORE CITY","Maryland","21218",3
7469,"4611 WOODLEA AVE","BALTIMORE CITY","Maryland","21206",3
7470,"3000 HARFORD RD","BALTIMORE CITY","Maryland","21213",3
7471,"3302 W MULBERRY ST","BALTIMORE CITY","Maryland","21229",3
7472,"1834 BYRD ST","BALTIMORE CITY","Maryland","21230",3
7473,"4002 FALLS RD","BALTIMORE CITY","Maryland","21211",3
7474,"4804 BELLE AVE","BALTIMORE CITY","Maryland","21207",3
7475,"FAIRHAVEN AVE &E PATAPSCO AVE","BALTIMORE CITY","Maryland","21225",3
7476,"W OSTEND ST &S HANOVER ST","BALTIMORE CITY","Maryland","21230",3
7477,"847 N HOWARD ST","BALTIMORE CITY","Maryland","21201",3
7478,"1437 E BALTIMORE ST","BALTIMORE CITY","Maryland","21231",3
7479,"4104 ERDMAN AVE","BALTIMORE CITY","Maryland","21213",3
7480,"2800 FLEETWOOD AVE","BALTIMORE CITY","Maryland","21214",3
7481,"1705 SHERWOOD AVE","BALTIMORE CITY","Maryland","21239",3
7482,"1646 SHERWOOD AVE","BALTIMORE CITY","Maryland","21239",3
7483,"1126 ELBANK AVE","BALTIMORE CITY","Maryland","21239",3
7484,"6300 PLYMOUTH RD","BALTIMORE CITY","Maryland","21214",3
7485,"6102 MARIETTA AVE","BALTIMORE CITY","Maryland","21214",3
7486,"2605 BEECHLAND AVE","BALTIMORE CITY","Maryland","21214",3
7487,"3803 FRANKFORD AVE","BALTIMORE CITY","Maryland","21206",3
7488,"3049 BRIGHTON ST","BALTIMORE CITY","Maryland","21216",3
7489,"GLENWOOD AVE & READY AVE","BALTIMORE CITY","Maryland","21212",3
7490,"S CATON AVE & GEORGETOWN RD","BALTIMORE CITY","Maryland","21227",3
7491,"3200 BERKSHIRE RD","BALTIMORE CITY","Maryland","21214",3
7492,"3207 TYNDALE AVE","BALTIMORE CITY","Maryland","21214",3
7493,"2725 WALBROOK AVE","BALTIMORE CITY","Maryland","21216",3
7494,"700 RICHWOOD AVE","BALTIMORE CITY","Maryland","21212",3
7495,"900 HOMESTEAD ST","BALTIMORE CITY","Maryland","21218",3
7496,"1316 WALTERS AVE","BALTIMORE CITY","Maryland","21239",3
7497,"1116 WALKER AVE","BALTIMORE CITY","Maryland","21239",3
7498,"1500 S CATON AVE","BALTIMORE CITY","Maryland","21227",3
7499,"BOSTON ST &S MONTFORD AVE","BALTIMORE CITY","Maryland","21224",3
7500,"3000 BOSTON ST","BALTIMORE CITY","Maryland","21224",3
