"UniqueID","StreetAddress","City","State","ZIP","i"
2501,"2115 FLEET ST","BALTIMORE","Maryland","21231",2
2502,"1906 MOUNT ROYAL TER","BALTIMORE","Maryland","21217",2
2503,"700 S CATON AVE","BALTIMORE","Maryland","21229",2
2504,"1015 E PRATT ST","BALTIMORE","Maryland","21223",2
2505,"N HOWARD ST & PARK AVE","BALTIMORE","Maryland","21201",2
2506,"W MOUNT ROYAL AVE & DOLPHIN ST","BALTIMORE","Maryland","21201",2
2507,"1900 EAGLE DR","BALTIMORE","Maryland","21207",2
2508,"5513 PILGRIM RD","BALTIMORE","Maryland","21214",2
2509,"5800 THE ALAMEDA","BALTIMORE","Maryland","21239",2
2510,"3308 NERAK RD","BALTIMORE","Maryland","21208",2
2511,"3317 SHELBURNE RD","BALTIMORE","Maryland","21208",2
2512,"W MADISON ST & CATHEDRAL ST","BALTIMORE","Maryland","21201",2
2513,"640 WASHINGTON BLVD","BALTIMORE","Maryland","21230",2
2514,"4001 HARFORD RD","BALTIMORE","Maryland","21214",2
2515,"3901 HILLEN RD","BALTIMORE","Maryland","21218",2
2516,"2100 LAKE AVE","BALTIMORE","Maryland","21218",2
2517,"1210 E 33RD ST","BALTIMORE","Maryland","21218",2
2518,"623 HOMESTEAD ST","BALTIMORE","Maryland","21218",2
2519,"415 E 32ND ST","BALTIMORE","Maryland","21218",2
2520,"3104 N CALVERT ST","BALTIMORE","Maryland","21218",2
2521,"6509 HILLTOP AVE","BALTIMORE","Maryland","21206",2
2522,"ROLAND AVE &W COLD SPRING LN","BALTIMORE","Maryland","21210",2
2523,"4100 ROBERTON AVE","BALTIMORE","Maryland","21206",2
2524,"2605 WHITNEY AVE","BALTIMORE","Maryland","21215",2
2525,"KIRK AVE &E 25TH ST","BALTIMORE","Maryland","21218",2
2526,"SINCLAIR LN &N ROSE ST","BALTIMORE","Maryland","21213",2
2527,"555 W 29TH ST","BALTIMORE","Maryland","21211",2
2528,"1 E UNIVERSITY PKWY","BALTIMORE","Maryland","21218",2
2529,"400 W UNIVERSITY PKWY","BALTIMORE","Maryland","21210",2
2530,"100 W UNIVERSITY PKWY","BALTIMORE","Maryland","21210",2
2531,"AISQUITH ST & DARLEY AVE","BALTIMORE","Maryland","21218",2
2532,"700 NORTH POINT RD","BALTIMORE","Maryland","21224",2
2533,"23 N FULTON AVE","BALTIMORE","Maryland","21223",2
2534,"6635 BELAIR RD","BALTIMORE","Maryland","21206",2
2535,"W FRANKLIN ST & PENNSYLVANIA AVE","BALTIMORE","Maryland","21201",2
2536,"3900 LYNDALE AVE","BALTIMORE","Maryland","21213",2
2537,"2800 ELLICOTT DWY","BALTIMORE","Maryland","21216",2
2538,"1400 N ELLAMONT ST","BALTIMORE","Maryland",NA,2
2539,"1400 N ROSEDALE ST","BALTIMORE","Maryland","21216",2
2540,"N WARWICK AVE &W BALTIMORE ST","BALTIMORE","Maryland","21223",2
2541,"6824 HARFORD RD","BALTIMORE","Maryland","21234",2
2542,"LIBERTY HEIGHTS AVE & AUCHENTOROLY TER","BALTIMORE","Maryland","21215",2
2543,"2300 S HANOVER ST","BALTIMORE","Maryland","21230",2
2544,"5820 WELBOURNE RD","BALTIMORE","Maryland","21239",2
2545,"CRAIG AVE & BEAUMONT AVE","BALTIMORE","Maryland","21212",2
2546,"LOCH RAVEN BLVD & THE ALAMEDA","BALTIMORE","Maryland","21218",2
2547,"THE ALAMEDA &E 35TH ST","BALTIMORE","Maryland","21218",2
2548,"W BALTIMORE ST &S PAYSON ST","BALTIMORE","Maryland","21223",2
2549,"3500 EDMONDSON AVE","BALTIMORE","Maryland","21229",2
2550,"3900 W STRATHMORE AVE","BALTIMORE","Maryland","21215",2
2551,"913 SAINT PAUL ST","BALTIMORE","Maryland","21202",2
2552,"500 E 39TH ST","BALTIMORE","Maryland","21218",2
2553,"3600 S HANOVER ST","BALTIMORE","Maryland","21225",2
2554,"3916 S HANOVER ST","BALTIMORE","Maryland","21225",2
2555,"6605 EASTERN PKWY","BALTIMORE","Maryland","21214",2
2556,"6615 EASTERN PKWY","BALTIMORE","Maryland","21214",2
2557,"E NORTHERN PKWY & ALTA AVE","BALTIMORE","Maryland","21206",2
2558,"4400 MOUNTVIEW RD","BALTIMORE","Maryland","21229",2
2559,"500 JASPER ST","BALTIMORE","Maryland","21201",2
2560,"2600 FREDERICK AVE","BALTIMORE","Maryland","21223",2
2561,"2800 FREDERICK AVE","BALTIMORE","Maryland","21223",2
2562,"3012 ROYSTON AVE","BALTIMORE","Maryland","21214",2
2563,"1500 W PRATT ST","BALTIMORE","Maryland","21223",2
2564,"1300 W PRATT ST","BALTIMORE","Maryland","21223",2
2565,"4900 GREENHILL AVE","BALTIMORE","Maryland","21206",2
2566,"EDMONDSON AVE & ALLENDALE ST","BALTIMORE","Maryland","21229",2
2567,"1003 W CHASE ST","BALTIMORE","Maryland","21201",2
2568,"4601 N FRANKLINTOWN RD","BALTIMORE","Maryland","21229",2
2569,"231 E BALTIMORE ST","BALTIMORE","Maryland","21202",2
2570,"3765 HARFORD RD","BALTIMORE","Maryland","21218",2
2571,"930 PONCA ST","BALTIMORE","Maryland","21224",2
2572,"4710 O'DONNELL ST","BALTIMORE","Maryland","21224",2
2573,"400 S BOULDIN ST","BALTIMORE","Maryland","21224",2
2574,"FOREST GLEN RD & NORFOLK AVE","BALTIMORE","Maryland","21207",2
2575,"1201 SABINA AVE","BALTIMORE","Maryland","21209",2
2576,"3200 PINKNEY RD","BALTIMORE","Maryland","21215",2
2577,"6100 CARDIFF AVE","BALTIMORE","Maryland","21224",2
2578,"6599 ERDMAN AVE","BALTIMORE","Maryland","21205",2
2579,"2000 HOLLINS FERRY RD","BALTIMORE","Maryland","21230",2
2580,"1200 N MACON ST","BALTIMORE","Maryland","21205",2
2581,"FENWICK AVE &E 33RD ST","BALTIMORE","Maryland","21218",2
2582,"HILLEN RD & WADSWORTH WAY","BALTIMORE","Maryland","21239",2
2583,"1500 S CATON AVE","BALTIMORE","Maryland","21227",2
2584,"6349 BOSTON ST","BALTIMORE","Maryland","21224",2
2585,"1501 CHARLOTTE AVE","BALTIMORE","Maryland","21224",2
2586,"REISTERSTOWN RD & FORDS LN","BALTIMORE","Maryland","21215",2
2587,"3810 BELLE AVE","BALTIMORE","Maryland","21215",2
2588,"5600 TRAMORE RD","BALTIMORE","Maryland","21214",2
2589,"3000 N EDGEWOOD ST","BALTIMORE","Maryland","21216",2
2590,"5500 MORAVIA RD","BALTIMORE","Maryland","21206",2
2591,"2910 ECHODALE AVE","BALTIMORE","Maryland","21214",2
2592,"W FRANKLIN ST &N SCHROEDER ST","BALTIMORE","Maryland","21223",2
2593,"500 DOLPHIN ST","BALTIMORE","Maryland","21217",2
2594,"4900 BOWLAND AVE","BALTIMORE","Maryland","21206",2
2595,"5 E OSTEND ST","BALTIMORE","Maryland","21230",2
2596,"FENWICK AVE & PENTWOOD RD","BALTIMORE","Maryland","21239",2
2597,"2222 LINDEN AVE","BALTIMORE","Maryland","21217",2
2598,"6100 HILLEN RD","BALTIMORE","Maryland","21239",2
2599,"5503 FRANKFORD ESTATES DR","BALTIMORE","Maryland","21206",2
2600,"COOKS LN & EDMONDSON AVE","BALTIMORE","Maryland","21229",2
2601,"MARJORIE LN & DARTMOUTH RD","BALTIMORE","Maryland","21212",2
2602,"5413 FALLS ROAD TER","BALTIMORE","Maryland","21210",2
2603,"5200 LIBERTY HEIGHTS AVE","BALTIMORE","Maryland","21207",2
2604,"4500 WAKEFIELD RD","BALTIMORE","Maryland","21216",2
2605,"1114 W CROSS ST","BALTIMORE","Maryland","21230",2
2606,"2023 GIRARD AVE","BALTIMORE","Maryland","21211",2
2607,"5904 GLENKIRK RD","BALTIMORE","Maryland","21239",2
2608,"4600 MARBLE HALL RD","BALTIMORE","Maryland","21239",2
2609,"1200 GLENEAGLE RD","BALTIMORE","Maryland","21239",2
2610,"E COLD SPRING LN & HILLEN RD","BALTIMORE","Maryland","21218",2
2611,"800 E COLD SPRING LN","BALTIMORE","Maryland","21212",2
2612,"W COLD SPRING LN & ROLAND AVE","BALTIMORE","Maryland","21210",2
2613,"1500 E COLD SPRING LN","BALTIMORE","Maryland","21218",2
2614,"3300 LOHRS ST","BALTIMORE","Maryland","21229",2
2615,"3500 W MULBERRY ST","BALTIMORE","Maryland","21229",2
2616,"3343 ELMORA AVE","BALTIMORE","Maryland","21213",2
2617,"5000 GOVANE AVE","BALTIMORE","Maryland","21212",2
2618,"2300 E COLD SPRING LN","BALTIMORE","Maryland","21214",2
2619,"PARK HEIGHTS AVE & PINKNEY RD","BALTIMORE","Maryland","21215",2
2620,"3118 BANCROFT RD","BALTIMORE","Maryland","21215",2
2621,"3400 PINKNEY RD","BALTIMORE","Maryland","21215",2
2622,"E PLEASANT ST & RAMP","BALTIMORE","Maryland","21202",2
2623,"900 WHITELOCK ST","BALTIMORE","Maryland","21217",2
2624,"830 LYNDHURST ST","BALTIMORE","Maryland","21229",2
2625,"4500 N FRANKLINTOWN RD","BALTIMORE","Maryland","21229",2
2626,"4600 EDMONDSON AVE","BALTIMORE","Maryland","21229",2
2627,"300 W MULBERRY ST","BALTIMORE","Maryland","21201",2
2628,"3500 EDMONDSON AVE","BALTIMORE","Maryland","21229",2
2629,"3500 BENZINGER RD","BALTIMORE","Maryland","21229",2
2630,"4000 HARFORD RD","BALTIMORE","Maryland","21214",2
2631,"3700 HARFORD RD","BALTIMORE","Maryland","21218",2
2632,"3600 HARFORD RD","BALTIMORE","Maryland","21218",2
2633,"2215 KENTUCKY AVE","BALTIMORE","Maryland","21213",2
2634,"4908 ABERDEEN AVE","BALTIMORE","Maryland","21206",2
2635,"2300 HARFORD RD","BALTIMORE","Maryland","21218",2
2636,"E MCCOMAS ST &E CROMWELL ST","BALTIMORE","Maryland","21230",2
2637,"S HANOVER ST &W CROMWELL ST","BALTIMORE","Maryland","21230",2
2638,"2900 E MADISON ST","BALTIMORE","Maryland","21205",2
2639,"2300 BAKER ST","BALTIMORE","Maryland","21216",2
2640,"KELLY AVE & BONNIE VIEW DR","BALTIMORE","Maryland","21209",2
2641,"1500 ELRINO ST","BALTIMORE","Maryland","21224",2
2642,"1000 HARFORD AVE","BALTIMORE","Maryland","21202",2
2643,"1436 BOYLE ST","BALTIMORE","Maryland","21230",2
2644,"8 E PLEASANT ST","BALTIMORE","Maryland","21202",2
2645,"6600 WALTHER AVE","BALTIMORE","Maryland","21206",2
2646,"2800 NORFOLK AVE","BALTIMORE","Maryland","21215",2
2647,"E CROMWELL ST &S HANOVER ST","BALTIMORE","Maryland","21230",2
2648,"1600 ARGYLE AVE","BALTIMORE","Maryland","21217",2
2649,"EDMONDSON AVE & ALLENDALE ST","BALTIMORE","Maryland","21229",2
2650,"SPAULDING AVE & BEAUFORT AVE","BALTIMORE","Maryland","21215",2
2651,"500 N CARROLLTON AVE","BALTIMORE","Maryland","21223",2
2652,"723 N ARLINGTON AVE","BALTIMORE","Maryland","21217",2
2653,"829 N ARLINGTON AVE","BALTIMORE","Maryland","21217",2
2654,"4200 WHITE AVE","BALTIMORE","Maryland","21206",2
2655,"3824 3RD ST","BALTIMORE","Maryland","21225",2
2656,"5110 PLAINFIELD AVE","BALTIMORE","Maryland","21206",2
2657,"ECHODALE AVE & HERRING RUN DR","BALTIMORE","Maryland","21214",2
2658,"4000 TIVOLY AVE","BALTIMORE","Maryland","21218",2
2659,"3200 PARKSIDE DR","BALTIMORE","Maryland","21214",2
2660,"5700 GILPIN RD","BALTIMORE","Maryland","21212",2
2661,"800 EVESHAM AVE","BALTIMORE","Maryland","21212",2
2662,"5500 NORTHWOOD DR","BALTIMORE","Maryland","21212",2
2663,"4600 MARBLE HALL RD","BALTIMORE","Maryland","21239",2
2664,"E 33RD ST & THE ALAMEDA","BALTIMORE","Maryland","21218",2
2665,"5100 GOODNOW RD","BALTIMORE","Maryland","21206",2
2666,"4300 PARKSIDE DR","BALTIMORE","Maryland","21206",2
2667,"210 W BALTIMORE ST","BALTIMORE","Maryland","21201",2
2668,"1003 W CHASE ST","BALTIMORE","Maryland","21201",2
2669,"300 W MULBERRY ST","BALTIMORE","Maryland","21201",2
2670,"445 ROSEBANK AVE","BALTIMORE","Maryland","21212",2
2671,"5308 HADDON AVE","BALTIMORE","Maryland","21207",2
2672,"2219 CHESTERFIELD AVE","BALTIMORE","Maryland","21213",2
2673,"2320 HARFORD RD","BALTIMORE","Maryland","21218",2
2674,"N FRANKLINTOWN RD & WINANS WAY","BALTIMORE","Maryland","21229",2
2675,"W LAFAYETTE AVE & PARK AVE","BALTIMORE","Maryland","21217",2
2676,"E MCCOMAS ST & KEY HWY","BALTIMORE","Maryland","21230",2
2677,"8 E 39TH ST","BALTIMORE","Maryland","21218",2
2678,"W BALTIMORE ST &N HILTON ST","BALTIMORE","Maryland","21229",2
2679,"S CATON AVE &W PATAPSCO AVE","BALTIMORE","Maryland","21227",2
2680,"4023 LOCH RAVEN BLVD","BALTIMORE","Maryland","21218",2
2681,"W PATAPSCO AVE & ANNAPOLIS RD","BALTIMORE","Maryland","21230",2
2682,"4708 VIRGINIA AVE","BALTIMORE","Maryland","21225",2
2683,"500 N MOUNT ST","BALTIMORE","Maryland","21223",2
2684,"4200 AYRDALE AVE","BALTIMORE","Maryland","21215",2
2685,"3819 RAVENWOOD AVE","BALTIMORE","Maryland","21213",2
2686,"CLIFTMONT AVE & DUDLEY AVE","BALTIMORE","Maryland","21213",2
2687,"3549 DUDLEY AVE","BALTIMORE","Maryland","21213",2
2688,"S WOLFE ST & GOUGH ST","BALTIMORE","Maryland","21231",2
2689,"E 43RD ST","BALTIMORE","Maryland","21212",2
2690,"KANE ST & EASTERN AVE","BALTIMORE","Maryland","21224",2
2691,"3006 BATAVIA AVE","BALTIMORE","Maryland","21214",2
2692,"5408 SAGRA RD","BALTIMORE","Maryland","21239",2
2693,"2505 AISQUITH ST","BALTIMORE","Maryland","21218",2
2694,"1500 E COLD SPRING LN","BALTIMORE","Maryland","21218",2
2695,"5400 PURLINGTON WAY","BALTIMORE","Maryland","21212",2
2696,"5100 GOVANE AVE","BALTIMORE","Maryland","21212",2
2697,"515 WINSTON AVE","BALTIMORE","Maryland","21212",2
2698,"1324 EUTAW PL","BALTIMORE","Maryland","21217",2
2699,"309 W LAFAYETTE AVE","BALTIMORE","Maryland","21217",2
2700,"500 E 28TH ST","BALTIMORE","Maryland","21218",2
2701,"2600 CHESTERFIELD AVE","BALTIMORE","Maryland","21213",2
2702,"5500 CEDONIA AVE","BALTIMORE","Maryland","21206",2
2703,"4912 HAMILTON AVE","BALTIMORE","Maryland","21206",2
2704,"4936 FRANKFORD AVE","BALTIMORE","Maryland","21206",2
2705,"241 S LOUDON AVE","BALTIMORE","Maryland","21229",2
2706,"435 KENNETH SQ","BALTIMORE","Maryland","21212",2
2707,"HENDERSON AVE &E LAKE AVE","BALTIMORE","Maryland","21212",2
2708,"THE ALAMEDA &E BELVEDERE AVE","BALTIMORE","Maryland","21239",2
2709,"2400 HAMILTON AVE","BALTIMORE","Maryland","21214",2
2710,"2400 S HANOVER ST","BALTIMORE","Maryland","21230",2
2711,"2800 HAMILTON AVE","BALTIMORE","Maryland","21214",2
2712,"N GAY ST &E LEXINGTON ST","BALTIMORE","Maryland","21202",2
2713,"S HANOVER ST &W WELLS ST","BALTIMORE","Maryland","21230",2
2714,"HILLEN RD &E NORTHERN PKWY","BALTIMORE","Maryland","21239",2
2715,"EDGEPARK RD & RAMBLEWOOD RD","BALTIMORE","Maryland","21239",2
2716,"600 W PATAPSCO AVE","BALTIMORE","Maryland","21225",2
2717,"6000 WINTHROPE AVE","BALTIMORE","Maryland","21206",2
2718,"3824 3RD ST","BALTIMORE","Maryland","21225",2
2719,"2402 W LEXINGTON ST","BALTIMORE","Maryland","21223",2
2720,"ROSALIE AVE & GLENOAK AVE","BALTIMORE","Maryland","21234",2
2721,"S HANOVER ST & CHERRY HILL RD","BALTIMORE","Maryland","21225",2
2722,"400 ROUNDVIEW RD","BALTIMORE","Maryland","21225",2
2723,"HOOPER AVE & GIRARD AVE","BALTIMORE","Maryland","21211",2
2724,"2229 VAN DEMAN ST","BALTIMORE","Maryland","21224",2
2725,"HOLABIRD AVE & DUNDALK AVE","BALTIMORE","Maryland","21224",2
2726,"EASTERN AVE","BALTIMORE","Maryland","21224",2
2727,"901 EASTERN AVE","BALTIMORE","Maryland","21202",2
2728,"601 N CAROLINE ST","BALTIMORE","Maryland","21205",2
2729,"200 S CHARLES ST","BALTIMORE","Maryland","21201",2
2730,"5616 PARK HEIGHTS AVE","BALTIMORE","Maryland","21215",2
2731,"2600 MARYLAND AVE","BALTIMORE","Maryland","21218",2
2732,"6200 LOCH RAVEN BLVD","BALTIMORE","Maryland","21239",2
2733,"5807 LOCH RAVEN BLVD","BALTIMORE","Maryland","21239",2
2734,"2600 CHESTERFIELD AVE","BALTIMORE","Maryland","21213",2
2735,"2200 CHESTERFIELD AVE","BALTIMORE","Maryland","21213",2
2736,"3140 WASHINGTON BLVD","BALTIMORE","Maryland","21230",2
2737,"4000 LOCH RAVEN BLVD","BALTIMORE","Maryland","21218",2
2738,"LIBERTY HEIGHTS AVE & GARRISON BLVD","BALTIMORE","Maryland","21207",2
2739,"504 WINSTON AVE","BALTIMORE","Maryland","21212",2
2740,"3200 LOCH RAVEN BLVD","BALTIMORE","Maryland","21218",2
2741,"3103 LOCH RAVEN RD","BALTIMORE","Maryland","21218",2
2742,"519 W 40TH ST","BALTIMORE","Maryland","21211",2
2743,"3209 N CALVERT ST","BALTIMORE","Maryland","21218",2
2744,"2900 N CALVERT ST","BALTIMORE","Maryland","21218",2
2745,"2708 N CALVERT ST","BALTIMORE","Maryland","21218",2
2746,"2311 N CALVERT ST","BALTIMORE","Maryland","21218",2
2747,"N CALVERT ST &E 25TH ST","BALTIMORE","Maryland","21218",2
2748,"2000 N CALVERT ST","BALTIMORE","Maryland","21218",2
2749,"3000 TIVOLY AVE","BALTIMORE","Maryland","21218",2
2750,"1900 N CALVERT ST","BALTIMORE","Maryland","21218",2
2751,"1800 N CALVERT ST","BALTIMORE","Maryland","21202",2
2752,"N EUTAW ST &W FRANKLIN ST","BALTIMORE","Maryland","21201",2
2753,"HILLEN RD &E NORTHERN PKWY","BALTIMORE","Maryland","21239",2
2754,"6100 WIRT AVE","BALTIMORE","Maryland","21215",2
2755,"1700 N CALVERT ST","BALTIMORE","Maryland","21202",2
2756,"1717 N CALVERT ST","BALTIMORE","Maryland","21202",2
2757,"4107 HIGHLAND AVE","BALTIMORE","Maryland","21225",2
2758,"922 N CALVERT ST","BALTIMORE","Maryland","21202",2
2759,"N LINWOOD AVE & JEFFERSON ST","BALTIMORE","Maryland","21205",2
2760,"2200 CROSS COUNTRY BLVD","BALTIMORE","Maryland","21209",2
2761,"1800 KELLY AVE","BALTIMORE","Maryland","21209",2
2762,"OVERLAND AVE & WALTHER AVE","BALTIMORE","Maryland","21214",2
2763,"1200 EASTERN AVE","BALTIMORE","Maryland","21202",2
2764,"114 E EAGER ST","BALTIMORE","Maryland","21202",2
2765,"3713 FLEETWOOD AVE","BALTIMORE","Maryland","21206",2
2766,"1009 SAINT PAUL ST","BALTIMORE","Maryland","21202",2
2767,"3711 FLEETWOOD AVE","BALTIMORE","Maryland","21206",2
2768,"PERRING MANOR RD & MCCLEAN BLVD","BALTIMORE","Maryland","21234",2
2769,"HAMILTON AVE & ELSRODE AVE","BALTIMORE","Maryland","21214",2
2770,"HAMILTON AVE & RICHARD AVE","BALTIMORE","Maryland","21214",2
2771,"2131 E FAIRMOUNT AVE","BALTIMORE","Maryland","21231",2
2772,"2400 RALLS AVE","BALTIMORE","Maryland","21222",2
2773,"2700 HAMILTON AVE","BALTIMORE","Maryland","21214",2
2774,"3205 RAMONA AVE","BALTIMORE","Maryland","21213",2
2775,"2300 ERDMAN AVE","BALTIMORE","Maryland","21213",2
2776,"4600 WHITE AVE","BALTIMORE","Maryland","21206",2
2777,"MORAVIA RD","BALTIMORE","Maryland","21237",2
2778,"MCMECHEN ST & PARK AVE","BALTIMORE","Maryland","21217",2
2779,"N HOWARD ST &W FRANKLIN ST","BALTIMORE","Maryland","21201",2
2780,"2404 BROHAWN AVE","BALTIMORE","Maryland","21230",2
2781,"DUNDALK AVE & O'DONNELL ST","BALTIMORE","Maryland","21224",2
2782,"1700 S CHARLES ST","BALTIMORE","Maryland","21230",2
2783,"1644 S CHARLES ST","BALTIMORE","Maryland","21230",2
2784,"3501 MARY AVE","BALTIMORE","Maryland","21214",2
2785,"1 E UNIVERSITY PKWY","BALTIMORE","Maryland","21218",2
2786,"1600 S HANOVER ST","BALTIMORE","Maryland","21230",2
2787,"1400 PENNSYLVANIA AVE","BALTIMORE","Maryland","21217",2
2788,"20 W BALTIMORE ST","BALTIMORE","Maryland","21201",2
2789,"4200 WHITE AVE","BALTIMORE","Maryland","21206",2
2790,"2728 FAIT AVE","BALTIMORE","Maryland","21224",2
2791,"E PLEASANT ST & I 83 S","BALTIMORE","Maryland","21202",2
2792,"600 N DUNCAN ST","BALTIMORE","Maryland","21205",2
2793,"2601 W LEXINGTON ST","BALTIMORE","Maryland","21223",2
2794,"4900 QUEENSBERRY AVE","BALTIMORE","Maryland","21215",2
2795,"5724 ONNEN RD","BALTIMORE","Maryland","21206",2
2796,"600 BRISBANE RD","BALTIMORE","Maryland","21229",2
2797,"3001 DRUID PARK DR","BALTIMORE","Maryland","21215",2
2798,"5300 GOODNOW RD","BALTIMORE","Maryland","21206",2
2799,"W PATAPSCO AVE & POTEE ST","BALTIMORE","Maryland","21225",2
2800,"4200 PARKSIDE DR","BALTIMORE","Maryland","21206",2
2801,"S HANOVER ST & WATERVIEW AVE","BALTIMORE","Maryland","21225",2
2802,"699 WASHINGTON PL","BALTIMORE","Maryland","21201",2
2803,"POTEE ST &W PATAPSCO AVE","BALTIMORE","Maryland","21225",2
2804,"PRESBURY ST & BLOOMINGDALE RD","BALTIMORE","Maryland","21216",2
2805,"5409 MAYVIEW AVE","BALTIMORE","Maryland","21206",2
2806,"900 HARWOOD AVE","BALTIMORE","Maryland","21212",2
2807,"SAINT HELENA AVE & CHESAPEAKE AVE","BALTIMORE","Maryland","21222",2
2808,"1 S WOODINGTON RD","BALTIMORE","Maryland","21229",2
2809,"700 APPLETON ST","BALTIMORE","Maryland","21217",2
2810,"2200 CHESTERFIELD AVE","BALTIMORE","Maryland","21213",2
2811,"4200 BAYONNE AVE","BALTIMORE","Maryland","21206",2
2812,"5900 FALKIRK RD","BALTIMORE","Maryland","21239",2
2813,"3109 ROSEKEMP AVE","BALTIMORE","Maryland","21214",2
2814,"PERRING PKWY & RAMP","BALTIMORE","Maryland","21234",2
2815,"LOCH RAVEN BLVD & MERIDENE DR","BALTIMORE","Maryland","21239",2
2816,"LOCH RAVEN BLVD &E NORTHERN PKWY","BALTIMORE","Maryland","21239",2
2817,"500 N CURLEY ST","BALTIMORE","Maryland","21205",2
2818,"307 WINSTON AVE","BALTIMORE","Maryland","21212",2
2819,"4812 SUNBROOK AVE","BALTIMORE","Maryland","21206",2
2820,"BOSTON ST","BALTIMORE","Maryland","21224",2
2821,"6000 HILLEN RD","BALTIMORE","Maryland","21239",2
2822,"3800 CRANSTON AVE","BALTIMORE","Maryland","21229",2
2823,"729 LYNDHURST ST","BALTIMORE","Maryland","21229",2
2824,"2700 RALLS AVE","BALTIMORE","Maryland","21222",2
2825,"AILSA AVE & WALTHER AVE","BALTIMORE","Maryland","21214",2
2826,"5300 SIPPLE AVE","BALTIMORE","Maryland","21206",2
2827,"2800 ECHODALE AVE","BALTIMORE","Maryland","21214",2
2828,"KELLY AVE & CROSS COUNTRY BLVD","BALTIMORE","Maryland","21209",2
2829,"300 W FRANKLIN ST","BALTIMORE","Maryland","21201",2
2830,"2600 HAMILTON AVE","BALTIMORE","Maryland","21214",2
2831,"3010 HAMILTON AVE","BALTIMORE","Maryland","21214",2
2832,"2620 TALBOT RD","BALTIMORE","Maryland","21216",2
2833,"2500 QUEEN ANNE RD","BALTIMORE","Maryland","21216",2
2834,"4363 OLD FREDERICK RD","BALTIMORE","Maryland","21229",2
2835,"5800 NARCISSUS AVE","BALTIMORE","Maryland","21215",2
2836,"932 S BOULDIN ST","BALTIMORE","Maryland","21224",2
2837,"OLD HARFORD RD & HARFORD RD","BALTIMORE","Maryland","21214",2
2838,"REMINGTON AVE & WYMAN PARK DR","BALTIMORE","Maryland","21211",2
2839,"1400 BOLTON ST","BALTIMORE","Maryland","21217",2
2840,"3110 MILFORD AVE","BALTIMORE","Maryland","21207",2
2841,"E LAKE AVE & YORK RD","BALTIMORE","Maryland","21212",2
2842,"11 E LEE ST","BALTIMORE","Maryland","21202",2
2843,"700 MILYER LN","BALTIMORE","Maryland","21229",2
2844,"1500 S CATON AVE","BALTIMORE","Maryland","21227",2
2845,"1601 BROENING HWY","BALTIMORE","Maryland","21224",2
2846,"3600 WOODLAND AVE","BALTIMORE","Maryland","21215",2
2847,"BROENING HWY & CARDIFF AVE","BALTIMORE","Maryland","21224",2
2848,"3021 GREENMOUNT AVE","BALTIMORE","Maryland","21218",2
2849,"2700 RAYNER AVE","BALTIMORE","Maryland","21216",2
2850,"LOYOLA SOUTHWAY & ROLAND VIEW AVE","BALTIMORE","Maryland","21215",2
2851,"2900 GREENMOUNT AVE","BALTIMORE","Maryland","21218",2
2852,"2900 GREENMOUNT AVE","BALTIMORE","Maryland","21218",2
2853,"2800 GREENMOUNT AVE","BALTIMORE","Maryland","21218",2
2854,"SHELRICK DR & LARRYVALE RD","BALTIMORE","Maryland","21209",2
2855,"UPLANDS PKWY & EDMONDSON AVE","BALTIMORE","Maryland","21229",2
2856,"N BENTALOU ST &W NORTH AVE","BALTIMORE","Maryland","21216",2
2857,"4800 GARRISON BLVD","BALTIMORE","Maryland","21215",2
2858,"W 29TH ST & RAMP","BALTIMORE","Maryland","21211",2
2859,"1300 GREENMOUNT AVE","BALTIMORE","Maryland","21202",2
2860,"1200 GREENMOUNT AVE","BALTIMORE","Maryland","21202",2
2861,"1200 GREENMOUNT AVE","BALTIMORE","Maryland","21202",2
2862,"601 W PATAPSCO AVE","BALTIMORE","Maryland","21225",2
2863,"900 GREENMOUNT AVE","BALTIMORE","Maryland","21202",2
2864,"4733 MIDWOOD AVE","BALTIMORE","Maryland","21212",2
2865,"4429 WRENWOOD AVE","BALTIMORE","Maryland","21212",2
2866,"4706 AMBERLEY AVE","BALTIMORE","Maryland","21229",2
2867,"600 N MADEIRA ST","BALTIMORE","Maryland","21205",2
2868,"1600 EDISON HWY","BALTIMORE","Maryland","21213",2
2869,"609 E PATAPSCO AVE","BALTIMORE","Maryland","21225",2
2870,"2000 HOLLINS ST","BALTIMORE","Maryland","21223",2
2871,"900 KANE ST","BALTIMORE","Maryland","21224",2
2872,"5906 LOCH RAVEN BLVD","BALTIMORE","Maryland","21239",2
2873,"2701 LEHMAN ST","BALTIMORE","Maryland","21223",2
2874,"1408 BOLTON ST","BALTIMORE","Maryland","21217",2
2875,"3500 ROYSTON AVE","BALTIMORE","Maryland","21214",2
2876,"6200 MOYER AVE","BALTIMORE","Maryland","21206",2
2877,"3518 WHITE CHAPEL RD","BALTIMORE","Maryland","21215",2
2878,"E PATAPSCO AVE & HANOVER 2ND","BALTIMORE","Maryland","21225",2
2879,"2821 FLEETWOOD AVE","BALTIMORE","Maryland","21214",2
2880,"511 STAMFORD RD","BALTIMORE","Maryland","21229",2
2881,"UPLANDS PKWY","BALTIMORE","Maryland","21229",2
2882,"W NORTH AVE & MOUNT ROYAL TER","BALTIMORE","Maryland","21217",2
2883,"YORK RD &E LAKE AVE","BALTIMORE","Maryland","21212",2
2884,"ARGONNE DR & ROUNDTOP RD","BALTIMORE","Maryland","21218",2
2885,"209 E NORTH AVE","BALTIMORE","Maryland","21202",2
2886,"900 LYNDHURST ST","BALTIMORE","Maryland","21229",2
2887,"5600 O'DONNELL ST","BALTIMORE","Maryland","21224",2
2888,"HARFORD RD &E COLD SPRING LN","BALTIMORE","Maryland","21214",2
2889,"1220 BERNARD DR","BALTIMORE","Maryland","21223",2
2890,"2300 WINDSOR AVE","BALTIMORE","Maryland","21217",2
2891,"E COLD SPRING LN &N CHARLES ST","BALTIMORE","Maryland","21212",2
2892,"6114 GREENSPRING AVE","BALTIMORE","Maryland","21209",2
2893,"4600 ANNTANA AVE","BALTIMORE","Maryland","21206",2
2894,"500 STAMFORD RD","BALTIMORE","Maryland","21229",2
2895,"4500 WINDSOR MILL RD","BALTIMORE","Maryland","21207",2
2896,"3223 SHELBURNE RD","BALTIMORE","Maryland","21208",2
2897,"E WHEELING ST &S CHARLES ST","BALTIMORE","Maryland","21230",2
2898,"HILLEN RD &E COLD SPRING LN","BALTIMORE","Maryland","21218",2
2899,"HILLEN RD & ARGONNE DR","BALTIMORE","Maryland","21218",2
2900,"2400 ERDMAN AVE","BALTIMORE","Maryland","21213",2
2901,"3305 CROSSLAND AVE","BALTIMORE","Maryland","21213",2
2902,"17 N CAREY ST","BALTIMORE","Maryland","21223",2
2903,"1500 W LEXINGTON ST","BALTIMORE","Maryland","21223",2
2904,"3808 SAINT PAUL ST","BALTIMORE","Maryland","21218",2
2905,"900 SAINT PAUL ST","BALTIMORE","Maryland","21202",2
2906,"4500 WHITE AVE","BALTIMORE","Maryland","21206",2
2907,"6607 OLD HARFORD RD","BALTIMORE","Maryland","21214",2
2908,"3300 BANCROFT RD","BALTIMORE","Maryland","21215",2
2909,"CHESTERFIELD AVE & HARFORD RD","BALTIMORE","Maryland","21218",2
2910,"5100 SPRINGLAKE WAY","BALTIMORE","Maryland","21212",2
2911,"617 W 40TH ST","BALTIMORE","Maryland","21211",2
2912,"S HAVEN ST & FOSTER AVE","BALTIMORE","Maryland","21224",2
2913,"2298 W PATAPSCO AVE","BALTIMORE","Maryland","21230",2
2914,"317 E MELROSE AVE","BALTIMORE","Maryland","21212",2
2915,"1836 BOLTON ST","BALTIMORE","Maryland","21217",2
2916,"PATTERSON AVE & WABASH AVE","BALTIMORE","Maryland","21215",2
2917,"OLD HARFORD RD &E NORTHERN PKWY","BALTIMORE","Maryland","21214",2
2918,"2900 SYLVAN AVE","BALTIMORE","Maryland","21214",2
2919,"2803 FAIT AVE","BALTIMORE","Maryland","21224",2
2920,"5001 WOODLANDS GLEN RD","BALTIMORE","Maryland","21209",2
2921,"5000 WOODLANDS GLEN RD","BALTIMORE","Maryland","21209",2
2922,"4810 TAMARIND RD","BALTIMORE","Maryland","21219",2
2923,"1700 UNION AVE","BALTIMORE","Maryland","21211",2
2924,"101 BIRCKHEAD ST","BALTIMORE","Maryland","21230",2
2925,"15 S CULVER ST","BALTIMORE","Maryland","21229",2
2926,"3600 FRISBY ST","BALTIMORE","Maryland","21218",2
2927,"928 CATHEDRAL ST","BALTIMORE","Maryland","21201",2
2928,"W BALTIMORE ST & KINSEY AVE","BALTIMORE","Maryland","21223",2
2929,"5400 HAMILTON AVE","BALTIMORE","Maryland","21206",2
2930,"2200 W MULBERRY ST","BALTIMORE","Maryland","21223",2
2931,"1801 KEY HWY","BALTIMORE","Maryland","21230",2
2932,"2900 ROSALIND AVE","BALTIMORE","Maryland","21215",2
2933,"4131 BUENA VISTA AVE","BALTIMORE","Maryland","21211",2
2934,"700 N MADEIRA ST","BALTIMORE","Maryland","21205",2
2935,"PENN ST & DOVER ST","BALTIMORE","Maryland","21230",2
2936,"W COLD SPRING LN","BALTIMORE","Maryland","21209",2
2937,"GREENMOUNT AVE &E 28TH ST","BALTIMORE","Maryland","21218",2
2938,"600 OLDHAM ST","BALTIMORE","Maryland","21224",2
2939,"1500 S CATON AVE","BALTIMORE","Maryland","21227",2
2940,"506 GREENMOUNT AVE","BALTIMORE","Maryland","21218",2
2941,"1260 FOREST HILL AVE","BALTIMORE","Maryland","21230",2
2942,"3700 KOPPERS ST","BALTIMORE","Maryland","21227",2
2943,"E BALTIMORE ST &N HIGHLAND AVE","BALTIMORE","Maryland","21224",2
2944,"2300 WESTFIELD AVE","BALTIMORE","Maryland","21214",2
2945,"WILKENS AVE & UNETTA AVE","BALTIMORE","Maryland","21229",2
2946,"405 DRUID HILL AVE","BALTIMORE","Maryland","21201",2
2947,"3018 PINEWOOD AVE","BALTIMORE","Maryland","21214",2
2948,"1200 N FREMONT AVE","BALTIMORE","Maryland","21217",2
2949,"1900 WILHELM ST","BALTIMORE","Maryland","21223",2
2950,"MCCOMAS ST","BALTIMORE","Maryland","21230",2
2951,"W LANVALE ST & DIVISION ST","BALTIMORE","Maryland","21217",2
2952,"EDMONDSON AVE & HILTON PKWY","BALTIMORE","Maryland","21229",2
2953,"4600 PEN LUCY RD","BALTIMORE","Maryland","21229",2
2954,"1001 E BELVEDERE AVE","BALTIMORE","Maryland","21212",2
2955,"3100 EDMONDSON AVE","BALTIMORE","Maryland","21229",2
2956,"3100 HAWKINS POINT RD","BALTIMORE","Maryland","21226",2
2957,"6407 FORT SMALLWOOD RD","BALTIMORE","Maryland","21226",2
2958,"3104 HAWKINS POINT RD","BALTIMORE","Maryland","21226",2
2959,"2301 HAWKINS POINT RD","BALTIMORE","Maryland","21226",2
2960,"6607 OLD HARFORD RD","BALTIMORE","Maryland","21214",2
2961,"6028 LOCH RAVEN BLVD","BALTIMORE","Maryland","21239",2
2962,"3000 BOSTON ST","BALTIMORE","Maryland","21224",2
2963,"3201 TOONE ST","BALTIMORE","Maryland","21224",2
2964,"1022 SAINT PAUL ST","BALTIMORE","Maryland","21202",2
2965,"5138 NELSON AVE","BALTIMORE","Maryland","21215",2
2966,"6700 PULASKI HWY","BALTIMORE","Maryland","21237",2
2967,"2035 FLEET ST","BALTIMORE","Maryland","21231",2
2968,"1839 W MULBERRY ST","BALTIMORE","Maryland","21223",2
2969,"4 N BROADWAY","BALTIMORE","Maryland","21231",2
2970,"4 W LAKE AVE","BALTIMORE","Maryland","21210",2
2971,"10TH ST &E PATAPSCO AVE","BALTIMORE","Maryland","21225",2
2972,"100 E 28TH ST","BALTIMORE","Maryland","21218",2
2973,"425 N HOWARD ST","BALTIMORE","Maryland","21201",2
2974,"3000 N CALVERT ST","BALTIMORE","Maryland","21218",2
2975,"S BEECHFIELD AVE & YALE AVE","BALTIMORE","Maryland","21229",2
2976,"2407 BROHAWN AVE","BALTIMORE","Maryland","21230",2
2977,"4801 MIDWOOD AVE","BALTIMORE","Maryland","21212",2
2978,"2201 WOODBOURNE AVE","BALTIMORE","Maryland","21214",2
2979,"5500 GASCONY LN","BALTIMORE","Maryland","21210",2
2980,"800 SAINT GEORGES RD","BALTIMORE","Maryland","21210",2
2981,"626 N MILTON AVE","BALTIMORE","Maryland","21205",2
2982,"1503 UNION AVE","BALTIMORE","Maryland","21211",2
2983,"1363 SHERWOOD AVE","BALTIMORE","Maryland","21239",2
2984,"1500 BOLTON ST","BALTIMORE","Maryland","21217",2
2985,"1400 POPLAND ST","BALTIMORE","Maryland","21226",2
2986,"6607 OLD HARFORD RD","BALTIMORE","Maryland","21214",2
2987,"600 WELLESLEY ST","BALTIMORE","Maryland","21229",2
2988,"8 ENGLEWOOD RD","BALTIMORE","Maryland","21210",2
2989,"4814 EDMONDSON AVE","BALTIMORE","Maryland","21229",2
2990,"2525 KIRK AVE","BALTIMORE","Maryland","21218",2
2991,"526 S PACA ST","BALTIMORE","Maryland","21230",2
2992,"113 E LAKE AVE","BALTIMORE","Maryland","21212",2
2993,"4906 ROLAND AVE","BALTIMORE","Maryland","21210",2
2994,"4049 CEDARDALE RD","BALTIMORE","Maryland","21215",2
2995,"4814 COLEHERNE RD","BALTIMORE","Maryland","21229",2
2996,"3100 N CALVERT ST","BALTIMORE","Maryland","21218",2
2997,"1900 E LOMBARD ST","BALTIMORE","Maryland","21231",2
2998,"4402 ROLAND AVE","BALTIMORE","Maryland","21210",2
2999,"179 GITTINGS AVE","BALTIMORE","Maryland","21212",2
3000,"311 E MELROSE AVE","BALTIMORE","Maryland","21212",2
3001,"1402 BOLTON ST","BALTIMORE","Maryland","21217",2
3002,"212 E RANDALL ST","BALTIMORE","Maryland","21230",2
3003,"2709 CHESLEY AVE","BALTIMORE","Maryland","21234",2
3004,"ANNAPOLIS RD & I 295","BALTIMORE","Maryland","21230",2
3005,"6130 LOCH RAVEN BLVD","BALTIMORE","Maryland","21239",2
3006,"W PATAPSCO AVE & JOH AVE","BALTIMORE","Maryland","21229",2
3007,"WETHEREDSVILLE RD & WINDSOR MILL RD","BALTIMORE","Maryland","21207",2
3008,"WINDSOR MILL RD &N FOREST PARK AVE","BALTIMORE","Maryland","21207",2
3009,"MORAVIA RD & RAMP","BALTIMORE","Maryland","21206",2
3010,"3914 MAINE AVE","BALTIMORE","Maryland","21207",2
3011,"N FRANKLINTOWN RD &W FRANKLIN ST","BALTIMORE","Maryland","21223",2
3012,"100 S HAVEN ST","BALTIMORE","Maryland","21224",2
3013,"100 S CONKLING ST","BALTIMORE","Maryland","21224",2
3014,"EDMONDSON AVE & OLD FREDERICK RD","BALTIMORE","Maryland","21229",2
3015,"1209 N CAROLINE ST","BALTIMORE","Maryland","21213",2
3016,"N FRANKLINTOWN RD & WINANS WAY","BALTIMORE","Maryland","21229",2
3017,"6226 FALKIRK RD","BALTIMORE","Maryland","21239",2
3018,"3305 MCELDERRY ST","BALTIMORE","Maryland","21205",2
3019,"3300 BATAVIA AVE","BALTIMORE","Maryland","21214",2
3020,"E PATAPSCO AVE &W PATAPSCO AVE","BALTIMORE","Maryland","21225",2
3021,"2000 E MADISON ST","BALTIMORE","Maryland","21205",2
3022,"4309 NORWOOD RD","BALTIMORE","Maryland","21218",2
3023,"1259 WALKER AVE","BALTIMORE","Maryland","21239",2
3024,"6101 CARTER AVE","BALTIMORE","Maryland","21214",2
3025,"1600 CLARKSON ST","BALTIMORE","Maryland","21230",2
3026,"302 S POPPLETON ST","BALTIMORE","Maryland","21230",2
3027,"4300 LIBERTY HEIGHTS AVE","BALTIMORE","Maryland","21207",2
3028,"N BENTALOU ST & BAKER ST","BALTIMORE","Maryland","21216",2
3029,"2000 W 41ST ST","BALTIMORE","Maryland","21211",2
3030,"500 QUEENSGATE RD","BALTIMORE","Maryland","21229",2
3031,"500 N ELLWOOD AVE","BALTIMORE","Maryland","21205",2
3032,"6700 MCCLEAN BLVD","BALTIMORE","Maryland","21214",2
3033,"1630 E OLIVER ST","BALTIMORE","Maryland","21213",2
3034,"500 N DECKER AVE","BALTIMORE","Maryland","21205",2
3035,"2417 E NORTHERN PKWY","BALTIMORE","Maryland","21214",2
3036,"2205 WOODBOURNE AVE","BALTIMORE","Maryland","21214",2
3037,"MCCLEAN BLVD &E NORTHERN PKWY","BALTIMORE","Maryland","21214",2
3038,"OLD HARFORD RD &E NORTHERN PKWY","BALTIMORE","Maryland","21214",2
3039,"1410 WELDON PL N","BALTIMORE","Maryland","21211",2
3040,"400 E CROSS ST","BALTIMORE","Maryland","21230",2
3041,"W PATAPSCO AVE & WASHINGTON BLVD","BALTIMORE","Maryland","21227",2
3042,"3416 BRENTWOOD AVE","BALTIMORE","Maryland","21218",2
3043,"W HAMBURG ST & BUSH ST","BALTIMORE","Maryland","21230",2
3044,"DOLFIELD AVE & GARRISON BLVD","BALTIMORE","Maryland","21215",2
3045,"3964 DOLFIELD AVE","BALTIMORE","Maryland","21215",2
3046,"GWYNN OAK AVE & LIBERTY HEIGHTS AVE","BALTIMORE","Maryland","21207",2
3047,"3403 WOODSTOCK AVE","BALTIMORE","Maryland","21213",2
3048,"BOSTON ST & EATON ST","BALTIMORE","Maryland","21224",2
3049,"4930 BELAIR RD","BALTIMORE","Maryland","21206",2
3050,"2300 BOSTON ST","BALTIMORE","Maryland","21224",2
3051,"2809 BOSTON ST","BALTIMORE","Maryland","21224",2
3052,"1534 FLEET ST","BALTIMORE","Maryland","21231",2
3053,"1001 FLEET ST","BALTIMORE","Maryland","21202",2
3054,"FLEET ST & ALBEMARLE ST","BALTIMORE","Maryland","21202",2
3055,"6000 DUNROMING RD","BALTIMORE","Maryland","21239",2
3056,"FLEET ST &S CAROLINE ST","BALTIMORE","Maryland","21231",2
3057,"1714 FLEET ST","BALTIMORE","Maryland","21231",2
3058,"1510 FLEET ST","BALTIMORE","Maryland","21231",2
3059,"2025 FLEET ST","BALTIMORE","Maryland","21231",2
3060,"ALICEANNA ST &S CAROLINE ST","BALTIMORE","Maryland","21231",2
3061,"100 N POPPLETON ST","BALTIMORE","Maryland","21223",2
3062,"4100 EMMART AVE","BALTIMORE","Maryland","21215",2
3063,"3302 N HILTON ST","BALTIMORE","Maryland","21216",2
3064,"2600 N HILTON ST","BALTIMORE","Maryland","21216",2
3065,"2704 BOARMAN AVE","BALTIMORE","Maryland","21215",2
3066,"4241 BROOKHILL RD","BALTIMORE","Maryland","21215",2
3067,"HERRING RUN DR & ECHODALE AVE","BALTIMORE","Maryland","21214",2
3068,"3204 CLEARVIEW AVE","BALTIMORE","Maryland","21234",2
3069,"4500 EDMONDSON AVE","BALTIMORE","Maryland","21229",2
3070,"1902 WINFORD RD","BALTIMORE","Maryland","21239",2
3071,"TOLNA ST & EASTERN AVE","BALTIMORE","Maryland","21224",2
3072,"DELMONT AVE & CASADEL AVE","BALTIMORE","Maryland","21230",2
3073,"UPLANDS PKWY & EDMONDSON AVE","BALTIMORE","Maryland","21229",2
3074,"E 25TH ST & HARFORD RD","BALTIMORE","Maryland","21218",2
3075,"CHESTERFIELD AVE & HARFORD RD","BALTIMORE","Maryland","21218",2
3076,"5571 WHITBY RD","BALTIMORE","Maryland","21206",2
3077,"700 YALE AVE","BALTIMORE","Maryland","21229",2
3078,"6100 SMITH AVE","BALTIMORE","Maryland","21209",2
3079,"2200 BRYANT AVE","BALTIMORE","Maryland","21217",2
3080,"6100 SMITH AVE","BALTIMORE","Maryland","21209",2
3081,"1900 E NORTH AVE","BALTIMORE","Maryland","21213",2
3082,"2672 LEHMAN ST","BALTIMORE","Maryland","21223",2
3083,"1533 PARK AVE","BALTIMORE","Maryland","21217",2
3084,"3817 HAMILTON AVE","BALTIMORE","Maryland","21206",2
3085,"3700 PULASKI HWY","BALTIMORE","Maryland","21224",2
3086,"3500 PINKNEY RD","BALTIMORE","Maryland","21215",2
3087,"2800 DELMONT AVE","BALTIMORE","Maryland","21230",2
3088,"1111 E COLD SPRING LN","BALTIMORE","Maryland","21239",2
3089,"3800 RIDGEFIELD RD","BALTIMORE","Maryland","21218",2
3090,"200 W BALTIMORE ST","BALTIMORE","Maryland","21201",2
3091,"STONECROFT RD & FREDERICK AVE","BALTIMORE","Maryland","21229",2
3092,"3700 PULASKI HWY","BALTIMORE","Maryland","21224",2
3093,"2021 KELLY AVE","BALTIMORE","Maryland","21209",2
3094,"E PLEASANT ST & SAINT PAUL PL","BALTIMORE","Maryland","21202",2
3095,"5800 PLAINFIELD AVE","BALTIMORE","Maryland","21206",2
3096,"2700 E NORTHERN PKWY","BALTIMORE","Maryland","21214",2
3097,"BALTIMORE NATIONAL PIKE","BALTIMORE","Maryland","21229",2
3098,"W FRANKLIN ST &W MULBERRY ST","BALTIMORE","Maryland","21223",2
3099,"EDMONDSON AVE & MOUNT HOLLY ST","BALTIMORE","Maryland","21229",2
3100,"2500 WILKENS AVE","BALTIMORE","Maryland","21223",2
3101,"S CONKLING ST & EASTERN AVE","BALTIMORE","Maryland","21224",2
3102,"3400 WILKENS AVE","BALTIMORE","Maryland","21229",2
3103,"2512 MADISON AVE","BALTIMORE","Maryland","21217",2
3104,"W FRANKLIN ST &N WARWICK AVE","BALTIMORE","Maryland","21223",2
3105,"1100 MADISON AVE","BALTIMORE","Maryland","21240",2
3106,"E LAKE AVE & BELLONA AVE","BALTIMORE","Maryland","21212",2
3107,"600 YALE AVE","BALTIMORE","Maryland","21229",2
3108,"416 E LAKE AVE","BALTIMORE","Maryland","21212",2
3109,"3006 HAMILTON AVE","BALTIMORE","Maryland","21214",2
3110,"SAINT GEORGES AVE & GLENWOOD AVE","BALTIMORE","Maryland","21212",2
3111,"3600 S HANOVER ST","BALTIMORE","Maryland","21225",2
3112,"2100 WOODBOURNE AVE","BALTIMORE","Maryland","21214",2
3113,"2400 FLEET ST","BALTIMORE","Maryland","21224",2
3114,"3900 FLEET ST","BALTIMORE","Maryland","21224",2
3115,"6200 EASTERN AVE","BALTIMORE","Maryland","21224",2
3116,"6600 EASTERN AVE","BALTIMORE","Maryland","21224",2
3117,"3000 E MADISON ST","BALTIMORE","Maryland","21205",2
3118,"600 W COLD SPRING LN","BALTIMORE","Maryland","21210",2
3119,"2100 W NORTHERN PKWY","BALTIMORE","Maryland","21209",2
3120,"2000 CYLBURN AVE","BALTIMORE","Maryland","21209",2
3121,"3104 LABYRINTH RD","BALTIMORE","Maryland","21208",2
3122,"2000 E NORTH AVE","BALTIMORE","Maryland","21213",2
3123,"1601 E NORTH AVE","BALTIMORE","Maryland","21213",2
3124,"503 E 28TH ST","BALTIMORE","Maryland","21218",2
3125,"1400 E FEDERAL ST","BALTIMORE","Maryland","21213",2
3126,"S HANOVER ST &E MCCOMAS ST","BALTIMORE","Maryland","21230",2
3127,"3100 GREENMOUNT AVE","BALTIMORE","Maryland","21218",2
3128,"S HANOVER ST &E CROMWELL ST","BALTIMORE","Maryland","21230",2
3129,"4600 EDMONDSON AVE","BALTIMORE","Maryland","21229",2
3130,"1200 LINWORTH AVE","BALTIMORE","Maryland","21239",2
3131,"3203 LABYRINTH RD","BALTIMORE","Maryland","21208",2
3132,"FENWICK AVE &E NORTHERN PKWY","BALTIMORE","Maryland","21239",2
3133,"4300 SIDEHILL RD","BALTIMORE","Maryland","21229",2
3134,"2105 HOLLINS FERRY RD","BALTIMORE","Maryland","21230",2
3135,"2809 TANEY RD","BALTIMORE","Maryland","21209",2
3136,"PURNELL DR &W FOREST PARK AVE","GWYNN OAK","Maryland","21207",2
3137,"1 N MONASTERY AVE","BALTIMORE","Maryland","21229",2
3138,"2324 E FAYETTE ST","BALTIMORE","Maryland","21224",2
3139,"MORAVIA RD & SINCLAIR LN","BALTIMORE","Maryland","21206",2
3140,"241 S LOUDON AVE","BALTIMORE","Maryland","21229",2
3141,"1103 S POTOMAC ST","BALTIMORE","Maryland","21224",2
3142,"N MOUNT ST & PRESSTMAN ST","BALTIMORE","Maryland","21217",2
3143,"5200 CRAIG AVE","BALTIMORE","Maryland","21212",2
3144,"2001 N BROADWAY","BALTIMORE","Maryland","21213",2
3145,"5100 SPRINGLAKE WAY","BALTIMORE","Maryland","21212",2
3146,"2200 BERLIN ST","BALTIMORE","Maryland","21230",2
3147,"1900 HOLLINS FERRY RD","BALTIMORE","Maryland","21230",2
3148,"SEVEN MILE LN & PARK HEIGHTS AVE","BALTIMORE","Maryland","21208",2
3149,"700 DEBELIUS AVE","BALTIMORE","Maryland","21205",2
3150,"EUTAW PL & ROBERT ST","BALTIMORE","Maryland","21217",2
3151,"SINCLAIR LN &N WASHINGTON ST","BALTIMORE","Maryland","21213",2
3152,"2511 ELSINORE AVE","BALTIMORE","Maryland","21216",2
3153,"3702 DUVALL AVE","BALTIMORE","Maryland","21216",2
3154,"2905 WOLCOTT AVE","BALTIMORE","Maryland","21216",2
3155,"3007 WOLCOTT AVE","BALTIMORE","Maryland","21216",2
3156,"4009 W FOREST PARK AVE","BALTIMORE","Maryland","21207",2
3157,"3304 OAKFIELD AVE","BALTIMORE","Maryland","21207",2
3158,"GLEN ALLEN DR & EDMONDSON AVE","BALTIMORE","Maryland","21229",2
3159,"EDMONDSON AVE & COOKS LN","BALTIMORE","Maryland","21229",2
3160,"3200 SAINT PAUL ST","BALTIMORE","Maryland","21218",2
3161,"WEGWORTH LN & STRANDEN RD","BALTIMORE","Maryland","21230",2
3162,"WEGWORTH LN & STRANDEN RD","BALTIMORE","Maryland","21230",2
3163,"2521 MCCULLOH ST","BALTIMORE","Maryland","21217",2
3164,"3000 STRANDEN RD","BALTIMORE","Maryland","21230",2
3165,"700 W PATAPSCO AVE","BALTIMORE","Maryland","21230",2
3166,"2921 STRANDEN RD","BALTIMORE","Maryland","21230",2
3167,"1600 E 25TH ST","BALTIMORE","Maryland","21213",2
3168,"1500 E FEDERAL ST","BALTIMORE","Maryland","21213",2
3169,"1500 E LANVALE ST","BALTIMORE","Maryland","21213",2
3170,"2800 SAINT LO DR","BALTIMORE","Maryland","21213",2
3171,"427 E 26TH ST","BALTIMORE","Maryland","21218",2
3172,"310 S EDEN ST","BALTIMORE","Maryland","21231",2
3173,"506 N CHAPELGATE LN","BALTIMORE","Maryland","21229",2
3174,"2400 N CALVERT ST","BALTIMORE","Maryland","21218",2
3175,"1546 N FREMONT AVE","BALTIMORE","Maryland","21217",2
3176,"4416 POWELL AVE","BALTIMORE","Maryland","21206",2
3177,"6300 PIONEER DR","BALTIMORE","Maryland","21214",2
3178,"LOCH RAVEN BLVD & RAMBLEWOOD RD","BALTIMORE","Maryland","21239",2
3179,"PICKWICK RD &N FOREST PARK AVE","BALTIMORE","Maryland","21207",2
3180,"10 E LAKE AVE","BALTIMORE","Maryland","21212",2
3181,"N ATHOL AVE & EDMONDSON AVE","BALTIMORE","Maryland","21229",2
3182,"4011 W FOREST PARK AVE","BALTIMORE","Maryland","21207",2
3183,"3300 OAKFIELD AVE","BALTIMORE","Maryland","21207",2
3184,"400 THORNFIELD RD","BALTIMORE","Maryland","21229",2
3185,"BELAIR RD & WHITE AVE","BALTIMORE","Maryland","21206",2
3186,"GWYNNS FALLS PKWY & WINDSOR MILL RD","BALTIMORE","Maryland","21216",2
3187,"300 S EXETER ST","BALTIMORE","Maryland","21202",2
3188,"GWYNNS FALLS PKWY & GARRISON BLVD","BALTIMORE","Maryland","21216",2
3189,"W MULBERRY ST &N CAREY ST","BALTIMORE","Maryland","21223",2
3190,"4600 BRIARCLIFT RD","BALTIMORE","Maryland","21229",2
3191,"1200 SEMINOLE AVE","BALTIMORE","Maryland","21229",2
3192,"500 N WHEELER AVE","BALTIMORE","Maryland","21223",2
3193,"5400 CLOVER RD","BALTIMORE","Maryland","21215",2
3194,"GRINDON AVE & GIBBONS AVE","BALTIMORE","Maryland","21214",2
3195,"W PATAPSCO AVE & HOLLINS FERRY RD","BALTIMORE","Maryland","21230",2
3196,"SINCLAIR LN &N CHESTER ST","BALTIMORE","Maryland","21213",2
3197,"WALTHER AVE & FAIRDEL AVE","BALTIMORE","Maryland","21206",2
3198,"3919 FRANKFORD AVE","BALTIMORE","Maryland","21206",2
3199,"EDMONDSON AVE &N WOODINGTON RD","BALTIMORE","Maryland","21229",2
3200,"ARGYLE AVE & PITCHER ST","BALTIMORE","Maryland","21217",2
3201,"600 LINNARD ST","BALTIMORE","Maryland","21229",2
3202,"SWANN AVE & EDMONDSON AVE","BALTIMORE","Maryland","21229",2
3203,"1900 RUXTON AVE","BALTIMORE","Maryland","21216",2
3204,"2400 E NORTHERN PKWY","BALTIMORE","Maryland","21234",2
3205,"4432 SPRINGWOOD AVE","BALTIMORE","Maryland","21206",2
3206,"BOLTON ST & 29TH DIVISION ST","BALTIMORE","Maryland","21201",2
3207,"1 E CHASE ST","BALTIMORE","Maryland","21202",2
3208,"667 BRISBANE RD","BALTIMORE","Maryland","21229",2
3209,"6300 GRINDON AVE","BALTIMORE","Maryland","21214",2
3210,"673 BRISBANE RD","BALTIMORE","Maryland","21229",2
3211,"4301 PARKTON ST","BALTIMORE","Maryland","21229",2
3212,"2000 N ROSEDALE ST","BALTIMORE","Maryland","21216",2
3213,"498 WOODBOURNE AVE","BALTIMORE","Maryland","21212",2
3214,"3533 W CATON AVE","BALTIMORE","Maryland","21229",2
3215,"2535 WOODBROOK AVE","BALTIMORE","Maryland","21217",2
3216,"2503 WOODBROOK AVE","BALTIMORE","Maryland","21217",2
3217,"106 SAINT DUNSTANS RD","BALTIMORE","Maryland","21212",2
3218,"600 W PATAPSCO AVE","BALTIMORE","Maryland","21225",2
3219,"E NORTHERN PKWY & HARFORD RD","BALTIMORE","Maryland","21214",2
3220,"4598 EDMONDSON AVE","BALTIMORE","Maryland","21229",2
3221,"UPLANDS PKWY & EDMONDSON AVE","BALTIMORE","Maryland","21229",2
3222,"2503 QUEEN ANNE RD","BALTIMORE","Maryland","21216",2
3223,"3009 GUILFORD AVE","BALTIMORE","Maryland","21218",2
3224,"HOMELAND AVE & SPRINGLAKE WAY","BALTIMORE","Maryland","21212",2
3225,"1120 MOSHER ST","BALTIMORE","Maryland","21217",2
3226,"5700 DENWOOD AVE","BALTIMORE","Maryland","21206",2
3227,"W PATAPSCO AVE & ANNAPOLIS RD","BALTIMORE","Maryland","21230",2
3228,"3700 BROOKLYN AVE","BALTIMORE","Maryland","21225",2
3229,"2700 VIOLET AVE","BALTIMORE","Maryland","21215",2
3230,"GITTINGS AVE & MOSSWAY","BALTIMORE","Maryland","21212",2
3231,"N WOODINGTON RD & COLBORNE RD","BALTIMORE","Maryland","21229",2
3232,"3603 EVERGREEN AVE","BALTIMORE","Maryland","21206",2
3233,"EUTAW PL & PRESSTMAN ST","BALTIMORE","Maryland","21217",2
3234,"1118 BONAPARTE AVE","BALTIMORE","Maryland","21218",2
3235,"3900 E NORTHERN PKWY","BALTIMORE","Maryland","21206",2
3236,"800 MOUNT HOLLY ST","BALTIMORE","Maryland","21229",2
3237,"E 30TH ST & SAINT PAUL ST","BALTIMORE","Maryland","21218",2
3238,"THE ALAMEDA &E COLD SPRING LN","BALTIMORE","Maryland","21239",2
3239,"3700 BEECH AVE","BALTIMORE","Maryland","21211",2
3240,"3000 LORENA AVE","BALTIMORE","Maryland","21230",2
3241,"4700 EDMONDSON AVE","BALTIMORE","Maryland","21229",2
3242,"3001 FLEETWOOD AVE","BALTIMORE","Maryland","21214",2
3243,"HILLEN RD &E NORTHERN PKWY","BALTIMORE","Maryland","21239",2
3244,"WETHEREDSVILLE RD &N FOREST PARK AVE","BALTIMORE","Maryland","21207",2
3245,"2051 S HANOVER ST","BALTIMORE","Maryland","21230",2
3246,"1901 E LOMBARD ST","BALTIMORE","Maryland","21231",2
3247,"YORK RD &E LAKE AVE","BALTIMORE","Maryland","21212",2
3248,"2700 E NORTHERN PKWY","BALTIMORE","Maryland","21214",2
3249,"W MULBERRY ST &N PAYSON ST","BALTIMORE","Maryland","21223",2
3250,"5300 GOODNOW RD","BALTIMORE","Maryland","21206",2
3251,"2717 HUDSON ST","BALTIMORE","Maryland","21224",2
3252,"308 S EAST AVE","BALTIMORE","Maryland","21224",2
3253,"3600 TOWANDA AVE","BALTIMORE","Maryland","21215",2
3254,"1322 E 33RD ST","BALTIMORE","Maryland","21218",2
3255,"1700 E MADISON ST","BALTIMORE","Maryland","21205",2
3256,"WOODBOURNE AVE","BALTIMORE","Maryland","21239",2
3257,"2500 OSWEGO AVE","BALTIMORE","Maryland","21215",2
3258,"700 NORTH PT RD","BALTIMORE","Maryland","21224",2
3259,"2437 W BALTIMORE ST","BALTIMORE","Maryland","21223",2
3260,"1509 PRESSTMAN ST","BALTIMORE","Maryland","21217",2
3261,"1700 KELLY AVE","BALTIMORE","Maryland","21209",2
3262,"37 BIRCKHEAD ST","BALTIMORE","Maryland","21230",2
3263,"700 MURPHY LN","BALTIMORE","Maryland","21201",2
3264,"GRINDON AVE & GIBBONS AVE","BALTIMORE","Maryland","21214",2
3265,"HARFORD RD & CHESTERFIELD AVE","BALTIMORE","Maryland","21218",2
3266,"1200 W CROSS ST","BALTIMORE","Maryland","21230",2
3267,"2023 FLEET ST","BALTIMORE","Maryland","21231",2
3268,"N GAY ST &E NORTH AVE","BALTIMORE","Maryland","21213",2
3269,"6607 OLD HARFORD RD","BALTIMORE","Maryland","21214",2
3270,"699 WASHINGTON PL","BALTIMORE","Maryland","21201",2
3271,"JANICE AVE & MARBOURNE AVE","BALTIMORE","Maryland","21230",2
3272,"NORTHWOOD DR & PENTRIDGE RD","BALTIMORE","Maryland","21239",2
3273,"1000 ARGONNE DR","BALTIMORE","Maryland","21218",2
3274,"2221 KENTUCKY AVE","BALTIMORE","Maryland","21213",2
3275,"PIEDMONT AVE & GARRISON BLVD","BALTIMORE","Maryland","21216",2
3276,"1221 E 20TH ST","BALTIMORE","Maryland","21218",2
3277,"1600 N SMALLWOOD ST","BALTIMORE","Maryland","21216",2
3278,"1020 W 41ST ST","BALTIMORE","Maryland","21211",2
3279,"1 S CONKLING ST","BALTIMORE","Maryland","21224",2
3280,"3809 BIDDISON LN","BALTIMORE","Maryland","21206",2
3281,"N WARWICK AVE &W BALTIMORE ST","BALTIMORE","Maryland","21223",2
3282,"N PACA ST &W FRANKLIN ST","BALTIMORE","Maryland","21201",2
3283,"900 S CAREY ST","BALTIMORE","Maryland","21223",2
3284,"500 UPLANDS PKWY","BALTIMORE","Maryland","21229",2
3285,"2412 E COLD SPRING LN","BALTIMORE","Maryland","21214",2
3286,"W PATAPSCO AVE & POTEE ST","BALTIMORE","Maryland","21225",2
3287,"1101 DUNDALK AVE","BALTIMORE","Maryland","21224",2
3288,"500 CHESTNUT HILL AVE","BALTIMORE","Maryland","21211",2
3289,"511 CHESTNUT HILL AVE","BALTIMORE","Maryland","21218",2
3290,"1000 KEY HWY","BALTIMORE","Maryland","21230",2
3291,"GORSUCH AVE & INDEPENDENCE ST","BALTIMORE","Maryland","21218",2
3292,"GORSUCH AVE & FRISBY ST","BALTIMORE","Maryland","21218",2
3293,"616 HOMESTEAD ST","BALTIMORE","Maryland","21218",2
3294,"OLD YORK RD & HOMESTEAD ST","BALTIMORE","Maryland","21218",2
3295,"4600 ANNTANA AVE","BALTIMORE","Maryland","21206",2
3296,"S HANOVER ST &E MCCOMAS ST","BALTIMORE","Maryland","21230",2
3297,"2100 AIKEN ST","BALTIMORE","Maryland","21218",2
3298,"250 W LAFAYETTE AVE","BALTIMORE","Maryland","21217",2
3299,"2900 STRANDEN RD","BALTIMORE","Maryland","21230",2
3300,"954 BELGIAN AVE","BALTIMORE","Maryland","21218",2
3301,"4000 GLEN AVE","BALTIMORE","Maryland","21215",2
3302,"400 W NORTHERN PKWY","BALTIMORE","Maryland","21210",2
3303,"441 CORNWALL ST","BALTIMORE","Maryland","21224",2
3304,"4500 MARBLE HALL RD","BALTIMORE","Maryland","21239",2
3305,"504 N BRADFORD ST","BALTIMORE","Maryland","21205",2
3306,"LAKE MONTEBELLO DR & DOBLER AVE","BALTIMORE","Maryland","21218",2
3307,"2101 ERDMAN AVE","BALTIMORE","Maryland","21218",2
3308,"3500 DOLFIELD AVE","BALTIMORE","Maryland","21215",2
3309,"1400 ARGONNE DR","BALTIMORE","Maryland","21218",2
3310,"THE ALAMEDA &E NORTHERN PKWY","BALTIMORE","Maryland","21239",2
3311,"5311 CURTIS AVE","BALTIMORE","Maryland","21226",2
3312,"5301 CURTIS AVE","BALTIMORE","Maryland","21226",2
3313,"5000 PIMLICO RD","BALTIMORE","Maryland","21215",2
3314,"1000 UPNOR RD","BALTIMORE","Maryland","21212",2
3315,"4000 FALLSTAFF RD","BALTIMORE","Maryland","21215",2
3316,"3305 SEVEN MILE LN","BALTIMORE","Maryland","21208",2
3317,"3401 SEVEN MILE LN","BALTIMORE","Maryland","21208",2
3318,"6409 BELAIR RD","BALTIMORE","Maryland","21206",2
3319,"3405 SEVEN MILE LN","BALTIMORE","Maryland","21208",2
3320,"3402 SEVEN MILE LN","BALTIMORE","Maryland","21208",2
3321,"506 WINSTON AVE","BALTIMORE","Maryland","21212",2
3322,"1700 GORSUCH AVE","BALTIMORE","Maryland","21218",2
3323,"1 SAINT JOHNS RD","BALTIMORE","Maryland","21210",2
3324,"4218 KENWOOD AVE","BALTIMORE","Maryland","21206",2
3325,"N BENTALOU ST & MOSHER ST","BALTIMORE","Maryland","21216",2
3326,"1100 BARCLAY ST","BALTIMORE","Maryland","21202",2
3327,"2631 N CALVERT ST","BALTIMORE","Maryland","21218",2
3328,"1301 SCHEELER AVE","BALTIMORE","Maryland","21237",2
3329,"WESTPORT ST & RAMP","BALTIMORE","Maryland","21230",2
3330,"500 ROUNDVIEW RD","BALTIMORE","Maryland","21225",2
3331,"200 S ATHOL AVE","BALTIMORE","Maryland","21229",2
3332,"FOSTER AVE &S FAGLEY ST","BALTIMORE","Maryland","21224",2
3333,"DRUID PARK DR","BALTIMORE","Maryland","21211",2
3334,"GREENSPRING AVE & DRUID PARK DR","BALTIMORE","Maryland","21215",2
3335,"RITTER AVE & HAMILTON AVE","BALTIMORE","Maryland","21206",2
3336,"3400 CLAREMONT ST","BALTIMORE","Maryland","21224",2
3337,"5500 SINCLAIR LN","BALTIMORE","Maryland","21206",2
3338,"3300 REISTERSTOWN RD","BALTIMORE","Maryland","21215",2
3339,"1400 GITTINGS AVE","BALTIMORE","Maryland","21239",2
3340,"ERDMAN AVE &E EAGER ST","BALTIMORE","Maryland","21205",2
3341,"5500 PERRING PKWY","BALTIMORE","Maryland","21239",2
3342,"3410 BRENDAN AVE","BALTIMORE","Maryland","21213",2
3343,"4700 SINCLAIR LN","BALTIMORE","Maryland","21206",2
3344,"4000 SINCLAIR LN","BALTIMORE","Maryland","21213",2
3345,"3822 SINCLAIR LN","BALTIMORE","Maryland","21213",2
3346,"3800 SINCLAIR LN","BALTIMORE","Maryland","21213",2
3347,"3600 E NORTHERN PKWY","BALTIMORE","Maryland","21206",2
3348,"3756 SINCLAIR LN","BALTIMORE","Maryland","21213",2
3349,"3200 E NORTHERN PKWY","BALTIMORE","Maryland","21214",2
3350,"3100 E NORTHERN PKWY","BALTIMORE","Maryland","21214",2
3351,"3600 SINCLAIR LN","BALTIMORE","Maryland","21213",2
3352,"3009 E NORTHERN PKWY","BALTIMORE","Maryland","21214",2
3353,"2500 E NORTHERN PKWY","BALTIMORE","Maryland","21214",2
3354,"3320 SINCLAIR LN","BALTIMORE","Maryland","21213",2
3355,"3112 ROSEKEMP AVE","BALTIMORE","Maryland","21214",2
3356,"2101 SINCLAIR LN","BALTIMORE","Maryland","21213",2
3357,"2814 AILSA AVE","BALTIMORE","Maryland","21214",2
3358,"W MULBERRY ST &N PULASKI ST","BALTIMORE","Maryland","21223",2
3359,"2800 ROSELAWN AVE","BALTIMORE","Maryland","21214",2
3360,"5700 HAMLET AVE","BALTIMORE","Maryland","21214",2
3361,"GUILFORD AVE &E 20TH ST","BALTIMORE","Maryland","21218",2
3362,"CHILDS ST & SHELL RD","BALTIMORE","Maryland","21226",2
3363,"3800 EDGEWOOD RD","BALTIMORE","Maryland","21215",2
3364,"E LOMBARD ST & BAYVIEW BLVD","BALTIMORE","Maryland","21224",2
3365,"2200 HIGHVIEW AVE","BALTIMORE","Maryland","21213",2
3366,"N WHEELER AVE & WINCHESTER ST","BALTIMORE","Maryland","21216",2
3367,"3400 LYNDALE AVE","BALTIMORE","Maryland","21213",2
3368,"MULBERRY SARATOGA &W MULBERRY ST","BALTIMORE","Maryland","21223",2
3369,"100 W LAKE AVE","BALTIMORE","Maryland","21210",2
3370,"501 E PRATT ST","BALTIMORE","Maryland","21202",2
3371,"5003 BOXHILL LN","BALTIMORE","Maryland","21210",2
3372,"2000 W 41ST ST","BALTIMORE","Maryland","21211",2
3373,"3506 KEENE AVE","BALTIMORE","Maryland","21214",2
3374,"EDMONDSON AVE & WINANS WAY","BALTIMORE","Maryland","21229",2
3375,"1701 N GAY ST","BALTIMORE","Maryland","21213",2
3376,"4100 BALFERN AVE","BALTIMORE","Maryland","21213",2
3377,"4500 FAIRVIEW AVE","BALTIMORE","Maryland","21216",2
3378,"HAWKINS POINT RD & FORT SMALLWOOD RD","BALTIMORE","Maryland","21226",2
3379,"5110 PENNINGTON AVE","BALTIMORE","Maryland","21226",2
3380,"CURTIS AVE & BENHILL AVE","BALTIMORE","Maryland","21226",2
3381,"2800 DENISON ST","BALTIMORE","Maryland","21216",2
3382,"6100 PENNINGTON AVE","BALTIMORE","Maryland","21226",2
3383,"3500 KAVON AVE","BALTIMORE","Maryland","21213",2
3384,"PENNINGTON AVE","BALTIMORE","Maryland","21226",2
3385,"CARTER AVE & BATAVIA AVE","BALTIMORE","Maryland","21214",2
3386,"PURNELL DR &W FOREST PARK AVE","GWYNN OAK","Maryland","21207",2
3387,"2100 EDMONDSON AVE","BALTIMORE","Maryland","21223",2
3388,"3610 PENNINGTON AVE","BALTIMORE","Maryland","21226",2
3389,"1223 ANGLESEA ST","BALTIMORE","Maryland","21224",2
3390,"1212 WILDWOOD PKWY","BALTIMORE","Maryland","21229",2
3391,"W FOREST PARK AVE & PURNELL DR","BALTIMORE","Maryland","21207",2
3392,"4900 ROLAND AVE","BALTIMORE","Maryland","21210",2
3393,"2200 W LAFAYETTE AVE","BALTIMORE","Maryland","21216",2
3394,"2800 PROSPECT ST","BALTIMORE","Maryland","21216",2
3395,"5100 PENNINGTON AVE","BALTIMORE","Maryland","21226",2
3396,"3600 S HANOVER ST","BALTIMORE","Maryland","21225",2
3397,"3703 S HANOVER ST","BALTIMORE","Maryland","21225",2
3398,"3805 S HANOVER ST","BALTIMORE","Maryland","21225",2
3399,"S HANOVER ST &W GARRETT ST","BALTIMORE","Maryland","21225",2
3400,"900 W NORTHERN PKWY","BALTIMORE","Maryland","21210",2
3401,"2500 AILSA AVE","BALTIMORE","Maryland","21214",2
3402,"N HOWARD ST &N MARTIN LUTHER KING JR BLV","BALTIMORE","Maryland","21201",2
3403,"6100 GREEN MEADOW PKWY","BALTIMORE","Maryland","21209",2
3404,"32 S WASHINGTON ST","BALTIMORE","Maryland","21231",2
3405,"S EDEN ST &E PRATT ST","BALTIMORE","Maryland","21202",2
3406,"1500 S HANOVER ST","BALTIMORE","Maryland","21230",2
3407,"CLIPPER RD & ROCKROSE AVE","BALTIMORE","Maryland","21211",2
3408,"1200 S HANOVER ST","BALTIMORE","Maryland","21230",2
3409,"5300 FREDERICK AVE","BALTIMORE","Maryland","21229",2
3410,"4900 FREDERICK AVE","BALTIMORE","Maryland","21229",2
3411,"6100 PIMLICO RD","BALTIMORE","Maryland","21209",2
3412,"600 FOLCROFT ST","BALTIMORE","Maryland","21224",2
3413,"ARABIA AVE & SOUTHERN AVE","BALTIMORE","Maryland","21214",2
3414,"BAYONNE AVE & SEFTON AVE","BALTIMORE","Maryland","21214",2
3415,"W NORTH AVE & MOUNT ROYAL TER","BALTIMORE","Maryland","21217",2
3416,"5300 BEAUFORT AVE","BALTIMORE","Maryland","21215",2
3417,"EDMONDSON AVE & DENISON ST","BALTIMORE","Maryland","21229",2
3418,"5400 LOCH RAVEN BLVD","BALTIMORE","Maryland","21239",2
3419,"4900 GREENHILL AVE","BALTIMORE","Maryland","21206",2
3420,"3224 WASHINGTON BLVD","HALETHORPE","Maryland","21227",2
3421,"E COLD SPRING LN & MIDWOOD AVE","BALTIMORE","Maryland","21212",2
3422,"HILTON PKWY & HILTON PKWY","BALTIMORE","Maryland","21216",2
3423,"2158 HARMAN AVE","BALTIMORE","Maryland","21230",2
3424,"5600 O'DONNELL ST","BALTIMORE","Maryland","21224",2
3425,"1551 S CLINTON ST","BALTIMORE","Maryland","21224",2
3426,"2100 S CLINTON ST","BALTIMORE","Maryland","21224",2
3427,"3400 MERTENS AVE","BALTIMORE","Maryland","21224",2
3428,"N FULTON AVE & EDMONDSON AVE","BALTIMORE","Maryland","21217",2
3429,"900 E 20TH ST","BALTIMORE","Maryland","21218",2
3430,"1013 CHURCH ST","BALTIMORE","Maryland","21225",2
3431,"3300 N HILTON ST","BALTIMORE","Maryland","21216",2
3432,"OAKSHIRE RD & ARDEN RD","BALTIMORE","Maryland","21209",2
3433,"3404 WILKENS AVE","BALTIMORE","Maryland","21229",2
3434,"N CHARLES ST & BLYTHEWOOD RD","BALTIMORE","Maryland","21210",2
3435,"1800 POPLAR GROVE ST","BALTIMORE","Maryland","21216",2
3436,"6607 OLD HARFORD RD","BALTIMORE","Maryland","21214",2
3437,"GORSUCH AVE & INDEPENDENCE ST","BALTIMORE","Maryland","21218",2
3438,"3205 WASHINGTON BLVD","BALTIMORE","Maryland","21230",2
3439,"6401 PULASKI HWY","BALTIMORE","Maryland","21205",2
3440,"6001 HILLEN RD","BALTIMORE","Maryland","21239",2
3441,"200 S BEECHFIELD AVE","BALTIMORE","Maryland","21229",2
3442,"6800 BECHTEL RD","BALTIMORE","Maryland","21234",2
3443,"2006 HOLLINS ST","BALTIMORE","Maryland","21223",2
3444,"400 EASTLYNNE AVE","BALTIMORE","Maryland","21223",2
3445,"5103 EDMONDSON AVE","BALTIMORE","Maryland","21229",2
3446,"400 N ROBINSON ST","BALTIMORE","Maryland","21224",2
3447,"503 N BRADFORD ST","BALTIMORE","Maryland","21205",2
3448,"3400 CLARKS LN","BALTIMORE","Maryland","21215",2
3449,"1920 LETITIA AVE","BALTIMORE","Maryland","21230",2
3450,"5420 PRICE AVE","BALTIMORE","Maryland","21215",2
3451,"5328 LIBERTY HEIGHTS AVE","BALTIMORE","Maryland","21207",2
3452,"6600 PULASKI HWY","BALTIMORE","Maryland","21205",2
3453,"6142 FAIRDEL AVE","BALTIMORE","Maryland","21206",2
3454,"100 W MADISON ST","BALTIMORE","Maryland","21201",2
3455,"3526 E BALTIMORE ST","BALTIMORE","Maryland","21224",2
3456,"5116 WETHEREDSVILLE RD","BALTIMORE","Maryland","21207",2
3457,"3429 E LOMBARD ST","BALTIMORE","Maryland","21224",2
3458,"EDMONDSON AVE & COOKS LN","BALTIMORE","Maryland","21229",2
3459,"S WOLFE ST &E LOMBARD ST","BALTIMORE","Maryland","21231",2
3460,"3321 REISTERSTOWN RD","BALTIMORE","Maryland","21215",2
3461,"600 W 40TH ST","BALTIMORE","Maryland","21210",2
3462,"3700 EDMONDSON AVE","BALTIMORE","Maryland","21229",2
3463,"5815 THE ALAMEDA","BALTIMORE","Maryland","21239",2
3464,"2101 LAKE MONTEBELLO TER","BALTIMORE","Maryland","21218",2
3465,"816 E 33RD ST","BALTIMORE","Maryland","21218",2
3466,"622 HOMESTEAD ST","BALTIMORE","Maryland","21218",2
3467,"THE ALAMEDA & RADNOR RD","BALTIMORE","Maryland","21239",2
3468,"S BETHEL ST & SHAKESPEARE ST","BALTIMORE","Maryland","21231",2
3469,"1039 SAINT PAUL ST","BALTIMORE","Maryland","21202",2
3470,"1600 S CATON AVE","BALTIMORE","Maryland","21227",2
3471,"1033 CHURCH ST","BALTIMORE","Maryland","21225",2
3472,"3000 GWYNNS FALLS PKWY","BALTIMORE","Maryland","21216",2
3473,"4720 EDMONDSON AVE","BALTIMORE","Maryland","21229",2
3474,"6400 WALTHER AVE","BALTIMORE","Maryland","21206",2
3475,"3800 FORRESTER AVE","BALTIMORE","Maryland","21206",2
3476,"SEQUOIA AVE & WABASH AVE","BALTIMORE","Maryland","21215",2
3477,"5100 HERRING RUN DR","BALTIMORE","Maryland","21214",2
3478,"1715 E 32ND ST","BALTIMORE","Maryland","21218",2
3479,"2200 GUILFORD AVE","BALTIMORE","Maryland","21218",2
3480,"1700 E COLD SPRING LN","BALTIMORE","Maryland","21218",2
3481,"3500 THE ALAMEDA","BALTIMORE","Maryland","21218",2
3482,"3001 CRESMONT AVE","BALTIMORE","Maryland","21211",2
3483,"500 S KENWOOD AVE","BALTIMORE","Maryland","21224",2
3484,"2619 AILSA AVE","BALTIMORE","Maryland","21214",2
3485,"100 MCMECHEN ST","BALTIMORE","Maryland","21217",2
3486,"7303 OLD HARFORD RD","BALTIMORE","Maryland","21234",2
3487,"2500 MCELDERRY ST","BALTIMORE","Maryland","21205",2
3488,"HILLEN RD & WAVEWORTH RD","BALTIMORE","Maryland","21239",2
3489,"315 S CAREY ST","BALTIMORE","Maryland","21223",2
3490,"N MARTIN LUTHER KING JR BLVD","BALTIMORE","Maryland","21201",2
3491,"101 N CAREY ST","BALTIMORE","Maryland","21223",2
3492,"700 NORTH POINT RD","BALTIMORE","Maryland","21224",2
3493,"208 STRATFORD RD","BALTIMORE","Maryland","21218",2
3494,"305 NORTHWAY","BALTIMORE","Maryland","21218",2
3495,"700 N CARROLLTON AVE","BALTIMORE","Maryland","21217",2
3496,"600 N CARROLLTON AVE","BALTIMORE","Maryland","21217",2
3497,"1201 WINDEMERE AVE","BALTIMORE","Maryland","21218",2
3498,"949 GORSUCH AVE","BALTIMORE","Maryland","21218",2
3499,"800 LYNDHURST ST","BALTIMORE","Maryland","21229",2
3500,"4300 WINDSOR MILL RD","BALTIMORE","Maryland","21216",2
3501,"3900 ROLAND AVE","BALTIMORE","Maryland","21211",2
3502,"0","BALTIMORE","Maryland",NA,2
3503,"ECHODALE AVE","BALTIMORE","Maryland","21214",2
3504,"3200 BRIGHTWOOD AVE","BALTIMORE","Maryland","21207",2
3505,"808 N HILTON ST","BALTIMORE","Maryland","21229",2
3506,"PULASKI HWY & I 95","BALTIMORE","Maryland","21237",2
3507,"E 36TH ST & GREENMOUNT AVE","BALTIMORE","Maryland","21218",2
3508,"500 ORKNEY RD","BALTIMORE","Maryland","21212",2
3509,"BECHTEL RD & WOODRING AVE","BALTIMORE","Maryland","21234",2
3510,"S PONCA ST & RAMP","BALTIMORE","Maryland","21224",2
3511,"3800 DOLFIELD AVE","BALTIMORE","Maryland","21215",2
3512,"BELLONA AVE &E MELROSE AVE","BALTIMORE","Maryland","21212",2
3513,"6400 PULASKI HWY","BALTIMORE","Maryland","21205",2
3514,"N BENTALOU ST &W NORTH AVE","BALTIMORE","Maryland","21216",2
3515,"MAYVIEW AVE & LASALLE AVE","BALTIMORE","Maryland","21206",2
3516,"4432 SPRINGWOOD AVE","BALTIMORE","Maryland","21206",2
3517,"4806 COLEHERNE RD","BALTIMORE","Maryland","21229",2
3518,"6100 MARIETTA AVE","BALTIMORE","Maryland","21214",2
3519,"MORAVIA RD & RAMP","BALTIMORE","Maryland","21206",2
3520,"4906 BOWLAND AVE","BALTIMORE","Maryland","21206",2
3521,"3500 NEWLAND RD","BALTIMORE","Maryland","21218",2
3522,"3200 LEEDS ST","BALTIMORE","Maryland","21229",2
3523,"DICKEY HILL RD &N FOREST PARK AVE","BALTIMORE","Maryland","21207",2
3524,"1347 BROENING HWY","BALTIMORE","Maryland","21224",2
3525,"4701 N CHARLES ST","BALTIMORE","Maryland","21210",2
3526,"822 S DECKER AVE","BALTIMORE","Maryland","21224",2
3527,"164 N GAY ST","BALTIMORE","Maryland","21202",2
3528,"101 N FREDERICK ST","BALTIMORE","Maryland","21202",2
3529,"ABERDEEN AVE & BOWLEYS LN","BALTIMORE","Maryland","21206",2
3530,"1525 RUSSELL ST","BALTIMORE","Maryland","21230",2
3531,"N FRANKLINTOWN RD & GWYNNS FALLS PKWY","BALTIMORE","Maryland","21216",2
3532,"1015 POPLAR HILL RD","BALTIMORE","Maryland","21210",2
3533,"HARLEM AVE & MOUNT HOLLY ST","BALTIMORE","Maryland","21229",2
3534,"2608 WASHINGTON BLVD","BALTIMORE","Maryland","21230",2
3535,"434 S HANOVER ST","BALTIMORE","Maryland","21201",2
3536,"2814 ECHODALE AVE","BALTIMORE","Maryland","21214",2
3537,"WINDSOR MILL RD & MONTICELLO RD","BALTIMORE","Maryland","21216",2
3538,"2000 WINFORD RD","BALTIMORE","Maryland","21239",2
3539,"3200 WASHINGTON BLVD","BALTIMORE","Maryland","21230",2
3540,"1209 LAKESIDE AVE","BALTIMORE","Maryland","21218",2
3541,"1211 N LINWOOD AVE","BALTIMORE","Maryland","21213",2
3542,"431 NOTRE DAME LN","BALTIMORE","Maryland","21212",2
3543,"3000 W PATAPSCO AVE","BALTIMORE","Maryland","21227",2
3544,"RUSSELL ST &W HAMBURG ST","BALTIMORE","Maryland","21230",2
3545,"N CHARLES ST","BALTIMORE","Maryland","21218",2
3546,"3200 WESTWOOD AVE","BALTIMORE","Maryland","21216",2
3547,"3210 SHELBURNE RD","BALTIMORE","Maryland","21208",2
3548,"S HANOVER ST","BALTIMORE","Maryland","21230",2
3549,"4800 CORDELIA AVE","BALTIMORE","Maryland","21215",2
3550,"1526 N FREMONT AVE","BALTIMORE","Maryland","21217",2
3551,"RUSSELL ST &W HAMBURG ST","BALTIMORE","Maryland","21230",2
3552,"2900 VIRGINIA AVE","BALTIMORE","Maryland","21215",2
3553,"MCCULLOH ST &W MADISON ST","BALTIMORE","Maryland","21201",2
3554,"2400 GILES RD","BALTIMORE","Maryland","21225",2
3555,"3900 TIVOLY AVE","BALTIMORE","Maryland","21218",2
3556,"1200 E 20TH ST","BALTIMORE","Maryland","21218",2
3557,"7100 PARK HEIGHTS AVE","BALTIMORE","Maryland","21215",2
3558,"7500 HARFORD RD","BALTIMORE","Maryland","21234",2
3559,"7200 HARFORD RD","BALTIMORE","Maryland","21234",2
3560,"2505 AISQUITH ST","BALTIMORE","Maryland","21218",2
3561,"7012 HARFORD RD","BALTIMORE","Maryland","21234",2
3562,"HILLEN RD &E NORTHERN PKWY","BALTIMORE","Maryland","21239",2
3563,"WINANS WAY &N FRANKLINTOWN RD","BALTIMORE","Maryland","21229",2
3564,"2300 E COLD SPRING LN","BALTIMORE","Maryland","21214",2
3565,"MCELDERRY ST &N PATTERSON PARK AVE","BALTIMORE","Maryland","21205",2
3566,"1800 W NORTHERN PKWY","BALTIMORE","Maryland","21209",2
3567,"5700 HARFORD RD","BALTIMORE","Maryland","21214",2
3568,"FOSTER AVE &S HAVEN ST","BALTIMORE","Maryland","21224",2
3569,"3600 HARFORD RD","BALTIMORE","Maryland","21218",2
3570,"CLARKS LN & PARK HEIGHTS AVE","BALTIMORE","Maryland","21215",2
3571,"1300 HARFORD AVE","BALTIMORE","Maryland","21202",2
3572,"1100 HARFORD AVE","BALTIMORE","Maryland","21202",2
3573,"2502 MONTEBELLO TER","BALTIMORE","Maryland","21214",2
3574,"5600 PERRING PKWY","BALTIMORE","Maryland","21239",2
3575,"ENSOR ST &E MONUMENT ST","BALTIMORE","Maryland","21202",2
3576,"3200 HILLEN RD","BALTIMORE","Maryland","21218",2
3577,"2706 BAYONNE AVE","BALTIMORE","Maryland","21214",2
3578,"GROVELAND AVE & ELDORADO AVE","BALTIMORE","Maryland","21215",2
3579,"1619 INVERNESS AVE","BALTIMORE","Maryland","21230",2
3580,"5500 N CHARLES ST","BALTIMORE","Maryland","21210",2
3581,"6001 MORAVIA RD","BALTIMORE","Maryland","21206",2
3582,"2000 DRUID HILL AVE","BALTIMORE","Maryland","21217",2
3583,"2310 CHESAPEAKE AVE","BALTIMORE","Maryland","21222",2
3584,"2800 N CALVERT ST","BALTIMORE","Maryland","21218",2
3585,"6600 PARK HEIGHTS AVE","BALTIMORE","Maryland","21215",2
3586,"10 CHERRY HILL RD","BALTIMORE","Maryland","21225",2
3587,"MORAVIA RD","BALTIMORE","Maryland","21206",2
3588,"700 N PAYSON ST","BALTIMORE","Maryland","21217",2
3589,"3308 RICHMOND AVE","BALTIMORE","Maryland","21213",2
3590,"300 GITTINGS AVE","BALTIMORE","Maryland","21212",2
3591,"LIBERTY HEIGHTS AVE & GARRISON BLVD","BALTIMORE","Maryland","21207",2
3592,"E 25TH ST","BALTIMORE","Maryland","21218",2
3593,"206 TAPLOW RD","BALTIMORE","Maryland","21212",2
3594,"WINDSOR MILL RD & ALLENDALE RD","BALTIMORE","Maryland","21216",2
3595,"1000 W LEXINGTON ST","BALTIMORE","Maryland","21223",2
3596,"HOLLINS FERRY RD & WASHINGTON BLVD","BALTIMORE","Maryland","21230",2
3597,"ECHODALE AVE & HARFORD RD","BALTIMORE","Maryland","21214",2
3598,"4400 THE ALAMEDA","BALTIMORE","Maryland","21239",2
3599,"3506 W CATON AVE","BALTIMORE","Maryland","21229",2
3600,"E NORTHERN PKWY & ELSRODE AVE","BALTIMORE","Maryland","21214",2
3601,"N FRANKLINTOWN RD &W FRANKLIN ST","BALTIMORE","Maryland","21223",2
3602,"1200 PARK AVE","BALTIMORE","Maryland","21217",2
3603,"W BALTIMORE ST &N FRANKLINTOWN RD","BALTIMORE","Maryland","21223",2
3604,"1800 PARKMAN AVE","BALTIMORE","Maryland","21230",2
3605,"THE ALAMEDA & SHERIDAN AVE","BALTIMORE","Maryland","21239",2
3606,"5513 SEFTON AVE","BALTIMORE","Maryland","21214",2
3607,"E NORTHERN PKWY & OLD HARFORD RD","BALTIMORE","Maryland","21214",2
3608,"4805 HOLDER AVE","BALTIMORE","Maryland","21214",2
3609,"5908 LOCH RAVEN BLVD","BALTIMORE","Maryland","21239",2
3610,"3700 E NORTHERN PKWY","BALTIMORE","Maryland","21206",2
3611,"1101 E LOMBARD ST","BALTIMORE","Maryland","21223",2
3612,"724 E 33RD ST","BALTIMORE","Maryland","21218",2
3613,"2404 EDMONDSON AVE","BALTIMORE","Maryland","21223",2
3614,"4202 REISTERSTOWN RD","BALTIMORE","Maryland","21215",2
3615,"5010 LOCH RAVEN BLVD","BALTIMORE","Maryland","21239",2
3616,"5944 BONNIE VIEW DR","BALTIMORE","Maryland","21209",2
3617,"21 N ELLWOOD AVE","BALTIMORE","Maryland","21224",2
3618,"N MARTIN LUTHER KING JR BLVD &N EUTAW ST","BALTIMORE","Maryland","21201",2
3619,"N MARTIN LUTHER KING JR BLVD & MADISON A","BALTIMORE","Maryland","21201",2
3620,"PLYMOUTH RD & WOODBOURNE AVE","BALTIMORE","Maryland","21214",2
3621,"4500 MANNASOTA AVE","BALTIMORE","Maryland","21206",2
3622,"4703 VIRGINIA AVE","BALTIMORE","Maryland","21225",2
3623,"3310 PINKNEY RD","BALTIMORE","Maryland","21215",2
3624,"6TH ST","BALTIMORE","Maryland","21225",2
3625,"ECHODALE AVE & HARFORD RD","BALTIMORE","Maryland","21214",2
3626,"1600 E CHASE ST","BALTIMORE","Maryland","21213",2
3627,"W 28TH ST & REMINGTON AVE","BALTIMORE","Maryland","21211",2
3628,"5921 PLUMER AVE","BALTIMORE","Maryland","21206",2
3629,"2003 HILLENWOOD RD","BALTIMORE","Maryland","21239",2
3630,"1800 HILLENWOOD RD","BALTIMORE","Maryland","21239",2
3631,"MANNASOTA AVE & STANWOOD AVE","BALTIMORE","Maryland","21206",2
3632,"N HOWARD ST & PARK AVE","BALTIMORE","Maryland","21201",2
3633,"1600 JOPLIN ST","BALTIMORE","Maryland","21224",2
3634,"1301 S ELLWOOD AVE","BALTIMORE","Maryland","21224",2
3635,"4803 HOLDER AVE","BALTIMORE","Maryland","21214",2
3636,"MORAVIA RD","BALTIMORE","Maryland","21206",2
3637,"S HAVEN ST & O'DONNELL ST","BALTIMORE","Maryland","21224",2
3638,"4426 MANNASOTA AVE","BALTIMORE","Maryland","21206",2
3639,"2813 ECHODALE AVE","BALTIMORE","Maryland","21214",2
3640,"3400 CHESTNUT AVE","BALTIMORE","Maryland","21211",2
3641,"3360 CHESTNUT AVE","BALTIMORE","Maryland","21211",2
3642,"100 W 39TH ST","BALTIMORE","Maryland","21210",2
3643,"400 E 39TH ST","BALTIMORE","Maryland","21218",2
3644,"1700 GORSUCH AVE","BALTIMORE","Maryland","21218",2
3645,"FOREST DR","BALTIMORE","Maryland","21217",2
3646,"1401 HORNERS LN","BALTIMORE","Maryland","21205",2
3647,"GITTINGS AVE & SYCAMORE RD","BALTIMORE","Maryland","21212",2
3648,"GITTINGS AVE & BLACKBURN LN","BALTIMORE","Maryland","21212",2
3649,"307 GITTINGS AVE","BALTIMORE","Maryland","21212",2
3650,"N CALVERT ST &E 21ST ST","BALTIMORE","Maryland","21218",2
3651,"PERRING PKWY & HILLEN RD","BALTIMORE","Maryland","21239",2
3652,"PERRING PKWY &E NORTHERN PKWY","BALTIMORE","Maryland","21239",2
3653,"HARFORD AVE &E CHASE ST","BALTIMORE","Maryland","21202",2
3654,"107 S HAVEN ST","BALTIMORE","Maryland","21224",2
3655,"6501 E LOMBARD ST","BALTIMORE","Maryland","21224",2
3656,"3200 MORAVIA RD","BALTIMORE","Maryland","21214",2
3657,"4299 WINDSOR MILL RD","BALTIMORE","Maryland","21216",2
3658,"5500 PENNINGTON AVE","BALTIMORE","Maryland","21226",2
3659,"1100 PARK AVE","BALTIMORE","Maryland","21201",2
3660,"800 E COLD SPRING LN","BALTIMORE","Maryland","21212",2
3661,"FENWICK AVE &E 33RD ST","BALTIMORE","Maryland","21218",2
3662,"ECHODALE AVE & WALTHER AVE","BALTIMORE","Maryland","21214",2
3663,"2213 BOYER ST","BALTIMORE","Maryland","21231",2
3664,"EDMONDSON AVE","BALTIMORE","Maryland","21229",2
3665,"WINDSOR MILL RD & MONTICELLO RD","BALTIMORE","Maryland","21216",2
3666,"W PATAPSCO AVE & WASHINGTON BLVD","BALTIMORE","Maryland","21227",2
3667,"5000 ARDMORE WAY","BALTIMORE","Maryland","21206",2
3668,"SINCLAIR LN & ERDMAN AVE","BALTIMORE","Maryland","21213",2
3669,"DOLPHIN ST & PENNSYLVANIA AVE","BALTIMORE","Maryland","21207",2
3670,"6000 OLD HARFORD RD","BALTIMORE","Maryland","21214",2
3671,"UPLANDS PKWY","BALTIMORE","Maryland","21229",2
3672,"8 W LAKE AVE","BALTIMORE","Maryland","21210",2
3673,"5701 ROLAND AVE","BALTIMORE","Maryland","21210",2
3674,"6600 PARK HEIGHTS AVE","BALTIMORE","Maryland","21215",2
3675,"N PACA ST &W MULBERRY ST","BALTIMORE","Maryland","21201",2
3676,"BRADDISH AVE & WINDSOR AVE","BALTIMORE","Maryland","21216",2
3677,"6712 WESTBROOK RD","BALTIMORE","Maryland","21215",2
3678,"900 ARMISTEAD WAY","BALTIMORE","Maryland","21205",2
3679,"1200 HORNERS LN","BALTIMORE","Maryland","21205",2
3680,"BAKER ST &N BENTALOU ST","BALTIMORE","Maryland","21216",2
3681,"4600 W FOREST PARK AVE","BALTIMORE","Maryland","21207",2
3682,"REISTERSTOWN RD &W COLD SPRING LN","BALTIMORE","Maryland","21215",2
3683,"W 28TH ST & SISSON ST","BALTIMORE","Maryland","21211",2
3684,"2907 SPRINGHILL AVE","BALTIMORE","Maryland","21215",2
3685,"2701 SPELMAN RD","BALTIMORE","Maryland","21225",2
3686,"4417 THE ALAMEDA","BALTIMORE","Maryland","21239",2
3687,"HILLEN RD &E BELVEDERE AVE","BALTIMORE","Maryland","21239",2
3688,"3400 SOUTHERN AVE","BALTIMORE","Maryland","21214",2
3689,"HILLEN RD & ARGONNE DR","BALTIMORE","Maryland","21218",2
3690,"6017 LOCH RAVEN BLVD","BALTIMORE","Maryland","21239",2
3691,"2100 LAKE AVE","BALTIMORE","Maryland","21218",2
3692,"1900 HOLLINS FERRY RD","BALTIMORE","Maryland","21230",2
3693,"5400 REISTERSTOWN RD","BALTIMORE","Maryland","21215",2
3694,"5011 ELMER AVE","BALTIMORE","Maryland","21215",2
3695,"S HANOVER ST & FRANKFURST AVE","BALTIMORE","Maryland","21225",2
3696,"307 S CHAPELGATE LN","BALTIMORE","Maryland","21229",2
3697,"3700 E NORTHERN PKWY","BALTIMORE","Maryland","21206",2
3698,"1628 CHURCH ST","BALTIMORE","Maryland","21226",2
3699,"THE ALAMEDA & CHINQUAPIN PKWY","BALTIMORE","Maryland","21239",2
3700,"3200 SPAULDING AVE","BALTIMORE","Maryland","21215",2
3701,"S CLINTON ST & LELAND AVE","BALTIMORE","Maryland","21224",2
3702,"2815 EDISON HWY","BALTIMORE","Maryland","21213",2
3703,"4900 BELLE AVE","BALTIMORE","Maryland","21207",2
3704,"4300 MARBLE HALL RD","BALTIMORE","Maryland","21218",2
3705,"3000 W BALTIMORE ST","BALTIMORE","Maryland","21229",2
3706,"PARKSIDE DR & SINCLAIR LN","BALTIMORE","Maryland","21206",2
3707,"800 N ARLINGTON AVE","BALTIMORE","Maryland","21217",2
3708,"5319 LOCH RAVEN BLVD","BALTIMORE","Maryland","21239",2
3709,"3001 FLEETWOOD AVE","BALTIMORE","Maryland","21214",2
3710,"6109 BESSEMER AVE","BALTIMORE","Maryland","21224",2
3711,"GREENSPRING AVE &W NORTHERN PKWY","BALTIMORE","Maryland","21209",2
3712,"1400 BROENING HWY","BALTIMORE","Maryland","21224",2
3713,"2400 WINCHESTER ST","BALTIMORE","Maryland","21216",2
3714,"2300 WINCHESTER ST","BALTIMORE","Maryland","21216",2
3715,"702 W 40TH ST","BALTIMORE","Maryland","21211",2
3716,"110 W 39TH ST","BALTIMORE","Maryland","21210",2
3717,"3906 FERNDALE AVE","BALTIMORE","Maryland","21207",2
3718,"THE ALAMEDA &E COLD SPRING LN","BALTIMORE","Maryland","21239",2
3719,"2738 HARFORD RD","BALTIMORE","Maryland","21218",2
3720,"4604 N CHARLES ST","BALTIMORE","Maryland","21210",2
3721,"1300 E COLD SPRING LN","BALTIMORE","Maryland","21239",2
3722,"S MONROE ST & WASHINGTON BLVD","BALTIMORE","Maryland","21230",2
3723,"2100 LONGVIEW AVE","BALTIMORE","Maryland","21213",2
3724,"LOCH RAVEN BLVD & RALWORTH RD","BALTIMORE","Maryland","21218",2
3725,"4000 WILSBY AVE","BALTIMORE","Maryland","21218",2
3726,"EASTERN AVE & QUINTON ST","BALTIMORE","Maryland","21224",2
3727,"1200 FRANKFURST AVE","BALTIMORE","Maryland","21226",2
3728,"E MELROSE AVE & BELLONA AVE","BALTIMORE","Maryland","21212",2
3729,"5400 SINCLAIR LN","BALTIMORE","Maryland","21206",2
3730,"5100 MORAVIA RD","BALTIMORE","Maryland","21206",2
3731,"WOODBOURNE AVE & THE ALAMEDA","BALTIMORE","Maryland","21239",2
3732,"633 N BRICE ST","BALTIMORE","Maryland","21217",2
3733,"E NORTHERN PKWY & WALTHER AVE","BALTIMORE","Maryland","21206",2
3734,"GLENMORE AVE & WALTHER AVE","BALTIMORE","Maryland","21206",2
3735,"GWYNNS FALLS PKWY & CLIFTON AVE","BALTIMORE","Maryland","21216",2
3736,"505 GRUNDY ST","BALTIMORE","Maryland","21224",2
3737,"221 E PATAPSCO AVE","BALTIMORE","Maryland","21225",2
3738,"2405 W COLD SPRING LN","BALTIMORE","Maryland","21215",2
3739,"2600 W PATAPSCO AVE","BALTIMORE","Maryland","21227",2
3740,"1111 PARK AVE","BALTIMORE","Maryland","21201",2
3741,"772 N EDGEWOOD ST","BALTIMORE","Maryland","21229",2
3742,"3998 ROLAND AVE","BALTIMORE","Maryland","21211",2
3743,"3600 SINCLAIR LN","BALTIMORE","Maryland","21213",2
3744,"2324 CALVERTON HEIGHTS AVE","BALTIMORE","Maryland","21216",2
3745,"SINCLAIR LN & MORAVIA RD","BALTIMORE","Maryland","21206",2
3746,"N HAVEN ST & PULASKI HWY","BALTIMORE","Maryland","21205",2
3747,"3300 GREENMOUNT AVE","BALTIMORE","Maryland","21218",2
3748,"4004 LOCH RAVEN BLVD","BALTIMORE","Maryland","21218",2
3749,"S MARTIN LUTHER KING JR BLVD & WASHINGTO","BALTIMORE","Maryland","21201",2
3750,"BELAIR RD & HARRIS AVE","BALTIMORE","Maryland","21206",2
3751,"MORAVIA RD & I 95 N","BALTIMORE","Maryland","21237",2
3752,"500 N PACA ST","BALTIMORE","Maryland","21201",2
3753,"3600 EDMONDSON AVE","BALTIMORE","Maryland","21229",2
3754,"3400 WOODLAND AVE","BALTIMORE","Maryland","21215",2
3755,"2700 HALCYON AVE","BALTIMORE","Maryland","21214",2
3756,"100 S MORLEY ST","BALTIMORE","Maryland","21229",2
3757,"EDMONDSON AVE & COOKS LN","BALTIMORE","Maryland","21229",2
3758,"2901 CRESMONT AVE","BALTIMORE","Maryland","21211",2
3759,"3900 FALLSTAFF RD","BALTIMORE","Maryland","21215",2
3760,"500 UPLANDS PKWY","BALTIMORE","Maryland","21229",2
3761,"N FRANKLINTOWN RD &W FRANKLIN ST","BALTIMORE","Maryland","21223",2
3762,"W NORTHERN PKWY & CYLBURN AVE","BALTIMORE","Maryland","21209",2
3763,"3613 CROSSLAND AVE","BALTIMORE","Maryland","21213",2
3764,"E NORTH AVE & GREENMOUNT AVE","BALTIMORE","Maryland","21202",2
3765,"2400 E NORTH AVE","BALTIMORE","Maryland","21213",2
3766,"W PATAPSCO AVE & WASHINGTON BLVD","BALTIMORE","Maryland","21227",2
3767,"1101 WINSTON AVE","BALTIMORE","Maryland","21239",2
3768,"1714 HARLEM AVE","BALTIMORE","Maryland","21217",2
3769,"MANNASOTA AVE & PARKSIDE DR","BALTIMORE","Maryland","21206",2
3770,"RUSSELL ST","BALTIMORE","Maryland","21230",2
3771,"1001 E 25TH ST","BALTIMORE","Maryland","21218",2
3772,"3500 MILFORD AVE","BALTIMORE","Maryland","21207",2
3773,"4600 EDMONDSON AVE","BALTIMORE","Maryland","21229",2
3774,"5900 YORK RD","BALTIMORE","Maryland","21212",2
3775,"1300 EXETER HALL AVE","BALTIMORE","Maryland","21218",2
3776,"600 WASHBURN AVE","BALTIMORE","Maryland","21225",2
3777,"600 CEDARCROFT RD","BALTIMORE","Maryland","21212",2
3778,"2476 SINCLAIR LN","BALTIMORE","Maryland","21213",2
3779,"5100 SINCLAIR LN","BALTIMORE","Maryland","21206",2
3780,"N FULTON AVE &W BALTIMORE ST","BALTIMORE","Maryland","21223",2
3781,"5700 CEDONIA AVE","BALTIMORE","Maryland","21206",2
3782,"S MONROE ST & EAGLE ST","BALTIMORE","Maryland","21223",2
3783,"BAKER ST &N MOUNT ST","BALTIMORE","Maryland","21217",2
3784,"1700 E 31ST ST","BALTIMORE","Maryland","21218",2
3785,"CLEMENT ST & STEUART ST","BALTIMORE","Maryland","21230",2
3786,"600 BENNINGHAUS RD","BALTIMORE","Maryland","21212",2
3787,"800 EVESHAM AVE","BALTIMORE","Maryland","21212",2
3788,"700 ORKNEY RD","BALTIMORE","Maryland","21212",2
3789,"5700 GILPIN RD","BALTIMORE","Maryland","21212",2
3790,"S HAVEN ST & FAIT AVE","BALTIMORE","Maryland","21224",2
3791,"4900 HARFORD RD","BALTIMORE","Maryland","21214",2
3792,"418 S CLINTON ST","BALTIMORE","Maryland","21224",2
3793,"500 E 43RD ST","BALTIMORE","Maryland","21212",2
3794,"2501 HOLLINS FERRY RD","BALTIMORE","Maryland","21230",2
3795,"3400 CLARKS LN","BALTIMORE","Maryland","21215",2
3796,"4200 EDMONDSON AVE","BALTIMORE","Maryland","21229",2
3797,"4100 ROLAND AVE","BALTIMORE","Maryland","21211",2
3798,"3300 CLARKS LN","BALTIMORE","Maryland","21215",2
3799,"1000 W 41ST ST","BALTIMORE","Maryland","21211",2
3800,"6628 HARFORD RD","BALTIMORE","Maryland","21214",2
3801,"200 S PATTERSON PARK AVE","BALTIMORE","Maryland","21231",2
3802,"311 E MELROSE AVE","BALTIMORE","Maryland","21212",2
3803,"6427 CEDONIA AVE","BALTIMORE","Maryland","21206",2
3804,"W COLD SPRING LN & GREENSPRING AVE","BALTIMORE","Maryland","21209",2
3805,"1120 E COLD SPRING LN","BALTIMORE","Maryland","21239",2
3806,"4601 WHITE AVE","BALTIMORE","Maryland","21206",2
3807,"ARGONNE DR & TIVOLY AVE","BALTIMORE","Maryland","21218",2
3808,"5000 WINDSOR MILL RD","BALTIMORE","Maryland","21207",2
3809,"4200 WINDSOR MILL RD","BALTIMORE","Maryland","21216",2
3810,"1300 POPLAR GROVE ST","BALTIMORE","Maryland","21216",2
3811,"510 N FRANKLINTOWN RD","BALTIMORE","Maryland","21223",2
3812,"4711 GRINDON AVE","BALTIMORE","Maryland","21214",2
3813,"2707 LEHMAN ST","BALTIMORE","Maryland","21223",2
3814,"200 UPLANDS PKWY","BALTIMORE","Maryland","21229",2
3815,"4100 E NORTHERN PKWY","RASPEBURG","Maryland","21206",2
3816,"5900 ROLAND AVE","BALTIMORE","Maryland","21210",2
3817,"HAVENWOOD SOURTHVIEW & HAVENWOOD RD","BALTIMORE","Maryland","21218",2
3818,"2082 ECHODALE AVE","BALTIMORE","Maryland","21214",2
3819,"2801 SISSON ST","BALTIMORE","Maryland","21211",2
3820,"EASTERN AVE &S CAROLINE ST","BALTIMORE","Maryland","21231",2
3821,"1701 EASTERN AVE","BALTIMORE","Maryland","21231",2
3822,"3300 KENTUCKY AVE","BALTIMORE","Maryland","21213",2
3823,"819 SAINT PAUL ST","BALTIMORE","Maryland","21202",2
3824,"FRANKFURST AVE & CHILDS ST","BALTIMORE","Maryland","21226",2
3825,"CEDONIA AVE & WHITBY RD","BALTIMORE","Maryland","21206",2
3826,"3537 HICKORY AVE","BALTIMORE","Maryland","21211",2
3827,"4600 N CHARLES ST","BALTIMORE","Maryland","21210",2
3828,"1227 POPLAR GROVE ST","BALTIMORE","Maryland","21216",2
3829,"355 S BETHEL ST","BALTIMORE","Maryland","21231",2
3830,"5220 WABASH AVE","BALTIMORE","Maryland","21215",2
3831,"6403 OLD HARFORD RD","BALTIMORE","Maryland","21214",2
3832,"6100 LOCH RAVEN BLVD","BALTIMORE","Maryland","21239",2
3833,"428 HUTCHINS AVE","BALTIMORE","Maryland","21212",2
3834,"5400 REISTERSTOWN RD","BALTIMORE","Maryland","21215",2
3835,"5719 LOCH RAVEN BLVD","BALTIMORE","Maryland","21239",2
3836,"WELLESLEY ST & STAFFORD ST","BALTIMORE","Maryland","21229",2
3837,"5300 LOCH RAVEN BLVD","BALTIMORE","Maryland","21239",2
3838,"424 CAMBRIA ST","BALTIMORE","Maryland","21225",2
3839,"2900 MALLVIEW RD","BALTIMORE","Maryland","21230",2
3840,"5000 E MONUMENT ST","BALTIMORE","Maryland","21205",2
3841,"1400 BROENING HWY","BALTIMORE","Maryland","21224",2
3842,"5500 LIBERTY HEIGHTS AVE","BALTIMORE","Maryland","21207",2
3843,"5000 PULASKI HWY","BALTIMORE","Maryland","21224",2
3844,"1025 S HAVEN ST","BALTIMORE","Maryland","21224",2
3845,"6200 E LOMBARD ST","BALTIMORE","Maryland","21224",2
3846,"5500 SINCLAIR LN","BALTIMORE","Maryland","21206",2
3847,"200 EARECKSON PL","BALTIMORE","Maryland","21202",2
3848,"4200 MANNASOTA AVE","BALTIMORE","Maryland","21206",2
3849,"1700 LANCASTER ST","BALTIMORE","Maryland","21231",2
3850,"2000 PRESSTMAN ST","BALTIMORE","Maryland","21217",2
3851,"2518 E HOFFMAN ST","BALTIMORE","Maryland","21213",2
3852,"2700 LOCH RAVEN RD","BALTIMORE","Maryland","21218",2
3853,"3700 HARFORD RD","BALTIMORE","Maryland","21218",2
3854,"3400 BELAIR RD","BALTIMORE","Maryland","21213",2
3855,"3112 ROSEKEMP AVE","BALTIMORE","Maryland","21214",2
3856,"2860 W BALTIMORE ST","BALTIMORE","Maryland","21223",2
3857,"CYLBURN AVE & GREENSPRING AVE","BALTIMORE","Maryland","21215",2
3858,"900 SAINT PAUL ST","BALTIMORE","Maryland","21202",2
3859,"6122 THE ALAMEDA","BALTIMORE","Maryland","21239",2
3860,"3918 LIBERTY HEIGHTS AVE","BALTIMORE","Maryland","21207",2
3861,"BELAIR RD & PELHAM AVE","BALTIMORE","Maryland","21213",2
3862,"PENNINGTON AVE & OPEN ST","BALTIMORE","Maryland","21226",2
3863,"3023 HAMILTON AVE","BALTIMORE","Maryland","21214",2
3864,"4500 ROLAND AVE","BALTIMORE","Maryland","21210",2
3865,"5600 THE ALAMEDA","BALTIMORE","Maryland","21239",2
3866,"2800 PRESSTMAN ST","BALTIMORE","Maryland","21216",2
3867,"5500 THE ALAMEDA","BALTIMORE","Maryland","21239",2
3868,"2800 ECHODALE AVE","BALTIMORE","Maryland","21214",2
3869,"5400 THE ALAMEDA","BALTIMORE","Maryland","21239",2
3870,"4711 EDMONDSON AVE","BALTIMORE","Maryland","21229",2
3871,"2304 N FOREST PARK AVE","BALTIMORE","Maryland","21207",2
3872,"5131 WETHEREDSVILLE RD","BALTIMORE","Maryland","21207",2
3873,"3916 SOUTHERN AVE","BALTIMORE","Maryland","21206",2
3874,"500 CORDING AVE","BALTIMORE","Maryland","21212",2
3875,"3301 OAKFIELD AVE","BALTIMORE","Maryland","21207",2
3876,"2504 E PRESTON ST","BALTIMORE","Maryland","21213",2
3877,"5116 THE ALAMEDA","BALTIMORE","Maryland","21239",2
3878,"N MARTIN LUTHER KING JR BLVD & DRUID HIL","BALTIMORE","Maryland","21201",2
3879,"300 W MULBERRY ST","BALTIMORE","Maryland","21201",2
3880,"4200 ROLAND AVE","BALTIMORE","Maryland","21210",2
3881,"5915 FALKIRK RD","BALTIMORE","Maryland","21239",2
3882,"3453 ASH ST","BALTIMORE","Maryland","21211",2
3883,"2500 PURNELL DR","GWYNN OAK","Maryland","21207",2
3884,"3402 E MONUMENT ST","BALTIMORE","Maryland","21205",2
3885,"E 22ND ST & GUILFORD AVE","BALTIMORE","Maryland","21218",2
3886,"W NORTH AVE & PENNSYLVANIA AVE","BALTIMORE","Maryland","21217",2
3887,"3800 THE ALAMEDA","BALTIMORE","Maryland","21218",2
3888,"3111 WHITE AVE","BALTIMORE","Maryland","21214",2
3889,"2608 WASHINGTON BLVD","BALTIMORE","Maryland","21230",2
3890,"FRANKFURST AVE & HANOVER 2ND","BALTIMORE","Maryland","21225",2
3891,"2846 N CALVERT ST","BALTIMORE","Maryland","21218",2
3892,"3710 THE ALAMEDA","BALTIMORE","Maryland","21218",2
3893,"102 W MADISON ST","BALTIMORE","Maryland","21201",2
3894,"4000 E MONUMENT ST","BALTIMORE","Maryland","21205",2
3895,"0 PATAPSCO AVE","BALTIMORE","Maryland","21229",2
3896,"ANNAPOLIS RD","BALTIMORE","Maryland","21230",2
3897,"2900 W BALTIMORE ST","BALTIMORE","Maryland","21229",2
3898,"MONDAWMIN AVE &N HILTON ST","BALTIMORE","Maryland","21216",2
3899,"LOYOLA NORTHWAY","BALTIMORE","Maryland","21215",2
3900,"2300 WICHITA AVE","BALTIMORE","Maryland","21215",2
3901,"1309 W NORTHERN PKWY","BALTIMORE","Maryland","21209",2
3902,"WINDSOR MILL RD & ELSINORE AVE","BALTIMORE","Maryland","21216",2
3903,"EDMONDSON AVE & UPLANDS PKWY","BALTIMORE","Maryland","21229",2
3904,"WHITELOCK ST & EUTAW PL","BALTIMORE","Maryland","21217",2
3905,"2300 W COLD SPRING LN","BALTIMORE","Maryland","21209",2
3906,"509 N FRANKLINTOWN RD","BALTIMORE","Maryland","21223",2
3907,"1200 S HANOVER ST","BALTIMORE","Maryland","21230",2
3908,"3330 GWYNNS FALLS PKWY","BALTIMORE","Maryland","21216",2
3909,"6100 SMITH AVE","BALTIMORE","Maryland","21209",2
3910,"712 E BALTIMORE ST","BALTIMORE","Maryland","21202",2
3911,"2103 LIBERTY HEIGHTS AVE","BALTIMORE","Maryland","21217",2
3912,"2500 MARYLAND AVE","BALTIMORE","Maryland","21218",2
3913,"BONNIE VIEW DR & KELLY AVE","BALTIMORE","Maryland","21209",2
3914,"4202 CHARLCOTE RD","BALTIMORE","Maryland","21218",2
3915,"1008 E LOMBARD ST","BALTIMORE","Maryland","21202",2
3916,"2600 WASHINGTON BLVD","BALTIMORE","Maryland","21230",2
3917,"205 E 32ND ST","BALTIMORE","Maryland","21218",2
3918,"2800 WASHINGTON BLVD","BALTIMORE","Maryland","21230",2
3919,"E NORTHERN PKWY & RAMP","BALTIMORE","Maryland","21239",2
3920,"3200 WASHINGTON BLVD","BALTIMORE","Maryland","21230",2
3921,"700 WINSTON AVE","BALTIMORE","Maryland","21212",2
3922,"MORAVIA RD & I 95","BALTIMORE","Maryland","21237",2
3923,"3RD ST &E PONTIAC AVE","BALTIMORE","Maryland","21225",2
3924,"4200 WOODLEA AVE","BALTIMORE","Maryland","21206",2
3925,"S CATON AVE &S HILTON ST","BALTIMORE","Maryland","21229",2
3926,"900 CATOR AVE","BALTIMORE","Maryland","21218",2
3927,"N FRANKLINTOWN RD & WINANS WAY","BALTIMORE","Maryland","21229",2
3928,"600 APPLETON ST","BALTIMORE","Maryland","21217",2
3929,"E COLD SPRING LN & HARFORD RD","BALTIMORE","Maryland","21214",2
3930,"700 MOUNT HOLLY ST","BALTIMORE","Maryland","21229",2
3931,"1200 WOODBOURNE AVE","BALTIMORE","Maryland","21239",2
3932,"4400 WINDSOR MILL RD","BALTIMORE","Maryland","21216",2
3933,"1301 S ELLWOOD AVE","BALTIMORE","Maryland","21224",2
3934,"3200 WASHINGTON BLVD","BALTIMORE","Maryland","21230",2
3935,"ANNAPOLIS RD &W PATAPSCO AVE","BALTIMORE","Maryland","21230",2
3936,"SINCLAIR LN & BELAIR RD","BALTIMORE","Maryland","21213",2
3937,"DRUID HILL AVE &N MARTIN LUTHER KING JR","BALTIMORE","Maryland","21201",2
3938,"700 W SARATOGA ST","BALTIMORE","Maryland","21201",2
3939,"800 WASHBURN AVE","BALTIMORE","Maryland","21225",2
3940,"E LOMBARD ST & BROAD CT","BALTIMORE","Maryland","21202",2
3941,"3559 BELAIR RD","BALTIMORE","Maryland","21213",2
3942,"E MONUMENT ST & PULASKI HWY","BALTIMORE","Maryland","21205",2
3943,"SOUTHERN AVE & LUERSSEN AVE","BALTIMORE","Maryland","21206",2
3944,"WHITNEY AVE & MERVILLE AVE","BALTIMORE","Maryland","21215",2
3945,"W NORTHERN PKWY","BALTIMORE","Maryland","21209",2
3946,"602 FOLCROFT ST","BALTIMORE","Maryland","21224",2
3947,"5708 BELLONA AVE","BALTIMORE","Maryland","21212",2
3948,"1700 E MADISON ST","BALTIMORE","Maryland","21205",2
3949,"3801 ELMORA AVE","BALTIMORE","Maryland","21213",2
3950,"WINDSOR MILL RD & MONTICELLO RD","BALTIMORE","Maryland","21216",2
3951,"2000 ASHLAND AVE","BALTIMORE","Maryland","21205",2
3952,"MORAVIA RD & MORAVIA PARK DR","BALTIMORE","Maryland","21206",2
3953,"5200 REISTERSTOWN RD","BALTIMORE","Maryland","21215",2
3954,"E 25TH ST & LOCH RAVEN RD","BALTIMORE","Maryland","21218",2
3955,"1713 E PRATT ST","BALTIMORE","Maryland","21223",2
3956,"5900 PENNINGTON AVE","BALTIMORE","Maryland","21226",2
3957,"3405 BENSON AVE","BALTIMORE","Maryland","21227",2
3958,"1100 FRANKFURST AVE","BALTIMORE","Maryland","21226",2
3959,"6706 BOWLEYS LN","BALTIMORE","Maryland","21237",2
3960,"2401 LIBERTY HEIGHTS AVE","BALTIMORE","Maryland","21215",2
3961,"5601 SINCLAIR LN","BALTIMORE","Maryland","21206",2
3962,"W NORTHERN PKWY &S I 83","BALTIMORE","Maryland","21209",2
3963,"1401 W NORTHERN PKWY","BALTIMORE","Maryland","21209",2
3964,"3900 HADLEY SQ E","BALTIMORE","Maryland","21218",2
3965,"1000 E LOMBARD ST","BALTIMORE","Maryland","21202",2
3966,"408 E EAGER ST","BALTIMORE","Maryland","21202",2
3967,"E COLD SPRING LN","BALTIMORE","Maryland","21212",2
3968,"E LAKE AVE &N CHARLES ST","BALTIMORE","Maryland","21212",2
3969,"716 S BETHEL ST","BALTIMORE","Maryland","21231",2
3970,"SINCLAIR LN & ERDMAN AVE","BALTIMORE","Maryland","21213",2
3971,"4200 NICHOLAS AVE","BALTIMORE","Maryland","21206",2
3972,"4378 NICHOLAS AVE","BALTIMORE","Maryland","21206",2
3973,"2600 LEHMAN ST","BALTIMORE","Maryland","21223",2
3974,"3605 WOODLEA AVE","BALTIMORE","Maryland","21214",2
3975,"5100 REISTERSTOWN RD","BALTIMORE","Maryland","21215",2
3976,"300 MILLINGTON AVE","BALTIMORE","Maryland","21223",2
3977,"MANNASOTA AVE & MORAVIA RD","BALTIMORE","Maryland","21206",2
3978,"100 E BIDDLE ST","BALTIMORE","Maryland","21202",2
3979,"THE ALAMEDA & GLENWOOD AVE","BALTIMORE","Maryland","21239",2
3980,"CATHEDRAL ST &W MADISON ST","BALTIMORE","Maryland","21201",2
3981,"MCCULLOH ST &N MARTIN LUTHER KING JR BLV","BALTIMORE","Maryland","21201",2
3982,"5500 KEITH AVE","BALTIMORE","Maryland","21224",2
3983,"898 DRUID HILL AVE","BALTIMORE","Maryland","21201",2
3984,"1926 E FAYETTE ST","BALTIMORE","Maryland","21231",2
3985,"PARK HEIGHTS AVE & CLARKS LN","BALTIMORE","Maryland","21215",2
3986,"3500 W CATON AVE","BALTIMORE","Maryland","21229",2
3987,"910 PINE HEIGHTS AVE","BALTIMORE","Maryland","21229",2
3988,"3356 WILKENS AVE","BALTIMORE","Maryland","21229",2
3989,"4100 KESWICK RD","BALTIMORE","Maryland","21210",2
3990,"3800 E NORTHERN PKWY","BALTIMORE","Maryland","21206",2
3991,"2300 WESTWOOD AVE","BALTIMORE","Maryland","21216",2
3992,"2320 N LONGWOOD ST","BALTIMORE","Maryland","21216",2
3993,"3500 BELAIR RD","BALTIMORE","Maryland","21213",2
3994,"1096 E COLD SPRING LN","BALTIMORE","Maryland","21239",2
3995,"N FRANKLINTOWN RD & WINANS WAY","BALTIMORE","Maryland","21229",2
3996,"1311 CATHEDRAL ST","BALTIMORE","Maryland","21201",2
3997,"1900 E FORT AVE","BALTIMORE","Maryland","21230",2
3998,"600 MOUNT HOLLY ST","BALTIMORE","Maryland","21229",2
3999,"WATERVIEW AVE & HOLLINS FERRY RD","BALTIMORE","Maryland","21230",2
4000,"2700 BAKER ST","BALTIMORE","Maryland","21216",2
4001,"400 FONTHILL AVE","BALTIMORE","Maryland","21223",2
4002,"LOCH RAVEN RD &E 25TH ST","BALTIMORE","Maryland","21218",2
4003,"1300 E BIDDLE ST","BALTIMORE","Maryland","21202",2
4004,"THE ALAMEDA &E BELVEDERE AVE","BALTIMORE","Maryland","21239",2
4005,"1600 E 25TH ST","BALTIMORE","Maryland","21213",2
4006,"900 S ELLWOOD AVE","BALTIMORE","Maryland","21224",2
4007,"200 FRANKFURST AVE","BALTIMORE","Maryland","21225",2
4008,"1223 W MOUNT ROYAL AVE","BALTIMORE","Maryland","21217",2
4009,"2400 SINCLAIR LN","BALTIMORE","Maryland","21213",2
4010,"4811 MELBOURNE RD","BALTIMORE","Maryland","21229",2
4011,"800 DRUID PARK LAKE DR","BALTIMORE","Maryland","21217",2
4012,"2700 STEELE RD","BALTIMORE","Maryland","21209",2
4013,"2500 LARRYVALE RD","BALTIMORE","Maryland","21209",2
4014,"1116 BONAPARTE AVE","BALTIMORE","Maryland","21218",2
4015,"5311 LIBERTY HEIGHTS AVE","BALTIMORE","Maryland","21207",2
4016,"4300 LIBERTY HEIGHTS AVE","BALTIMORE","Maryland","21207",2
4017,"E 39TH ST & SAINT PAUL ST","BALTIMORE","Maryland","21218",2
4018,"1215 W OLD COLD SPRING LN","BALTIMORE","Maryland","21209",2
4019,"2491 SINCLAIR LN","BALTIMORE","Maryland","21213",2
4020,"FREDERICK AVE &S CHAPELGATE LN","BALTIMORE","Maryland","21229",2
4021,"BAKER ST &N WARWICK AVE","BALTIMORE","Maryland","21216",2
4022,"3900 HARFORD RD","BALTIMORE","Maryland","21218",2
4023,"700 E NORTH AVE","BALTIMORE","Maryland","21202",2
4024,"3901 HILLEN RD","BALTIMORE","Maryland","21218",2
4025,"400 ELRINO ST","BALTIMORE","Maryland","21224",2
4026,"5105 EDMONDSON AVE","BALTIMORE","Maryland","21229",2
4027,"5103 EDMONDSON AVE","BALTIMORE","Maryland","21229",2
4028,"2500 EUTAW PL","BALTIMORE","Maryland","21217",2
4029,"2200 GWYNNS FALLS PKWY","BALTIMORE","Maryland","21215",2
4030,"206 PADDINGTON RD","BALTIMORE","Maryland","21212",2
4031,"5308 THE ALAMEDA","BALTIMORE","Maryland","21239",2
4032,"ERDMAN AVE & LYNDALE AVE","BALTIMORE","Maryland","21213",2
4033,"ANNAPOLIS RD & I 295","BALTIMORE","Maryland","21230",2
4034,"PULASKI HWY & MORAVIA PARK DR","BALTIMORE","Maryland","21237",2
4035,"MORAVIA RD & BOWLEY'S LN","BALTIMORE","Maryland","21206",2
4036,"S HILTON ST & FREDERICK AVE","BALTIMORE","Maryland","21229",2
4037,"WHITE AVE & BELAIR RD","BALTIMORE","Maryland","21206",2
4038,"SINCLAIR LN & MORAVIA RD","BALTIMORE","Maryland","21206",2
4039,"N HILTON ST & WINDSOR AVE","BALTIMORE","Maryland","21216",2
4040,"700 W PATAPSCO AVE","BALTIMORE","Maryland","21230",2
4041,"S MARTIN LUTHER KING JR BLVD","BALTIMORE","Maryland","21201",2
4042,"ECHODALE AVE & HARFORD RD","BALTIMORE","Maryland","21214",2
4043,"HARFORD RD &E NORTHERN PKWY","BALTIMORE","Maryland","21214",2
4044,"E 39TH ST & GREENWAY","BALTIMORE","Maryland","21218",2
4045,"4400 MANNASOTA AVE","BALTIMORE","Maryland","21206",2
4046,"3714 FLEETWOOD AVE","BALTIMORE","Maryland","21206",2
4047,"CATOR AVE &E 41ST ST","BALTIMORE","Maryland","21218",2
4048,"7599 MOYER AVE","BALTIMORE","Maryland","21234",2
4049,"2801 GREENMOUNT AVE","BALTIMORE","Maryland","21218",2
4050,"MONROE BUSH & WASHINGTON BLVD","BALTIMORE","Maryland","21230",2
4051,"1400 E PRESTON ST","BALTIMORE","Maryland","21213",2
4052,"717 YALE AVE","BALTIMORE","Maryland","21229",2
4053,"2490 GILES RD","BALTIMORE","Maryland","21225",2
4054,"600 W PATAPSCO AVE","BALTIMORE","Maryland","21230",2
4055,"4400 WHITE AVE","BALTIMORE","Maryland","21206",2
4056,"3600 BOSTON ST","BALTIMORE","Maryland","21224",2
4057,"NORMAN AVE & PELHAM AVE","BALTIMORE","Maryland","21213",2
4058,"123 W READ ST","BALTIMORE","Maryland","21201",2
4059,"3202 BONNIE RD","BALTIMORE","Maryland","21208",2
4060,"816 MADISON AVE","BALTIMORE","Maryland","21201",2
4061,"4822 ROLAND AVE","BALTIMORE","Maryland","21210",2
4062,"4200 WHITE AVE","BALTIMORE","Maryland","21206",2
4063,"3401 W NORTH AVE","BALTIMORE","Maryland","21216",2
4064,"272 S HILTON ST","BALTIMORE","Maryland","21229",2
4065,"E COLD SPRING LN & THE ALAMEDA","BALTIMORE","Maryland","21239",2
4066,"W BALTIMORE ST & KINSEY AVE","BALTIMORE","Maryland","21223",2
4067,"1700 N MILTON AVE","BALTIMORE","Maryland","21213",2
4068,"E 28TH ST","BALTIMORE","Maryland","21218",2
4069,"1000 W FAYETTE ST","BALTIMORE","Maryland","21223",2
4070,"EASTLYNNE AVE & LEHMAN ST","BALTIMORE","Maryland","21223",2
4071,"UPLANDS PKWY & EDMONDSON AVE","BALTIMORE","Maryland","21229",2
4072,"200 EARECKSON PL","BALTIMORE","Maryland","21202",2
4073,"1600 HILTON PKWY","BALTIMORE","Maryland","21216",2
4074,"1441 HENRY ST","BALTIMORE","Maryland","21230",2
4075,"4400 EASTWAY","BALTIMORE","Maryland","21218",2
4076,"201 N MONASTERY AVE","BALTIMORE","Maryland","21229",2
4077,"5800 NORTHWOOD DR","BALTIMORE","Maryland","21212",2
4078,"E NORTHERN PKWY & CHINQUAPIN PKWY","BALTIMORE","Maryland","21239",2
4079,"HOLABIRD AVE &S PONCA ST","BALTIMORE","Maryland","21224",2
4080,"100 E 28TH ST","BALTIMORE","Maryland","21218",2
4081,"4100 GROVELAND AVE","BALTIMORE","Maryland","21215",2
4082,"5920 MORAVIA RD","BALTIMORE","Maryland","21206",2
4083,"THE ALAMEDA &E COLD SPRING LN","BALTIMORE","Maryland","21239",2
4084,"3710 GLENMORE AVE","BALTIMORE","Maryland","21206",2
4085,"6200 WALTHER AVE","BALTIMORE","Maryland","21206",2
4086,"S CATON AVE & JOH AVE","BALTIMORE","Maryland","21227",2
4087,"1500 COLE ST","BALTIMORE","Maryland","21223",2
4088,"I 83 S &W NORTH AVE","BALTIMORE","Maryland","21217",2
4089,"300 S AUGUSTA AVE","BALTIMORE","Maryland","21229",2
4090,"3500 GWYNNS FALLS PKWY","BALTIMORE","Maryland","21216",2
4091,"DRUID PARK LAKE DR & MOUNT ROYAL TER","BALTIMORE","Maryland","21217",2
4092,"500 E 43RD ST","BALTIMORE","Maryland","21212",2
4093,"3217 BAYONNE AVE","BALTIMORE","Maryland","21214",2
4094,"ANNAPOLIS RD","BALTIMORE","Maryland","21230",2
4095,"321 S CONKLING ST","BALTIMORE","Maryland","21224",2
4096,"100 E 29TH ST","BALTIMORE","Maryland","21218",2
4097,"6100 HILLEN RD","BALTIMORE","Maryland","21239",2
4098,"PENNINGTON AVE","BALTIMORE","Maryland","21226",2
4099,"2244 CEDLEY ST","BALTIMORE","Maryland","21230",2
4100,"100 E PATAPSCO AVE","BALTIMORE","Maryland","21225",2
4101,"751 FRANKFURST AVE","BALTIMORE","Maryland","21226",2
4102,"2207 S NEWKIRK ST","BALTIMORE","Maryland","21224",2
4103,"1500 JOH AVE","BALTIMORE","Maryland","21227",2
4104,"GWYNNS FALLS PKWY &N ROSEDALE ST","BALTIMORE","Maryland","21216",2
4105,"W PATAPSCO AVE & ANNAPOLIS RD","BALTIMORE","Maryland","21230",2
4106,"MORAVIA RD & PULASKI HWY","BALTIMORE","Maryland","21237",2
4107,"3900 SOUTHERN AVE","BALTIMORE","Maryland","21206",2
4108,"3207 WESTWOOD AVE","BALTIMORE","Maryland","21216",2
4109,"1013 CHURCH ST","BALTIMORE","Maryland","21225",2
4110,"5600 MCCLEAN BLVD","BALTIMORE","Maryland","21214",2
4111,"SIPPLE AVE & FRANKFORD AVE","BALTIMORE","Maryland","21206",2
4112,"N CULVER ST &W CATON AVE","BALTIMORE","Maryland","21229",2
4113,"E NORTH AVE & HOMEWOOD AVE","BALTIMORE","Maryland","21202",2
4114,"3702 GWYNNS FALLS PKWY","BALTIMORE","Maryland","21216",2
4115,"3207 GWYNNS FALLS PKWY","BALTIMORE","Maryland","21216",2
4116,"3710 HICKORY AVE","BALTIMORE","Maryland","21211",2
4117,"4802 ARABIA AVE","BALTIMORE","Maryland","21214",2
4118,"3106 PINEWOOD AVE","BALTIMORE","Maryland","21214",2
4119,"6709 WESTBROOK RD","BALTIMORE","Maryland","21215",2
4120,"1233 BROENING HWY","BALTIMORE","Maryland","21224",2
4121,"5900 HILLEN RD","BALTIMORE","Maryland","21239",2
4122,"FRANKFURST AVE & POTEE ST","BALTIMORE","Maryland","21225",2
4123,"3800 OLD FREDERICK RD","BALTIMORE","Maryland","21229",2
4124,"6100 THE ALAMEDA","BALTIMORE","Maryland","21239",2
4125,"730 CATHEDRAL ST","BALTIMORE","Maryland","21201",2
4126,"1232 N BROADWAY","BALTIMORE","Maryland","21213",2
4127,"2915 GREENMOUNT AVE","BALTIMORE","Maryland","21218",2
4128,"1800 S CATON AVE","BALTIMORE","Maryland","21227",2
4129,"2800 GREENMOUNT AVE","BALTIMORE","Maryland","21218",2
4130,"1801 S CLINTON ST","BALTIMORE","Maryland","21224",2
4131,"5461 CEDONIA AVE","BALTIMORE","Maryland","21206",2
4132,"CLARKS LN & WESTERN RUN DR","BALTIMORE","Maryland","21215",2
4133,"3303 SOUTHERN AVE","BALTIMORE","Maryland","21214",2
4134,"3500 CLAREMONT ST","BALTIMORE","Maryland","21224",2
4135,"EDGEWOOD RD & LIBERTY HEIGHTS AVE","BALTIMORE","Maryland","21215",2
4136,"1300 GREENMOUNT AVE","BALTIMORE","Maryland","21202",2
4137,"HILLEN RD & WAVEWORTH RD","BALTIMORE","Maryland","21239",2
4138,"3930 ROSECREST AVE","BALTIMORE","Maryland","21215",2
4139,"139 N HIGHLAND AVE","BALTIMORE","Maryland","21224",2
4140,"4111 GLENARM AVE","BALTIMORE","Maryland","21206",2
4141,"1799 E 33RD ST","BALTIMORE","Maryland","21218",2
4142,"1201 N WOODINGTON RD","BALTIMORE","Maryland","21229",2
4143,"1100 N WOODINGTON RD","BALTIMORE","Maryland","21229",2
4144,"1200 E 33RD ST","BALTIMORE","Maryland","21218",2
4145,"2700 W PATAPSCO AVE","BALTIMORE","Maryland","21230",2
4146,"1025 S HAVEN ST","BALTIMORE","Maryland","21224",2
4147,"800 W PATAPSCO AVE","BALTIMORE","Maryland","21230",2
4148,"1200 OAKHURST PL","BALTIMORE","Maryland","21216",2
4149,"6700 REISTERSTOWN RD","BALTIMORE","Maryland","21215",2
4150,"PULASKI HWY & ROLYN AVE","BALTIMORE","Maryland","21237",2
4151,"726 E 33RD ST","BALTIMORE","Maryland","21218",2
4152,"N ATHOL AVE & EDMONDSON AVE","BALTIMORE","Maryland","21229",2
4153,"4200 ROLAND VIEW AVE","BALTIMORE","Maryland","21215",2
4154,"1700 FLEET ST","BALTIMORE","Maryland","21231",2
4155,"PRESIDENT ST","BALTIMORE","Maryland","21202",2
4156,"N LONGWOOD ST & GWYNNS FALLS PKWY","BALTIMORE","Maryland","21216",2
4157,"3224 NOBLE ST","BALTIMORE","Maryland","21224",2
4158,"E 31ST ST &N CALVERT ST","BALTIMORE","Maryland","21218",2
4159,"5600 REISTERSTOWN RD","BALTIMORE","Maryland","21215",2
4160,"W PATAPSCO AVE & ANNAPOLIS RD","BALTIMORE","Maryland","21230",2
4161,"500 W PATAPSCO AVE","BALTIMORE","Maryland","21230",2
4162,"500 W PATAPSCO AVE","BALTIMORE","Maryland","21230",2
4163,"400 W PATAPSCO AVE","BALTIMORE","Maryland","21230",2
4164,"BOSTON ST & ELLWOOD ST","BALTIMORE","Maryland","21224",2
4165,"N MARTIN LUTHER KING JR BLVD","BALTIMORE","Maryland","21201",2
4166,"2211 REISTERSTOWN RD","BALTIMORE","Maryland","21217",2
4167,"N PRESIDENT ST &E BALTIMORE ST","BALTIMORE","Maryland","21202",2
4168,"600 HOMESTEAD ST","BALTIMORE","Maryland","21218",2
4169,"4200 WHITE AVE","BALTIMORE","Maryland","21206",2
4170,"E FAYETTE ST &N PRESIDENT ST","BALTIMORE","Maryland","21202",2
4171,"3600 PULASKI HWY","BALTIMORE","Maryland","21224",2
4172,"5600 THE ALAMEDA","BALTIMORE","Maryland","21239",2
4173,"BANCROFT RD & CROSS COUNTRY BLVD","BALTIMORE","Maryland","21215",2
4174,"SHERWOOD AVE & HILLEN RD","BALTIMORE","Maryland","21239",2
4175,"6411 RIDGEVIEW AVE","BALTIMORE","Maryland","21206",2
4176,"N ROGERS AVE & LIBERTY HEIGHTS AVE","BALTIMORE","Maryland","21207",2
4177,"2505 AISQUITH ST","BALTIMORE","Maryland","21218",2
4178,"529 OAKLAND AVE","BALTIMORE","Maryland","21212",2
4179,"399 E PRATT ST","BALTIMORE","Maryland","21202",2
4180,"3206 RAVENWOOD AVE","BALTIMORE","Maryland","21213",2
4181,"2800 TANEY RD","BALTIMORE","Maryland","21209",2
4182,"6611 PARK HEIGHTS AVE","BALTIMORE","Maryland","21215",2
4183,"4500 EDMONDSON AVE","BALTIMORE","Maryland","21229",2
4184,"600 BROOKWOOD RD","BALTIMORE","Maryland","21229",2
4185,"1301 S ELLWOOD AVE","BALTIMORE","Maryland","21224",2
4186,"1301 S ELLWOOD AVE","BALTIMORE","Maryland","21224",2
4187,"2800 BOSTON ST","BALTIMORE","Maryland","21224",2
4188,"1204 S KENWOOD AVE","BALTIMORE","Maryland","21224",2
4189,"511 N STREEPER ST","BALTIMORE","Maryland","21205",2
4190,"1004 E LOMBARD ST","BALTIMORE","Maryland","21202",2
4191,"601 N LAKEWOOD AVE","BALTIMORE","Maryland","21205",2
4192,"6800 WILLIAMSON AVE","BALTIMORE","Maryland","21215",2
4193,"I 83 N &W COLD SPRING LN","BALTIMORE","Maryland","21209",2
4194,"CLARKS LN & PARK HEIGHTS AVE","BALTIMORE","Maryland","21215",2
4195,"I 83 S &W COLD SPRING LN","BALTIMORE","Maryland","21209",2
4196,"MELBOURNE RD & CHARRAWAY RD","BALTIMORE","Maryland","21229",2
4197,"1008 E LOMBARD ST","BALTIMORE","Maryland","21202",2
4198,"3900 GREENWAY","BALTIMORE","Maryland","21218",2
4199,"4200 EDMONDSON AVE","BALTIMORE","Maryland","21229",2
4200,"6700 PULASKI HWY","BALTIMORE","Maryland","21237",2
4201,"WINDSOR MILL RD & GWYNNS FALLS PKWY","BALTIMORE","Maryland","21216",2
4202,"1300 N BENTALOU ST","BALTIMORE","Maryland","21216",2
4203,"5600 YORK RD","BALTIMORE","Maryland","21212",2
4204,"5100 PENNINGTON AVE","BALTIMORE","Maryland","21226",2
4205,"5012 CURTIS AVE","BALTIMORE","Maryland","21226",2
4206,"601 W PATAPSCO AVE","BALTIMORE","Maryland","21225",2
4207,"SINCLAIR LN & CHESTERFIELD AVE","BALTIMORE","Maryland","21213",2
4208,"200 ALLENDALE ST","BALTIMORE","Maryland","21229",2
4209,"2500 W PATAPSCO AVE","BALTIMORE","Maryland","21230",2
4210,"2400 W COLD SPRING LN","BALTIMORE","Maryland","21215",2
4211,"E NORTHERN PKWY & HILLEN RD","BALTIMORE","Maryland","21239",2
4212,"1014 E 36TH ST","BALTIMORE","Maryland","21218",2
4213,"4400 PIMLICO RD","BALTIMORE","Maryland","21215",2
4214,"4200 PARKSIDE DR","BALTIMORE","Maryland","21206",2
4215,"345 N CHARLES ST","BALTIMORE","Maryland","21201",2
4216,"300 N ELLWOOD AVE","BALTIMORE","Maryland","21224",2
4217,"MORAVIA RD & PULASKI HWY","BALTIMORE","Maryland","21237",2
4218,"4600 WHITE AVE","BALTIMORE","Maryland","21206",2
4219,"611 W NORTH AVE","BALTIMORE","Maryland","21217",2
4220,"E LOMBARD ST &S PRESIDENT ST","BALTIMORE","Maryland","21202",2
4221,"SINCLAIR LN & GOODNOW RD","BALTIMORE","Maryland","21206",2
4222,"E COLD SPRING LN & CHARLTON AVE","BALTIMORE","Maryland","21214",2
4223,"2200 E FAYETTE ST","BALTIMORE","Maryland","21231",2
4224,"902 SAINT PAUL ST","BALTIMORE","Maryland","21202",2
4225,"4100 EDMONDSON AVE","BALTIMORE","Maryland","21229",2
4226,"MORAVIA PARK DR & PULASKI HWY","BALTIMORE","Maryland","21237",2
4227,"W FRANKLIN ST &N WARWICK AVE","BALTIMORE","Maryland","21223",2
4228,"EDMONDSON AVE & WILDWOOD PKWY","BALTIMORE","Maryland","21229",2
4229,"5301 GOODNOW RD","BALTIMORE","Maryland","21206",2
4230,"5201 GOODNOW RD","BALTIMORE","Maryland","21206",2
4231,"5100 GOODNOW RD","BALTIMORE","Maryland","21206",2
4232,"1201 E COLD SPRING LN","BALTIMORE","Maryland","21239",2
4233,"800 WINSTON AVE","BALTIMORE","Maryland","21212",2
4234,"600 WINSTON AVE","BALTIMORE","Maryland","21212",2
4235,"500 WINSTON AVE","BALTIMORE","Maryland","21212",2
4236,"5700 NORTHWOOD DR","BALTIMORE","Maryland","21212",2
4237,"5600 NORTHWOOD DR","BALTIMORE","Maryland","21212",2
4238,"4600 MARBLE HALL RD","BALTIMORE","Maryland","21239",2
4239,"4301 MARBLE HALL RD","BALTIMORE","Maryland","21218",2
4240,"4100 TIVOLY AVE","BALTIMORE","Maryland","21218",2
4241,"4000 TIVOLY AVE","BALTIMORE","Maryland","21218",2
4242,"1700 ARGONNE DR","BALTIMORE","Maryland","21251",2
4243,"5300 SIPPLE AVE","BALTIMORE","Maryland","21206",2
4244,"4100 PARKSIDE DR","BALTIMORE","Maryland","21206",2
4245,"4000 PARKSIDE DR","BALTIMORE","Maryland","21206",2
4246,"2220 BROENING HWY","BALTIMORE","Maryland","21224",2
4247,"707 DRUID PARK LAKE DR","BALTIMORE","Maryland","21217",2
4248,"4101 LIBERTY HEIGHTS AVE","BALTIMORE","Maryland","21207",2
4249,"RUSSELL ST &W WEST ST","BALTIMORE","Maryland","21230",2
4250,"5543 CEDONIA AVE","BALTIMORE","Maryland","21206",2
4251,"HARFORD RD & GLENMORE AVE","BALTIMORE","Maryland","21214",2
4252,"1700 UNION AVE","BALTIMORE","Maryland","21211",2
4253,"6200 FAIRDEL AVE","BALTIMORE","Maryland","21206",2
4254,"6100 HILLEN RD","BALTIMORE","Maryland","21239",2
4255,"399 E PRATT ST","BALTIMORE","Maryland","21202",2
4256,"4400 GRAND VIEW AVE","BALTIMORE","Maryland","21211",2
4257,"2814 ECHODALE AVE","BALTIMORE","Maryland","21214",2
4258,"THE ALAMEDA & WOODBOURNE AVE","BALTIMORE","Maryland","21239",2
4259,"2304 SOUTHERN AVE","BALTIMORE","Maryland","21214",2
4260,"4416 O'DONNELL ST","BALTIMORE","Maryland","21224",2
4261,"STAMFORD RD & WESTHILLS RD","BALTIMORE","Maryland","21229",2
4262,"1900 HOLLINS FERRY RD","BALTIMORE","Maryland","21230",2
4263,"THE ALAMEDA &E COLD SPRING LN","BALTIMORE","Maryland","21239",2
4264,"3100 SEQUOIA AVE","BALTIMORE","Maryland","21215",2
4265,"510 HOLLEN RD","BALTIMORE","Maryland","21212",2
4266,"513 HOLLEN RD","BALTIMORE","Maryland","21212",2
4267,"1920 EAGLE DR","BALTIMORE","Maryland","21207",2
4268,"OLD HARFORD RD &E NORTHERN PKWY","BALTIMORE","Maryland","21214",2
4269,"4600 EDMONDSON AVE","BALTIMORE","Maryland","21229",2
4270,"PRESIDENT ST & EASTERN AVE","BALTIMORE","Maryland","21202",2
4271,"S CASTLE ST & FOUNTAIN ST","BALTIMORE","Maryland","21231",2
4272,"6807 CROSS COUNTRY BLVD","BALTIMORE","Maryland","21215",2
4273,"2400 W COLD SPRING LN","BALTIMORE","Maryland","21215",2
4274,"2746 N CALVERT ST","BALTIMORE","Maryland","21218",2
4275,"4536 PEN LUCY RD","BALTIMORE","Maryland","21229",2
4276,"E NORTHERN PKWY","BALTIMORE","Maryland","21214",2
4277,"5664 THE ALAMEDA","BALTIMORE","Maryland","21239",2
4278,"100 S CULVER ST","BALTIMORE","Maryland","21229",2
4279,"2600 E PRESTON ST","BALTIMORE","Maryland","21213",2
4280,"N MILTON AVE &E FEDERAL ST","BALTIMORE","Maryland","21213",2
4281,"E 28TH ST & GUILFORD AVE","BALTIMORE","Maryland","21218",2
4282,"LOCH RAVEN BLVD & SHERWOOD AVE","BALTIMORE","Maryland","21239",2
4283,"2100 E NORTH AVE","BALTIMORE","Maryland","21213",2
4284,"1409 EUTAW PL","BALTIMORE","Maryland","21217",2
4285,"431 S CATON AVE","BALTIMORE","Maryland","21229",2
4286,"6100 HILLEN RD","BALTIMORE","Maryland","21239",2
4287,"HOLABIRD AVE & BROENING HWY","BALTIMORE","Maryland","21224",2
4288,"W PATAPSCO AVE & POTEE ST","BALTIMORE","Maryland","21225",2
4289,"5214 HARFORD RD","BALTIMORE","Maryland","21214",2
4290,"200 E LEXINGTON ST","BALTIMORE","Maryland","21202",2
4291,"S CATON AVE &W PATAPSCO AVE","BALTIMORE","Maryland","21227",2
4292,"800 S BOULDIN ST","BALTIMORE","Maryland","21224",2
4293,"3000 ROSELAWN AVE","BALTIMORE","Maryland","21214",2
4294,"EUTAW PL & LAKE DR","BALTIMORE","Maryland","21217",2
4295,"1600 FOREST HILL AVE","BALTIMORE","Maryland","21230",2
4296,"2200 FLEET ST","BALTIMORE","Maryland","21231",2
4297,"ALLENDALE ST & EDMONDSON AVE","BALTIMORE","Maryland","21229",2
4298,"601 E FAYETTE ST","BALTIMORE","Maryland","21202",2
4299,"1313 DUNDALK AVE","BALTIMORE","Maryland","21222",2
4300,"4800 MELBOURNE RD","BALTIMORE","Maryland","21229",2
4301,"E PATAPSCO AVE & HANOVER 2ND","BALTIMORE","Maryland","21225",2
4302,"ANNABEL AVE & 4TH ST","BALTIMORE","Maryland","21225",2
4303,"5400 PULASKI HWY","BALTIMORE","Maryland","21205",2
4304,"2200 DRUID PARK DR","BALTIMORE","Maryland","21211",2
4305,"W PATAPSCO AVE & WASHINGTON BLVD","BALTIMORE","Maryland","21227",2
4306,"1205 ARGONNE DR","BALTIMORE","Maryland","21218",2
4307,"HOLLINS FERRY RD & WASHINGTON BLVD","BALTIMORE","Maryland","21230",2
4308,"S CATON AVE & GEORGETOWN RD","BALTIMORE","Maryland","21227",2
4309,"E NORTHERN PKWY & WALTHER AVE","BALTIMORE","Maryland","21206",2
4310,"802 DARBY ST S","BALTIMORE","Maryland","21211",2
4311,"WINDSOR MILL RD & LYNDHURST AVE","BALTIMORE","Maryland","21216",2
4312,"LAKE MONTEBELLO DR & LAKE AVE","BALTIMORE","Maryland","21218",2
4313,"4500 WINDSOR MILL RD","BALTIMORE","Maryland","21207",2
4314,"WINDSOR MILL RD & MONTICELLO RD","BALTIMORE","Maryland","21216",2
4315,"1400 RIGGS AVE","BALTIMORE","Maryland","21217",2
4316,"3700 W FRANKLIN ST","BALTIMORE","Maryland","21229",2
4317,"3012 LOUISE AVE","BALTIMORE","Maryland","21214",2
4318,"2400 S HANOVER ST","BALTIMORE","Maryland","21230",2
4319,"2816 ROCKROSE AVE","BALTIMORE","Maryland","21215",2
4320,"58 S CULVER ST","BALTIMORE","Maryland","21229",2
4321,"WINDING WAY & BELLEMORE RD","BALTIMORE","Maryland","21210",2
4322,"FRANKFURST AVE &S HANOVER ST","BALTIMORE","Maryland","21225",2
4323,"WAVEWORTH RD & HILLEN RD","BALTIMORE","Maryland","21239",2
4324,"2200 WINCHESTER ST","BALTIMORE","Maryland","21216",2
4325,"3105 LOHRS LN","BALTIMORE","Maryland","21229",2
4326,"SAINT PAUL ST &E 39TH ST","BALTIMORE","Maryland","21218",2
4327,"99 E FRANKLIN ST","BALTIMORE","Maryland","21202",2
4328,"5500 YORK RD","BALTIMORE","Maryland","21212",2
4329,"S WARWICK AVE & HOLLINS ST","BALTIMORE","Maryland","21223",2
4330,"HOLABIRD AVE & BROENING HWY","BALTIMORE","Maryland","21224",2
4331,"MORAVIA RD","BALTIMORE","Maryland","21214",2
4332,"3800 CRANSTON AVE","BALTIMORE","Maryland","21229",2
4333,"4100 FLEETWOOD AVE","BALTIMORE","Maryland","21206",2
4334,"MOUNTVIEW RD & UPMANOR RD","BALTIMORE","Maryland","21229",2
4335,"3100 E NORTHERN PKWY","BALTIMORE","Maryland","21214",2
4336,"3814 BIDDISON LN","BALTIMORE","Maryland","21206",2
4337,"2800 E NORTHERN PKWY","BALTIMORE","Maryland","21214",2
4338,"3700 E NORTHERN PKWY","BALTIMORE","Maryland","21206",2
4339,"3600 E NORTHERN PKWY","BALTIMORE","Maryland","21206",2
4340,"100 W MADISON ST","BALTIMORE","Maryland","21201",2
4341,"2129 MCCULLOH ST","BALTIMORE","Maryland","21217",2
4342,"2500 HERMOSA AVE","BALTIMORE","Maryland","21214",2
4343,"5300 HOLABIRD AVE","BALTIMORE","Maryland","21224",2
4344,"E NORTHERN PKWY & OLD HARFORD RD","BALTIMORE","Maryland","21214",2
4345,"CARSWELL ST & HARFORD RD","BALTIMORE","Maryland","21213",2
4346,"2511 E NORTHERN PKWY","BALTIMORE","Maryland","21214",2
4347,"3400 O'DONNELL ST","BALTIMORE","Maryland","21224",2
4348,"2519 RIGGS AVE","BALTIMORE","Maryland","21216",2
4349,"PERRING PKWY &E NORTHERN PKWY","BALTIMORE","Maryland","21239",2
4350,"3600 GLENMORE AVE","BALTIMORE","Maryland","21206",2
4351,"5500 BELLE VISTA AVE","BALTIMORE","Maryland","21206",2
4352,"5700 GOVANE AVE","BALTIMORE","Maryland","21212",2
4353,"0 BELAIR RD","BALTIMORE","Maryland","21206",2
4354,"4200 GLENMORE AVE","BALTIMORE","Maryland","21206",2
4355,"E LEXINGTON ST &N CAROLINE ST","BALTIMORE","Maryland","21202",2
4356,"6017 CEDONIA AVE","BALTIMORE","Maryland","21206",2
4357,"6000 HARFORD RD","BALTIMORE","Maryland","21214",2
4358,"514 S LUZERNE AVE","BALTIMORE","Maryland","21224",2
4359,"1200 S CAREY ST","BALTIMORE","Maryland","21230",2
4360,"EASTERN AVE &S CHESTER ST","BALTIMORE","Maryland","21231",2
4361,"2700 E NORTHERN PKWY","BALTIMORE","Maryland","21214",2
4362,"514 S LUZERNE AVE","BALTIMORE","Maryland","21224",2
4363,"4900 ROLAND AVE","BALTIMORE","Maryland","21210",2
4364,"813 MCHENRY ST","BALTIMORE","Maryland","21230",2
4365,"5602 MCCLEAN BLVD","BALTIMORE","Maryland","21214",2
4366,"4401 N CHARLES ST","BALTIMORE","Maryland","21218",2
4367,"4810 EDMONDSON AVE","BALTIMORE","Maryland","21229",2
4368,"2700 W PATAPSCO AVE","BALTIMORE","Maryland","21230",2
4369,"541 HARWOOD AVE","BALTIMORE","Maryland","21212",2
4370,"N CULVER ST &W LEXINGTON ST","BALTIMORE","Maryland","21229",2
4371,"BELAIR RD & KENWOOD AVE","BALTIMORE","Maryland","21206",2
4372,"W NORTH AVE & PENNSYLVANIA AVE","BALTIMORE","Maryland","21217",2
4373,"700 FORREST ST","BALTIMORE","Maryland","21202",2
4374,"1611 W NORTH AVE","BALTIMORE","Maryland","21217",2
4375,"2317 FLEET ST","BALTIMORE","Maryland","21224",2
4376,"3600 E NORTHERN PKWY","BALTIMORE","Maryland","21206",2
4377,"EDMONDSON AVE & SWANN AVE","BALTIMORE","Maryland","21229",2
4378,"SMITH AVE & FALLS RD","BALTIMORE","Maryland","21209",2
4379,"100 W PATAPSCO AVE","BALTIMORE","Maryland","21225",2
4380,"1900 AISQUITH ST","BALTIMORE","Maryland","21218",2
4381,"1200 E 20TH ST","BALTIMORE","Maryland","21218",2
4382,"7300 HARFORD RD","BALTIMORE","Maryland","21234",2
4383,"4107 BOSTON ST","BALTIMORE","Maryland","21224",2
4384,"7000 HARFORD RD","BALTIMORE","Maryland","21234",2
4385,"300 ALLENDALE ST","BALTIMORE","Maryland","21229",2
4386,"5500 HARFORD RD","BALTIMORE","Maryland","21214",2
4387,"7527 HARFORD RD","BALTIMORE","Maryland","21234",2
4388,"2625 E NORTHERN PKWY","BALTIMORE","Maryland","21214",2
4389,"900 DRUID HILL AVE","BALTIMORE","Maryland",NA,2
4390,"GREENSPRING AVE & CYLBURN AVE","BALTIMORE","Maryland","21215",2
4391,"1638 S CHARLES ST","BALTIMORE","Maryland","21230",2
4392,"500 E 38TH ST","BALTIMORE","Maryland","21218",2
4393,"3898 BOSTON ST","BALTIMORE","Maryland","21224",2
4394,"1600 E MADISON ST","BALTIMORE","Maryland","21205",2
4395,"5100 IVANHOE AVE","BALTIMORE","Maryland","21212",2
4396,"1600 E MADISON ST","BALTIMORE","Maryland","21205",2
4397,"W LOMBARD ST &S HOWARD ST","BALTIMORE","Maryland","21201",2
4398,"1700 E MADISON ST","BALTIMORE","Maryland","21205",2
4399,"2911 E MADISON ST","BALTIMORE","Maryland","21205",2
4400,"GWYNNS FALLS PKWY &N ROSEDALE ST","BALTIMORE","Maryland","21216",2
4401,"REISTERSTOWN RD & CLARKS LN","BALTIMORE","Maryland","21215",2
4402,"5000 HILLBURN AVE","BALTIMORE","Maryland","21206",2
4403,"2900 ANNAPOLIS RD","BALTIMORE","Maryland","21230",2
4404,"3500 WOODLEA AVE","BALTIMORE","Maryland","21214",2
4405,"434 S CHAPELGATE LN","BALTIMORE","Maryland","21229",2
4406,"3003 ERDMAN AVE","BALTIMORE","Maryland","21213",2
4407,"1235 ANGLESEA ST","BALTIMORE","Maryland","21224",2
4408,"2700 ERDMAN AVE","BALTIMORE","Maryland","21213",2
4409,"2300 ERDMAN AVE","BALTIMORE","Maryland","21213",2
4410,"300 W PRATT ST","BALTIMORE","Maryland","21201",2
4411,"624 CAMBRIA ST","BALTIMORE","Maryland","21225",2
4412,"2672 LEHMAN ST","BALTIMORE","Maryland","21223",2
4413,"2733 BAKER ST","BALTIMORE","Maryland","21216",2
4414,"GWYNNS FALLS PKWY &N LONGWOOD ST","BALTIMORE","Maryland","21216",2
4415,"PULASKI HWY &E MONUMENT ST","BALTIMORE","Maryland","21205",2
4416,"1600 ASHBURTON ST","BALTIMORE","Maryland","21216",2
4417,"E NORTHERN PKWY & PERRING PKWY","BALTIMORE","Maryland","21239",2
4418,"3200 HAMILTON AVE","BALTIMORE","Maryland","21214",2
4419,"800 NORTH PT RD","BALTIMORE","Maryland","21237",2
4420,"200 ALLENDALE ST","BALTIMORE","Maryland","21229",2
4421,"100 E PATAPSCO AVE","BALTIMORE","Maryland","21225",2
4422,"800 BRINKWOOD RD","BALTIMORE","Maryland","21229",2
4423,"4400 GRAND VIEW AVE","BALTIMORE","Maryland","21211",2
4424,"5908 LOCH RAVEN BLVD","BALTIMORE","Maryland","21239",2
4425,"KIRK AVE &E 25TH ST","BALTIMORE","Maryland","21218",2
4426,"5602 MCCLEAN BLVD","BALTIMORE","Maryland","21214",2
4427,"EDMONDSON AVE & COOKS LN","BALTIMORE","Maryland","21229",2
4428,"6500 MORAVIA PARK DR","BALTIMORE","Maryland","21237",2
4429,"767 YALE AVE","BALTIMORE","Maryland","21229",2
4430,"2300 WILKENS AVE","BALTIMORE","Maryland","21223",2
4431,"100 FRANKFURST AVE","BALTIMORE","Maryland","21225",2
4432,"DICKEY HILL RD","BALTIMORE","Maryland","21207",2
4433,"4000 WILKENS AVE","BALTIMORE","Maryland","21229",2
4434,"3400 SHELL RD","BALTIMORE","Maryland","21225",2
4435,"2400 WILKENS AVE","BALTIMORE","Maryland","21223",2
4436,"3300 CLARKS LN","BALTIMORE","Maryland","21215",2
4437,"PIMLICO RD & LOYOLA SOUTHWAY","BALTIMORE","Maryland","21215",2
4438,"4000 HUDSON ST","BALTIMORE","Maryland","21224",2
4439,"3418 ROLAND AVE","BALTIMORE","Maryland","21211",2
4440,"800 BELGIAN AVE","BALTIMORE","Maryland","21218",2
4441,"5400 THE ALAMEDA","BALTIMORE","Maryland","21239",2
4442,"5405 N CHARLES ST","BALTIMORE","Maryland","21210",2
4443,"3722 ROLAND AVE","BALTIMORE","Maryland","21211",2
4444,"4600 ROLAND AVE","BALTIMORE","Maryland","21210",2
4445,"304 WYNDHURST AVE","BALTIMORE","Maryland","21210",2
4446,"4202 CHARLCOTE RD","BALTIMORE","Maryland","21218",2
4447,"4205 N CHARLES ST","BALTIMORE","Maryland","21218",2
4448,"PULASKI HWY & RAMP","BALTIMORE","Maryland","21205",2
4449,"110 W 39TH ST","BALTIMORE","Maryland","21210",2
4450,"3800 GLENMORE AVE","BALTIMORE","Maryland","21206",2
4451,"ALLENDALE ST &W MULBERRY ST","BALTIMORE","Maryland","21229",2
4452,"4201 KENWOOD AVE","RASPEBURG","Maryland","21206",2
4453,"WINSTON AVE & THE ALAMEDA","BALTIMORE","Maryland","21239",2
4454,"106 W 39TH ST","BALTIMORE","Maryland","21210",2
4455,"N EUTAW ST &N MARTIN LUTHER KING JR BLVD","BALTIMORE","Maryland","21201",2
4456,"7600 HARFORD RD","BALTIMORE","Maryland","21234",2
4457,"3200 THE ALAMEDA","BALTIMORE","Maryland","21218",2
4458,"300 ALLENDALE ST","BALTIMORE","Maryland","21229",2
4459,"783 YALE AVE","BALTIMORE","Maryland","21229",2
4460,"THE ALAMEDA &E COLD SPRING LN","BALTIMORE","Maryland","21239",2
4461,"PONCABIRD PASS","BALTIMORE","Maryland","21224",2
4462,"2400 ERDMAN AVE","BALTIMORE","Maryland","21213",2
4463,"E LANVALE ST &N BOND ST","BALTIMORE","Maryland","21213",2
4464,"2308 ROSLYN AVE","BALTIMORE","Maryland","21216",2
4465,"3329 CLIFTMONT AVE","BALTIMORE","Maryland","21213",2
4466,"HAMILTON AVE & FAIR OAKS AVE","BALTIMORE","Maryland","21214",2
4467,"900 S WOLFE ST","BALTIMORE","Maryland","21231",2
4468,"HAMILTON AVE & WALTHER AVE","BALTIMORE","Maryland","21214",2
4469,"WALTHER AVE & HARFORD RD","BALTIMORE","Maryland","21214",2
4470,"THE ALAMEDA &E COLD SPRING LN","BALTIMORE","Maryland","21239",2
4471,"UPLANDS PKWY & EDMONDSON AVE","BALTIMORE","Maryland","21229",2
4472,"HOLABIRD AVE & DUNDALK AVE","BALTIMORE","Maryland","21224",2
4473,"1500 W LANVALE ST","BALTIMORE","Maryland","21217",2
4474,"5021 ROLAND AVE","BALTIMORE","Maryland","21210",2
4475,"1200 BOLTON ST","BALTIMORE","Maryland","21217",2
4476,"300 W BALTIMORE ST","BALTIMORE","Maryland","21201",2
4477,"WHITE AVE & BELAIR RD","BALTIMORE","Maryland","21206",2
4478,"BROENING HWY & HOLABIRD AVE","BALTIMORE","Maryland","21224",2
4479,"E NORTHERN PKWY & LOCH RAVEN BLVD","BALTIMORE","Maryland","21239",2
4480,"812 E BELVEDERE AVE","BALTIMORE","Maryland","21212",2
4481,"1300 GITTINGS AVE","BALTIMORE","Maryland","21239",2
4482,"THE ALAMEDA &E BELVEDERE AVE","BALTIMORE","Maryland","21239",2
4483,"301 W LOMBARD ST","BALTIMORE","Maryland","21201",2
4484,"6033 BELLONA AVE","BALTIMORE","Maryland","21212",2
4485,"5100 HOLABIRD AVE","BALTIMORE","Maryland","21224",2
4486,"555 N CAROLINE ST","BALTIMORE","Maryland","21205",2
4487,"246 DOUGLASS CT","BALTIMORE","Maryland","21231",2
4488,"2200 ST CLOUD AVE","BALTIMORE","Maryland","21213",2
4489,"5900 SMITH AVE","BALTIMORE","Maryland","21209",2
4490,"6100 SMITH AVE","BALTIMORE","Maryland","21209",2
4491,"5500 HOLABIRD AVE","BALTIMORE","Maryland","21224",2
4492,"4800 EDMONDSON AVE","BALTIMORE","Maryland","21229",2
4493,"2801 W PATAPSCO AVE","BALTIMORE","Maryland","21230",2
4494,"400 E 39TH ST","BALTIMORE","Maryland","21218",2
4495,"2807 ECHODALE AVE","BALTIMORE","Maryland","21214",2
4496,"2814 ECHODALE AVE","BALTIMORE","Maryland","21214",2
4497,"E CROMWELL ST","BALTIMORE","Maryland","21230",2
4498,"1800 RAMSAY ST","BALTIMORE","Maryland","21223",2
4499,"PULASKI HWY & LAKEWOOD BELNORD","BALTIMORE","Maryland","21224",2
4500,"LAKE MONTEBELLO DR & CURRAN DR","BALTIMORE","Maryland","21218",2
4501,"3400 W CATON AVE","BALTIMORE","Maryland","21229",2
4502,"HILLEN RD &E NORTHERN PKWY","BALTIMORE","Maryland","21239",2
4503,"5100 ARDMORE WAY","BALTIMORE","Maryland","21206",2
4504,"1410 EUTAW PL","BALTIMORE","Maryland","21217",2
4505,"3700 GLENMORE AVE","BALTIMORE","Maryland","21206",2
4506,"4420 E EAGER ST","BALTIMORE","Maryland","21205",2
4507,"E 31ST ST & FENWICK AVE","BALTIMORE","Maryland","21218",2
4508,"1400 ANCHOR ST","BALTIMORE","Maryland","21230",2
4509,"6013 PLUMER AVE","BALTIMORE","Maryland","21206",2
4510,"S HANOVER & REEDBIRD AVE","BALTIMORE","Maryland","21225",2
4511,"1300 E PRATT ST","BALTIMORE","Maryland","21202",2
4512,"ECHODALE AVE & PERRING PKWY","BALTIMORE","Maryland","21239",2
4513,"4023 ROLAND AVE","BALTIMORE","Maryland","21211",2
4514,"3724 ROLAND AVE","BALTIMORE","Maryland","21211",2
4515,"2413 FLEET ST","BALTIMORE","Maryland","21224",2
4516,"3600 FLEET ST","BALTIMORE","Maryland","21224",2
4517,"5301 SPRINGLAKE WAY","BALTIMORE","Maryland","21212",2
4518,"1100 E COLD SPRING LN","BALTIMORE","Maryland","21239",2
4519,"5714 BELLONA AVE","BALTIMORE","Maryland","21212",2
4520,"2900 BAUERNWOOD AVE","BALTIMORE","Maryland","21234",2
4521,"6200 GREENSPRING AVE","BALTIMORE","Maryland","21209",2
4522,"3608 HILLSDALE RD","BALTIMORE","Maryland","21207",2
4523,"5940 GLENKIRK RD","BALTIMORE","Maryland","21239",2
4524,"1700 E 31ST ST","BALTIMORE","Maryland","21218",2
4525,"7500 HARFORD RD","BALTIMORE","Maryland","21234",2
4526,"GREENSPRING AVE & DRUID PARK DR","BALTIMORE","Maryland","21215",2
4527,"3000 HARFORD RD","BALTIMORE","Maryland","21218",2
4528,"2900 HARFORD RD","BALTIMORE","Maryland","21218",2
4529,"N ROBINSON ST & MCELDERRY ST","BALTIMORE","Maryland","21205",2
4530,"2000 HOLLINS FERRY RD","BALTIMORE","Maryland","21230",2
4531,"229 MALLOW HILL RD","BALTIMORE","Maryland","21229",2
4532,"1400 RIGGS AVE","BALTIMORE","Maryland","21217",2
4533,"1406 EUTAW PL","BALTIMORE","Maryland","21217",2
4534,"E NORTHERN PKWY & LOCH RAVEN BLVD","BALTIMORE","Maryland","21239",2
4535,"3409 DUVALL AVE","BALTIMORE","Maryland","21216",2
4536,"PRIMROSE AVE & RUBIN AVE","BALTIMORE","Maryland","21215",2
4537,"6000 HILLEN RD","BALTIMORE","Maryland","21239",2
4538,"5800 RUBIN AVE","BALTIMORE","Maryland","21215",2
4539,"5700 RUBIN AVE","BALTIMORE","Maryland","21215",2
4540,"900 ASHBURTON ST","BALTIMORE","Maryland","21216",2
4541,"2501 PICKWICK RD","BALTIMORE","Maryland","21207",2
4542,"1200 N MACON ST","BALTIMORE","Maryland","21205",2
4543,"2400 E NORTHERN PKWY","BALTIMORE","Maryland","21234",2
4544,"3600 POTEE ST","BALTIMORE","Maryland","21225",2
4545,"3045 CHESTERFIELD AVE","BALTIMORE","Maryland","21213",2
4546,"3700 MANHATTAN AVE","BALTIMORE","Maryland","21215",2
4547,"5801 MORAVIA RD","BALTIMORE","Maryland","21206",2
4548,"5500 FREDERICK AVE","BALTIMORE","Maryland","21228",2
4549,"E 28TH ST &N CALVERT ST","BALTIMORE","Maryland","21218",2
4550,"1100 N EUTAW ST","BALTIMORE","Maryland","21201",2
4551,"ANNAPOLIS RD &W PATAPSCO AVE","BALTIMORE","Maryland","21230",2
4552,"E COLD SPRING LN & HILLEN RD","BALTIMORE","Maryland","21218",2
4553,"2709 SOUTHERN AVE","BALTIMORE","Maryland","21214",2
4554,"2707 HALCYON AVE","BALTIMORE","Maryland","21214",2
4555,"ROLAND AVE & WYNDHURST AVE","BALTIMORE","Maryland","21210",2
4556,"HOLABIRD AVE &S PONCA ST","BALTIMORE","Maryland","21224",2
4557,"500 YALE AVE","BALTIMORE","Maryland","21229",2
4558,"2300 W PATAPSCO AVE","BALTIMORE","Maryland","21230",2
4559,"1500 HULL ST","BALTIMORE","Maryland","21230",2
4560,"5007 HOLDER AVE","BALTIMORE","Maryland","21214",2
4561,"5107 HOLDER AVE","BALTIMORE","Maryland","21214",2
4562,"718 WASHINGTON PL","BALTIMORE","Maryland","21230",2
4563,"S CONKLING ST & FAIT AVE","BALTIMORE","Maryland","21224",2
4564,"E MCCOMAS ST & KEY HWY","BALTIMORE","Maryland","21230",2
4565,"HARFORD RD & OAKCREST AVE","BALTIMORE","Maryland","21234",2
4566,"7330 HARFORD RD","BALTIMORE","Maryland","21234",2
4567,"3311 RICHMOND AVE","BALTIMORE","Maryland","21213",2
4568,"2844 ROSALIND AVE","BALTIMORE","Maryland","21215",2
4569,"1536 SHADYSIDE RD","BALTIMORE","Maryland","21218",2
4570,"411 GITTINGS AVE","BALTIMORE","Maryland","21212",2
4571,"3900 GLENMORE AVE","BALTIMORE","Maryland","21206",2
4572,"3400 BENSON AVE","BALTIMORE","Maryland","21227",2
4573,"3728 ROLAND AVE","BALTIMORE","Maryland","21211",2
4574,"2300 N LONGWOOD ST","BALTIMORE","Maryland","21216",2
4575,"2800 KIRK AVE","BALTIMORE","Maryland","21218",2
4576,"1700 GORSUCH AVE","BALTIMORE","Maryland","21218",2
4577,"100 W 39TH ST","BALTIMORE","Maryland","21210",2
4578,"N HOWARD ST & JOHN ST","BALTIMORE","Maryland","21217",2
4579,"500 E 39TH ST","BALTIMORE","Maryland","21218",2
4580,"164 N GAY ST","BALTIMORE","Maryland","21202",2
4581,"1406 EUTAW PL","BALTIMORE","Maryland","21217",2
4582,"4900 HARFORD RD","BALTIMORE","Maryland","21214",2
4583,"ECHODALE AVE & HERRING RUN DR","BALTIMORE","Maryland","21214",2
4584,"3200 PRESSTMAN ST","BALTIMORE","Maryland","21216",2
4585,"WINANS WAY &N FRANKLINTOWN RD","BALTIMORE","Maryland","21229",2
4586,"EDMONDSON AVE & COOKS LN","BALTIMORE","Maryland","21229",2
4587,"3800 N FRANKLINTOWN RD","BALTIMORE","Maryland","21216",2
4588,"3600 N FRANKLINTOWN RD","BALTIMORE","Maryland","21216",2
4589,"4800 EDMONDSON AVE","BALTIMORE","Maryland","21229",2
4590,"2813 KIRK AVE","BALTIMORE","Maryland","21218",2
4591,"5000 WOODSIDE RD","BALTIMORE","Maryland","21229",2
4592,"3524 LYNDALE AVE","BALTIMORE","Maryland","21213",2
4593,"4800 HARFORD RD","BALTIMORE","Maryland","21214",2
4594,"E MADISON ST & I 83 N","BALTIMORE","Maryland","21202",2
4595,"6101 BOWLEYS LN","BALTIMORE","Maryland","21205",2
4596,"104 W 39TH ST","BALTIMORE","Maryland","21210",2
4597,"W NORTHERN PKWY & I 83 N","BALTIMORE","Maryland","21209",2
4598,"3509 PINKNEY RD","BALTIMORE","Maryland","21215",2
4599,"2700 W FRANKLIN ST","BALTIMORE","Maryland","21223",2
4600,"3236 E NORTHERN PKWY","BALTIMORE","Maryland","21214",2
4601,"2200 E FAYETTE ST","BALTIMORE","Maryland","21231",2
4602,"4600 BELAIR RD","BALTIMORE","Maryland","21206",2
4603,"4917 HARFORD RD","BALTIMORE","Maryland","21214",2
4604,"600 PARKWYRTH AVE","BALTIMORE","Maryland","21218",2
4605,"3900 HARFORD RD","BALTIMORE","Maryland","21218",2
4606,"3411 CROSSLAND AVE","BALTIMORE","Maryland","21213",2
4607,"3509 CROSSLAND AVE","BALTIMORE","Maryland","21213",2
4608,"201 E PRATT ST","BALTIMORE","Maryland","21202",2
4609,"HAMILTON AVE & HAMLET AVE","BALTIMORE","Maryland","21214",2
4610,"FRANKFORD AVE & BELAIR RD","BALTIMORE","Maryland","21206",2
4611,"3118 BANCROFT RD","BALTIMORE","Maryland","21215",2
4612,"2200 W FRANKLIN ST","BALTIMORE","Maryland","21223",2
4613,"500 E PATAPSCO AVE","BALTIMORE","Maryland","21225",2
4614,"4200 WHITE AVE","BALTIMORE","Maryland","21206",2
4615,"I 83 N &W COLD SPRING LN","BALTIMORE","Maryland","21209",2
4616,"I 83 N &W COLD SPRING LN","BALTIMORE","Maryland","21209",2
4617,"POTEE ST &W PATAPSCO AVE","BALTIMORE","Maryland","21225",2
4618,"E CROMWELL ST &W PENINSULA DR","BALTIMORE","Maryland","21230",2
4619,"E NORTHERN PKWY & HARFORD RD","BALTIMORE","Maryland","21214",2
4620,"6600 BELAIR RD","BALTIMORE","Maryland","21206",2
4621,"3100 HAMILTON AVE","BALTIMORE","Maryland","21214",2
4622,"2100 E NORTHERN PKWY","BALTIMORE","Maryland","21214",2
4623,"ROLAND AVE &W 36TH ST","BALTIMORE","Maryland","21211",2
4624,"HAMILTON AVE & ALBAN AVE","BALTIMORE","Maryland","21214",2
4625,"700 WASHINGTON PL","BALTIMORE","Maryland","21201",2
4626,"S CATHERINE ST & WILKENS AVE","BALTIMORE","Maryland","21223",2
4627,"S WARWICK AVE & HOLLINS ST","BALTIMORE","Maryland","21223",2
4628,"1001 S LAKEWOOD AVE","BALTIMORE","Maryland","21224",2
4629,"900 S LAKEWOOD AVE","BALTIMORE","Maryland","21224",2
4630,"4601 HILLEN RD","BALTIMORE","Maryland","21239",2
4631,"2225 CLOVILLE AVE","BALTIMORE","Maryland","21214",2
4632,"3728 ROLAND AVE","BALTIMORE","Maryland","21211",2
4633,"3234 E NORTHERN PKWY","BALTIMORE","Maryland","21214",2
4634,"6100 LOCH RAVEN BLVD","BALTIMORE","Maryland","21239",2
4635,"5700 NARCISSUS AVE","BALTIMORE","Maryland","21215",2
4636,"3302 PARKSIDE DR","BALTIMORE","Maryland","21214",2
4637,"3200 PARKSIDE DR","BALTIMORE","Maryland","21214",2
4638,"6600 REISTERSTOWN RD","BALTIMORE","Maryland","21215",2
4639,"EUTAW PL &W LAFAYETTE AVE","BALTIMORE","Maryland","21217",2
4640,"5600 O'DONNELL ST","BALTIMORE","Maryland","21224",2
4641,"GUILFORD AVE & I 83 S","BALTIMORE","Maryland","21202",2
4642,"313 E MELROSE AVE","BALTIMORE","Maryland","21212",2
4643,"400 S BOULDIN ST","BALTIMORE","Maryland","21224",2
4644,"E BELVEDERE AVE & PERRING PKWY","BALTIMORE","Maryland","21239",2
4645,"4300 LIBERTY HEIGHTS AVE","BALTIMORE","Maryland","21207",2
4646,"N MARTIN LUTHER KING JR BLVD & LINDEN AV","BALTIMORE","Maryland","21201",2
4647,"1701 W COLD SPRING LN","BALTIMORE","Maryland","21209",2
4648,"3501 BOSTON ST","BALTIMORE","Maryland","21224",2
4649,"1100 BONAPARTE AVE","BALTIMORE","Maryland","21218",2
4650,"400 NORMANDY AVE","BALTIMORE","Maryland","21229",2
4651,"400 NORMANDY AVE","BALTIMORE","Maryland","21229",2
4652,"DIXON RD & SMITH AVE","BALTIMORE","Maryland","21209",2
4653,"5015 ROLAND AVE","BALTIMORE","Maryland","21210",2
4654,"6727 REISTERSTOWN RD","BALTIMORE","Maryland","21215",2
4655,"833 N MARTIN LUTHER KING JR BLVD","BALTIMORE","Maryland","21201",2
4656,"4405 N CHARLES ST","BALTIMORE","Maryland","21218",2
4657,"3100 LIBERTY HEIGHTS AVE","BALTIMORE","Maryland","21215",2
4658,"3100 SEQUOIA AVE","BALTIMORE","Maryland","21215",2
4659,"E PATAPSCO AVE &S HANOVER ST","BALTIMORE","Maryland","21225",2
4660,"PLAINFIELD AVE & GLENARM AVE","BALTIMORE","Maryland","21206",2
4661,"PLAINFIELD AVE & MARY AVE","BALTIMORE","Maryland","21206",2
4662,"4600 WHITE AVE","BALTIMORE","Maryland","21206",2
4663,"2100 ECHODALE AVE","BALTIMORE","Maryland","21214",2
4664,"N PULASKI ST & RAMP","BALTIMORE","Maryland","21223",2
4665,"KIRK AVE & CARSWELL ST","BALTIMORE","Maryland","21218",2
4666,"KIRK AVE & CARSWELL ST","BALTIMORE","Maryland","21218",2
4667,"BONAPARTE AVE & KIRK AVE","BALTIMORE","Maryland","21218",2
4668,"SEIDEL AVE & BELAIR RD","BALTIMORE","Maryland","21206",2
4669,"6709 BESSEMER AVE","BALTIMORE","Maryland","21222",2
4670,"GITTINGS AVE & BELLONA AVE","BALTIMORE","Maryland","21212",2
4671,"3112 O'DONNELL ST","BALTIMORE","Maryland","21224",2
4672,"1114 RIVERSIDE AVE","BALTIMORE","Maryland","21230",2
4673,"3113 O'DONNELL ST","BALTIMORE","Maryland","21224",2
4674,"TUDOR ARMS AVE &W 39TH ST","BALTIMORE","Maryland","21210",2
4675,"LABYRINTH RD & REISTERSTOWN RD","BALTIMORE","Maryland","21215",2
4676,"KIRK AVE & GORSUCH AVE","BALTIMORE","Maryland","21218",2
4677,"PERRING PKWY &E NORTHERN PKWY","BALTIMORE","Maryland","21239",2
4678,"S ELLWOOD AVE & HUDSON ST","BALTIMORE","Maryland","21224",2
4679,"CURRAN DR & LAKE AVE","BALTIMORE","Maryland","21218",2
4680,"N WARWICK AVE & HARLEM AVE","BALTIMORE","Maryland","21216",2
4681,"BELAIR RD & ERDMAN AVE","BALTIMORE","Maryland","21213",2
4682,"2271 S CLINTON ST","BALTIMORE","Maryland","21224",2
4683,"1032 N EUTAW ST","BALTIMORE","Maryland","21201",2
4684,"2930 WATERVIEW AVE","BALTIMORE","Maryland","21230",2
4685,"5461 CEDONIA AVE","BALTIMORE","Maryland","21206",2
4686,"LOCH RAVEN BLVD &E NORTHERN PKWY","BALTIMORE","Maryland","21239",2
4687,"700 YALE AVE","BALTIMORE","Maryland","21229",2
4688,"HARFORD RD & ARGONNE DR","BALTIMORE","Maryland","21214",2
4689,"1000 N HOWARD ST","BALTIMORE","Maryland","21201",2
4690,"200 E 28TH ST","BALTIMORE","Maryland","21218",2
4691,"100 E 29TH ST","BALTIMORE","Maryland","21218",2
4692,"3600 THE ALAMEDA","BALTIMORE","Maryland","21218",2
4693,"3700 THE ALAMEDA","BALTIMORE","Maryland","21218",2
4694,"1700 GORSUCH AVE","BALTIMORE","Maryland","21218",2
4695,"3900 W FRANKLIN ST","BALTIMORE","Maryland","21229",2
4696,"4209 RASPE AVE","BALTIMORE","Maryland","21206",2
4697,"312 E UNIVERSITY PKWY","BALTIMORE","Maryland","21218",2
4698,"4505 BELAIR RD","BALTIMORE","Maryland","21206",2
4699,"2400 S HANOVER ST","BALTIMORE","Maryland","21230",2
4700,"1900 HOLLINS FERRY RD","BALTIMORE","Maryland","21230",2
4701,"3000 JANICE AVE","BALTIMORE","Maryland","21230",2
4702,"3100 JANICE AVE","BALTIMORE","Maryland","21230",2
4703,"700 E COLD SPRING LN","BALTIMORE","Maryland","21212",2
4704,"I 83 N & FALLS RD","BALTIMORE","Maryland","21211",2
4705,"E COLD SPRING LN & THE ALAMEDA","BALTIMORE","Maryland","21239",2
4706,"ABBOTSTON ST & KIRK AVE","BALTIMORE","Maryland","21218",2
4707,"E NORTHERN PKWY & OLD HARFORD RD","BALTIMORE","Maryland","21214",2
4708,"100 S HANOVER ST","BALTIMORE","Maryland","21201",2
4709,"HARFORD RD & LAKE MONTEBELLO DR","BALTIMORE","Maryland","21214",2
4710,"2500 HARFORD RD","BALTIMORE","Maryland","21218",2
4711,"1025 S HAVEN ST","BALTIMORE","Maryland","21224",2
4712,"762 WASHINGTON BLVD","BALTIMORE","Maryland","21230",2
4713,"630 S EATON ST","BALTIMORE","Maryland","21224",2
4714,"4806 EDMONDSON AVE","BALTIMORE","Maryland","21229",2
4715,"WASHINGTON BLVD & SCOTT ST","BALTIMORE","Maryland","21230",2
4716,"S HAVEN ST","BALTIMORE","Maryland","21224",2
4717,"EUTAW PL & WILSON ST","BALTIMORE","Maryland","21217",2
4718,"3700 N FRANKLINTOWN RD","BALTIMORE","Maryland","21216",2
4719,"WALTHER AVE & GLENMORE AVE","BALTIMORE","Maryland","21206",2
4720,"FRANKFURST AVE & 2ND ST","BALTIMORE","Maryland","21225",2
4721,"ANNAPOLIS RD & MERCHANT DR","BALTIMORE","Maryland","21230",2
4722,"6040 MARLUTH AVE","BALTIMORE","Maryland","21206",2
4723,"600 E PATAPSCO AVE","BALTIMORE","Maryland","21225",2
4724,"510 S CHAPEL ST","BALTIMORE","Maryland","21231",2
4725,"1914 FLEET ST","BALTIMORE","Maryland","21231",2
4726,"6776 REISTERSTOWN RD","BALTIMORE","Maryland","21215",2
4727,"6410 BOWLEYS LN","BALTIMORE","Maryland","21237",2
4728,"1101 DUNDALK AVE","BALTIMORE","Maryland","21224",2
4729,"300 E 33RD ST","BALTIMORE","Maryland","21218",2
4730,"700 W PATAPSCO AVE","BALTIMORE","Maryland","21230",2
4731,"4701 FALLS RD","BALTIMORE","Maryland","21209",2
4732,"N ROGERS AVE & LIBERTY HEIGHTS AVE","BALTIMORE","Maryland","21207",2
4733,"4001 HARFORD RD","BALTIMORE","Maryland","21214",2
4734,"E FORT AVE & RIVERSIDE AVE","BALTIMORE","Maryland","21230",2
4735,"S WARWICK AVE & HOLLINS ST","BALTIMORE","Maryland","21223",2
4736,"801 S HAVEN ST","BALTIMORE","Maryland","21224",2
4737,"1458 RIVERSIDE AVE","BALTIMORE","Maryland","21230",2
4738,"E 25TH ST & KIRK AVE","BALTIMORE","Maryland","21218",2
4739,"6500 PULASKI HWY","BALTIMORE","Maryland","21205",2
4740,"PENNSYLVANIA AVE & DOLPHIN ST","BALTIMORE","Maryland","21201",2
4741,"801 EASTERN AVE","BALTIMORE","Maryland","21202",2
4742,"POTEE ST &S HANOVER ST","BALTIMORE","Maryland","21230",2
4743,"4700 FALLS RD","BALTIMORE","Maryland","21209",2
4744,"2911 E NORTHERN PKWY","BALTIMORE","Maryland","21214",2
4745,"3511 WOODSTOCK AVE","BALTIMORE","Maryland","21213",2
4746,"2601 E NORTHERN PKWY","BALTIMORE","Maryland","21214",2
4747,"800 E COLD SPRING LN","BALTIMORE","Maryland","21212",2
4748,"652 DUMBARTON AVE","BALTIMORE","Maryland","21218",2
4749,"1025 S HAVEN ST","BALTIMORE","Maryland","21224",2
4750,"4757 SHAMROCK AVE","BALTIMORE","Maryland","21206",2
4751,"2300 WICHITA AVE","BALTIMORE","Maryland","21215",2
4752,"FREDERICK AVE & WYNDHOLME WAY","BALTIMORE","Maryland","21229",2
4753,"N EUTAW ST & DRUID HILL AVE","BALTIMORE","Maryland","21201",2
4754,"DRUID HILL AVE & MCCULLOH ST","BALTIMORE","Maryland","21217",2
4755,"THE ALAMEDA & WOODBOURNE AVE","BALTIMORE","Maryland","21239",2
4756,"THE ALAMEDA & RAMBLEWOOD RD","BALTIMORE","Maryland","21239",2
4757,"5700 THE ALAMEDA","BALTIMORE","Maryland","21239",2
4758,"1817 N MILTON AVE","BALTIMORE","Maryland","21213",2
4759,"GUILFORD AVE &E MADISON ST","BALTIMORE","Maryland","21202",2
4760,"E FORT AVE & RIVERSIDE AVE","BALTIMORE","Maryland","21230",2
4761,"800 BONAPARTE AVE","BALTIMORE","Maryland","21218",2
4762,"763 WASHINGTON BLVD","BALTIMORE","Maryland","21230",2
4763,"6300 FAIR OAKS AVE","BALTIMORE","Maryland","21214",2
4764,"3900 LOCH RAVEN BLVD","BALTIMORE","Maryland","21218",2
4765,"HILLSIDE RD & FALLS RD","BALTIMORE","Maryland","21210",2
4766,"HILL ST & ROSE LN","BALTIMORE","Maryland","21207",2
4767,"1203 EUTAW PL","BALTIMORE","Maryland","21217",2
4768,"6300 GREEN MEADOW PKWY","BALTIMORE","Maryland","21209",2
4769,"222 N MADEIRA ST","BALTIMORE","Maryland","21231",2
4770,"4508 EDMONDSON AVE","BALTIMORE","Maryland","21229",2
4771,"MORAVIA RD & I 95","BALTIMORE","Maryland","21237",2
4772,"2218 KENTUCKY AVE","BALTIMORE","Maryland","21213",2
4773,"2919 NORFOLK AVE","BALTIMORE","Maryland","21215",2
4774,"BELAIR RD & MORAVIA RD","BALTIMORE","Maryland","21206",2
4775,"1600 W LAFAYETTE AVE","BALTIMORE","Maryland","21217",2
4776,"WINDSOR MILL RD & GWYNNS FALLS PKWY","BALTIMORE","Maryland","21216",2
4777,"2800 ROSALIND AVE","BALTIMORE","Maryland","21215",2
4778,"1300 W LAFAYETTE AVE","BALTIMORE","Maryland","21217",2
4779,"7000 HARFORD RD","BALTIMORE","Maryland","21234",2
4780,"7300 HARFORD RD","BALTIMORE","Maryland","21234",2
4781,"7527 HARFORD RD","BALTIMORE","Maryland","21234",2
4782,"6019 OLD HARFORD RD","BALTIMORE","Maryland","21214",2
4783,"728 LYNDHURST ST","BALTIMORE","Maryland","21229",2
4784,"DRUID PARK LAKE DR & RAMP","BALTIMORE","Maryland","21217",2
4785,"1216 GLENHAVEN RD","BALTIMORE","Maryland","21239",2
4786,"6500 REISTERSTOWN RD","BALTIMORE","Maryland","21215",2
4787,"500 ALLENDALE ST","BALTIMORE","Maryland","21229",2
4788,"3114 O'DONNELL ST","BALTIMORE","Maryland","21224",2
4789,"1501 W PATAPSCO AVE","BALTIMORE","Maryland","21230",2
4790,"1702 SHERWOOD AVE","BALTIMORE","Maryland","21239",2
4791,"2954 MALLVIEW RD","BALTIMORE","Maryland","21230",2
4792,"700 CHESAPEAKE AVE","BALTIMORE","Maryland","21225",2
4793,"5700 BELLE VISTA AVE","BALTIMORE","Maryland","21206",2
4794,"E NORTHERN PKWY & MOYER AVE","BALTIMORE","Maryland","21206",2
4795,"E FAYETTE ST","BALTIMORE","Maryland","21231",2
4796,"E FAYETTE ST","BALTIMORE","Maryland","21231",2
4797,"300 E COLD SPRING LN","BALTIMORE","Maryland","21212",2
4798,"S HANOVER ST","BALTIMORE","Maryland","21230",2
4799,"3901 LOCH RAVEN BLVD","BALTIMORE","Maryland","21218",2
4800,"4414 THE ALAMEDA","BALTIMORE","Maryland","21239",2
4801,"4900 BOSTON ST","BALTIMORE","Maryland","21224",2
4802,"400 E 39TH ST","BALTIMORE","Maryland","21218",2
4803,"500 E 39TH ST","BALTIMORE","Maryland","21218",2
4804,"1416 WOODALL ST","BALTIMORE","Maryland","21230",2
4805,"2815 ECHODALE AVE","BALTIMORE","Maryland","21214",2
4806,"HARFORD RD & WALTHER AVE","BALTIMORE","Maryland","21214",2
4807,"3404 KEENE AVE","BALTIMORE","Maryland","21214",2
4808,"3212 HAMILTON AVE","BALTIMORE","Maryland","21214",2
4809,"E FORT AVE & BATTERY AVE","BALTIMORE","Maryland","21230",2
4810,"762 WASHINGTON BLVD","BALTIMORE","Maryland","21230",2
4811,"762 WASHINGTON BLVD","BALTIMORE","Maryland","21230",2
4812,"E FORT AVE & RIVERSIDE AVE","BALTIMORE","Maryland","21230",2
4813,"WICKLOW EDMONDSON & GELSTON EDMONDSON","BALTIMORE","Maryland","21229",2
4814,"4423 BELAIR RD","BALTIMORE","Maryland","21206",2
4815,"REISTERSTOWN RD & PATTERSON AVE","BALTIMORE","Maryland","21215",2
4816,"3300 SPAULDING AVE","BALTIMORE","Maryland","21215",2
4817,"FLEET ST & PRESIDENT ST","BALTIMORE","Maryland","21202",2
4818,"6406 OLD HARFORD RD","BALTIMORE","Maryland","21214",2
4819,"6700 REISTERSTOWN RD","BALTIMORE","Maryland","21215",2
4820,"FREDERICK AVE &N BEND RD","BALTIMORE","Maryland","21228",2
4821,"800 W SARATOGA ST","BALTIMORE","Maryland","21201",2
4822,"311 E UNIVERSITY PKWY","BALTIMORE","Maryland","21218",2
4823,"MORAVIA RD & BELAIR RD","BALTIMORE","Maryland","21206",2
4824,"4000 HUDSON ST","BALTIMORE","Maryland","21224",2
4825,"4000 EDGEWOOD RD","BALTIMORE","Maryland","21215",2
4826,"HARFORD RD & WALTHER AVE","BALTIMORE","Maryland","21214",2
4827,"5247 DOWNING RD","BALTIMORE","Maryland","21212",2
4828,"3425 FALLS RD","BALTIMORE","Maryland","21211",2
4829,"4001 HARFORD RD","BALTIMORE","Maryland","21214",2
4830,"ERDMAN AVE & HARFORD RD","BALTIMORE","Maryland","21218",2
4831,"2227 E PRATT ST","BALTIMORE","Maryland","21231",2
4832,"WALTHER AVE & HARFORD RD","BALTIMORE","Maryland","21214",2
4833,"MIDWOOD AVE &E COLD SPRING LN","BALTIMORE","Maryland","21212",2
4834,"5900 FENWICK AVE","BALTIMORE","Maryland","21239",2
4835,"I 83 N & FALLS RD","BALTIMORE","Maryland","21211",2
4836,"3900 HARFORD RD","BALTIMORE","Maryland","21218",2
4837,"HARVIEW AVE & OLD HARFORD RD","BALTIMORE","Maryland","21234",2
4838,"EDMONDSON AVE & HILTON PKWY","BALTIMORE","Maryland","21229",2
4839,"3530 CHESTNUT AVE","BALTIMORE","Maryland","21211",2
4840,"PIMLICO RD & GREENSPRING AVE","BALTIMORE","Maryland","21209",2
4841,"4405 N CHARLES ST","BALTIMORE","Maryland","21218",2
4842,"907 WICKLOW RD","BALTIMORE","Maryland","21229",2
4843,"MARLUTH AVE & SPRINGWOOD AVE","BALTIMORE","Maryland","21206",2
4844,"1500 N ROSEDALE ST","BALTIMORE","Maryland","21216",2
4845,"201 E UNIVERSITY PKWY","BALTIMORE","Maryland","21218",2
4846,"3900 HARFORD RD","BALTIMORE","Maryland","21218",2
4847,"2704 CHESLEY AVE","BALTIMORE","Maryland","21234",2
4848,"S HANOVER ST &W CROMWELL ST","BALTIMORE","Maryland","21230",2
4849,"1037 WOOD HEIGHTS AVE","BALTIMORE","Maryland","21211",2
4850,"4001 HARFORD RD","BALTIMORE","Maryland","21214",2
4851,"300 E 20TH ST","BALTIMORE","Maryland","21218",2
4852,"2000 BARCLAY ST","BALTIMORE","Maryland","21218",2
4853,"2412 GUILFORD AVE","BALTIMORE","Maryland","21218",2
4854,"5110 FREDERICK AVE","BALTIMORE","Maryland","21229",2
4855,"PULASKI HWY &E MONUMENT ST","BALTIMORE","Maryland","21205",2
4856,"HARFORD RD & WALTHER AVE","BALTIMORE","Maryland","21214",2
4857,"CEDONIA AVE & CEDGATE RD","BALTIMORE","Maryland","21206",2
4858,"PARK HEIGHTS AVE & CLASSEN AVE","BALTIMORE","Maryland","21215",2
4859,"900 RUSSELL ST","BALTIMORE","Maryland","21230",2
4860,"2621 WATERVIEW AVE","BALTIMORE","Maryland","21230",2
4861,"1400 WICOMICO ST","BALTIMORE","Maryland","21230",2
4862,"1203 WICOMICO ST","BALTIMORE","Maryland","21230",2
4863,"1001 E LEXINGTON ST","BALTIMORE","Maryland","21202",2
4864,"1616 FLEET ST","BALTIMORE","Maryland","21231",2
4865,"1225 S CAREY ST","BALTIMORE","Maryland","21230",2
4866,"3711 FRANKFORD AVE","BALTIMORE","Maryland","21206",2
4867,"3707 HAMILTON AVE","BALTIMORE","Maryland","21206",2
4868,"2309 HAMILTON AVE","BALTIMORE","Maryland","21214",2
4869,"719 S REGESTER ST","BALTIMORE","Maryland","21231",2
4870,"2517 HAMILTON AVE","BALTIMORE","Maryland","21214",2
4871,"3031 HAMILTON AVE","BALTIMORE","Maryland","21214",2
4872,"3520 FRANKFORD AVE","BALTIMORE","Maryland","21214",2
4873,"5401 CEDONIA AVER.JENKINS.","BALTIMORE","Maryland","21206",2
4874,"5546 CEDONIA AVE","BALTIMORE","Maryland","21206",2
4875,"1218 GLENHAVEN RD","BALTIMORE","Maryland","21239",2
4876,"1248 GLENHAVEN RD","BALTIMORE","Maryland","21239",2
4877,"5801 THE ALAMEDA","BALTIMORE","Maryland","21239",2
4878,"0 WILKENS AVE","BALTIMORE","Maryland","21229",2
4879,"EDMONDSON AVE & POPLAR GROVE ST","BALTIMORE","Maryland","21223",2
4880,"5108 ROLAND AVE","BALTIMORE","Maryland","21210",2
4881,"6000 EDNA AVE","BALTIMORE","Maryland","21214",2
4882,"3100 ELMORA AVE","BALTIMORE","Maryland","21213",2
4883,"402 N WASHINGTON ST","BALTIMORE","Maryland","21231",2
4884,"300 N WASHINGTON ST","BALTIMORE","Maryland","21231",2
4885,"1600 N WARWICK AVE","BALTIMORE","Maryland","21216",2
4886,"PLOY ST &W MONUMENT ST","BALTIMORE","Maryland","21201",2
4887,"JASPER ST & DRUID HILL AVE","BALTIMORE","Maryland","21201",2
4888,"3RD ST &E PONTIAC AVE","BALTIMORE","Maryland","21225",2
4889,"W LOMBARD ST &S HOWARD ST","BALTIMORE","Maryland","21201",2
4890,"ANNAPOLIS RD","BALTIMORE","Maryland","21230",2
4891,"4200 MENLO DR","BALTIMORE","Maryland","21215",2
4892,"PULASKI HWY & ERDMAN AVE","BALTIMORE","Maryland","21205",2
4893,"700 ORKNEY RD","BALTIMORE","Maryland","21212",2
4894,"5300 MIDWOOD AVE","BALTIMORE","Maryland","21212",2
4895,"6400 HARTWAIT ST","BALTIMORE","Maryland","21224",2
4896,"E 25TH ST & HARFORD RD","BALTIMORE","Maryland","21218",2
4897,"GORSUCH AVE & HARFORD RD","BALTIMORE","Maryland","21213",2
4898,"LOCH RAVEN BLVD &E BELVEDERE AVE","BALTIMORE","Maryland","21239",2
4899,"5546 CEDONIA AVE","BALTIMORE","Maryland","21206",2
4900,"900 E COLD SPRING LN","BALTIMORE","Maryland","21212",2
4901,"105 W 39TH ST","BALTIMORE","Maryland","21210",2
4902,"2000 W FRANKLIN ST","BALTIMORE","Maryland","21223",2
4903,"HARFORD RD &E 25TH ST","BALTIMORE","Maryland","21218",2
4904,"1625 EASTERN AVE","BALTIMORE","Maryland","21231",2
4905,"N MONASTERY AVE &W CATON AVE","BALTIMORE","Maryland","21229",2
4906,"W PRESTON ST","BALTIMORE","Maryland","21201",2
4907,"4200 BELAIR RD","BALTIMORE","Maryland","21206",2
4908,"1000 E PRESTON ST","BALTIMORE","Maryland","21202",2
4909,"762 WASHINGTON BLVD","BALTIMORE","Maryland","21230",2
4910,"E PRESTON ST","BALTIMORE","Maryland","21213",2
4911,"1223 N BENTALOU ST","BALTIMORE","Maryland","21216",2
4912,"6300 LOCH RAVEN BLVD","BALTIMORE","Maryland","21239",2
4913,"6100 LOCH RAVEN BLVD","BALTIMORE","Maryland","21239",2
4914,"6000 LOCH RAVEN BLVD","BALTIMORE","Maryland","21239",2
4915,"3105 N CALVERT ST","BALTIMORE","Maryland","21218",2
4916,"5400 LOCH RAVEN BLVD","BALTIMORE","Maryland","21239",2
4917,"5312 THE ALAMEDA","BALTIMORE","Maryland","21239",2
4918,"311 E UNIVERSITY PKWY","BALTIMORE","Maryland","21218",2
4919,"3000 N CALVERT ST","BALTIMORE","Maryland","21218",2
4920,"2900 N CALVERT ST","BALTIMORE","Maryland","21218",2
4921,"2700 N CALVERT ST","BALTIMORE","Maryland","21218",2
4922,"2701 N CALVERT ST","BALTIMORE","Maryland","21218",2
4923,"4100 ELSA TER","BALTIMORE","Maryland","21211",2
4924,"2200 N CALVERT ST","BALTIMORE","Maryland","21218",2
4925,"2000 N CALVERT ST","BALTIMORE","Maryland","21218",2
4926,"506 GREENMOUNT AVE","BALTIMORE","Maryland","21218",2
4927,"1900 N CALVERT ST","BALTIMORE","Maryland","21218",2
4928,"5099 E MONUMENT ST","BALTIMORE","Maryland","21205",2
4929,"516 CORDING AVE","BALTIMORE","Maryland","21212",2
4930,"3200 W BALTIMORE ST","BALTIMORE","Maryland","21229",2
4931,"N PULASKI ST","BALTIMORE","Maryland","21223",2
4932,"N CALVERT ST &E 31ST ST","BALTIMORE","Maryland","21218",2
4933,"LIBERTY HEIGHTS AVE & DRUID PARK DR","BALTIMORE","Maryland","21215",2
4934,"AISQUITH ST &E NORTH AVE","BALTIMORE","Maryland","21202",2
4935,"3407 MONDAWMIN AVE","BALTIMORE","Maryland","21216",2
4936,"2502 HARFORD RD","BALTIMORE","Maryland","21218",2
4937,"6400 PULASKI HWY","BALTIMORE","Maryland","21205",2
4938,"HARFORD RD & WALTHER AVE","BALTIMORE","Maryland","21214",2
4939,"2200 ERDMAN AVE","BALTIMORE","Maryland","21213",2
4940,"2700 CHESLEY AVE","BALTIMORE","Maryland","21234",2
4941,"HARFORD RD","BALTIMORE","Maryland","21214",2
4942,"600 W OSTEND ST","BALTIMORE","Maryland","21230",2
4943,"HARFORD RD &E 25TH ST","BALTIMORE","Maryland","21218",2
4944,"1800 N BENTALOU ST","BALTIMORE","Maryland","21216",2
4945,"1700 N BENTALOU ST","BALTIMORE","Maryland","21216",2
4946,"1500 S HANOVER ST","BALTIMORE","Maryland","21230",2
4947,"3000 E NORTHERN PKWY","BALTIMORE","Maryland","21214",2
4948,"3200 BONNIE RD","BALTIMORE","Maryland","21208",2
4949,"E MONUMENT ST","BALTIMORE","Maryland","21202",2
4950,"5201 GOODNOW RD","BALTIMORE","Maryland","21206",2
4951,"800 EVESHAM AVE","BALTIMORE","Maryland","21212",2
4952,"W BALTIMORE ST &N FRANKLINTOWN RD","BALTIMORE","Maryland","21223",2
4953,"PULASKI HWY &E MONUMENT ST","BALTIMORE","Maryland","21205",2
4954,"EXETER HALL AVE &E 29TH ST","BALTIMORE","Maryland","21218",2
4955,"4500 WHITE AVE","BALTIMORE","Maryland","21206",2
4956,"214 W MONUMENT ST","BALTIMORE","Maryland","21201",2
4957,"N FRANKLINTOWN RD & EDMONDSON AVE","BALTIMORE","Maryland","21216",2
4958,"5000 PULASKI HWY","BALTIMORE","Maryland","21224",2
4959,"200 N COLLINGTON AVE","BALTIMORE","Maryland","21231",2
4960,"E 39TH ST & SAINT PAUL ST","BALTIMORE","Maryland","21218",2
4961,"W NORTHERN PKWY & ROLAND AVE","BALTIMORE","Maryland","21210",2
4962,"2800 N CALVERT ST","BALTIMORE","Maryland","21218",2
4963,"WATERVIEW AVE & ANNAPOLIS RD","BALTIMORE","Maryland","21230",2
4964,"100 W 39TH ST","BALTIMORE","Maryland","21210",2
4965,"S MARTIN LUTHER KING JR BLVD & WASHINGTO","BALTIMORE","Maryland","21201",2
4966,"1801 KEY HWY","BALTIMORE","Maryland","21230",2
4967,"39 S POTOMAC ST","BALTIMORE","Maryland","21224",2
4968,"W BALTIMORE ST &N ELLAMONT ST","BALTIMORE","Maryland","21229",2
4969,"1500 W PATAPSCO AVE","BALTIMORE","Maryland","21230",2
4970,"4500 WINDSOR MILL RD","BALTIMORE","Maryland","21207",2
4971,"E FORT AVE & BATTERY AVE","BALTIMORE","Maryland","21230",2
4972,"5200 SINCLAIR LN","BALTIMORE","Maryland","21206",2
4973,"4405 THE ALAMEDA","BALTIMORE","Maryland","21239",2
4974,"W PATAPSCO AVE & POTEE ST","BALTIMORE","Maryland","21225",2
4975,"700 S HAVEN ST","BALTIMORE","Maryland","21224",2
4976,"5099 E MONUMENT ST","BALTIMORE","Maryland","21205",2
4977,"3005 SOUTHERN AVE","BALTIMORE","Maryland","21214",2
4978,"5718 THE ALAMEDA","BALTIMORE","Maryland","21239",2
4979,"5000 W NORTHERN PKWY","BALTIMORE","Maryland","21207",2
4980,"N CALVERT ST &E 28TH ST","BALTIMORE","Maryland","21218",2
4981,"AILSA AVE & WALTHER AVE","BALTIMORE","Maryland","21214",2
4982,"WALTHER AVE & HARFORD RD","BALTIMORE","Maryland","21214",2
4983,"S MARTIN LUTHER KING JR BLVD","BALTIMORE","Maryland","21201",2
4984,"801 EASTERN AVE","BALTIMORE","Maryland","21202",2
4985,"4311 WALTHER AVE","BALTIMORE","Maryland","21214",2
4986,"I 83 N &W COLD SPRING LN","BALTIMORE","Maryland","21209",2
4987,"PULASKI HWY &N HAVEN ST","BALTIMORE","Maryland","21224",2
4988,"5200 CORDELIA AVE","BALTIMORE","Maryland","21215",2
4989,"PULASKI HWY & ERDMAN AVE","BALTIMORE","Maryland","21205",2
4990,"5348 REISTERSTOWN RD","BALTIMORE","Maryland","21215",2
4991,"1100 N CALHOUN ST","BALTIMORE","Maryland","21217",2
4992,"600 W NORTHERN PKWY","BALTIMORE","Maryland","21210",2
4993,"LOCH RAVEN BLVD &E NORTHERN PKWY","BALTIMORE","Maryland","21239",2
4994,"762 WASHINGTON BLVD","BALTIMORE","Maryland","21230",2
4995,"1500 N BENTALOU ST","BALTIMORE","Maryland","21216",2
4996,"ANNAPOLIS RD &W PATAPSCO AVE","BALTIMORE","Maryland","21230",2
4997,"5300 CEDONIA AVE","BALTIMORE","Maryland","21206",2
4998,"1331 PENTRIDGE RD","BALTIMORE","Maryland","21239",2
4999,"3616 3RD ST","BALTIMORE","Maryland","21225",2
5000,"100 S ELLWOOD AVE","BALTIMORE","Maryland","21224",2
