"UniqueID","StreetAddress","City","State","ZIP","i"
7501,"5600 PERRING PKWY","BALTIMORE CITY","Maryland","21239",4
7502,"5914 HILLEN RD","BALTIMORE CITY","Maryland","21239",4
7503,"1712 SHERWOOD AVE","BALTIMORE CITY","Maryland","21239",4
7504,"1600 WALTERSWOOD RD","BALTIMORE CITY","Maryland","21239",4
7505,"LOCH RAVEN BLVD &E COLD SPRING LN","BALTIMORE CITY","Maryland","21239",4
7506,"7 E EAGER ST","BALTIMORE CITY","Maryland","21202",4
7507,"2919 PINEWOOD AVE","BALTIMORE CITY","Maryland","21214",4
7508,"3432 WOODSTOCK AVE","BALTIMORE CITY","Maryland","21213",4
7509,"1200 CLIFTVIEW AVE","BALTIMORE CITY","Maryland","21218",4
7510,"1300 CLIFTVIEW AVE","BALTIMORE CITY","Maryland","21218",4
7511,"2100 AIKEN ST","BALTIMORE CITY","Maryland","21218",4
7512,"2400 ROBB ST","BALTIMORE CITY","Maryland","21218",4
7513,"2300 CECIL AVE","BALTIMORE CITY","Maryland","21218",4
7514,"200 E FEDERAL ST","BALTIMORE CITY","Maryland","21202",4
7515,"ORLEANS ST &N COLLINGTON AVE","BALTIMORE CITY","Maryland","21231",4
7516,"738 BARTLETT AVE","BALTIMORE CITY","Maryland","21218",4
7517,"666 COKESBURY AVE","BALTIMORE CITY","Maryland","21218",4
7518,"THE ALAMEDA","BALTIMORE COUNTY","Maryland",NA,4
7519,"W MCCOMAS ST &S HANOVER ST","BALTIMORE CITY","Maryland","21230",4
7520,"1900 GOUGH ST","BALTIMORE CITY","Maryland","21231",4
7521,"4900 ANNTANA AVE","BALTIMORE CITY","Maryland","21206",4
7522,"N PACA ST &W MULBERRY ST","BALTIMORE CITY","Maryland","21201",4
7523,"335 E 20TH ST","BALTIMORE CITY","Maryland","21218",4
7524,"3007 WOLCOTT AVE","BALTIMORE CITY","Maryland","21216",4
7525,"N HIGHLAND AVE & PULASKI HWY","BALTIMORE CITY","Maryland","21224",4
7526,"S DUKELAND ST & WILMARCO AVE","BALTIMORE CITY","Maryland","21223",4
7527,"2105 CHRISTIAN ST","BALTIMORE CITY","Maryland","21223",4
7528,"DRUID PARK LAKE DR & EUTAW PL","BALTIMORE CITY","Maryland","21217",4
7529,"5100 E LOMBARD ST","BALTIMORE CITY","Maryland","21224",4
7530,"1300 HILLMAN ST","BALTIMORE CITY","Maryland","21202",4
7531,"1000 HOMEWOOD AVE","BALTIMORE CITY","Maryland","21202",4
7532,"E HOFFMAN ST & WILCOX ST","BALTIMORE CITY","Maryland","21202",4
7533,"718 E PRESTON ST","BALTIMORE CITY","Maryland","21202",4
7534,"1216 E EAGER ST","BALTIMORE CITY","Maryland","21202",4
7535,"E EAGER ST & AISQUITH ST","BALTIMORE CITY","Maryland","21202",4
7536,"E EAGER ST & HILLMAN ST","BALTIMORE CITY","Maryland","21202",4
7537,"804 E EAGER ST","BALTIMORE CITY","Maryland","21202",4
7538,"710 E EAGER ST","BALTIMORE CITY","Maryland","21202",4
7539,"2000 BARCLAY ST","BALTIMORE CITY","Maryland","21218",4
7540,"2018 N CALVERT ST","BALTIMORE CITY","Maryland","21218",4
7541,"335 E 20TH ST","BALTIMORE CITY","Maryland","21218",4
7542,"200 E 20TH ST","BALTIMORE CITY","Maryland","21218",4
7543,"300 E 22ND ST","BALTIMORE CITY","Maryland","21218",4
7544,"200 E 22ND ST","BALTIMORE CITY","Maryland","21218",4
7545,"329 E 24TH ST","BALTIMORE CITY","Maryland","21218",4
7546,"1500 N BOND ST","BALTIMORE CITY","Maryland","21213",4
7547,"500 S MILTON AVE","BALTIMORE CITY","Maryland","21224",4
7548,"4700 WOODLEA AVE","BALTIMORE CITY","Maryland","21206",4
7549,"4428 UNDERWOOD RD","BALTIMORE CITY","Maryland","21218",4
7550,"2527 KIRK AVE","BALTIMORE CITY","Maryland","21218",4
7551,"BONVIEW AVE & ERDMAN AVE","BALTIMORE CITY","Maryland","21213",4
7552,"2200 ORLEANS ST","BALTIMORE CITY","Maryland","21231",4
7553,"3900 FLEETWOOD AVE","BALTIMORE CITY","Maryland","21206",4
7554,"1419 NORTHGATE RD","BALTIMORE CITY","Maryland","21218",4
7555,"2703 BOARMAN AVE","BALTIMORE CITY","Maryland","21215",4
7556,"2906 E NORTHERN PKWY","BALTIMORE CITY","Maryland","21214",4
7557,"2300 E NORTHERN PKWY","BALTIMORE CITY","Maryland","21234",4
7558,"2100 E NORTHERN PKWY","BALTIMORE CITY","Maryland","21214",4
7559,"1600 KELLY AVE","BALTIMORE CITY","Maryland","21209",4
7560,"PURNELL DR &W FOREST PARK AVE","BALTIMORE CITY","Maryland","21207",4
7561,"2800 HAMILTON AVE","BALTIMORE CITY","Maryland","21214",4
7562,"206 TAPLOW RD","BALTIMORE CITY","Maryland","21212",4
7563,"3600 S HANOVER ST","BALTIMORE CITY","Maryland","21225",4
7564,"2600 W PATAPSCO AVE","BALTIMORE CITY","Maryland","21227",4
7565,"3 E HEATH ST","BALTIMORE CITY","Maryland","21230",4
7566,"1300 DIVISION ST","BALTIMORE CITY","Maryland","21217",4
7567,"W FOREST PARK AVE","BALTIMORE CITY","Maryland","21207",4
7568,"4901 ANNTANA AVE","BALTIMORE CITY","Maryland","21206",4
7569,"EDMONDSON AVE &N EDGEWOOD ST","BALTIMORE CITY","Maryland","21229",4
7570,"4428 UNDERWOOD RD","BALTIMORE CITY","Maryland","21218",4
7571,"604 POPLAR GROVE ST","BALTIMORE CITY","Maryland","21223",4
7572,"2625 E NORTHERN PKWY","BALTIMORE CITY","Maryland","21214",4
7573,"5311 GOODNOW RD","BALTIMORE CITY","Maryland","21206",4
7574,"1700 N WARWICK AVE","BALTIMORE CITY","Maryland","21216",4
7575,"2702 REESE ST","BALTIMORE CITY","Maryland","21218",4
7576,"4000 W STRATHMORE AVE","BALTIMORE CITY","Maryland","21215",4
7577,"200 W PRESTON ST","BALTIMORE CITY","Maryland","21201",4
7578,"800 REVERDY RD","BALTIMORE CITY","Maryland","21212",4
7579,"1918 HILLENWOOD RD","BALTIMORE CITY","Maryland","21239",4
7580,"SIMMS AVE & MARX AVE","BALTIMORE CITY","Maryland","21206",4
7581,"4604 SIMMS AVE","BALTIMORE CITY","Maryland","21206",4
7582,"1300 N ELLAMONT ST","BALTIMORE CITY","Maryland","21216",4
7583,"FLEET ST &S EDEN ST","BALTIMORE CITY","Maryland","21202",4
7584,"7400 HARFORD RD","BALTIMORE CITY","Maryland","21234",4
7585,"W PATAPSCO AVE & ANNAPOLIS RD","BALTIMORE CITY","Maryland","21230",4
7586,"1918 WOODBOURNE AVE","BALTIMORE CITY","Maryland","21239",4
7587,"3500 WOODRING AVE","BALTIMORE CITY","Maryland","21234",4
7588,"2625 E NORTHERN PKWY","BALTIMORE CITY","Maryland","21214",4
7589,"WILKENS AVE","BALTIMORE CITY","Maryland","21229",4
7590,"W CATON AVE &N MONASTERY AVE","BALTIMORE CITY","Maryland","21229",4
7591,"514 E 23RD ST","BALTIMORE CITY","Maryland","21218",4
7592,"1720 FLEET ST","BALTIMORE CITY","Maryland","21231",4
7593,"600 E LAKE AVE","BALTIMORE CITY","Maryland","21212",4
7594,"1500 FERNLEY RD","BALTIMORE CITY","Maryland","21218",4
7595,"2423 LINDEN AVE","BALTIMORE CITY","Maryland","21217",4
7596,"3100 GWYNNS FALLS PKWY","BALTIMORE CITY","Maryland","21216",4
7597,"4401 WAKEFIELD RD","BALTIMORE CITY","Maryland","21216",4
7598,"E NORTHERN PKWY & BELLONA AVE","BALTIMORE CITY","Maryland","21212",4
7599,"2600 DULANY ST","BALTIMORE CITY","Maryland","21223",4
7600,"1600 ARGYLE AVE","BALTIMORE CITY","Maryland","21217",4
7601,"3500 PARKDALE AVE","BALTIMORE CITY","Maryland","21211",4
7602,"5400 REISTERSTOWN RD","BALTIMORE CITY","Maryland","21215",4
7603,"3505 CLARKS LN","BALTIMORE CITY","Maryland","21215",4
7604,"3509 CLARKS LN","BALTIMORE CITY","Maryland","21215",4
7605,"3540 HICKORY AVE","BALTIMORE CITY","Maryland","21211",4
7606,"1405 JOH AVE","BALTIMORE CITY","Maryland","21227",4
7607,"1416 MILL RACE RD","BALTIMORE CITY","Maryland","21211",4
7608,"READY AVE & GLENWOOD AVE","BALTIMORE CITY","Maryland","21212",4
7609,"4920 WESTHILLS RD","BALTIMORE CITY","Maryland","21229",4
7610,"900 W FRANKLIN ST","BALTIMORE CITY","Maryland","21223",4
7611,"N MOUNT ST &W FRANKLIN ST","BALTIMORE CITY","Maryland","21223",4
7612,"5100 E LOMBARD ST","BALTIMORE CITY","Maryland","21224",4
7613,"3000 N CALVERT ST","BALTIMORE CITY","Maryland","21218",4
7614,"6519 COLGATE AVE","BALTIMORE CITY","Maryland","21222",4
7615,"W NORTH AVE & FALLS RD","BALTIMORE CITY","Maryland","21201",4
7616,"2200 MARYLAND AVE","BALTIMORE CITY","Maryland","21218",4
7617,"4820 ROLAND AVE","BALTIMORE CITY","Maryland","21210",4
7618,"1300 BAYLIS ST","BALTIMORE CITY","Maryland","21224",4
7619,"I 83 S & MOUNT ROYAL TER","BALTIMORE CITY","Maryland","21217",4
7620,"1918 HILLENWOOD RD","BALTIMORE CITY","Maryland","21239",4
7621,"4000 KATHLAND AVE","BALTIMORE CITY","Maryland","21207",4
7622,"W MELROSE AVE","BALTIMORE CITY","Maryland","21210",4
7623,"2463 W COLD SPRING LN","BALTIMORE CITY","Maryland","21215",4
7624,"4634 HARCOURT RD","BALTIMORE CITY","Maryland","21214",4
7625,"5407 ELSRODE AVE","BALTIMORE CITY","Maryland","21214",4
7626,"521 S WOLFE ST","BALTIMORE CITY","Maryland","21231",4
7627,"2101 DOBLER AVE","BALTIMORE CITY","Maryland","21218",4
7628,"1 E UNIVERSITY PKWY","BALTIMORE CITY","Maryland","21218",4
7629,"2402 N FOREST PARK AVE","BALTIMORE CITY","Maryland","21207",4
7630,"5503 ANTHONY AVE","BALTIMORE CITY","Maryland","21206",4
7631,"1213 S HANOVER ST","BALTIMORE CITY","Maryland","21230",4
7632,"1410 S HANOVER ST","BALTIMORE CITY","Maryland","21230",4
7633,"417 DRURY LN","BALTIMORE CITY","Maryland","21229",4
7634,"2221 MORTON ST","BALTIMORE CITY","Maryland","21218",4
7635,"1300 W PRATT ST","BALTIMORE CITY","Maryland","21223",4
7636,"4100 ARDLEY AVE","BALTIMORE CITY","Maryland","21213",4
7637,"223 E PRESTON ST","BALTIMORE CITY","Maryland","21202",4
7638,"6300 GRINDON AVE","BALTIMORE CITY","Maryland","21214",4
7639,"5223 SPRINGLAKE WAY","BALTIMORE CITY","Maryland","21212",4
7640,"STEELE RD & PIMLICO RD","BALTIMORE CITY","Maryland","21209",4
7641,"1300 EDMONDSON AVE","BALTIMORE CITY","Maryland","21223",4
7642,"1000 N FREMONT AVE","BALTIMORE CITY","Maryland","21217",4
7643,"FENWICK AVE & WOODBOURNE AVE","BALTIMORE CITY","Maryland","21239",4
7644,"4623 MARBLE HALL RD","BALTIMORE CITY","Maryland","21239",4
7645,"W COLD SPRING LN & GREENSPRING AVE","BALTIMORE CITY","Maryland","21209",4
7646,"1814 N ROSEDALE ST","BALTIMORE CITY","Maryland","21216",4
7647,"3100 SUMTER AVE","BALTIMORE CITY","Maryland","21215",4
7648,"5900 PERRING PKWY","BALTIMORE CITY","Maryland","21239",4
7649,"MARYLAND AVE &W NORTH AVE","BALTIMORE CITY","Maryland","21201",4
7650,"2800 MARYLAND AVE","BALTIMORE CITY","Maryland","21218",4
7651,"6116 MARIETTA AVE","BALTIMORE CITY","Maryland","21214",4
7652,"6214 PILGRIM RD","BALTIMORE CITY","Maryland","21214",4
7653,"14 SAINT MARTINS RD","BALTIMORE CITY","Maryland","21218",4
7654,"GLENARM AVE & GLENFALLS AVE","BALTIMORE CITY","Maryland","21206",4
7655,"N CHARLES ST &E 25TH ST","BALTIMORE CITY","Maryland","21218",4
7656,"4820 ROLAND AVE","BALTIMORE CITY","Maryland","21210",4
7657,"1900 WINFORD RD","BALTIMORE CITY","Maryland","21239",4
7658,"800 N BRADFORD ST","BALTIMORE CITY","Maryland","21205",4
7659,"3800 N CHARLES ST","BALTIMORE CITY","Maryland","21218",4
7660,"1906 RAMSAY ST","BALTIMORE CITY","Maryland","21223",4
7661,"100 E HUGHES ST","BALTIMORE CITY","Maryland","21230",4
7662,"3900 TIVOLY AVE","BALTIMORE CITY","Maryland","21218",4
7663,"2408 PINEWOOD AVE","BALTIMORE CITY","Maryland","21214",4
7664,"2301 WESTFIELD AVE","BALTIMORE CITY","Maryland","21214",4
7665,"2703 EVERGREEN AVE","BALTIMORE CITY","Maryland","21214",4
7666,"500 S LEHIGH ST","BALTIMORE CITY","Maryland","21224",4
7667,"705 HOLLEN RD","BALTIMORE CITY","Maryland","21212",4
7668,"1000 GLENWOOD AVE","BALTIMORE CITY","Maryland","21212",4
7669,"1101 WOODBOURNE AVE","BALTIMORE CITY","Maryland","21239",4
7670,"5635 MIDWOOD AVE","BALTIMORE CITY","Maryland","21212",4
7671,"DANVILLE AVE","BALTIMORE CITY","Maryland","21224",4
7672,"5930 NORTHWOOD DR","BALTIMORE CITY","Maryland","21212",4
7673,"PURNELL DR &W FOREST PARK AVE","BALTIMORE CITY","Maryland","21207",4
7674,"1300 S PONCA ST","BALTIMORE CITY","Maryland","21224",4
7675,"4101 BRENDAN AVE","BALTIMORE CITY","Maryland","21213",4
7676,"109 OVERHILL RD","BALTIMORE CITY","Maryland","21210",4
7677,"1000 CATHEDRAL ST","BALTIMORE CITY","Maryland","21201",4
7678,"4 UPLAND RD","BALTIMORE CITY","Maryland","21210",4
7679,"3606 WOODLEA AVE","BALTIMORE CITY","Maryland","21214",4
7680,"1000 WICKLOW RD","BALTIMORE CITY","Maryland","21229",4
7681,"3000 GWYNNS FALLS PKWY","BALTIMORE CITY","Maryland","21216",4
7682,"400 MILLINGTON AVE","BALTIMORE CITY","Maryland","21223",4
7683,"5000 ARDMORE WAY","BALTIMORE CITY","Maryland","21206",4
7684,"2600 LAURETTA AVE","BALTIMORE CITY","Maryland","21223",4
7685,"2500 LAURETTA AVE","BALTIMORE CITY","Maryland","21223",4
7686,"W 37TH ST & ROLAND AVE","BALTIMORE CITY","Maryland","21211",4
7687,"3302 W MULBERRY ST","BALTIMORE CITY","Maryland","21229",4
7688,"3600 PAINE ST","BALTIMORE CITY","Maryland","21211",4
7689,"100 S MONROE ST","BALTIMORE CITY","Maryland","21223",4
7690,"213 WILSON ST","BALTIMORE CITY","Maryland","21217",4
7691,"FRISBY ST &E 34TH ST","BALTIMORE CITY","Maryland","21218",4
7692,"REISTERSTOWN RD &W ROGERS AVE","BALTIMORE CITY","Maryland","21215",4
7693,"2213 N PULASKI ST","BALTIMORE CITY","Maryland","21217",4
7694,"W 22ND ST &N CHARLES ST","BALTIMORE CITY","Maryland","21218",4
7695,"3100 BRENTWOOD AVE","BALTIMORE CITY","Maryland","21218",4
7696,"138 W LAFAYETTE AVE","BALTIMORE CITY","Maryland","21217",4
7697,"4501 ERDMAN AVE","BALTIMORE CITY","Maryland","21213",4
7698,"4502 GROVELAND AVE","BALTIMORE CITY","Maryland","21215",4
7699,"SAINT PAUL ST &E LANVALE ST","BALTIMORE CITY","Maryland","21202",4
7700,"LYNDALE AVE & BRENDAN AVE","BALTIMORE CITY","Maryland","21213",4
7701,"1102 DRUID HILL AVE","BALTIMORE CITY","Maryland","21201",4
7702,"900 W OSTEND ST","BALTIMORE CITY","Maryland","21230",4
7703,"3716 EDNOR RD","BALTIMORE CITY","Maryland","21218",4
7704,"5718 NORTHWOOD DR","BALTIMORE CITY","Maryland","21212",4
7705,"2200 LANGLEY ST","BALTIMORE CITY","Maryland","21230",4
7706,"2200 SEVERN ST","BALTIMORE CITY","Maryland","21230",4
7707,"LOCH RAVEN BLVD &E COLD SPRING LN","BALTIMORE CITY","Maryland","21239",4
7708,"2605 DULANY ST","BALTIMORE CITY","Maryland","21223",4
7709,"2900 E NORTHERN PKWY","BALTIMORE CITY","Maryland","21214",4
7710,"2100 E NORTHERN PKWY","BALTIMORE CITY","Maryland","21214",4
7711,"4900 WILMSLOW RD","BALTIMORE CITY","Maryland","21210",4
7712,"2475 W COLD SPRING LN","BALTIMORE CITY","Maryland","21215",4
7713,"2909 HALCYON AVE","BALTIMORE CITY","Maryland","21214",4
7714,"3302 W MULBERRY ST","BALTIMORE CITY","Maryland","21229",4
7715,"1800 APPLETON ST","BALTIMORE CITY","Maryland","21217",4
7716,"WASHINGTON BLVD","BALTIMORE CITY","Maryland","21230",4
7717,"4207 WHITE AVE","BALTIMORE CITY","Maryland","21206",4
7718,"2400 S HANOVER ST","BALTIMORE CITY","Maryland","21230",4
7719,"4009 RIDGECROFT RD","BALTIMORE CITY","Maryland","21206",4
7720,"E COLD SPRING LN & HILLEN RD","BALTIMORE CITY","Maryland","21218",4
7721,"1000 S LAKEWOOD AVE","BALTIMORE CITY","Maryland","21224",4
7722,"ELMTREE ST & PRUDENCE ST","BALTIMORE CITY","Maryland","21226",4
7723,"3300 OLD YORK RD","BALTIMORE CITY","Maryland","21218",4
7724,"4617 MARBLE HALL RD","BALTIMORE CITY","Maryland","21239",4
7725,"2217 E MADISON ST","BALTIMORE CITY","Maryland","21205",4
7726,"4830 GREENCREST RD","BALTIMORE CITY","Maryland","21206",4
7727,"2733 BAKER ST","BALTIMORE CITY","Maryland","21216",4
7728,"2800 GREENMOUNT AVE","BALTIMORE CITY","Maryland","21218",4
7729,"2708 PIERPONT ST","BALTIMORE CITY","Maryland","21230",4
7730,"1806 FLEET ST","BALTIMORE CITY","Maryland","21231",4
7731,"100 S GAY ST","BALTIMORE CITY","Maryland","21202",4
7732,"2409 KEN OAK RD","BALTIMORE CITY","Maryland","21209",4
7733,"4510 BELVIEU AVE","BALTIMORE CITY","Maryland","21215",4
7734,"2500 MARBOURNE AVE","BALTIMORE CITY","Maryland","21230",4
7735,"W NORTHERN PKWY","BALTIMORE CITY","Maryland","21209",4
7736,"3602 FORDS LN","BALTIMORE CITY","Maryland","21215",4
7737,"3610 BAYONNE AVE","BALTIMORE CITY","Maryland","21214",4
7738,"6600 WALTHER AVE","BALTIMORE CITY","Maryland","21206",4
7739,"5512 TRAMORE RD","BALTIMORE CITY","Maryland","21214",4
7740,"BELAIR RD & WHITE AVE","BALTIMORE","Maryland",NA,4
7741,"3400 INGLESIDE AVE","BALTIMORE","Maryland","21215",4
7742,"6224 DANVILLE AVE","BALTIMORE","Maryland","21224",4
7743,"3200 HAMILTON AVE","BALTIMORE","Maryland","21214",4
7744,"DRUID PARK LAKE DR & LINDEN AVE","BALTIMORE","Maryland",NA,4
7745,"3901 PARKSIDE DR","BALTIMORE","Maryland",NA,4
7746,"CATHEDRAL ST &W MULBERRY ST","BALTIMORE","Maryland",NA,4
7747,"1026 EASTERN AVE","BALTIMORE","Maryland",NA,4
7748,"3806 SOUTHERN AVE","BALTIMORE","Maryland",NA,4
7749,"MORAVIA RD & CLAYBURY AVE","BALTIMORE","Maryland",NA,4
7750,"400 E EAGER ST","BALTIMORE","Maryland","21202",4
7751,"3100 PARKINGTON AVE","BALTIMORE","Maryland",NA,4
7752,"900 BELGIAN AVE","BALTIMORE","Maryland",NA,4
7753,"6009 HIGHGATE DR","BALTIMORE","Maryland","21215",4
7754,"3914 WHITE AVE","BALTIMORE","Maryland",NA,4
7755,"3202 RUECKERT AVE","BALTIMORE","Maryland",NA,4
7756,"4800 ARABIA AVE","BALTIMORE","Maryland",NA,4
7757,"1211 HORNERS LN","BALTIMORE","Maryland",NA,4
7758,"W LANVALE ST","BALTIMORE","Maryland",NA,4
7759,"5946 GLENKIRK RD","BALTIMORE","Maryland","21239",4
7760,"3400 CLIPPER MILL RD","BALTIMORE","Maryland",NA,4
7761,"104 N BROADWAY","BALTIMORE","Maryland",NA,4
7762,"300 NOTRE DAME LN","BALTIMORE","Maryland",NA,4
7763,"3200 HILLEN RD","BALTIMORE","Maryland",NA,4
7764,"1926 E FAYETTE ST","BALTIMORE","Maryland","21231",4
7765,"3300 RAMONA AVE","BALTIMORE","Maryland","21213",4
7766,"W MONTGOMERY ST","BALTIMORE","Maryland",NA,4
7767,"3632 DOLFIELD AVE","BALTIMORE","Maryland","21215",4
7768,"4700 LIBERTY HEIGHTS AVE","BALTIMORE","Maryland","21207",4
7769,"SHAMROCK BOWLEYS & BREHMS LN","BALTIMORE","Maryland",NA,4
7770,"PARKSLEY AVE & GEORGETOWN RD","BALTIMORE","Maryland",NA,4
7771,"2027 MCELDERRY ST","BALTIMORE","Maryland","21205",4
7772,"101 N FREDERICK ST","BALTIMORE","Maryland","21202",4
7773,"LOCH RAVEN BLVD &E COLD SPRING LN","BALTIMORE","Maryland",NA,4
7774,"617 LENNOX ST","BALTIMORE","Maryland",NA,4
7775,"3560 S HANOVER ST","BALTIMORE","Maryland","21225",4
7776,"1213 S HANOVER ST","BALTIMORE","Maryland","21230",4
7777,"KESWICK RD & OVERHILL RD","BALTIMORE","Maryland",NA,4
7778,"PENNINGTON AVE","BALTIMORE","Maryland",NA,4
7779,"1623 SULGRAVE AVE","BALTIMORE","Maryland","21209",4
7780,"4009 RIDGECROFT RD","BALTIMORE","Maryland","21206",4
7781,"5103 EDMONDSON AVE","BALTIMORE","Maryland","21229",4
7782,"3117 GRAYSON ST","BALTIMORE","Maryland",NA,4
7783,"200 E PRATT ST","BALTIMORE","Maryland",NA,4
7784,"E FAYETTE ST & I 83 S","BALTIMORE CITY","Maryland","21202",4
7785,"6300 GREEN MEADOW PKWY","BALTIMORE CITY","Maryland","21209",4
7786,"500 E 33RD ST","BALTIMORE","Maryland","21218",4
7787,"E READ ST & HARGROVE ALY","BALTIMORE CITY","Maryland","21202",4
7788,"W PRATT ST & SCOTT ST","BALTIMORE CITY","Maryland","21201",4
7789,"5103 EDMONDSON AVE","BALTIMORE CITY","Maryland","21229",4
7790,"225 NORTHWAY","BALTIMORE CITY","Maryland","21218",4
7791,"208 E COLD SPRING LN","BALTIMORE CITY","Maryland","21212",4
7792,"300 MILLINGTON AVE","BALTIMORE CITY","Maryland","21223",4
7793,"MILLINGTON AVE & DULANY ST","BALTIMORE CITY","Maryland","21223",4
7794,"2600 CYLBURN AVE","BALTIMORE CITY","Maryland","21215",4
7795,"RAMP","BALTIMORE CITY","Maryland","21217",4
7796,"2000 N CALVERT ST","BALTIMORE CITY","Maryland","21218",4
7797,"4400 W FOREST PARK AVE","BALTIMORE CITY","Maryland","21207",4
7798,"1822 N FOREST PARK AVE","BALTIMORE CITY","Maryland","21207",4
7799,"BOSTON ST &S LINWOOD AVE","BALTIMORE CITY","Maryland","21224",4
7800,"1100 E BIDDLE ST","BALTIMORE CITY","Maryland","21202",4
7801,"6508 ALTA AVE","BALTIMORE CITY","Maryland","21206",4
7802,"5817 BERKELEY AVE","BALTIMORE CITY","Maryland","21215",4
7803,"1100 N KENWOOD AVE","BALTIMORE CITY","Maryland","21213",4
7804,"6642 BELAIR RD","BALTIMORE CITY","Maryland","21206",4
7805,"SAINT GEORGES RD &W NORTHERN PKWY","BALTIMORE CITY","Maryland","21210",4
7806,"2927 GLENDALE AVE","BALTIMORE CITY","Maryland","21234",4
7807,"4600 BELAIR RD","BALTIMORE CITY","Maryland","21206",4
7808,"OSWEGO AVE & SPRUCE DR","BALTIMORE CITY","Maryland","21215",4
7809,"GREENMOUNT AVE &E BIDDLE ST","BALTIMORE CITY","Maryland","21202",4
7810,"4518 WAKEFIELD RD","BALTIMORE CITY","Maryland","21216",4
7811,"MOSHER ST & BRADDISH AVE","BALTIMORE CITY","Maryland","21216",4
7812,"6300 GREEN MEADOW PKWY","BALTIMORE CITY","Maryland","21209",4
7813,"3310 CLARKS LN","BALTIMORE CITY","Maryland","21215",4
7814,"FALLS RD &W COLD SPRING LN","BALTIMORE CITY","Maryland","21209",4
7815,"1700 N BRUCE ST","BALTIMORE CITY","Maryland","21217",4
7816,"1501 EASTERN AVE","BALTIMORE CITY","Maryland","21231",4
7817,"1803 SOUTH RD","BALTIMORE CITY","Maryland","21209",4
7818,"4700 GREENHILL AVE","BALTIMORE CITY","Maryland","21206",4
7819,"1200 E 20TH ST","BALTIMORE CITY","Maryland","21218",4
7820,"2700 N HOWARD ST","BALTIMORE CITY","Maryland","21211",4
7821,"1400 EUTAW PL","BALTIMORE CITY","Maryland","21217",4
7822,"5833 YORK RD","BALTIMORE CITY","Maryland","21212",4
7823,"5711 THE ALAMEDA","BALTIMORE CITY","Maryland","21239",4
7824,"5600 PERRING PKWY","BALTIMORE CITY","Maryland","21239",4
7825,"3600 THE ALAMEDA","BALTIMORE CITY","Maryland","21218",4
7826,"1803 N PULASKI ST","BALTIMORE CITY","Maryland","21217",4
7827,"219 GITTINGS AVE","BALTIMORE CITY","Maryland","21212",4
7828,"1500 E 36TH ST","BALTIMORE CITY","Maryland","21218",4
7829,"CARDENAS AVE & LAKE AVE","BALTIMORE CITY","Maryland","21213",4
7830,"1809 JACKSON ST","BALTIMORE CITY","Maryland","21230",4
7831,"3800 MILFORD AVE","BALTIMORE CITY","Maryland","21207",4
7832,"6240 BELLONA AVE","BALTIMORE CITY","Maryland","21212",4
7833,"300 E LAFAYETTE AVE","BALTIMORE CITY","Maryland","21202",4
7834,"5318 GOODNOW RD","BALTIMORE CITY","Maryland","21206",4
7835,"N HOWARD ST &W CHASE ST","BALTIMORE CITY","Maryland","21201",4
7836,"GLENWOOD AVE & READY AVE","BALTIMORE CITY","Maryland","21212",4
7837,"BREHMS LN & SHAMROCK AVE","BALTIMORE CITY","Maryland","21206",4
7838,"2501 PICKWICK RD","BALTIMORE CITY","Maryland","21207",4
7839,"3900 OVERLEA AVE","BALTIMORE CITY","Maryland","21206",4
7840,"2000 W LAFAYETTE AVE","BALTIMORE CITY","Maryland","21217",4
7841,"498 WOODBOURNE AVE","BALTIMORE CITY","Maryland","21212",4
7842,"300 N MOUNT ST","BALTIMORE CITY","Maryland","21223",4
7843,"831 LENTON AVE","BALTIMORE CITY","Maryland","21212",4
7844,"2229 KENTUCKY AVE","BALTIMORE CITY","Maryland","21213",4
7845,"GLENWOOD AVE & READY AVE","BALTIMORE CITY","Maryland","21212",4
7846,"502 DENISON ST","BALTIMORE CITY","Maryland","21229",4
7847,"102 LONGWOOD RD","BALTIMORE CITY","Maryland","21210",4
7848,"4401 E FAIRMOUNT AVE","BALTIMORE CITY","Maryland","21224",4
7849,"2500 E NORTHERN PKWY","BALTIMORE CITY","Maryland","21214",4
7850,"SAINT GEORGES RD &W NORTHERN PKWY","BALTIMORE CITY","Maryland","21210",4
7851,"E NORTH AVE & AISQUITH ST","BALTIMORE CITY","Maryland","21202",4
7852,"2500 W FRANKLIN ST","BALTIMORE CITY","Maryland","21223",4
7853,"500 DUNDALK AVE","BALTIMORE CITY","Maryland","21224",4
7854,"4890 TAMARIND RD","BALTIMORE CITY","Maryland","21209",4
7855,"4890 TAMARIND RD","BALTIMORE CITY","Maryland","21209",4
7856,"4810 TAMARIND RD","BALTIMORE CITY","Maryland","21209",4
7857,"W FRANKLIN ST &N PULASKI ST","BALTIMORE CITY","Maryland","21223",4
7858,"600 W FRANKLIN ST","BALTIMORE CITY","Maryland","21201",4
7859,"3849 LOCH RAVEN BLVD","BALTIMORE CITY","Maryland","21218",4
7860,"5728 BELAIR RD","BALTIMORE CITY","Maryland","21206",4
7861,"2709 SOUTHERN AVE","BALTIMORE CITY","Maryland","21214",4
7862,"225 N CALVERT ST","BALTIMORE CITY","Maryland","21202",4
7863,"1800 S CLINTON ST","BALTIMORE CITY","Maryland","21224",4
7864,"500 W UNIVERSITY PKWY","BALTIMORE CITY","Maryland","21210",4
7865,"6508 ALTA AVE","BALTIMORE CITY","Maryland","21206",4
7866,"3501 E LOMBARD ST","BALTIMORE CITY","Maryland","21224",4
7867,"3007 ROSELAWN AVE","BALTIMORE CITY","Maryland","21214",4
7868,"6509 ALTA AVE","BALTIMORE CITY","Maryland","21206",4
7869,"5504 ALHAMBRA AVE","BALTIMORE CITY","Maryland","21212",4
7870,"2907 HALCYON AVE","BALTIMORE CITY","Maryland","21214",4
7871,"4000 BIDDISON LN","BALTIMORE CITY","Maryland","21206",4
7872,"4506 ROLAND AVE","BALTIMORE CITY","Maryland","21210",4
7873,"2500 GEORGETOWN RD","BALTIMORE CITY","Maryland","21230",4
7874,"117 SAINT DUNSTANS RD","BALTIMORE CITY","Maryland","21212",4
7875,"1034 EVESHAM AVE","BALTIMORE CITY","Maryland","21212",4
7876,"6600 WALTHER AVE","BALTIMORE CITY","Maryland","21206",4
7877,"834 E COLD SPRING LN","BALTIMORE CITY","Maryland","21212",4
7878,"WADSWORTH WAY","BALTIMORE CITY","Maryland","21239",4
7879,"W LAKE AVE &N CHARLES ST","BALTIMORE CITY","Maryland","21210",4
7880,"600 NEWINGTON AVE","BALTIMORE CITY","Maryland","21217",4
7881,"4000 ROLAND AVE","BALTIMORE CITY","Maryland","21211",4
7882,"216 GRINDALL ST","BALTIMORE CITY","Maryland","21230",4
7883,"MORAVIA RD","BALTIMORE CITY","Maryland","21214",4
7884,"RUSSELL ST &W OSTEND ST","BALTIMORE CITY","Maryland","21230",4
7885,"6507 ALTA AVE","BALTIMORE CITY","Maryland","21206",4
7886,"1300 RUSSELL ST","BALTIMORE CITY","Maryland","21230",4
7887,"W NORTHERN PKWY & LOMBARDY PL","BALTIMORE CITY","Maryland","21210",4
7888,"5900 MORAVIA RD","BALTIMORE CITY","Maryland","21206",4
7889,"2604 CYLBURN AVE","BALTIMORE CITY","Maryland","21215",4
7890,"1400 POPLAND ST","BALTIMORE CITY","Maryland","21226",4
7891,"424 S BOND ST","BALTIMORE CITY","Maryland","21231",4
7892,"4518 WAKEFIELD RD","BALTIMORE CITY","Maryland","21216",4
7893,"5520 PENNINGTON AVE","BALTIMORE CITY","Maryland","21226",4
7894,"1100 GITTINGS AVE","BALTIMORE CITY","Maryland","21239",4
7895,"5909 FAIRWOOD AVE","BALTIMORE CITY","Maryland","21206",4
7896,"N CHARLES ST & SAINT DUNSTANS RD","BALTIMORE CITY","Maryland","21210",4
7897,"E MADISON ST & EDISON HWY","BALTIMORE CITY","Maryland","21205",4
7898,"700 DOLPHIN ST","BALTIMORE CITY","Maryland","21217",4
7899,"2502 LARRYVALE RD","BALTIMORE CITY","Maryland","21209",4
7900,"726 S CHARLES ST","BALTIMORE CITY","Maryland","21230",4
7901,"6505 ALTA AVE","BALTIMORE CITY","Maryland","21206",4
7902,"6507 ALTA AVE","BALTIMORE CITY","Maryland","21206",4
7903,"6511 ALTA AVE","BALTIMORE CITY","Maryland","21206",4
7904,"6505 ALTA AVE","BALTIMORE CITY","Maryland","21206",4
7905,"6509 ALTA AVE","BALTIMORE CITY","Maryland","21206",4
7906,"2900 FALLSTAFF RD","BALTIMORE CITY","Maryland","21209",4
7907,"1900 THAMES ST","BALTIMORE CITY","Maryland","21231",4
7908,"6200 THE ALAMEDA","BALTIMORE CITY","Maryland","21239",4
7909,"TAMARIND RD &W COLD SPRING LN","BALTIMORE CITY","Maryland","21209",4
7910,"6107 MOYER AVE","BALTIMORE CITY","Maryland","21206",4
7911,"E LANVALE ST &N CASTLE ST","BALTIMORE CITY","Maryland","21213",4
7912,"4250 ELSA TER","BALTIMORE CITY","Maryland","21211",4
7913,"S FRANKLINTOWN RD & FREDERICK AVE","BALTIMORE CITY","Maryland","21223",4
7914,"5100 ARDMORE WAY","BALTIMORE CITY","Maryland","21206",4
7915,"5500 WOODMONT AVE","BALTIMORE CITY","Maryland","21239",4
7916,"331 TUSCANY RD","BALTIMORE CITY","Maryland","21210",4
7917,"713 N HOWARD ST","BALTIMORE CITY","Maryland","21201",4
7918,"MORAVIA RD & RAMP","BALTIMORE CITY","Maryland","21206",4
7919,"5200 HILLEN RD","BALTIMORE CITY","Maryland","21239",4
7920,"5200 LOCH RAVEN BLVD","BALTIMORE CITY","Maryland","21239",4
7921,"1500 WINFORD RD","BALTIMORE CITY","Maryland","21239",4
7922,"JOH AVE","BALTIMORE CITY","Maryland","21229",4
7923,"HIGHVIEW AVE & ELMORA AVE","BALTIMORE CITY","Maryland","21213",4
7924,"3 WASHBURN AVE","BALTIMORE CITY","Maryland","21225",4
7925,"W 41ST ST & FALLS RD","BALTIMORE CITY","Maryland","21211",4
7926,"SHANNON DR & BREHMS LN","BALTIMORE CITY","Maryland","21213",4
7927,"1811 DESOTO RD","BALTIMORE CITY","Maryland","21230",4
7928,"400 MILLINGTON AVE","BALTIMORE CITY","Maryland","21223",4
7929,"6113 DUNROMING RD","BALTIMORE CITY","Maryland","21239",4
7930,"3341 CLIFTMONT AVE","BALTIMORE CITY","Maryland","21213",4
7931,"4100 FAIRFAX RD","BALTIMORE CITY","Maryland","21216",4
7932,"4809 WILLISTON ST","BALTIMORE CITY","Maryland","21229",4
7933,"SIDEHILL RD & WICKLOW RD","BALTIMORE CITY","Maryland","21229",4
7934,"6300 LEITH WALK","BALTIMORE CITY","Maryland","21239",4
7935,"4908 ABERDEEN AVE","BALTIMORE CITY","Maryland","21206",4
7936,"E 20TH ST & BOONE ST","BALTIMORE CITY","Maryland","21218",4
7937,"2900 FALLSTAFF RD","BALTIMORE CITY","Maryland","21209",4
7938,"1600 HOLLINS ST","BALTIMORE CITY","Maryland","21223",4
7939,"5116 ARDMORE WAY","BALTIMORE CITY","Maryland","21206",4
7940,"1813 DESOTO RD","BALTIMORE CITY","Maryland","21230",4
7941,"1801 DESOTO RD","BALTIMORE CITY","Maryland","21230",4
7942,"DESOTO RD & GEORGETOWN RD","BALTIMORE CITY","Maryland","21230",4
7943,"2500 LARRYVALE RD","BALTIMORE CITY","Maryland","21209",4
7944,"4 E BARNEY ST","BALTIMORE CITY","Maryland","21230",4
7945,"JOH AVE & BENSON AVE","BALTIMORE COUNTY","Maryland","21227",4
7946,"3800 BENSON AVE","BALTIMORE CITY","Maryland","21227",4
7947,"400 S CHESTER ST","BALTIMORE CITY","Maryland","21231",4
7948,"1532 MEDFORD RD","BALTIMORE CITY","Maryland","21218",4
7949,"3800 ELKADER RD","BALTIMORE CITY","Maryland","21218",4
7950,"EDISON HWY & ELMLEY AVE","BALTIMORE CITY","Maryland","21213",4
7951,"5921 YORK RD","BALTIMORE CITY","Maryland","21212",4
7952,"1909 BURNWOOD RD","BALTIMORE CITY","Maryland","21239",4
7953,"1900 SULGRAVE AVE","BALTIMORE CITY","Maryland","21209",4
7954,"1500 E BIDDLE ST","BALTIMORE CITY","Maryland","21213",4
7955,"5100 SINCLAIR LN","BALTIMORE CITY","Maryland","21206",4
7956,"140 BALTIC AVE","BALTIMORE CITY","Maryland","21225",4
7957,"3700 SINCLAIR LN","BALTIMORE CITY","Maryland","21213",4
7958,"438 GUSRYAN ST","BALTIMORE CITY","Maryland","21224",4
7959,"5300 GREENSPRING AVE","BALTIMORE CITY","Maryland","21209",4
7960,"300 W FRANKLIN ST","BALTIMORE CITY","Maryland","21201",4
7961,"2700 HAWKINS POINT RD","BALTIMORE CITY","Maryland","21226",4
7962,"2043 E MONUMENT ST","BALTIMORE CITY","Maryland","21205",4
7963,"1304 COOKSIE ST","BALTIMORE CITY","Maryland","21230",4
7964,"5300 MERCERON AVE","BALTIMORE CITY","Maryland","21207",4
7965,"6300 LOCH RAVEN BLVD","BALTIMORE CITY","Maryland","21239",4
7966,"N CALVERT ST &E 34TH ST","BALTIMORE CITY","Maryland","21218",4
7967,"2800 GREENMOUNT AVE","BALTIMORE CITY","Maryland","21218",4
7968,"4501 WHITE AVE","BALTIMORE CITY","Maryland","21206",4
7969,"4000 N CHARLES ST","BALTIMORE CITY","Maryland","21218",4
7970,"E 34TH ST &N CALVERT ST","BALTIMORE CITY","Maryland","21218",4
7971,"2100 VAN DEMAN ST","BALTIMORE CITY","Maryland","21224",4
7972,"136 W CLEMENT ST","BALTIMORE CITY","Maryland","21230",4
7973,"FALLS RD &W 41ST ST","BALTIMORE CITY","Maryland","21211",4
7974,"NORTH BEND RD","BALTIMORE CITY","Maryland","21229",4
7975,"1200 N SPRING ST","BALTIMORE CITY","Maryland","21213",4
7976,"400 N EAST AVE","BALTIMORE CITY","Maryland","21224",4
7977,"1600 BROENING HWY","BALTIMORE CITY","Maryland","21224",4
7978,"5819 STUART AVE","BALTIMORE CITY","Maryland","21215",4
7979,"5400 FALLS RD","BALTIMORE CITY","Maryland","21210",4
7980,"5400 FALLS RD","BALTIMORE CITY","Maryland","21210",4
7981,"1700 RUSSELL ST","BALTIMORE CITY","Maryland","21230",4
7982,"WALKER AVE & GITTINGS AVE","BALTIMORE CITY","Maryland","21212",4
7983,"6300 YORK RD","BALTIMORE CITY","Maryland","21212",4
7984,"YORK RD & WALKER AVE","BALTIMORE CITY","Maryland","21212",4
7985,"1606 ELRINO ST","BALTIMORE CITY","Maryland","21224",4
7986,"599 E 39TH ST","BALTIMORE CITY","Maryland","21218",4
7987,"ARBUTUS AVE &W GARRISON AVE","BALTIMORE CITY","Maryland","21215",4
7988,"1931 KELLY AVE","BALTIMORE CITY","Maryland","21209",4
7989,"WASHBURN AVE & 2ND ST","BALTIMORE CITY","Maryland","21225",4
7990,"1618 BANK ST","BALTIMORE CITY","Maryland","21231",4
7991,"3800 ELKADER RD","BALTIMORE CITY","Maryland","21218",4
7992,"3702 LIBERTY HEIGHTS AVE","BALTIMORE CITY","Maryland","21215",4
7993,"2100 LIBERTY HEIGHTS AVE","BALTIMORE CITY","Maryland","21215",4
7994,"3903 FORRESTER AVE","BALTIMORE CITY","Maryland","21206",4
7995,"5707 SAINT ALBANS WAY","BALTIMORE CITY","Maryland","21212",4
7996,"2117 E FEDERAL ST","BALTIMORE CITY","Maryland","21213",4
7997,"5602 BELLE VISTA AVE","BALTIMORE CITY","Maryland","21206",4
7998,"4100 ROLAND VIEW AVE","BALTIMORE CITY","Maryland","21215",4
7999,"3324 ELMORA AVE","BALTIMORE CITY","Maryland","21213",4
8000,"2900 NORFOLK AVE","BALTIMORE CITY","Maryland","21215",4
8001,"2900 GREENMOUNT AVE","BALTIMORE CITY","Maryland","21218",4
8002,"1312 W 40TH ST","BALTIMORE CITY","Maryland","21211",4
8003,"2300 WICHITA AVE","BALTIMORE CITY","Maryland","21215",4
8004,"W BALTIMORE ST &N MARTIN LUTHER KING JR","BALTIMORE CITY","Maryland","21201",4
8005,"312 EVESHAM AVE","BALTIMORE CITY","Maryland","21212",4
8006,"3902 WINDSOR MILL RD","BALTIMORE CITY","Maryland","21216",4
8007,"201 W BALTIMORE ST","BALTIMORE CITY","Maryland","21201",4
8008,"4735 DUNKIRK AVE","BALTIMORE CITY","Maryland","21229",4
8009,"RUECKERT AVE & EDGAR TER","BALTIMORE CITY","Maryland","21214",4
8010,"RUECKERT AVE & CROSSWOOD AVE","BALTIMORE CITY","Maryland","21214",4
8011,"5102 CROSSWOOD AVE","BALTIMORE CITY","Maryland","21214",4
8012,"600 N CURLEY ST","BALTIMORE CITY","Maryland","21205",4
8013,"VIOLET AVE & OVERVIEW RD","BALTIMORE CITY","Maryland","21215",4
8014,"3709 OVERVIEW RD","BALTIMORE CITY","Maryland","21215",4
8015,"2800 MARYLAND AVE","BALTIMORE CITY","Maryland","21218",4
8016,"4013 FLEETWOOD AVE","BALTIMORE CITY","Maryland","21206",4
8017,"3538 E NORTHERN PKWY","BALTIMORE CITY","Maryland","21206",4
8018,"5206 ELEANORA AVE","BALTIMORE CITY","Maryland","21215",4
8019,"2900 REISTERSTOWN RD","BALTIMORE CITY","Maryland","21215",4
8020,"2900 VIOLET AVE","BALTIMORE CITY","Maryland","21215",4
8021,"2406 KEYWORTH AVE","BALTIMORE CITY","Maryland","21215",4
8022,"5400 LYNVIEW AVE","BALTIMORE CITY","Maryland","21215",4
8023,"3108 PINEWOOD AVE","BALTIMORE CITY","Maryland","21214",4
8024,"3300 ERDMAN AVE","BALTIMORE CITY","Maryland","21213",4
8025,"200 E PRATT ST","BALTIMORE CITY","Maryland","21202",4
8026,"5335 REISTERSTOWN RD","BALTIMORE CITY","Maryland","21215",4
8027,"2901 FOREST GLEN RD","BALTIMORE CITY","Maryland","21216",4
8028,"124 W READ ST","BALTIMORE CITY","Maryland","21201",4
8029,"845 PARK AVE","BALTIMORE CITY","Maryland","21201",4
8030,"1100 S PONCA ST","BALTIMORE CITY","Maryland","21224",4
8031,"W 37TH ST & ROLAND ELM","BALTIMORE CITY","Maryland","21211",4
8032,"6615 MAPLE AVE","BALTIMORE CITY","Maryland","21222",4
8033,"1900 SULGRAVE AVE","BALTIMORE CITY","Maryland","21209",4
8034,"1828 E 32ND ST","BALTIMORE CITY","Maryland","21218",4
8035,"5946 GLENKIRK RD","BALTIMORE CITY","Maryland","21239",4
8036,"2900 HILLEN RD","BALTIMORE CITY","Maryland","21218",4
8037,"400 N WASHINGTON ST","BALTIMORE CITY","Maryland","21231",4
8038,"1 N WASHINGTON ST","BALTIMORE CITY","Maryland","21231",4
8039,"E NORTHERN PKWY & HARFORD RD","BALTIMORE CITY","Maryland","21214",4
8040,"100 N WASHINGTON ST","BALTIMORE CITY","Maryland","21231",4
8041,"2825 CHESTERFIELD AVE","BALTIMORE CITY","Maryland","21213",4
8042,"S HANOVER ST & I 95 S","BALTIMORE CITY","Maryland","21230",4
8043,"SOUTHERN AVE & GILRAY DR","BALTIMORE CITY","Maryland","21214",4
8044,"10 W RANDALL ST","BALTIMORE CITY","Maryland","21230",4
8045,"500 OLD ORCHARD RD","BALTIMORE CITY","Maryland","21229",4
8046,"849 PARK AVE","BALTIMORE CITY","Maryland","21201",4
8047,"900 SARAH ANN ST","BALTIMORE CITY","Maryland","21223",4
8048,"4202 NADINE DR","BALTIMORE CITY","Maryland","21215",4
8049,"2100 DOBLER AVE","BALTIMORE CITY","Maryland","21218",4
8050,"3835 ELMORA AVE","BALTIMORE CITY","Maryland","21213",4
8051,"HARFORD RD &E NORTHERN PKWY","BALTIMORE CITY","Maryland","21214",4
8052,"100 N AMITY ST","BALTIMORE CITY","Maryland","21223",4
8053,"200 N CAREY ST","BALTIMORE CITY","Maryland","21223",4
8054,"300 N CAREY ST","BALTIMORE CITY","Maryland","21223",4
8055,"1420 HOLLINS ST","BALTIMORE CITY","Maryland","21223",4
8056,"1700 FREDERICK AVE","BALTIMORE CITY","Maryland","21223",4
8057,"2700 WESTFIELD AVE","BALTIMORE CITY","Maryland","21214",4
8058,"1644 BEASON ST","BALTIMORE CITY","Maryland","21230",4
8059,"5507 TRAMORE RD","BALTIMORE CITY","Maryland","21214",4
8060,"4433 RASPE AVE","BALTIMORE CITY","Maryland","21206",4
8061,"LAPLATA AVE &W OLD COLD SPRING LN","BALTIMORE CITY","Maryland","21211",4
8062,"512 N HIGHLAND AVE","BALTIMORE CITY","Maryland","21205",4
8063,"1700 WINDEMERE AVE","BALTIMORE CITY","Maryland","21218",4
8064,"5150 BALTIMORE NATIONAL PIKE","BALTIMORE CITY","Maryland","21229",4
8065,"4400 FALLS RD","BALTIMORE CITY","Maryland","21211",4
8066,"VERA ST","BALTIMORE CITY","Maryland","21226",4
8067,"WINDSOR MILL RD & WETHEREDSVILLE RD","BALTIMORE CITY","Maryland","21216",4
8068,"WINDSOR MILL CLIFTON & MONTICELLO RD","BALTIMORE CITY","Maryland","21216",4
8069,"CYLBURN AVE & GREENSPRING AVE","BALTIMORE CITY","Maryland","21209",4
8070,"2501 QUEEN ANNE RD","BALTIMORE CITY","Maryland","21216",4
8071,"445 N CURLEY ST","BALTIMORE CITY","Maryland","21205",4
8072,"CRAIG AVE & BEAUMONT AVE","BALTIMORE CITY","Maryland","21212",4
8073,"1010 BOOTH ST","BALTIMORE CITY","Maryland","21223",4
8074,"900 BOOTH ST","BALTIMORE CITY","Maryland","21223",4
8075,"1422 RAMSAY ST","BALTIMORE CITY","Maryland","21223",4
8076,"1825 COLE ST","BALTIMORE CITY","Maryland","21223",4
8077,"1800 COLE ST","BALTIMORE CITY","Maryland","21223",4
8078,"3738 BELAIR RD","BALTIMORE CITY","Maryland","21213",4
8079,"1600 COLE ST","BALTIMORE CITY","Maryland","21223",4
8080,"1500 COLE ST","BALTIMORE CITY","Maryland","21223",4
8081,"1543 COLE ST","BALTIMORE CITY","Maryland","21223",4
8082,"4100 HARFORD RD","BALTIMORE CITY","Maryland","21214",4
8083,"1500 COLE ST","BALTIMORE CITY","Maryland","21223",4
8084,"1813 RAMSAY ST","BALTIMORE CITY","Maryland","21223",4
8085,"1735 W PRATT ST","BALTIMORE CITY","Maryland","21223",4
8086,"900 W FAYETTE ST","BALTIMORE CITY","Maryland","21223",4
8087,"1200 W FAYETTE ST","BALTIMORE CITY","Maryland","21223",4
8088,"S HANOVER ST & CHERRY HILL RD","BALTIMORE CITY","Maryland","21225",4
8089,"HARFORD RD & WALTHER AVE","BALTIMORE CITY","Maryland","21214",4
8090,"PENTWOOD RD & LOCH RAVEN BLVD","BALTIMORE CITY","Maryland","21239",4
8091,"1400 N CAROLINE ST","BALTIMORE CITY","Maryland","21213",4
8092,"1209 DIVISION ST","BALTIMORE CITY","Maryland","21217",4
8093,"HARFORD RD & ARGONNE DR","BALTIMORE CITY","Maryland","21214",4
8094,"98 N BROADWAY","BALTIMORE CITY","Maryland","21231",4
8095,"3320 RICHMOND AVE","BALTIMORE CITY","Maryland","21213",4
8096,"3600 HARFORD RD","BALTIMORE CITY","Maryland","21218",4
8097,"WALTHER AVE & HARFORD RD","BALTIMORE CITY","Maryland","21214",4
8098,"3800 ELLERSLIE AVE","BALTIMORE CITY","Maryland","21218",4
8099,"S HANOVER & POTEE ST","BALTIMORE CITY","Maryland","21225",4
8100,"E 31ST ST & HILLEN RD","BALTIMORE CITY","Maryland","21218",4
8101,"900 ELLICOTT DWY","BALTIMORE CITY","Maryland","21216",4
8102,"N BROADWAY &E BALTIMORE ST","BALTIMORE CITY","Maryland","21231",4
8103,"BROENING HWY & HOLABIRD AVE","BALTIMORE CITY","Maryland","21224",4
8104,"3200 MILFORD AVE","BALTIMORE CITY","Maryland","21207",4
8105,"HARFORD RD & WALTHER AVE","BALTIMORE CITY","Maryland","21214",4
8106,"6600 LAURELTON AVE","BALTIMORE CITY","Maryland","21214",4
8107,"3800 TIVOLY AVE","BALTIMORE CITY","Maryland","21218",4
8108,"1511 UPSHIRE RD","BALTIMORE CITY","Maryland","21218",4
8109,"HARFORD RD & MONTEBELLO TER","BALTIMORE CITY","Maryland","21214",4
8110,"5400 TRAMORE RD","BALTIMORE CITY","Maryland","21214",4
8111,"HARFORD RD & CHESTERFIELD AVE","BALTIMORE CITY","Maryland","21218",4
8112,"1115 BRYN MAWR RD","BALTIMORE CITY","Maryland","21210",4
8113,"GREENSPRING AVE & DRUID PARK DR","BALTIMORE CITY","Maryland","21215",4
8114,"2200 WICOMICO ST","BALTIMORE CITY","Maryland","21230",4
8115,"2248 DRUID PARK DR","BALTIMORE CITY","Maryland","21211",4
8116,"4200 RAYMAR AVE","BALTIMORE CITY","Maryland","21206",4
8117,"1000 BOOTH ST","BALTIMORE CITY","Maryland","21223",4
8118,"1 N CARROLLTON AVE","BALTIMORE CITY","Maryland","21223",4
8119,"5800 THE ALAMEDA","BALTIMORE CITY","Maryland","21239",4
8120,"5904 HARFORD RD","BALTIMORE CITY","Maryland","21214",4
8121,"N CALVERT ST &E FAYETTE ST","BALTIMORE CITY","Maryland","21202",4
8122,"1101 DESOTO RD","BALTIMORE CITY","Maryland","21223",4
8123,"1301 W MOUNT ROYAL AVE","BALTIMORE CITY","Maryland","21217",4
8124,"4219 NICHOLAS AVE","BALTIMORE CITY","Maryland","21206",4
8125,"446 N HIGHLAND AVE","BALTIMORE CITY","Maryland","21224",4
8126,"5808 THE ALAMEDA","BALTIMORE CITY","Maryland","21239",4
8127,"2900 FALLSTAFF RD","BALTIMORE CITY","Maryland","21209",4
8128,"2900 FALLSTAFF RD","BALTIMORE CITY","Maryland","21209",4
8129,"326 N HILTON ST","BALTIMORE CITY","Maryland","21229",4
8130,"3100 BONNIE RD","BALTIMORE CITY","Maryland","21208",4
8131,"1400 W MOUNT ROYAL AVE","BALTIMORE CITY","Maryland","21217",4
8132,"7100 OLD HARFORD RD","BALTIMORE CITY","Maryland","21234",4
8133,"E MADISON ST &N BROADWAY","BALTIMORE CITY","Maryland","21205",4
8134,"320 N CAREY ST","BALTIMORE CITY","Maryland","21223",4
8135,"221 S WOODYEAR ST","BALTIMORE CITY","Maryland","21223",4
8136,"1 S GILMOR ST","BALTIMORE CITY","Maryland","21223",4
8137,"MANNASOTA AVE & BREHMS LN","BALTIMORE CITY","Maryland","21213",4
8138,"ANNAPOLIS RD","BALTIMORE CITY","Maryland","21230",4
8139,"4200 PRINCE GEORGE RD","BALTIMORE CITY","Maryland","21216",4
8140,"1400 GITTINGS CEDARCROFT","BALTIMORE CITY","Maryland","21239",4
8141,"1003 BOOTH ST","BALTIMORE CITY","Maryland","21223",4
8142,"1003 BOOTH ST","BALTIMORE CITY","Maryland","21223",4
8143,"1007 BOOTH ST","BALTIMORE CITY","Maryland","21223",4
8144,"1009 BOOTH ST","BALTIMORE CITY","Maryland","21223",4
8145,"2900 NORFOLK AVE","BALTIMORE CITY","Maryland","21215",4
8146,"2960 HILLEN RD","BALTIMORE CITY","Maryland","21218",4
8147,"BELLONA AVE & CEDARCROFT RD","BALTIMORE CITY","Maryland","21212",4
8148,"1118 BONAPARTE AVE","BALTIMORE CITY","Maryland","21218",4
8149,"2800 E FEDERAL ST","BALTIMORE CITY","Maryland","21213",4
8150,"E CROMWELL ST","BALTIMORE CITY","Maryland","21230",4
8151,"E NORTHERN PKWY & HARFORD RD","BALTIMORE CITY","Maryland","21214",4
8152,"HAMILTON AVE & WHITBY RD","BALTIMORE CITY","Maryland","21206",4
8153,"CYLBURN AVE & GREENSPRING AVE","BALTIMORE CITY","Maryland","21215",4
8154,"E 27TH ST & MATHEWS ST","BALTIMORE CITY","Maryland","21218",4
8155,"144 ALLENDALE ST","BALTIMORE CITY","Maryland","21229",4
8156,"3004 NORTHWAY DR","BALTIMORE CITY","Maryland","21234",4
8157,"129 N HIGHLAND AVE","BALTIMORE CITY","Maryland","21224",4
8158,"N CHARLES ST &W HIGHFIELD RD","BALTIMORE CITY","Maryland","21218",4
8159,"201 S EAST AVE","BALTIMORE CITY","Maryland","21224",4
8160,"1519 OLIVE ST","BALTIMORE CITY","Maryland","21230",4
8161,"928 CATHEDRAL ST","BALTIMORE CITY","Maryland","21201",4
8162,"100 S EAST AVE","BALTIMORE CITY","Maryland","21224",4
8163,"3800 CALLAWAY AVE","BALTIMORE CITY","Maryland","21215",4
8164,"3600 CALLAWAY AVE","BALTIMORE CITY","Maryland","21215",4
8165,"3500 CALLAWAY AVE","BALTIMORE CITY","Maryland","21215",4
8166,"3400 CALLAWAY AVE","BALTIMORE CITY","Maryland","21215",4
8167,"400 S CHESTER ST","BALTIMORE CITY","Maryland","21231",4
8168,"219 PRESIDENT ST","BALTIMORE CITY","Maryland","21202",4
8169,"3300 PINKNEY RD","BALTIMORE CITY","Maryland","21215",4
8170,"E 30TH ST &N CHARLES ST","BALTIMORE CITY","Maryland","21218",4
8171,"3502 THE ALAMEDA","BALTIMORE CITY","Maryland","21218",4
8172,"3908 ROSECREST AVE","BALTIMORE CITY","Maryland","21215",4
8173,"100 WITHERSPOON RD","BALTIMORE CITY","Maryland","21212",4
8174,"800 RAPPOLLA ST","BALTIMORE CITY","Maryland","21224",4
8175,"GRENTON AVE & SIMMS AVE","BALTIMORE CITY","Maryland","21206",4
8176,"1301 CROFTON RD","BALTIMORE CITY","Maryland","21239",4
8177,"E NORTHERN PKWY & MARIETTA AVE","BALTIMORE CITY","Maryland","21214",4
8178,"2600 MADISON AVE","BALTIMORE CITY","Maryland","21217",4
8179,"2438 EUTAW PL","BALTIMORE CITY","Maryland","21217",4
8180,"4510 BELVIEU AVE","BALTIMORE CITY","Maryland","21215",4
8181,"55 MARKET PL","BALTIMORE CITY","Maryland","21202",4
8182,"2100 DOBLER AVE","BALTIMORE CITY","Maryland","21218",4
8183,"3600 RAVENWOOD AVE","BALTIMORE CITY","Maryland","21213",4
8184,"3300 BELAIR RD","BALTIMORE CITY","Maryland","21213",4
8185,"6200 BECKLEY ST","BALTIMORE CITY","Maryland","21224",4
8186,"3800 SINCLAIR LN","BALTIMORE CITY","Maryland","21213",4
8187,"1209 SABINA AVE","BALTIMORE CITY","Maryland","21209",4
8188,"4800 CHARLESTON ST","BALTIMORE CITY","Maryland","21225",4
8189,"E 28TH ST & ST PAUL ST","BALTIMORE CITY","Maryland","21218",4
8190,"236 N PAYSON ST","BALTIMORE CITY","Maryland","21223",4
8191,"3900 E LOMBARD ST","BALTIMORE CITY","Maryland","21224",4
8192,"EVERALL AVE & MAYBERRY AVE","BALTIMORE CITY","Maryland","21206",4
8193,"N CAROLINE ST & ORLEANS ST","BALTIMORE CITY","Maryland","21202",4
8194,"800 N DUKELAND ST","BALTIMORE CITY","Maryland","21216",4
8195,"N CAROLINE ST & MCELDERRY ST","BALTIMORE CITY","Maryland","21202",4
8196,"425 N CHESTER ST","BALTIMORE CITY","Maryland","21231",4
8197,"1227 HAUBERT ST","BALTIMORE CITY","Maryland","21230",4
8198,"3310 RUECKERT AVE","BALTIMORE CITY","Maryland","21214",4
8199,"3207 MARY AVE","BALTIMORE CITY","Maryland","21214",4
8200,"4131 BUENA VISTA AVE","BALTIMORE CITY","Maryland","21211",4
8201,"220 GOODALE RD","BALTIMORE CITY","Maryland","21212",4
8202,"220 GOODALE RD","BALTIMORE CITY","Maryland","21212",4
8203,"1100 LOVEGROVE ST","BALTIMORE CITY","Maryland","21201",4
8204,"MILLINGTON AVE & SAINT BENEDICT ST","BALTIMORE CITY","Maryland","21223",4
8205,"1209 SABINA AVE","BALTIMORE CITY","Maryland","21209",4
8206,"5300 TILBURY WAY","BALTIMORE CITY","Maryland","21212",4
8207,"E 28TH ST &N CHARLES ST","BALTIMORE CITY","Maryland","21218",4
8208,"BARCLAY ST &E 28TH ST","BALTIMORE CITY","Maryland","21218",4
8209,"E 28TH ST & GUILFORD AVE","BALTIMORE CITY","Maryland","21218",4
8210,"7509 HARFORD RD","BALTIMORE CITY","Maryland","21234",4
8211,"3400 WILKENS AVE","BALTIMORE CITY","Maryland","21229",4
8212,"LAMLEY ST &N MADEIRA ST","BALTIMORE CITY","Maryland","21231",4
8213,"20 INDIAN LN","BALTIMORE CITY","Maryland","21210",4
8214,"1701 SULGRAVE AVE","BALTIMORE CITY","Maryland","21209",4
8215,"4700 YELLOWWOOD AVE","BALTIMORE CITY","Maryland","21209",4
8216,"4131 BUENA VISTA AVE","BALTIMORE CITY","Maryland","21211",4
8217,"3900 GLENGYLE AVE","BALTIMORE CITY","Maryland","21215",4
8218,"2205 E COLD SPRING LN","BALTIMORE CITY","Maryland","21214",4
8219,"13 S PULASKI ST","BALTIMORE CITY","Maryland","21223",4
8220,"2400 N FOREST PARK AVE","BALTIMORE CITY","Maryland","21207",4
8221,"4500 WAKEFIELD RD","BALTIMORE CITY","Maryland","21216",4
8222,"CLYDESDALE AVE & MEDFIELD AVE","BALTIMORE CITY","Maryland","21211",4
8223,"3905 MAYBERRY AVE","BALTIMORE CITY","Maryland","21206",4
8224,"2808 ROUND RD","BALTIMORE CITY","Maryland","21225",4
8225,"4600 LIBERTY HEIGHTS AVE","BALTIMORE CITY","Maryland","21207",4
8226,"3500 GREENSPRING AVE","BALTIMORE CITY","Maryland","21211",4
8227,"5700 EDGEPARK RD","BALTIMORE CITY","Maryland","21239",4
8228,"6100 GREEN MEADOW PKWY","BALTIMORE CITY","Maryland","21209",4
8229,"3304 SPAULDING AVE","BALTIMORE CITY","Maryland","21215",4
8230,"2500 W PATAPSCO AVE","BALTIMORE CITY","Maryland","21230",4
8231,"W GRISWALD LN & EDGEVALE RD","BALTIMORE CITY","Maryland","21210",4
8232,"2100 E COLD SPRING LN","BALTIMORE CITY","Maryland","21214",4
8233,"1320 N BROADWAY","BALTIMORE CITY","Maryland","21213",4
8234,"E BIDDLE ST &N CHESTER ST","BALTIMORE CITY","Maryland","21213",4
8235,"1837 N SPRING ST","BALTIMORE CITY","Maryland","21213",4
8236,"2426 E BALTIMORE ST","BALTIMORE CITY","Maryland","21224",4
8237,"1828 E 32ND ST","BALTIMORE CITY","Maryland","21218",4
8238,"3742 ELMLEY AVE","BALTIMORE CITY","Maryland","21213",4
8239,"1808 N BENTALOU ST","BALTIMORE CITY","Maryland","21216",4
8240,"4811 RICHARD AVE","BALTIMORE CITY","Maryland","21214",4
8241,"6106 IVYMOUNT RD","BALTIMORE CITY","Maryland","21209",4
8242,"2241 E MONUMENT ST","BALTIMORE CITY","Maryland","21205",4
8243,"6200 GREEN MEADOW PKWY","BALTIMORE CITY","Maryland","21209",4
8244,"5811 MERVILLE AVE","BALTIMORE CITY","Maryland","21215",4
8245,"1659 N BENTALOU ST","BALTIMORE CITY","Maryland","21216",4
8246,"E NORTH AVE & GREENMOUNT AVE","BALTIMORE CITY","Maryland","21202",4
8247,"611 E 33RD ST","BALTIMORE CITY","Maryland","21218",4
8248,"1933 VINE ST","BALTIMORE CITY","Maryland","21223",4
8249,"7603 BAGLEY AVE","BALTIMORE CITY","Maryland","21234",4
8250,"2700 WOODVIEW RD","BALTIMORE CITY","Maryland","21225",4
8251,"3200 BOSTON ST","BALTIMORE CITY","Maryland","21224",4
8252,"3600 BELLE AVE","BALTIMORE CITY","Maryland","21215",4
8253,"5531 PLAINFIELD AVE","BALTIMORE CITY","Maryland","21206",4
8254,"1400 GITTINGS AVE","BALTIMORE CITY","Maryland","21239",4
8255,"UNION AVE & I 83 S","BALTIMORE CITY","Maryland","21211",4
8256,"4310 GLENMORE AVE","BALTIMORE CITY","Maryland","21206",4
8257,"4900 ROLAND AVE","BALTIMORE CITY","Maryland","21210",4
8258,"808 WINANS WAY","BALTIMORE CITY","Maryland","21229",4
8259,"1054 N IRIS AVE","BALTIMORE CITY","Maryland","21205",4
8260,"4015 FOSTER AVE","BALTIMORE CITY","Maryland","21224",4
8261,"4599 VIRGINIA AVE","BALTIMORE CITY","Maryland","21225",4
8262,"HARGROVE ALY &E 31ST ST","BALTIMORE CITY","Maryland","21218",4
8263,"515 OVERDALE RD","BALTIMORE CITY","Maryland","21229",4
8264,"1200 DIVISION ST","BALTIMORE CITY","Maryland","21217",4
8265,"109 FIRESIDE CIR","BALTIMORE CITY","Maryland","21212",4
8266,"206 NORTHFIELD PL","BALTIMORE CITY","Maryland","21210",4
8267,"2320 ANOKA AVE","BALTIMORE CITY","Maryland","21215",4
8268,"5807 LEITH WALK","BALTIMORE CITY","Maryland","21239",4
8269,"3560 S HANOVER ST","BALTIMORE CITY","Maryland","21225",4
8270,"1410 S HANOVER ST","BALTIMORE CITY","Maryland","21230",4
8271,"1200 S HANOVER ST","BALTIMORE CITY","Maryland","21230",4
8272,"6600 WALTHER AVE","BALTIMORE CITY","Maryland","21206",4
8273,"1700 W PRATT ST","BALTIMORE CITY","Maryland","21223",4
8274,"6000 PINEHURST RD","BALTIMORE CITY","Maryland","21212",4
8275,"103 N KRESSON ST","BALTIMORE","Maryland","21224",4
8276,"453 GRINDALL ST","BALTIMORE","Maryland","21230",4
8277,"4600 MARY AVE","BALTIMORE","Maryland","21206",4
8278,"FALLSTAFF RD & LABYRINTH RD, BALTIMORE,",NA,"Maryland",NA,4
8279,"WILLOWTON AVE","BALTIMORE","Maryland","21239",4
8280,"4400 ROKEBY RD","BALTIMORE","Maryland","21229",4
8281,"3115 WALBROOK AVE","BALTIMORE","Maryland","21216",4
8282,"499 WILSON ST","BALTIMORE","Maryland","21217",4
8283,"4000 TIVOLY AVE","BALTIMORE","Maryland","21218",4
8284,"N FRANKLINTOWN RD &W FRANKLIN ST","BALTIMORE","Maryland","21223",4
8285,"7033 WALLIS AVE","BALTIMORE","Maryland","21215",4
8286,"2303 BROOKFIELD AVE","BALTIMORE","Maryland","21217",4
8287,"600 CHERRY HILL RD","BALTIMORE","Maryland","21225",4
8288,"3900 DORCHESTER RD","BALTIMORE","Maryland","21207",4
8289,"2403 TOLLEY ST","BALTIMORE","Maryland","21230",4
8290,"333 S WOODYEAR ST","BALTIMORE","Maryland","21223",4
8291,"6 COTSWOLD RD","BALTIMORE","Maryland","21210",4
8292,"5042 ORVILLE AVE","BALTIMORE","Maryland","21205",4
8293,"3400 PINKNEY RD","BALTIMORE","Maryland","21215",4
8294,"4016 MORAVIA RD","BALTIMORE","Maryland","21206",4
8295,"6 COTSWOLD RD","BALTIMORE","Maryland","21210",4
8296,"EDMONDSON AVE & UPLANDS PKWY, BALTIMORE,",NA,"Maryland",NA,4
8297,"25 S CONKLING ST","BALTIMORE","Maryland","21224",4
8298,"6200 HILLTOP AVE","BALTIMORE","Maryland","21206",4
8299,"3640 RAYMONN AVE","BALTIMORE","Maryland","21213",4
8300,"1719 PONCABIRD PASS","BALTIMORE","Maryland","21224",4
8301,"2816 BERWICK AVE","BALTIMORE","Maryland","21234",4
8302,"5200 TRAMORE RD","BALTIMORE","Maryland","21214",4
8303,"6509 ROSEMONT AVE","BALTIMORE","Maryland",NA,4
8304,"723 ARGONNE DR","BALTIMORE","Maryland","21218",4
8305,"5800 WALTHER AVE","BALTIMORE","Maryland","21206",4
8306,"440 E FEDERAL ST","BALTIMORE","Maryland","21202",4
8307,"E ARLINGTON AVE & FENWICK AVE, BALTIMORE",NA,"Maryland",NA,4
8308,"4200 EDMONDSON AVE","BALTIMORE","Maryland",NA,4
8309,"700 NORTH POINT RD","BALTIMORE","Maryland","21224",4
8310,"5210 SIPPLE AVE","BALTIMORE","Maryland","21206",4
8311,"620 FALLSWAY","BALTIMORE","Maryland","21202",4
8312,"1300 MERIDENE DR","BALTIMORE","Maryland","21239",4
8313,"429 E LANVALE ST","BALTIMORE","Maryland","21202",4
8314,"500 E LEXINGTON ST","BALTIMORE","Maryland","21202",4
8315,"1600 N SPRING ST","BALTIMORE","Maryland","21213",4
8316,"6722 WESTBROOK RD","BALTIMORE","Maryland","21215",4
8317,"5 MILLBROOK RD","BALTIMORE","Maryland","21218",4
8318,"103 N KRESSON ST","BALTIMORE","Maryland","21224",4
8319,"3326 ELLERSLIE AVE","BALTIMORE","Maryland","21218",4
8320,"6 COTSWOLD RD","BALTIMORE","Maryland","21210",4
8321,"1700 N FULTON AVE","BALTIMORE","Maryland","21217",4
8322,"5019 ARBUTUS AVE","BALTIMORE","Maryland","21215",4
8323,"3309 MCELDERRY ST","BALTIMORE","Maryland","21205",4
8324,"3111 WHITE AVE","BALTIMORE","Maryland","21214",4
8325,"6301 MCCLEAN BLVD","BALTIMORE","Maryland","21214",4
8326,"505 S LINWOOD AVE","BALTIMORE","Maryland","21224",4
8327,"859 LENTON AVE","BALTIMORE","Maryland","21212",4
8328,"2055 ROCKROSE AVE","BALTIMORE","Maryland","21211",4
8329,"400 N WARWICK AVE","BALTIMORE","Maryland","21223",4
8330,"E FAYETTE ST &N ELLWOOD AVE","BALTIMORE","Maryland","21224",4
8331,"7017 WALLIS AVE","BALTIMORE","Maryland","21215",4
8332,"3500 PINKNEY RD","BALTIMORE","Maryland","21215",4
8333,"1800 E EAGER ST","BALTIMORE","Maryland","21205",4
8334,"306 S NEWKIRK ST","BALTIMORE","Maryland","21224",4
8335,"2225 E MONUMENT ST","BALTIMORE","Maryland","21205",4
8336,"E 25TH ST & SAINT PAUL ST","BALTIMORE","Maryland","21218",4
8337,"3000 PINEWOOD AVE","BALTIMORE","Maryland","21214",4
8338,"1110 W 38TH ST","BALTIMORE","Maryland","21211",4
8339,"LAKE AVE & CURRAN DR, BALTIMORE, MD, 212",NA,"Maryland",NA,4
8340,"800 S BOULDIN ST","BALTIMORE","Maryland","21224",4
8341,"154 S HILTON ST","BALTIMORE","Maryland","21229",4
8342,"2500 W COLD SPRING LN","BALTIMORE","Maryland","21215",4
8343,"600 E 29TH ST","BALTIMORE","Maryland","21218",4
8344,"4100 WINDSOR MILL RD","BALTIMORE","Maryland","21216",4
8345,"1300 EASTERN AVE","BALTIMORE","Maryland","21231",4
8346,"ASHLAND AVE &N CASTLE ST","BALTIMORE","Maryland","21205",4
8347,"7400 HARFORD RD","BALTIMORE","Maryland","21234",4
8348,"W FRANKLIN ST &N FRANKLINTOWN RD","BALTIMORE","Maryland","21223",4
8349,"TOWANDA AVE & OSWEGO AVE, BALTIMORE, MD,",NA,"Maryland",NA,4
8350,"300 PRESSTMAN ST","BALTIMORE","Maryland","21217",4
8351,"700 N EUTAW ST","BALTIMORE","Maryland","21201",4
8352,"3100 SHELBURNE RD","BALTIMORE","Maryland","21208",4
8353,"1015 SAINT DUNSTANS RD","BALTIMORE","Maryland","21212",4
8354,"6200 PLYMOUTH RD","BALTIMORE","Maryland","21214",4
8355,"912 W NORTHERN PKWY","BALTIMORE","Maryland","21210",4
8356,"3935 KESWICK RD","BALTIMORE","Maryland","21211",4
8357,"5207 BOSWORTH AVE","BALTIMORE","Maryland","21207",4
8358,"109 ELMHURST RD","BALTIMORE","Maryland","21210",4
8359,"6700 HARFORD RD","BALTIMORE","Maryland","21214",4
8360,"1400 N ROSEDALE ST","BALTIMORE","Maryland","21216",4
8361,"1510 BATTERY AVE","BALTIMORE","Maryland","21230",4
8362,"5800 RUSHBROOK RD","BALTIMORE","Maryland","21212",4
8363,"3200 W LEXINGTON ST","BALTIMORE","Maryland","21229",4
8364,"517 S COLLINGTON AVE","BALTIMORE","Maryland","21231",4
8365,"200 S CATON AVE","BALTIMORE","Maryland","21229",4
8366,"N HOWARD ST & PARK AVE","BALTIMORE","Maryland","21201",4
8367,"2219 CHESTERFIELD AVE","BALTIMORE","Maryland","21213",4
8368,"801 DRUID PARK LAKE DR","BALTIMORE","Maryland","21217",4
8369,"GIST AVE & LEWISTON AVE","BALTIMORE","Maryland","21215",4
8370,"600 HARWOOD AVE","BALTIMORE","Maryland","21212",4
8371,"5000 EUGENE AVE","BALTIMORE","Maryland","21206",4
8372,"2815 CLEARVIEW AVE","BALTIMORE","Maryland","21234",4
8373,"1001 W CROSS ST","BALTIMORE","Maryland","21230",4
8374,"2700 SEVILLE AVE","BALTIMORE","Maryland","21215",4
8375,"861 LENTON AVE","BALTIMORE","Maryland","21212",4
8376,"OLD HARFORD RD & E NORTHERN PKWY, BALTIM",NA,"Maryland",NA,4
8377,"3600 W GARRISON AVE","BALTIMORE","Maryland","21215",4
8378,"5801 HARFORD RD","BALTIMORE","Maryland","21214",4
8379,"YELLOWWOOD AVE & SPRINGARDEN DR, BALTIMO",NA,"Maryland",NA,4
8380,"1901 E LOMBARD ST","BALTIMORE","Maryland","21231",4
8381,"320 E 20TH ST","BALTIMORE","Maryland","21218",4
8382,"3410 BONNIE RD","BALTIMORE","Maryland",NA,4
8383,"1902 N FOREST PARK AVE","BALTIMORE","Maryland","21207",4
8384,"N HOWARD ST & DOLPHIN ST, BALTIMORE, MD,","BALTIMORE","Maryland","21201",4
8385,"REISTERSTOWN RD & ROCKFIELD AVE, BALTIMO",NA,"Maryland",NA,4
8386,"6600 DANVILLE AVE","BALTIMORE","Maryland","21224",4
8387,"1120 W LOMBARD ST","BALTIMORE","Maryland","21223",4
8388,"500 KANE ST","BALTIMORE","Maryland","21224",4
8389,"5021 BRIARCLIFT RD","BALTIMORE","Maryland","21229",4
8390,"6 COTSWOLD RD","BALTIMORE","Maryland","21210",4
8391,"25 N ELLWOOD AVE","BALTIMORE","Maryland","21224",4
8392,"EDMONDSON AVE & POPLAR GROVE ST, BALTIMO",NA,"Maryland",NA,4
8393,"2943 N CHARLES ST","BALTIMORE","Maryland","21218",4
8394,"4200 W ROGERS AVE","BALTIMORE","Maryland","21215",4
8395,"2200 PRESSTMAN ST","BALTIMORE","Maryland","21216",4
8396,"505 S CLINTON ST","BALTIMORE","Maryland","21224",4
8397,"1500 NORTHGATE RD","BALTIMORE","Maryland","21218",4
8398,"HAMPDEN AVE & W 23RD ST, BALTIMORE, MD,",NA,"Maryland",NA,4
8399,"ALHAMBRA AVE & SHERIDAN AVE","BALTIMORE","Maryland","21212",4
8400,"N CHARLES ST & E COLD SPRING LN, BALTIMO",NA,"Maryland",NA,4
8401,"5645 KAVON AVE","BALTIMORE","Maryland","21206",4
8402,"BROOKLYN AVE & E PATAPSCO AVE, BALTIMORE",NA,"Maryland",NA,4
8403,"1000 FRANKFURST AVE","BALTIMORE","Maryland","21226",4
8404,"5003 HOLABIRD AVE","BALTIMORE","Maryland","21224",4
8405,"3500 KAVON AVE","BALTIMORE","Maryland","21213",4
8406,"2100 W LAFAYETTE AVE","BALTIMORE","Maryland","21217",4
8407,"4810 LIBERTY HEIGHTS AVE","BALTIMORE","Maryland","21207",4
8408,"100 S MONASTERY AVE","BALTIMORE","Maryland","21229",4
8409,"1 W CONWAY ST","BALTIMORE","Maryland","21201",4
8410,"4650 PARKTON ST","BALTIMORE","Maryland",NA,4
8411,"807 COOKS LN","BALTIMORE","Maryland","21229",4
8412,"1946 LIGHT ST","BALTIMORE","Maryland","21230",4
8413,"2003 OAKINGTON ST","BALTIMORE","Maryland","21211",4
8414,"68 N CULVER ST","BALTIMORE","Maryland","21229",4
8415,"THE ALAMEDA & LINWORTH AVE","BALTIMORE","Maryland","21239",4
8416,"5300 SAINT ALBANS WAY","BALTIMORE","Maryland","21212",4
8417,"6015 OLD HARFORD RD","BALTIMORE","Maryland","21214",4
8418,"LAWRENCE AVE & WOOD HEIGHTS AVE","BALTIMORE","Maryland","21211",4
8419,"7 LIGHT ST","BALTIMORE","Maryland","21202",4
8420,"2200 TACOMA ST","BALTIMORE","Maryland","21230",4
8421,"ROSELAWN AVE & PLYMOUTH RD","BALTIMORE","Maryland","21214",4
8422,"1200 E NORTH AVE","BALTIMORE","Maryland","21202",4
8423,"4100 GREENBRIER AVE","BALTIMORE","Maryland","21206",4
8424,"3600 FALLSTAFF RD","BALTIMORE","Maryland","21215",4
8425,"2348 WALDO CT","BALTIMORE","Maryland","21205",4
8426,"4119 SAINT GEORGES AVE","BALTIMORE","Maryland","21218",4
8427,"1100 RAMBLEWOOD RD","BALTIMORE","Maryland","21239",4
8428,"W FRANKLIN ST & PENNSYLVANIA AVE","BALTIMORE","Maryland","21201",4
8429,"3329 ELMORA AVE","BALTIMORE","Maryland","21213",4
8430,"3300 JEFFERSON ST","BALTIMORE","Maryland","21224",4
8431,"2017 FLEET ST","BALTIMORE","Maryland","21231",4
8432,"4913 MIDWOOD AVE","BALTIMORE","Maryland","21212",4
8433,"2512 E FAYETTE ST","BALTIMORE","Maryland","21224",4
8434,"WEGWORTH LN","BALTIMORE","Maryland","21230",4
8435,"1115 W 42ND ST","BALTIMORE","Maryland",NA,4
8436,"700 E 33RD ST","BALTIMORE","Maryland","21218",4
8437,"5030 EDGAR TERR","BALTIMORE","Maryland","21214",4
8438,"4060 THE ALAMEDA","BALTIMORE","Maryland","21218",4
8439,"3419 GUILFORD TER","BALTIMORE","Maryland","21218",4
8440,"2500 MCELDERRY ST","BALTIMORE","Maryland","21205",4
8441,"800 BRINKWOOD RD","BALTIMORE","Maryland","21229",4
8442,"5117 HERRING RUN DR","BALTIMORE","Maryland","21214",4
8443,"2121 ALLENDALE RD","BALTIMORE","Maryland","21216",4
8444,"25 W HUGHES ST","BALTIMORE","Maryland","21230",4
8445,"3121 O'DONNELL ST","BALTIMORE","Maryland","21224",4
8446,"3702 FORDS LN","BALTIMORE","Maryland",NA,4
8447,"3014 ROYSTON AVE","BALTIMORE","Maryland",NA,4
8448,"4815 THE ALAMEDA","BALTIMORE","Maryland","21239",4
8449,"1933 EUTAW PL","BALTIMORE","Maryland","21217",4
8450,"200 E COLD SPRING LN","BALTIMORE","Maryland","21218",4
8451,"2704 W FRANKLIN ST","BALTIMORE","Maryland","21223",4
8452,"2042 EASTERN AVE","BALTIMORE","Maryland","21231",4
8453,"3400 WILKENS AVE","BALTIMORE","Maryland","21229",4
8454,"104 TAPLOW RD","BALTIMORE","Maryland","21212",4
8455,"OAKLAND AVE & YORK RD, BALTIMORE, MD, 21",NA,"Maryland",NA,4
8456,"2801 JOPLEA AVE","BALTIMORE","Maryland","21225",4
8457,"W NORTH AVE & N HILTON ST, BALTIMORE, MD",NA,"Maryland",NA,4
8458,"1400 W BALTIMORE ST","BALTIMORE","Maryland","21223",4
8459,"5600 WESLEY AVE","BALTIMORE","Maryland","21207",4
8460,"4301 GREENWAY","BALTIMORE","Maryland","21218",4
8461,"4627 NORTHWOOD DR","BALTIMORE","Maryland","21239",4
8462,"1328 TOMPKINS ST","BALTIMORE","Maryland","21225",4
8463,"HAMILTON AVE & CEDONIA AVE, BALTIMORE, M",NA,"Maryland",NA,4
8464,"5600 LOCH RAVEN BLVD","BALTIMORE","Maryland","21239",4
8465,"3225 FLEET ST","BALTIMORE","Maryland","21224",4
8466,"3100 PARKSIDE DR","BALTIMORE","Maryland","21214",4
8467,"443 YALE AVE","BALTIMORE","Maryland","21229",4
8468,"5105 HOLABIRD AVE","BALTIMORE","Maryland","21224",4
8469,"1918 ORLEANS ST","BALTIMORE","Maryland","21231",4
8470,"3200 PULASKI HWY","BALTIMORE","Maryland","21224",4
8471,"6400 CEDONIA AVE","BALTIMORE","Maryland","21206",4
8472,"3000 DILLON ST","BALTIMORE","Maryland","21224",4
8473,"5000 MIDWOOD AVE","BALTIMORE","Maryland","21212",4
8474,"100 N CALHOUN ST","BALTIMORE","Maryland","21223",4
8475,"2001 BELAIR RD","BALTIMORE","Maryland","21213",4
8476,"101 N FREDERICK ST","BALTIMORE","Maryland","21202",4
8477,"3800 SINCLAIR LN","BALTIMORE","Maryland","21213",4
8478,"800 W 34TH ST","BALTIMORE","Maryland","21211",4
8479,"1548 UPSHIRE RD","BALTIMORE","Maryland","21218",4
8480,"201 PEARL ST","BALTIMORE","Maryland","21201",4
8481,"900 BRADDISH AVE","BALTIMORE","Maryland","21216",4
8482,"1557 CARSWELL ST","BALTIMORE","Maryland","21218",4
8483,"1422 GITTINGS AVE","BALTIMORE","Maryland","21239",4
8484,"441 PITMAN PL","BALTIMORE","Maryland","21202",4
8485,"2800 N CALVERT ST","BALTIMORE","Maryland","21218",4
8486,"201 N HIGHLAND AVE","BALTIMORE","Maryland","21224",4
8487,"1000 OGDEN ST","BALTIMORE","Maryland","21224",4
8488,"6050 MORAVIA PARK DR","BALTIMORE","Maryland","21206",4
8489,"214 GOODALE RD","BALTIMORE","Maryland","21212",4
8490,"N WOLFE ST & MCELDERRY ST, BALTIMORE, MD",NA,"Maryland",NA,4
8491,"4000 MASSACHUSETTS AVE","BALTIMORE","Maryland","21229",4
8492,"3415 PINEWOOD AVE","BALTIMORE","Maryland","21206",4
8493,"27 N KOSSUTH ST","BALTIMORE","Maryland","21229",4
8494,"GREENMOUNT AVE & E 25TH ST, BALTIMORE, M",NA,"Maryland",NA,4
8495,"SAINT DUNSTANS RD & BELLONA AVE, BALTIMO",NA,"Maryland","21212",4
8496,"219 PRESIDENT ST","BALTIMORE","Maryland","21202",4
8497,"3009 ROSELAWN AVE","BALTIMORE","Maryland","21214",4
8498,"SINCLAIR LN & BELAIR RD","BALTIMORE","Maryland","21213",4
8499,"1820 EUTAW PL","BALTIMORE","Maryland","21217",4
8500,"3600 BELAIR RD","BALTIMORE","Maryland","21213",4
8501,"100 MOSHER ST","BALTIMORE","Maryland","21217",4
8502,"2500 HERMOSA AVE","BALTIMORE","Maryland","21214",4
8503,"DRUID PARK LAKE DR & DRUID HILL AVE, BAL",NA,"Maryland",NA,4
8504,"BELLEVALE AVE & MOYER AVE","BALTIMORE","Maryland","21206",4
8505,"164 N GAY ST","BALTIMORE","Maryland","21202",4
8506,"S HANOVER ST &E MCCOMAS ST","BALTIMORE","Maryland","21230",4
8507,"631 WHITELOCK ST","BALTIMORE","Maryland","21217",4
8508,"5700 THE ALAMEDA","BALTIMORE","Maryland","21239",4
8509,"2804 N HOWARD ST","BALTIMORE","Maryland","21218",4
8510,"2900 EDISON HWY","BALTIMORE","Maryland","21213",4
8511,"1600 N HILTON ST","BALTIMORE","Maryland","21216",4
8512,"1205 S HANOVER ST","BALTIMORE","Maryland","21230",4
8513,"1846 BYRD ST","BALTIMORE","Maryland","21230",4
8514,"CROSS COUNTRY BLVD & KELLY AVE, BALTIMOR","BALTIMORE","Maryland",NA,4
8515,"128 N PACA ST","BALTIMORE","Maryland","21201",4
8516,"5429 FORCE RD","BALTIMORE","Maryland","21206",4
8517,"213 S CHESTER ST","BALTIMORE","Maryland","21231",4
8518,"500 EVESHAM AVE","BALTIMORE","Maryland","21212",4
8519,"3700 PENNINGTON AVE","BALTIMORE","Maryland","21226",4
8520,"6700 EASTERN AVE","BALTIMORE","Maryland","21224",4
8521,"108 E NORTHERN PKWY","BALTIMORE","Maryland","21212",4
8522,"3058 BRIGHTON ST","BALTIMORE","Maryland","21216",4
8523,"3900 SOUTHERN AVE","BALTIMORE","Maryland","21206",4
8524,"3318 DORCHESTER RD","BALTIMORE","Maryland","21215",4
8525,"S HANOVER & POTEE ST","BALTIMORE","Maryland","21225",4
8526,"502 E 39TH ST","BALTIMORE","Maryland","21218",4
8527,"4500 MARY AVE","BALTIMORE","Maryland","21206",4
8528,"7200 PARK HEIGHTS AVE","BALTIMORE","Maryland","21208",4
8529,"2159 HARMAN AVE","BALTIMORE","Maryland","21230",4
8530,"2900 STRICKLAND ST","BALTIMORE","Maryland","21223",4
8531,"5900 BENTON HEIGHTS AVE","BALTIMORE","Maryland","21206",4
8532,"3200 PRESSTMAN ST","BALTIMORE","Maryland","21216",4
8533,"2800 WINCHESTER ST","BALTIMORE","Maryland","21216",4
8534,"4103 FERNHILL AVE","BALTIMORE","Maryland","21215",4
8535,"4104 SPRINGDALE AVE","BALTIMORE","Maryland","21207",4
8536,"400 S DUNCAN ST","BALTIMORE","Maryland","21231",4
8537,"1000 S CONKLING ST","BALTIMORE","Maryland","21224",4
8538,"1652 UNION AVE","BALTIMORE","Maryland","21211",4
8539,"1110 KELLY PL","BALTIMORE","Maryland","21211",4
8540,"2808 HAMILTON AVE","BALTIMORE","Maryland","21214",4
8541,"400 WELLESLEY ST","BALTIMORE","Maryland","21229",4
8542,"205 E 32ND ST","BALTIMORE","Maryland","21218",4
8543,"5200 HAMPNETT AVE","BALTIMORE","Maryland","21214",4
8544,"1715 E FAIRMOUNT AVE","BALTIMORE","Maryland","21231",4
8545,"2029 MAISEL ST","BALTIMORE","Maryland","21230",4
8546,"5307 BELAIR RD","BALTIMORE","Maryland","21206",4
8547,"3100 N CHARLES ST","BALTIMORE","Maryland","21211",4
8548,"1410 DRUID HILL AVE","BALTIMORE","Maryland","21217",4
8549,"5903 LEITH WALK","BALTIMORE","Maryland","21239",4
8550,"200 BATH ST","BALTIMORE","Maryland","21202",4
8551,"2500 PURNELL DR","BALTIMORE","Maryland","21207",4
8552,"5403 SAINT ALBANS WAY","BALTIMORE","Maryland","21212",4
8553,"N KOSSUTH ST &N HILTON ST","BALTIMORE","Maryland","21229",4
8554,"3309 MCELDERRY ST","BALTIMORE","Maryland","21205",4
8555,"4800 E LOMBARD ST","BALTIMORE","Maryland","21224",4
8556,"209 N LINWOOD AVE","BALTIMORE","Maryland","21224",4
8557,"634 BURGUNDY ST","BALTIMORE","Maryland","21230",4
8558,"4400 WAKEFIELD RD","BALTIMORE","Maryland","21216",4
8559,"5600 NORTHWOOD DR","BALTIMORE","Maryland","21212",4
8560,"5722 UFFINGTON RD","BALTIMORE","Maryland","21209",4
8561,"1835 E BALTIMORE ST","BALTIMORE","Maryland","21231",4
8562,"420 NORTHWAY","BALTIMORE","Maryland","21218",4
8563,"1200 GLENWOOD AVE","BALTIMORE","Maryland","21239",4
8564,"1000 ST. CRISPINS LN","BALTIMORE","Maryland","21210",4
8565,"EASTERN AVE & S BROADWAY, BALTIMORE, MD,",NA,"Maryland",NA,4
8566,"901 GORSUCH AVE","BALTIMORE","Maryland","21218",4
8567,"3464 SENECA ST","BALTIMORE","Maryland","21211",4
8568,"830 S ROBINSON ST","BALTIMORE","Maryland","21224",4
8569,"5618 NEWBURY ST","BALTIMORE","Maryland","21209",4
8570,"3916 BOARMAN AVE","BALTIMORE","Maryland","21215",4
8571,"3043 GUILFORD AVE","BALTIMORE","Maryland","21218",4
8572,"721 WOODBOURNE AVE","BALTIMORE","Maryland",NA,4
8573,"N PACA ST &W FAYETTE ST","BALTIMORE","Maryland","21201",4
8574,"800 N DUKELAND ST","BALTIMORE","Maryland","21216",4
8575,"1016 POPLAR GROVE ST","BALTIMORE","Maryland","21216",4
8576,"210 S KRESSON ST","BALTIMORE","Maryland","21224",4
8577,"3400 MUELLER ST","BALTIMORE","Maryland","21224",4
8578,"EDMONDSON AVE & N ATHOL AVE, BALTIMORE,",NA,"Maryland",NA,4
8579,"EDMONDSON AVE & MOUNT HOLLY ST, BALTIMOR",NA,"Maryland",NA,4
8580,"2001 N BROADWAY","BALTIMORE","Maryland","21213",4
8581,"3424 WILKENS AVE","BALTIMORE","Maryland","21229",4
8582,"4601 FALLS RD","BALTIMORE","Maryland",NA,4
8583,"6040 YORKSHIRE DR","BALTIMORE","Maryland","21212",4
8584,"900 W FAYETTE ST","BALTIMORE","Maryland","21223",4
8585,"246 S CHESTER ST","BALTIMORE","Maryland","21231",4
8586,"400 DOLPHIN ST","BALTIMORE","Maryland","21201",4
8587,"1604 CLIFTON AVE","BALTIMORE","Maryland","21217",4
8588,"309 N PACA ST","BALTIMORE","Maryland","21201",4
8589,"2500 E OLIVER ST","BALTIMORE","Maryland","21213",4
8590,"327 WARREN AVE","BALTIMORE","Maryland","21230",4
8591,"516 NOTTINGHAM RD","BALTIMORE","Maryland","21229",4
8592,"2000 BELAIR RD","BALTIMORE","Maryland","21213",4
8593,"900 HARWOOD AVE","BALTIMORE","Maryland","21212",4
8594,"200 GITTINGS AVE","BALTIMORE","Maryland","21212",4
8595,"2300 E FAYETTE ST","BALTIMORE","Maryland","21221",4
8596,"1101 E 43RD ST","BALTIMORE","Maryland","21239",4
8597,"101 W MOUNT ROYAL AVE","BALTIMORE","Maryland","21201",4
8598,"403 NOTTINGHAM RD","BALTIMORE","Maryland","21229",4
8599,"4100 MORTIMER AVE","BALTIMORE","Maryland","21215",4
8600,"6509 E LOMBARD ST","BALTIMORE","Maryland","21224",4
8601,"4228 ELDONE RD","BALTIMORE","Maryland","21229",4
8602,"1900 E 32ND ST","BALTIMORE","Maryland","21218",4
8603,"BELAIR RD & CHESTERFIELD AVE, BALTIMORE,",NA,"Maryland",NA,4
8604,"1220 N BENTALOU ST","BALTIMORE","Maryland","21216",4
8605,"800 N MARTIN LUTHER KING JR BLVD","BALTIMORE","Maryland","21201",4
8606,"2600 WASHINGTON BLVD","BALTIMORE","Maryland","21230",4
8607,"5919 DAYWALT AVE","BALTIMORE","Maryland","21206",4
8608,"4000 RAYMONN AVE","BALTIMORE","Maryland","21213",4
8609,"3730 S HANOVER ST","BALTIMORE","Maryland","21225",4
8610,"2000 GREENMOUNT AVE","BALTIMORE","Maryland","21218",4
8611,"SILVERTHORNE RD & KELWAY RD, BALTIMORE,",NA,"Maryland",NA,4
8612,"402 CEDARCROFT RD","BALTIMORE","Maryland","21212",4
8613,"3102 ORLANDO AVE","BALTIMORE","Maryland","21234",4
8614,"3546 KESWICK RD","BALTIMORE","Maryland","21211",4
8615,"4000 GREENMOUNT AVE","BALTIMORE","Maryland","21218",4
8616,"2229 CHESTERFIELD AVE","BALTIMORE","Maryland","21213",4
8617,"1200 KITMORE RD","BALTIMORE","Maryland","21239",4
8618,"2822 INGLEWOOD AVE","BALTIMORE","Maryland","21234",4
8619,"1644 BEASON ST","BALTIMORE","Maryland","21230",4
8620,"504 S COLLINGTON AVE","BALTIMORE","Maryland","21231",4
8621,"900 W NORTHERN PKWY","BALTIMORE","Maryland","21210",4
8622,"801 BELLEMORE RD","BALTIMORE","Maryland","21210",4
8623,"38 S CULVER ST","BALTIMORE","Maryland","21229",4
8624,"4400 PEN LUCY RD","BALTIMORE","Maryland","21229",4
8625,"4009 E NORTHERN PKWY","BALTIMORE","Maryland","21206",4
8626,"2341 MADISON AVE","BALTIMORE","Maryland","21217",4
8627,"5304 TILBURY WAY","BALTIMORE","Maryland","21212",4
8628,"1807 HARLEM AVE","BALTIMORE","Maryland","21217",4
8629,"EASTERN AVE & PRESIDENT ST","BALTIMORE","Maryland","21202",4
8630,"4321 OLD YORK RD","BALTIMORE","Maryland","21212",4
8631,"2600 W FRANKLIN ST","BALTIMORE","Maryland",NA,4
8632,"4 WYNDHURST AVE","BALTIMORE","Maryland","21210",4
8633,"1434 GITTINGS AVE","BALTIMORE","Maryland","21239",4
8634,"1241 KEVIN-SEMINOLE","BALTIMORE","Maryland","21229",4
8635,"4502 HAMPNETT AVE","BALTIMORE","Maryland","21214",4
8636,"E LOMBARD ST & LIGHT ST, BALTIMORE, MD,",NA,"Maryland",NA,4
8637,"3723 FLEETWOOD AVE","BALTIMORE","Maryland","21206",4
8638,"400 E 32ND ST","BALTIMORE","Maryland","21218",4
8639,"ELSRODE AVE & HALCYON AVE, BALTIMORE, MD",NA,"Maryland",NA,4
8640,"N HAVEN ST & PULASKI HWY, BALTIMORE, MD,",NA,"Maryland",NA,4
8641,"PRUDENCE ST & ELMTREE ST, BALTIMORE, MD,",NA,"Maryland",NA,4
8642,"500 WILDWOOD PKWY","BALTIMORE","Maryland","21229",4
8643,"710 SAINT PAUL ST","BALTIMORE","Maryland","21202",4
8644,"40 E RANDALL ST","BALTIMORE","Maryland","21230",4
8645,"DUNDALK AVE & BOSTON ST","BALTIMORE","Maryland","21224",4
8646,"2051 S HANOVER ST","BALTIMORE","Maryland","21230",4
8647,"4803 BELLE AVE","BALTIMORE","Maryland","21207",4
8648,"1339 MERIDENE DR","BALTIMORE","Maryland","21239",4
8649,"104 S DUNCAN ST","BALTIMORE","Maryland","21231",4
8650,"1801 MORRELL PARK AVE","BALTIMORE","Maryland","21230",4
8651,"WESTFIELD AVE & MCCLEAN BLVD, BALTIMORE,",NA,"Maryland",NA,4
8652,"3127 ORLANDO AVE","BALTIMORE","Maryland","21234",4
8653,"ALICEANNA ST & S CENTRAL AVE, BALTIMORE,",NA,"Maryland",NA,4
8654,"206 S PATTERSON PARK AVE","BALTIMORE","Maryland","21231",4
8655,"5600 LIBERTY HEIGHTS AVE","BALTIMORE","Maryland","21207",4
8656,"298 E PRATT ST","BALTIMORE","Maryland","21202",4
8657,"2229 VAN DEMAN ST","BALTIMORE","Maryland","21224",4
8658,"422 ROSECROFT TER","BALTIMORE","Maryland","21229",4
8659,"500 MCMECHEN ST","BALTIMORE","Maryland","21217",4
8660,"2600 LOYOLA SOUTHWAY","BALTIMORE","Maryland","21215",4
8661,"5600 THE ALAMEDA","BALTIMORE","Maryland","21239",4
8662,"103 OVERHILL RD","BALTIMORE","Maryland","21210",4
8663,"E RANDALL ST & COVINGTON ST","BALTIMORE","Maryland","21230",4
8664,"JOHN ST &N HOWARD ST","BALTIMORE","Maryland","21217",4
8665,"720 N STREEPER ST","BALTIMORE","Maryland","21205",4
8666,"5613 TRAMORE RD","BALTIMORE","Maryland","21214",4
8667,"MCKEWIN AVE & FRISBY ST, BALTIMORE, MD,",NA,"Maryland",NA,4
8668,"250 E MEDWICK GARTH","BALTIMORE","Maryland","21228",4
8669,"765 MARNOR ST","BALTIMORE","Maryland","21212",4
8670,"43 E RANDALL ST","BALTIMORE","Maryland","21230",4
8671,"1248 WINSTON AVE","BALTIMORE","Maryland","21239",4
8672,"403 E LAKE AVE","BALTIMORE","Maryland","21212",4
8673,"913 DRUID PARK LAKE DR","BALTIMORE","Maryland","21217",4
8674,"98 COTSWOLD RD","BALTIMORE","Maryland","21210",4
8675,"2418 WILGREY CT","BALTIMORE","Maryland","21230",4
8676,"500 KIRBY LN","BALTIMORE","Maryland","21223",4
8677,"1151 NANTICOKE ST","BALTIMORE","Maryland","21230",4
8678,"2508 HALCYON AVE","BALTIMORE","Maryland","21214",4
8679,"500 S BROADWAY","BALTIMORE","Maryland","21231",4
8680,"700 POPLAR GROVE ST","BALTIMORE","Maryland","21216",4
8681,"3644 RAYMONN AVE","BALTIMORE","Maryland","21213",4
8682,"E FAYETTE ST &N LUZERNE AVE","BALTIMORE","Maryland","21224",4
8683,"WALTHER AVE & WHITE AVE","BALTIMORE","Maryland","21206",4
8684,"1100 BONAPARTE AVE","BALTIMORE","Maryland","21218",4
8685,"6001 BELLONA AVE","BALTIMORE","Maryland","21212",4
8686,"5425 FALLS RD","BALTIMORE","Maryland",NA,4
8687,"4300 NICHOLAS AVE","BALTIMORE","Maryland","21206",4
8688,"707 N BROADWAY","BALTIMORE","Maryland","21205",4
8689,"1300 BERRY ST","BALTIMORE","Maryland","21211",4
8690,"3000 EDMONDSON AVE","BALTIMORE","Maryland",NA,4
8691,"306 CEDARCROFT RD","BALTIMORE","Maryland","21212",4
8692,"2116 N CALVERT ST","BALTIMORE","Maryland","21218",4
8693,"98 COTSWOLD RD","BALTIMORE","Maryland","21210",4
8694,"4 N GILMOR ST","BALTIMORE","Maryland","21223",4
8695,"3202 BONNIE RD","BALTIMORE","Maryland","21208",4
8696,"700 BETHNAL RD","BALTIMORE","Maryland","21229",4
8697,"5000 FREDERICK AVE","BALTIMORE","Maryland","21229",4
8698,"4436 FOREST VIEW AVE","BALTIMORE","Maryland","21206",4
8699,"3404 CEDARDALE RD","BALTIMORE","Maryland","21215",4
8700,"626 WYANOKE AVE","BALTIMORE","Maryland","21218",4
8701,"3400 MUELLER ST","BALTIMORE","Maryland","21224",4
8702,"FAIRDEL AVE & E NORTHERN PKWY, BALTIMORE",NA,"Maryland",NA,4
8703,"1300 DREW ST","BALTIMORE","Maryland","21224",4
8704,"1133 ASHBURTON ST","BALTIMORE","Maryland","21216",4
8705,"N GREENE ST &W FRANKLIN ST","BALTIMORE","Maryland","21201",4
8706,"HILLEN RD & ARGONNE DR, BALTIMORE, MD, 2",NA,"Maryland",NA,4
8707,"753 CARROLL ST","BALTIMORE","Maryland","21230",4
8708,"250 PRESIDENT ST","BALTIMORE","Maryland","21202",4
8709,"104 S MONASTERY AVE","BALTIMORE","Maryland","21229",4
8710,"207 TAPLOW RD","BALTIMORE","Maryland","21212",4
8711,"213 E FORT AVE","BALTIMORE","Maryland","21230",4
8712,"6704 DANVILLE AVE","BALTIMORE","Maryland","21222",4
8713,"4700 REISTERTOWN RD","BALTIMORE","Maryland","21215",4
8714,"RACE ST & W FORT AVE, BALTIMORE, MD, 212",NA,"Maryland",NA,4
8715,"2700 QUEEN ANNE RD","BALTIMORE","Maryland","21216",4
8716,"1612 LEMMON ST","BALTIMORE","Maryland","21223",4
8717,"3598 SHELL RD","BALTIMORE","Maryland","21225",4
8718,"98 COTSWOLD RD","BALTIMORE","Maryland","21210",4
8719,"3804 FRANKFORD AVE","BALTIMORE","Maryland","21206",4
8720,"KEY HWY","BALTIMORE","Maryland","21230",4
8721,"5603 LAURELTON AVE","BALTIMORE","Maryland","21214",4
8722,"240 S CHESTER ST","BALTIMORE","Maryland","21231",4
8723,"1000 HOLLINS ST","BALTIMORE","Maryland","21223",4
8724,"1300 WINSTON AVE","BALTIMORE","Maryland","21239",4
8725,"E FAIRMOUNT AVE & N KENWOOD AVE, BALTIMO",NA,"Maryland",NA,4
8726,"2600 QUEEN ANNE RD","BALTIMORE","Maryland","21216",4
8727,"98 COTSWOLD RD","BALTIMORE","Maryland","21210",4
8728,"5602 WINTHROPE AVE","BALTIMORE","Maryland","21214",4
8729,"5929 MARLUTH AVE","BALTIMORE","Maryland","21206",4
8730,"1100 BELLEMORE RD","BALTIMORE","Maryland","21210",4
8731,"200 W GRISWALD LN","BALTIMORE","Maryland","21210",4
8732,"4200 BOSTON ST","BALTIMORE","Maryland","21224",4
8733,"500 GLENWOOD AVE","BALTIMORE","Maryland","21212",4
8734,"4902 LIBERTY HEIGHTS AVE","BALTIMORE","Maryland","21207",4
8735,"836 N STRICKER ST","BALTIMORE","Maryland","21217",4
8736,"6714 WESTBROOK RD","BALTIMORE","Maryland","21215",4
8737,"4835 ABERDEEN AVE","BALTIMORE","Maryland","21206",4
8738,"W FRANKLIN ST &N MARTIN LUTHER KING JR B","BALTIMORE","Maryland","21201",4
8739,"1358 CROFTON RD","BALTIMORE","Maryland","21239",4
8740,"2110 GOULD ST","BALTIMORE","Maryland","21230",4
8741,"2700 ANNAPOLIS RD","BALTIMORE","Maryland","21230",4
8742,"743 N CHESTER ST","BALTIMORE","Maryland","21205",4
8743,"1227 DELBERT AVE","BALTIMORE","Maryland","21222",4
8744,"400 E LOMBARD ST","BALTIMORE","Maryland","21202",4
8745,"327 BROXTON RD","BALTIMORE","Maryland","21212",4
8746,"1715 E EAGER ST","BALTIMORE","Maryland","21205",4
8747,"1100 SOMERSET ST","BALTIMORE","Maryland","21202",4
8748,"5028 THE ALAMEDA","BALTIMORE","Maryland","21239",4
8749,"1700 W PRATT ST","BALTIMORE","Maryland","21223",4
8750,"W PATAPSCO AVE & ANNAPOLIS RD, BALTIMORE",NA,"Maryland",NA,4
8751,"529 S DALLAS ST","BALTIMORE","Maryland","21231",4
8752,"6000 BELLE VISTA AVE","BALTIMORE","Maryland","21206",4
8753,"6100 BLACKBURN LN","BALTIMORE","Maryland","21212",4
8754,"3500 FALLSTAFF RD","BALTIMORE","Maryland","21215",4
8755,"1900 PARK AVE","BALTIMORE","Maryland","21217",4
8756,"5304 SPRINGLAKE WAY","BALTIMORE","Maryland","21212",4
8757,"3802 POTEE ST","BALTIMORE","Maryland","21225",4
8758,"523 S LINWOOD AVE","BALTIMORE","Maryland","21224",4
8759,"EDMONDSON AVE & N EDGEWOOD ST, BALTIMORE",NA,"Maryland",NA,4
8760,"6100 BELAIR RD","BALTIMORE","Maryland","21206",4
8761,"4000 LELAND AVE","BALTIMORE","Maryland","21224",4
8762,"6400 MORAVIA RD","BALTIMORE","Maryland",NA,4
8763,"WOODBROOK AVE & CLIFTON AVE","BALTIMORE","Maryland","21217",4
8764,"1000 ST. CRISPINS LN","BALTIMORE","Maryland","21210",4
8765,"6200 HILLTOP AVE","BALTIMORE","Maryland","21206",4
8766,"TALBOT RD & MONTICELLO RD, BALTIMORE, MD",NA,"Maryland",NA,4
8767,"3708 CLARENELL RD","BALTIMORE","Maryland","21229",4
8768,"3634 BEECH AVE","BALTIMORE","Maryland",NA,4
8769,"811 N BOND ST","BALTIMORE","Maryland","21205",4
8770,"4913 MIDWOOD AVE","BALTIMORE","Maryland","21212",4
8771,"4701 PENNINGTON AVE","BALTIMORE","Maryland","21226",4
8772,"3415 PINEWOOD AVE","BALTIMORE","Maryland","21206",4
8773,"300 RADNOR RD","BALTIMORE","Maryland","21212",4
8774,"700 MOUNT HOLLY ST","BALTIMORE","Maryland","21229",4
8775,"5032 DENMORE AVE","BALTIMORE","Maryland","21215",4
8776,"2600 E NORTHERN PKWY","BALTIMORE","Maryland","21214",4
8777,"4103 OVERLEA AVE","BALTIMORE","Maryland","21206",4
8778,"HIGHVIEW AVE & LYNDALE AVE, BALTIMORE, M",NA,"Maryland",NA,4
8779,"1000 MARLAU DR","BALTIMORE","Maryland","21212",4
8780,"5821 NARCISSUS AVE","BALTIMORE","Maryland","21215",4
8781,"400 W NORTH AVE","BALTIMORE","Maryland","21217",4
8782,"501 MAUDE AVE","BALTIMORE","Maryland",NA,4
8783,"3400 OLD FREDERICK RD","BALTIMORE","Maryland","21229",4
8784,"2805 SOUTHERN AVE","BALTIMORE","Maryland","21214",4
8785,"7709 FREDKERT AVE","BALTIMORE","Maryland","21236",4
8786,"YORKWOOD RD & SHERWOOD AVE, BALTIMORE, M",NA,"Maryland",NA,4
8787,"24 INDIAN LN","BALTIMORE","Maryland","21210",4
8788,"1200 WALL ST","BALTIMORE","Maryland","21230",4
8789,"1024 N PATTERSON PARK AVE","BALTIMORE","Maryland","21205",4
8790,"400 THORNFIELD RD","BALTIMORE","Maryland","21229",4
8791,"700 E BIDDLE ST","BALTIMORE","Maryland","21202",4
8792,"GLENMORE AVE & RIDGEVIEW AVE, BALTIMORE,","   Baltimore","Maryland","21206",4
8793,"3300 ROLAND AVE","BALTIMORE","Maryland","21211",4
8794,"20 S CENTRAL AVE","BALTIMORE","Maryland","21202",4
8795,"3515 E LOMBARD ST","BALTIMORE","Maryland","21224",4
8796,"6 COTSWOLD RD","BALTIMORE","Maryland","21210",4
8797,"1200 E FORT AVE","BALTIMORE","Maryland","21230",4
8798,"1200 N MACON ST","BALTIMORE","Maryland","21205",4
8799,"2306 MONTEBELLO TER","BALTIMORE","Maryland","21214",4
8800,"7709 FREDKERT AVE","BALTIMORE","Maryland","21236",4
8801,"NORTHBRIDGE AVE & ASIATIC AVE, BALTIMORE","BALTIMORE","Maryland",NA,4
8802,"841 LENTON AVE","BALTIMORE","Maryland","21212",4
8803,"236 S CHESTER ST","BALTIMORE","Maryland","21231",4
8804,"5604 SOUTH BEND RD","BALTIMORE","Maryland","21209",4
8805,"3600 SINCLAIR LN","BALTIMORE","Maryland","21213",4
8806,"5101 SAINT ALBANS WAY","BALTIMORE","Maryland","21212",4
8807,"4317 HARCOURT RD","BALTIMORE","Maryland","21214",4
8808,"LOCH RAVEN BLVD & WOODBOURNE AVE, BALTIM",NA,"Maryland",NA,4
8809,"E MOUNT VERNON PL & SAINT PAUL ST, BALTI",NA,"Maryland",NA,4
8810,"1 WASHBURN AVE","BALTIMORE","Maryland","21225",4
8811,"WELLESLEY ST & FREDERICK AVE, BALTIMORE,","BALTIMORE","Maryland","21229",4
8812,"600 S FULTON AVE","BALTIMORE","Maryland","21223",4
8813,"1000 DESOTO RD","BALTIMORE","Maryland","21223",4
8814,"1032 N ARLINGTON AVE","BALTIMORE","Maryland","21217",4
8815,"1801 PRESSTMAN ST","BALTIMORE","Maryland","21217",4
8816,"525 NOTTINGHAM RD","BALTIMORE","Maryland","21229",4
8817,"637 DEEPDENE RD","BALTIMORE","Maryland","21210",4
8818,"4300 EDMONDSON AVE","BALTIMORE","Maryland","21229",4
8819,"4101 FALLS RD","BALTIMORE","Maryland","21211",4
8820,"2000 WINFORD RD","BALTIMORE","Maryland","21239",4
8821,"1149 N CARROLLTON AVE","BALTIMORE","Maryland","21217",4
8822,"N WHEELER AVE","BALTIMORE","Maryland","21223",4
8823,"1010 HENDLER LN","BALTIMORE","Maryland","21217",4
8824,"605 E 43RD ST","BALTIMORE","Maryland","21212",4
8825,"100 N CALHOUN ST","BALTIMORE","Maryland","21223",4
8826,"1328 HAUBERT ST","BALTIMORE","Maryland","21230",4
8827,"220 W PATAPSCO AVE","BALTIMORE","Maryland","21225",4
8828,"1419 W FAYETTE ST","BALTIMORE","Maryland","21223",4
8829,"3881 SINCLAIR LN","BALTIMORE","Maryland","21213",4
8830,"HOLABIRD AVE &S PONCA ST","BALTIMORE","Maryland","21224",4
8831,"505 S COLLINGTON AVE","BALTIMORE","Maryland","21231",4
8832,"5100 HOLABIRD AVE","BALTIMORE","Maryland","21224",4
8833,"CONDUIT AVE & BERRY ST, BALTIMORE, MD, 2",NA,"Maryland",NA,4
8834,"699 WASHINGTON PL","BALTIMORE","Maryland","21201",4
8835,"3000 EDMONDSON AVE","BALTIMORE","Maryland",NA,4
8836,"1200 N MACON ST","BALTIMORE","Maryland","21205",4
8837,"5312 MORELLO RD","BALTIMORE","Maryland","21214",4
8838,"432 E 32ND ST","BALTIMORE","Maryland","21218",4
8839,"4424 LAPLATA AVE","BALTIMORE","Maryland","21211",4
8840,"4109 E NORTHERN PKWY","BALTIMORE","Maryland","21206",4
8841,"112 S MONASTERY AVE","BALTIMORE","Maryland","21229",4
8842,"CARVER RD & BRIDGEVIEW RD, BALTIMORE, MD","   baltimore","Maryland","21225",4
8843,"6300 EASTERN PKWY","BALTIMORE","Maryland","21214",4
8844,"4300 SPRINGDALE AVE","BALTIMORE","Maryland","21207",4
8845,"5700 YORK RD","BALTIMORE","Maryland","21212",4
8846,"4321 N CHARLES ST","BALTIMORE","Maryland","21218",4
8847,"624 DUMBARTON AVE","BALTIMORE","Maryland","21218",4
8848,"1510 BATTERY AVE","BALTIMORE","Maryland","21230",4
8849,"32ND","BALTIMORE","Maryland","21218",4
8850,"2600 FREDERICK AVE","BALTIMORE","Maryland","21223",4
8851,"LOYOLA SOUTHWAY & ROLAND VIEW AVE, BALTI",NA,"Maryland",NA,4
8852,"S HANOVER ST &W MCCOMAS ST","BALTIMORE","Maryland","21230",4
8853,"1222 SEMINOLE AVE","BALTIMORE","Maryland","21229",4
8854,"2001 GUILFORD AVE","BALTIMORE","Maryland","21218",4
8855,"317 NORTH BEND RD","BALTIMORE","Maryland","21229",4
8856,"5TH ST & ARSAN AVE, BALTIMORE, MD, 21225",NA,"Maryland",NA,4
8857,"N ARLINGTON AVE & BENNETT PL, BALTIMORE,",NA,"Maryland",NA,4
8858,"643 S NEWKIRK ST","BALTIMORE","Maryland","21224",4
8859,"S HANOVER ST & W CROMWELL ST, BALTIMORE,",NA,"Maryland",NA,4
8860,"2621 WATERVIEW AVE","BALTIMORE","Maryland","21230",4
8861,"5500 CEDONIA AVE","BALTIMORE","Maryland","21206",4
8862,"1429 ALICEANNA ST","BALTIMORE","Maryland","21231",4
8863,"4500 HAMPNETT AVE","BALTIMORE","Maryland","21214",4
8864,"3341 GREENMOUNT AVE","BALTIMORE","Maryland","21218",4
8865,"500 E 39TH ST","BALTIMORE","Maryland","21218",4
8866,"3802 MACTAVISH AVE","BALTIMORE","Maryland","21229",4
8867,"1200 E BIDDLE ST","BALTIMORE","Maryland","21202",4
8868,"E FAYETTE ST & N PRESIDENT ST, BALTIMORE",NA,"Maryland",NA,4
8869,"INTERSTATE AVE & O'DONNELL ST CUT OFF","BALTIMORE","Maryland","21224",4
8870,"17 S KOSSUTH ST","BALTIMORE","Maryland","21229",4
8871,"7310 WALLIS AVE","BALTIMORE","Maryland","21208",4
8872,"1022 BONAPARTE AVE","BALTIMORE","Maryland","21218",4
8873,"3111 N CHARLES ST","BALTIMORE","Maryland","21218",4
8874,"2600 MOORE AVE","BALTIMORE","Maryland","21234",4
8875,"2742 N ROSEDALE ST","BALTIMORE","Maryland","21216",4
8876,"4000 W FRANKLIN ST","BALTIMORE","Maryland","21229",4
8877,"400 E PRESTON ST","BALTIMORE","Maryland","21202",4
8878,"3112 ROSEKEMP AVE","BALTIMORE","Maryland","21214",4
8879,"100 E NORTHERN PKWY","BALTIMORE","Maryland","21212",4
8880,"E BALTIMORE ST &S HAVEN ST","BALTIMORE","Maryland","21224",4
8881,"2209 KENTUCKY AVE","BALTIMORE","Maryland","21213",4
8882,"19 W JEFFREY ST","BALTIMORE","Maryland","21225",4
8883,"600 RAPPOLLA ST","BALTIMORE","Maryland","21224",4
8884,"312 WOODBOURNE AVE","BALTIMORE","Maryland","21212",4
8885,"4210 SAINT GEORGES AVE","BALTIMORE","Maryland","21212",4
8886,"3213 N CALVERT ST","BALTIMORE","Maryland","21218",4
8887,"5712 ROLAND AVE","BALTIMORE","Maryland","21210",4
8888,"1525 E PATAPSCO AVE","BALTIMORE","Maryland","21230",4
8889,"PARK PL & GLENCOE RD, BALTIMORE, MD, 212"," parkville  ","Maryland","21234",4
8890,"3800 E BIDDLE ST","BALTIMORE","Maryland","21213",4
8891,"3038 PRESSTMAN ST","BALTIMORE","Maryland","21216",4
8892,"210 N WASHINGTON ST","BALTIMORE","Maryland","21231",4
8893,"3100 PRESSTMAN ST","BALTIMORE","Maryland","21216",4
8894,"POPLAR HILL RD & CLARKS HILL, BALTIMORE,","BALTIMORE","Maryland","21210",4
8895,"4506 SPRINGDALE AVE","BALTIMORE","Maryland","21207",4
8896,"HAZLETT AVE & WILLISTON ST","BALTIMORE","Maryland","21229",4
8897,"N ELLAMONT ST &W BALTIMORE ST","BALTIMORE","Maryland","21229",4
8898,"305 BROXTON RD","BALTIMORE","Maryland","21212",4
8899,"1428 E COLD SPRING LN","BALTIMORE","Maryland","21239",4
8900,"2002 OAKINGTON ST","BALTIMORE","Maryland","21211",4
8901,"102 MALLOW HILL RD","BALTIMORE","Maryland","21229",4
8902,"3200 CLARKS LN","BALTIMORE","Maryland","21215",4
8903,"311 TAPLOW RD","BALTIMORE","Maryland","21212",4
8904,"4200 EUCLID AVE","BALTIMORE","Maryland","21229",4
8905,"164 N GAY ST","BALTIMORE","Maryland","21202",4
8906,"2244 CAMBRIDGE ST","BALTIMORE","Maryland","21231",4
8907,"4400 EDMONDSON AVE","BALTIMORE","Maryland","21229",4
8908,"4401 IVANHOE AVE","BALTIMORE","Maryland","21212",4
8909,"5405 SAINT ALBANS WAY","BALTIMORE","Maryland","21212",4
8910,"1135 N MOUNT ST","BALTIMORE","Maryland","21217",4
8911,"3909 BROOKLYN AVE","BALTIMORE","Maryland","21225",4
8912,"5401 GRINDON AVE","BALTIMORE","Maryland","21214",4
8913,"4601 DILLON ST","BALTIMORE","Maryland","21224",4
8914,"KELWAY RD & MARBLE HALL RD","BALTIMORE","Maryland","21218",4
8915,"1121 SPRINGFIELD AVE","BALTIMORE","Maryland","21239",4
8916,"BELAIR RD & PARKSIDE DR, BALTIMORE, MD,",NA,"Maryland",NA,4
8917,"509 S CLINTON ST","BALTIMORE","Maryland","21224",4
8918,"TAYLOR AVE & WINDY RIDGE, BALTIMORE, MD,",NA,"Maryland",NA,4
8919,"909 WOODBOURNE AVE","BALTIMORE","Maryland","21212",4
8920,"1926 E FAYETTE ST","BALTIMORE","Maryland","21231",4
8921,"600 HARWOOD AVE","BALTIMORE","Maryland","21212",4
8922,"3104 TAYLOR AVE","BALTIMORE","Maryland","21234",4
8923,"1000 ST. CRISPINS LN","BALTIMORE","Maryland","21210",4
8924,"E MADISON ST & N LINWOOD AVE, BALTIMORE,",NA,"Maryland",NA,4
8925,"902 W 38TH ST","BALTIMORE","Maryland","21211",4
8926,"5116 WETHEREDSVILLE RD","BALTIMORE","Maryland","21207",4
8927,"7709 FREDKERT AVE","BALTIMORE","Maryland","21236",4
8928,"3819 SOUTHERN AVE","BALTIMORE","Maryland","21206",4
8929,"3600 FRISBY ST","BALTIMORE","Maryland","21218",4
8930,"1000 HOLLINS ST","BALTIMORE","Maryland","21223",4
8931,"210 N WASHINGTON ST","BALTIMORE","Maryland","21231",4
8932,"2534 E BALTIMORE ST","BALTIMORE","Maryland","21224",4
8933,"3107 W STRATHMORE AVE","BALTIMORE","Maryland",NA,4
8934,"601 S MONROE ST","BALTIMORE","Maryland","21223",4
8935,"217 SAINT DUNSTANS RD","BALTIMORE","Maryland","21212",4
8936,"1718 THAMES ST","BALTIMORE","Maryland","21231",4
8937,"312 N ELLWOOD AVE","BALTIMORE","Maryland","21224",4
8938,"3808 SAINT PAUL ST","BALTIMORE","Maryland","21218",4
8939,"HOLLEN RD & CHINQUAPIN PKWY, BALTIMORE,",NA,"Maryland",NA,4
8940,"E HOFFMAN ST & N LAKEWOOD AVE, BALTIMORE",NA,"Maryland",NA,4
8941,"W BARRE ST & S HANOVER ST, BALTIMORE, MD","   baltimore","Maryland","21201",4
8942,"1400 FILLMORE ST","BALTIMORE","Maryland","21218",4
8943,"2911 E MADISON ST","BALTIMORE","Maryland","21205",4
8944,"5800 THE ALAMEDA","BALTIMORE","Maryland","21239",4
8945,"503 MCMECHEN ST","BALTIMORE","Maryland","21217",4
8946,"GEORGETOWN RD & INVERNESS AVE","BALTIMORE","Maryland","21230",4
8947,"6423 PULASKI HWY","BALTIMORE","Maryland","21205",4
8948,"2 E GITTINGS ST","BALTIMORE","Maryland","21230",4
8949,"WINDSOR AVE & WINDSOR MILL RD","BALTIMORE","Maryland","21216",4
8950,"E FAYETTE ST &N PATTERSON PARK AVE","BALTIMORE","Maryland","21231",4
8951,"1944 HOLLINS FERRY RD","BALTIMORE","Maryland",NA,4
8952,"6 COTSWOLD RD","BALTIMORE","Maryland","21210",4
8953,"EDMONDSON AVE & N FRANKLINTOWN RD, BALTI",NA,"Maryland",NA,4
8954,"6600 HUDSON ST","BALTIMORE","Maryland","21224",4
8955,"4TH ST & FRANKLE ST, BALTIMORE, MD, 2122",NA,"Maryland",NA,4
8956,"6303 PIMLICO RD","BALTIMORE","Maryland","21209",4
8957,"500 WILDWOOD PKWY","BALTIMORE","Maryland","21229",4
8958,"5247 DOWNING RD","BALTIMORE","Maryland","21212",4
8959,"2839 ANNAPOLIS RD","BALTIMORE","Maryland","21230",4
8960,"201 GOODALE RD","BALTIMORE","Maryland","21212",4
8961,"5500 E LOMBARD ST","BALTIMORE","Maryland","21224",4
8962,"1501 E COLD SPRING LN","BALTIMORE","Maryland","21218",4
8963,"1025 S HAVEN ST","BALTIMORE","Maryland","21224",4
8964,"3200 BRENTWOOD AVE","BALTIMORE","Maryland","21218",4
8965,"4001 CHESLEY AVE","BALTIMORE","Maryland","21206",4
8966,"400 E SARATOGA ST","BALTIMORE","Maryland",NA,4
8967,"2300 S CLINTON ST","BALTIMORE","Maryland","21224",4
8968,"621 E CHASE ST","BALTIMORE","Maryland","21202",4
8969,"5500 N CHARLES ST","BALTIMORE","Maryland","21210",4
8970,"1100 N MACON ST","BALTIMORE","Maryland","21205",4
8971,"3600 HUDSON ST","BALTIMORE","Maryland","21224",4
8972,"1400 WEBSTER ST","BALTIMORE","Maryland","21230",4
8973,"MILLINGTON AVE & ASHTON ST, BALTIMORE, M",NA,"Maryland",NA,4
8974,"5507 TRAMORE RD","BALTIMORE","Maryland","21214",4
8975,"2214 W FAYETTE ST","BALTIMORE","Maryland","21223",4
8976,"3960 WILSBY AVE","BALTIMORE","Maryland","21218",4
8977,"LINDEN AVE & WILSON ST, BALTIMORE, MD, 2","baltimore","Maryland","21217",4
8978,"5607 SOUTH BEND RD","BALTIMORE","Maryland","21209",4
8979,"1729 BELT ST","BALTIMORE","Maryland","21230",4
8980,"1025 WINDING WAY","BALTIMORE","Maryland","21210",4
8981,"35 S MONASTERY AVE","BALTIMORE","Maryland","21229",4
8982,"524 S DALLAS ST","BALTIMORE","Maryland","21231",4
8983,"5 UPLAND RD","BALTIMORE","Maryland","21210",4
8984,"WHITE AVE & BENTON HEIGHTS AVE","BALTIMORE","Maryland","21206",4
8985,"1809 THORNBURY RD","BALTIMORE","Maryland","21209",4
8986,"820 S DEAN ST","BALTIMORE","Maryland","21224",4
8987,"1933 EUTAW PL","BALTIMORE","Maryland","21217",4
8988,"GEORGETOWN RD & DESOTO RD, BALTIMORE, MD",NA,"Maryland",NA,4
8989,"6100 MORAVIA RD","BALTIMORE","Maryland","21237",4
8990,"1809 WILHELM ST","BALTIMORE","Maryland","21223",4
8991,"4100 SPRINGDALE AVE","BALTIMORE","Maryland","21207",4
8992,"4200 ROKEBY RD","BALTIMORE","Maryland","21229",4
8993,"2719 BEECHLAND AVE","BALTIMORE","Maryland","21214",4
8994,"1722 JACKSON ST","BALTIMORE","Maryland","21230",4
8995,"4700 SINCLAIR LN","BALTIMORE","Maryland","21206",4
8996,"5800 CLARKS HILL","BALTIMORE","Maryland","21210",4
8997,"6 COTSWOLD RD","BALTIMORE","Maryland","21210",4
8998,"5800 CLARKS HILL","BALTIMORE","Maryland","21210",4
8999,"2900 HAMILTON AVE","BALTIMORE","Maryland","21214",4
9000,"5812 LOCHLEA RD","BALTIMORE","Maryland","21209",4
9001,"2900 EDISON HWY","BALTIMORE","Maryland","21213",4
9002,"EDNA AVE & HAMILTON AVE","BALTIMORE","Maryland","21214",4
9003,"UPLAND RD & CLUB RD, BALTIMORE, MD, 2121",NA,"Maryland",NA,4
9004,"1109 S BOULDIN ST","BALTIMORE","Maryland","21224",4
9005,"3600 BELLEVALE AVE","BALTIMORE","Maryland","21206",4
9006,"6 COTSWOLD RD","BALTIMORE","Maryland","21210",4
9007,"1300 WINSTON AVE","BALTIMORE","Maryland","21239",4
9008,"2300 WALBROOK AVE","BALTIMORE","Maryland","21216",4
9009,"MILLINGTON AVE & WILKENS AVE, BALTIMORE,",NA,"Maryland",NA,4
9010,"5801 BELAIR RD","BALTIMORE","Maryland","21206",4
9011,"SINCLAIR LN & CEDONIA AVE","BALTIMORE","Maryland","21206",4
9012,"5407 SAINT ALBANS WAY","BALTIMORE","Maryland","21212",4
9013,"3200 CHELSEA TERR","BALTIMORE","Maryland",NA,4
9014,"201 N HIGHLAND AVE","BALTIMORE","Maryland","21224",4
9015,"1101 BETHLEHEM AVE","BALTIMORE","Maryland","21224",4
9016,"SUMMIT AVE & DEEPDENE RD","BALTIMORE","Maryland","21210",4
9017,"5424 FALLS RD","BALTIMORE","Maryland",NA,4
9018,"N LAKEWOOD AVE &E MONUMENT ST","BALTIMORE","Maryland","21205",4
9019,"N CENTRAL AVE & E FAYETTE ST, BALTIMORE,",NA,"Maryland",NA,4
9020,"HOMELAND AVE & SPRINGLAKE WAY","BALTIMORE","Maryland","21212",4
9021,"4915 MIDWOOD AVE","BALTIMORE","Maryland","21212",4
9022,"6 COTSWOLD RD","BALTIMORE","Maryland","21210",4
9023,"2400 S HANOVER ST","BALTIMORE","Maryland","21230",4
9024,"5301 CURTIS AVE","BALTIMORE","Maryland","21226",4
9025,"5110 CROSSWOOD AVE","BALTIMORE","Maryland","21214",4
9026,"6200 MARIETTA AVE","BALTIMORE","Maryland","21214",4
9027,"6700 HARFORD RD","BALTIMORE","Maryland","21214",4
9028,"806 EVESHAM AVE","BALTIMORE","Maryland","21212",4
9029,"BOWLEYS LN & MORAVIA PARK DR, BALTIMORE,",NA,"Maryland",NA,4
9030,"3208 BERKSHIRE RD","BALTIMORE","Maryland","21214",4
9031,"3930 ROSECREST AVE","BALTIMORE","Maryland","21215",4
9032,"1049 GREENMOUNT AVE","BALTIMORE","Maryland","21202",4
9033,"155 E RANDALL ST","BALTIMORE","Maryland","21230",4
9034,"6100 BELAIR RD","BALTIMORE","Maryland","21206",4
9035,"400 S BOULDIN ST","BALTIMORE","Maryland","21224",4
9036,"300 W MADISON ST","BALTIMORE","Maryland","21201",4
9037,"1500 HAVENWOOD RD","BALTIMORE","Maryland","21218",4
9038,"45 N KRESSON ST","BALTIMORE","Maryland","21224",4
9039,"5100 LIBERTY HEIGHTS AVE","BALTIMORE","Maryland","21207",4
9040,"1115 BRYN MAWR RD","BALTIMORE","Maryland","21210",4
9041,"3207 INDEPENDENCE ST","BALTIMORE","Maryland","21218",4
9042,"2200 E NORTHERN PKWY","BALTIMORE","Maryland","21214",4
9043,"913 DRUID PARK LAKE DR","BALTIMORE","Maryland","21217",4
9044,"2905 N EDGEWOOD ST","BALTIMORE","Maryland","21216",4
9045,"1600 N REGESTER ST","BALTIMORE","Maryland","21213",4
9046,"2024 MOUNT ROYAL TER","BALTIMORE","Maryland","21217",4
9047,"5700 THE ALAMEDA","BALTIMORE","Maryland","21239",4
9048,"4000 HAWKINS POINT RD","BALTIMORE","Maryland","21226",4
9049,"W MULBERRY ST & N PAYSON ST, BALTIMORE,",NA,"Maryland",NA,4
9050,"815 E FORT AVE","BALTIMORE","Maryland","21230",4
9051,"E LOMBARD ST & S PONCA ST, BALTIMORE, MD","   baltimore","Maryland",NA,4
9052,"612 S BRADFORD ST","BALTIMORE","Maryland","21224",4
9053,"W PATAPSCO AVE & POTEE ST, BALTIMORE, MD",NA,"Maryland",NA,4
9054,"S HANOVER ST & POTEE ST, BALTIMORE, MD,",NA,"Maryland",NA,4
9055,"4502 HAMPNETT AVE","BALTIMORE","Maryland","21214",4
9056,"6521 DANVILLE AVE","BALTIMORE","Maryland","21224",4
9057,"1130 SHERWOOD AVE","BALTIMORE","Maryland","21239",4
9058,"1510 BATTERY AVE","BALTIMORE","Maryland","21230",4
9059,"100 W CONWAY ST","BALTIMORE","Maryland","21201",4
9060,"1000 ST. CRISPINS LN","BALTIMORE","Maryland","21210",4
9061,"ALICEANNA ST & S CAROLINE ST, BALTIMORE,",NA,"Maryland",NA,4
9062,"214 E MELROSE AVE","BALTIMORE","Maryland","21212",4
9063,"6100 PULASKI HWY","BALTIMORE","Maryland","21205",4
9064,"S HANOVER ST & W MCCOMAS ST, BALTIMORE,",NA,"Maryland",NA,4
9065,"304 RADNOR RD","BALTIMORE","Maryland","21212",4
9066,"2100 LAKE AVE","BALTIMORE","Maryland","21218",4
9067,"6 COTSWOLD RD","BALTIMORE","Maryland","21210",4
9068,"5901 DARIEN CT","BALTIMORE","Maryland","21206",4
9069,"1301 S PONCA ST","BALTIMORE","Maryland","21224",4
9070,"4407 YORK RD","BALTIMORE","Maryland","21212",4
9071,"6100 BELAIR RD","BALTIMORE","Maryland","21206",4
9072,"410 S MACON ST","BALTIMORE","Maryland","21224",4
9073,"608 E LAKE AVE","BALTIMORE","Maryland","21212",4
9074,"3600 SEQUOIA AVE","BALTIMORE","Maryland","21215",4
9075,"861 LENTON AVE","BALTIMORE","Maryland","21212",4
9076,"3300 MCCULLOH ST","BALTIMORE","Maryland","21217",4
9077,"N HILTON ST & W NORTH AVE, BALTIMORE, MD",NA,"Maryland",NA,4
9078,"98 COTSWOLD RD","BALTIMORE","Maryland","21210",4
9079,"N LINWOOD AVE & E FEDERAL ST, BALTIMORE,","PARKVILLE","Maryland",NA,4
9080,"411 QUINTON ST","BALTIMORE","Maryland","21224",4
9081,"3631 HICKORY AVE","BALTIMORE","Maryland","21211",4
9082,"98 COTSWOLD RD","BALTIMORE","Maryland","21210",4
9083,"GREENSPRING AVE & CYLBURN AVE","BALTIMORE","Maryland","21215",4
9084,"164 N GAY ST","BALTIMORE","Maryland","21202",4
9085,"5000 PLYMOUTH RD","BALTIMORE","Maryland","21214",4
9086,"2200 E LANVALE ST","BALTIMORE","Maryland","21213",4
9087,"6000 HOLABIRD AVE","BALTIMORE","Maryland","21224",4
9088,"5500 S MEDWICK GARTH","BALTIMORE","Maryland","21228",4
9089,"3326 ELLERSLIE AVE","BALTIMORE","Maryland","21218",4
9090,"N BENTALOU ST & BAKER ST","BALTIMORE","Maryland","21216",4
9091,"4501 HAMPNETT AVE","BALTIMORE","Maryland","21214",4
9092,"1700 SHERWOOD AVE","BALTIMORE","Maryland","21239",4
9093,"3617 W SARATOGA ST","BALTIMORE","Maryland","21229",4
9094,"1049 GREENMOUNT AVE","BALTIMORE","Maryland","21202",4
9095,"JENIFER AVE & E 31ST ST, BALTIMORE, MD,",NA,"Maryland",NA,4
9096,"7002 HARFORD RD","BALTIMORE","Maryland","21234",4
9097,"EDMONDSON AVE & MOUNT HOLLY ST, BALTIMOR",NA,"Maryland",NA,4
9098,"5000 SINCLAIR LN","BALTIMORE","Maryland","21206",4
9099,"PIMLICO RD & BRIARWOOD RD, BALTIMORE, MD",NA,"Maryland",NA,4
9100,"1430 GITTINGS AVE","BALTIMORE","Maryland","21239",4
9101,"2225 EASTERN AVE","BALTIMORE","Maryland","21231",4
9102,"4301 GREENWAY","BALTIMORE","Maryland","21218",4
9103,"5200 SINCLAIR LN","BALTIMORE","Maryland","21206",4
9104,"501 S BEECHFIELD AVE","BALTIMORE","Maryland","21229",4
9105,"BAKER ST & MORELAND AVE","BALTIMORE","Maryland","21216",4
9106,"E LOMBARD ST & MARKET PL","BALTIMORE","Maryland","21202",4
9107,"2809 BOSTON ST","BALTIMORE","Maryland","21224",4
9108,"4800 EDMONDSON AVE","BALTIMORE","Maryland","21229",4
9109,"507 S CLINTON ST","BALTIMORE","Maryland","21224",4
9110,"5507 WEXFORD RD","BALTIMORE","Maryland","21209",4
9111,"210 N WASHINGTON ST","BALTIMORE","Maryland","21231",4
9112,"1022 E BELVEDERE AVE","BALTIMORE","Maryland","21212",4
9113,"400 NORMANDY AVE","BALTIMORE","Maryland","21229",4
9114,"809 WHITELOCK ST","BALTIMORE","Maryland","21217",4
9115,"2711 AILSA AVE","BALTIMORE","Maryland","21214",4
9116,"322 HAWTHORN RD","BALTIMORE","Maryland","21210",4
9117,"1000 MARLAU DR","BALTIMORE","Maryland","21212",4
9118,"1800 E NORTH AVE","BALTIMORE","Maryland","21213",4
9119,"2901 MALLVIEW RD","BALTIMORE","Maryland","21230",4
9120,"6400 BELAIR RD","BALTIMORE","Maryland","21206",4
9121,"4500 GROVELAND AVE","BALTIMORE","Maryland","21215",4
9122,"EASTERN AVE &S MILTON AVE","BALTIMORE","Maryland","21224",4
9123,"3112 ROSEKEMP AVE","BALTIMORE","Maryland","21214",4
9124,"6400 BELAIR RD","BALTIMORE","Maryland","21206",4
9125,"5205 CRAIG AVE","BALTIMORE","Maryland","21212",4
9126,"1500 COLE ST","BALTIMORE","Maryland","21223",4
9127,"2204 SOUTHERN AVE","BALTIMORE","Maryland","21214",4
9128,"COWAN AVE & DESOTO RD, BALTIMORE, MD, 21",NA,"Maryland",NA,4
9129,"6701 HARFORD RD","BALTIMORE","Maryland","21234",4
9130,"1700 E 32ND ST","BALTIMORE","Maryland","21218",4
9131,"MORAVIA RD","BALTIMORE","Maryland","21214",4
9132,"1307 W COLD SPRING LN","BALTIMORE","Maryland","21209",4
9133,"5700 PERRING PKWY","BALTIMORE","Maryland","21239",4
9134,"1600 ASHBURTON ST","BALTIMORE","Maryland","21216",4
9135,"1540 NORTHGATE RD","BALTIMORE","Maryland","21218",4
9136,"1143 DEXTER ST","BALTIMORE","Maryland","21230",4
9137,"2915 CRESMONT AVE","BALTIMORE","Maryland","21211",4
9138,"HARFORD RD & LOUISE AVE, BALTIMORE, MD,",NA,"Maryland",NA,4
9139,"CLIFTON AVE &N FULTON AVE","BALTIMORE","Maryland","21217",4
9140,"5300 BELAIR RD","BALTIMORE","Maryland","21206",4
9141,"1500 E LAFAYETTE AVE","BALTIMORE","Maryland","21213",4
9142,"624 TUNBRIDGE RD","BALTIMORE","Maryland","21212",4
9143,"3901 HILLEN RD","BALTIMORE","Maryland","21218",4
9144,"1201 HAUBERT ST","BALTIMORE","Maryland","21230",4
9145,"W COLD SPRING LN & FALLS RD, BALTIMORE,",NA,"Maryland",NA,4
9146,"711 W 36TH ST","BALTIMORE","Maryland","21211",4
9147,"751 EASTERN AVE","BALTIMORE","Maryland","21202",4
9148,"500 GLENWOOD AVE","BALTIMORE","Maryland","21212",4
9149,"1300 WINSTON AVE","BALTIMORE","Maryland","21239",4
9150,"600 CLAYMONT AVE","BALTIMORE","Maryland","21216",4
9151,"2000 GREENMOUNT AVE","BALTIMORE","Maryland","21218",4
9152,"6 SAINT PAUL ST","BALTIMORE","Maryland","21202",4
9153,"2600 FREDERICK AVE","BALTIMORE","Maryland","21223",4
9154,"6508 ALTA AVE","BALTIMORE","Maryland","21206",4
9155,"225 E 33RD ST","BALTIMORE","Maryland","21218",4
9156,"6100 FENWICK AVE","BALTIMORE","Maryland","21239",4
9157,"2700 W FRANKLIN ST","BALTIMORE","Maryland","21223",4
9158,"513 ROSE HILL TER","BALTIMORE","Maryland","21218",4
9159,"3821 MOUNT PLEASANT AVE","BALTIMORE","Maryland","21224",4
9160,"2530 E FAYETTE ST","BALTIMORE","Maryland","21224",4
9161,"BROENING HWY & HOLABIRD AVE, BALTIMORE,",NA,"Maryland",NA,4
9162,"I 83 S &W COLD SPRING LN","BALTIMORE","Maryland","21209",4
9163,"1 PADDINGTON CT","BALTIMORE","Maryland","21212",4
9164,"5407 PURLINGTON WAY","BALTIMORE","Maryland","21212",4
9165,"900 N CALVERT ST","BALTIMORE","Maryland","21202",4
9166,"217 N MADEIRA ST","BALTIMORE","Maryland","21231",4
9167,"869 N HOWARD ST","BALTIMORE","Maryland","21201",4
9168,"2600 EASTERN AVE","BALTIMORE","Maryland","21224",4
9169,"4100 BRENDAN AVE","BALTIMORE","Maryland","21213",4
9170,"3200 O'DONNELL ST","BALTIMORE","Maryland","21224",4
9171,"926 CHURCH ST","BALTIMORE","Maryland","21225",4
9172,"5405 SAINT ALBANS WAY","BALTIMORE","Maryland","21212",4
9173,"5102 ARBUTUS AVE","BALTIMORE","Maryland","21215",4
9174,"2337 E NORTHERN PKWY","BALTIMORE","Maryland","21214",4
9175,"4806 ALHAMBRA AVE","BALTIMORE","Maryland","21212",4
9176,"SHELBURNE RD & SEVEN MILE LN, BALTIMORE,",NA,"Maryland",NA,4
9177,"3500 W STRATHMORE AVE","BALTIMORE","Maryland","21215",4
9178,"3401 ROSALIE AVE","BALTIMORE","Maryland","21234",4
9179,"3901 SAINT PAUL ST","BALTIMORE","Maryland","21218",4
9180,"3935 S HANOVER ST","BALTIMORE","Maryland","21225",4
9181,"BELAIR RD & ERDMAN AVE","BALTIMORE","Maryland","21213",4
9182,"517 BALTIC AVE","BALTIMORE","Maryland","21225",4
9183,"3400 GREENSPRING AVE","BALTIMORE","Maryland",NA,4
9184,"900 E PRESTON ST","BALTIMORE","Maryland","21202",4
9185,"3720 BROOKLYN AVE","BALTIMORE","Maryland","21225",4
9186,"2400 S HANOVER ST","BALTIMORE","Maryland","21230",4
9187,"3004 SOUTHERN AVE","BALTIMORE","Maryland","21214",4
9188,"1106 S BOULDIN ST","BALTIMORE","Maryland","21224",4
9189,"CARDENAS AVE & CHESTERFIELD AVE","BALTIMORE","Maryland","21213",4
9190,"MILLINGTON AVE & LEHMAN ST, BALTIMORE, M",NA,"Maryland",NA,4
9191,"228 W LEXINGTON ST","BALTIMORE","Maryland","21201",4
9192,"213 KEMBLE RD","BALTIMORE","Maryland","21218",4
9193,"E BIDDLE ST & ENSOR ST, BALTIMORE, MD, 2",NA,"Maryland",NA,4
9194,"1638 GLENEAGLE RD","BALTIMORE","Maryland","21239",4
9195,"1238 HAVERHILL RD","BALTIMORE","Maryland","21229",4
9196,"3300 SINCLAIR LN","BALTIMORE","Maryland","21213",4
9197,"222 N PATTERSON PARK AVE","BALTIMORE","Maryland","21231",4
9198,"2100 N CALVERT ST","BALTIMORE","Maryland","21218",4
9199,"2800 W FRANKLIN ST","BALTIMORE","Maryland","21223",4
9200,"641 N KENWOOD AVE","BALTIMORE","Maryland","21205",4
9201,"1200 ASHBURTON ST","BALTIMORE","Maryland","21216",4
9202,"1917 AISQUITH ST","BALTIMORE","Maryland","21218",4
9203,"HATTON RD & SHELBURNE RD, BALTIMORE, MD,",NA,"Maryland",NA,4
9204,"2400 ASHTON ST","BALTIMORE","Maryland","21223",4
9205,"258 W CHASE ST","BALTIMORE","Maryland","21201",4
9206,"3506 BANCROFT RD","BALTIMORE","Maryland","21215",4
9207,"TANEY RD & HANSON AVE","BALTIMORE","Maryland","21209",4
9208,"1000 S CONKLING ST","BALTIMORE","Maryland","21224",4
9209,"200 CEDARCROFT RD","BALTIMORE","Maryland","21212",4
9210,"4000 HAWKINS POINT RD","BALTIMORE","Maryland","21226",4
9211,"900 S CAREY ST","BALTIMORE","Maryland","21223",4
9212,"LANCASTER ST & S CENTRAL AVE, BALTIMORE,",NA,"Maryland",NA,4
9213,"HUNTER ST & E 30TH ST, BALTIMORE, MD, 21",NA,"Maryland",NA,4
9214,"3400 MUELLER ST","BALTIMORE","Maryland","21224",4
9215,"236 N PORT ST","BALTIMORE","Maryland","21224",4
9216,"5150 BALTIMORE NATIONAL PIKE","BALTIMORE","Maryland","21229",4
9217,"411 QUINTON ST","BALTIMORE","Maryland","21224",4
9218,"6115 BELLONA AVE","BALTIMORE","Maryland","21212",4
9219,"3602 W SARATOGA ST","BALTIMORE","Maryland","21229",4
9220,"400 E MADISON ST","BALTIMORE","Maryland","21202",4
9221,"300 N EUTAW ST","BALTIMORE","Maryland","21201",4
9222,"3300 W NORTHERN PKWY","BALTIMORE","Maryland","21215",4
9223,"200 N CONKLING ST","BALTIMORE","Maryland","21224",4
9224,"3500 HORTON AVE","BALTIMORE","Maryland","21225",4
9225,"2515 BOSTON ST","BALTIMORE","Maryland","21224",4
9226,"216 NORTHWAY","BALTIMORE","Maryland","21218",4
9227,"2746 N CALVERT ST","BALTIMORE","Maryland","21218",4
9228,"7001 KEITH AVE","BALTIMORE","Maryland",NA,4
9229,"4700 BELAIR RD","BALTIMORE","Maryland","21206",4
9230,"500 E LOMBARD ST","BALTIMORE","Maryland","21202",4
9231,"3500 GELSTON DR","BALTIMORE","Maryland","21229",4
9232,"3856 SINCLAIR LN","BALTIMORE","Maryland","21213",4
9233,"309 N ELLWOOD AVE","BALTIMORE","Maryland","21224",4
9234,"W MULBERRY ST & N MARTIN LUTHER KING JR",NA,"Maryland",NA,4
9235,"16 E FORT AVE","BALTIMORE","Maryland","21230",4
9236,"1200 WICKLOW RD","BALTIMORE","Maryland","21229",4
9237,"3600 FRISBY ST","BALTIMORE","Maryland","21218",4
9238,"2100 N WARWICK AVE","BALTIMORE","Maryland","21217",4
9239,"DOLPHIN ST & N HOWARD-DOLPHIN, BALTIMORE",NA,"Maryland",NA,4
9240,"ARGONNE DR & THE ALAMEDA","BALTIMORE","Maryland","21218",4
9241,"1622 NORMAL AVE","BALTIMORE","Maryland","21213",4
9242,"2230 S HANOVER ST","BALTIMORE","Maryland","21230",4
9243,"1502 NORTHWICK RD","BALTIMORE","Maryland","21218",4
9244,"1800 W MULBERRY ST","BALTIMORE","Maryland","21223",4
9245,"1700 N REGESTER ST","BALTIMORE","Maryland","21213",4
9246,"2556 FREDERICK AVE","BALTIMORE","Maryland","21223",4
9247,"811 S CHARLES ST","BALTIMORE","Maryland","21230",4
9248,"2701 KENNEDY AVE","BALTIMORE","Maryland","21218",4
9249,"509 N BRADFORD ST","BALTIMORE","Maryland","21205",4
9250,"5900 ARABIA AVE","BALTIMORE","Maryland","21214",4
9251,"2800 WINWOOD CT","BALTIMORE","Maryland","21225",4
9252,"100 N BROADWAY","BALTIMORE","Maryland","21231",4
9253,"23 S CULVER ST","BALTIMORE","Maryland","21229",4
9254,"2000 WINFORD RD","BALTIMORE","Maryland","21239",4
9255,"2609 N HILTON ST","BALTIMORE","Maryland",NA,4
9256,"219 N KENWOOD AVE","BALTIMORE","Maryland","21224",4
9257,"6700 O'DONNELL ST","BALTIMORE","Maryland","21224",4
9258,"BOSTON ST","BALTIMORE","Maryland","21222",4
9259,"3242 FOSTER AVE","BALTIMORE","Maryland","21224",4
9260,"ALBAN AVE & WISTERIA AVE, BALTIMORE, MD,",NA,"Maryland",NA,4
9261,"1510 BATTERY AVE","BALTIMORE","Maryland","21230",4
9262,"2000 E NORTHERN PKWY","BALTIMORE","Maryland","21214",4
9263,"2908 OVERLAND AVE","BALTIMORE","Maryland","21214",4
9264,"918 W FRANKLIN ST","BALTIMORE","Maryland","21223",4
9265,"4400 TAMARIND RD","BALTIMORE","Maryland","21209",4
9266,"6015 LOCH RAVEN BLVD","BALTIMORE","Maryland","21239",4
9267,"1643 W BALTIMORE ST","BALTIMORE","Maryland","21223",4
9268,"628 N EUTAW ST","BALTIMORE","Maryland","21201",4
9269,"4711 EDMONDSON AVE","BALTIMORE","Maryland","21229",4
9270,"4600 HARFORD RD","BALTIMORE","Maryland","21214",4
9271,"104 MCPHAIL ST","BALTIMORE","Maryland","21223",4
9272,"1049 GREENMOUNT AVE","BALTIMORE","Maryland","21202",4
9273,"BEAUMONT AVE & KENILWORTH AVE","BALTIMORE","Maryland","21212",4
9274,"1519 S CLINTON ST","BALTIMORE","Maryland","21224",4
9275,"MORAVIA RD & PULASKI HWY, BALTIMORE, MD,",NA,"Maryland",NA,4
9276,"4913 MIDWOOD AVE","BALTIMORE","Maryland","21212",4
9277,"3411 CROSSLAND AVE","BALTIMORE","Maryland","21213",4
9278,"MCELDERRY ST & N BOULDIN ST, BALTIMORE,",NA,"Maryland",NA,4
9279,"200 BATH ST","BALTIMORE","Maryland","21202",4
9280,"720 LIGHT ST","BALTIMORE","Maryland","21230",4
9281,"3205 WASHINGTON BLVD","BALTIMORE","Maryland",NA,4
9282,"4002 ERDMAN AVE","BALTIMORE","Maryland","21213",4
9283,"BELLE VISTA AVE & HAMILTON AVE","BALTIMORE","Maryland","21206",4
9284,"S HANOVER ST & I 95 N, BALTIMORE, MD, 21",NA,"Maryland",NA,4
9285,"1200 WICKLOW RD","BALTIMORE","Maryland","21229",4
9286,"700 N MARTIN LUTHER KING JR BLVD","BALTIMORE","Maryland","21201",4
9287,"1949 W PRATT ST","BALTIMORE","Maryland","21223",4
9288,"1416 MADISON AVE","BALTIMORE","Maryland","21217",4
9289,"2703 LOUISE AVE","BALTIMORE","Maryland","21214",4
9290,"416 ALLENDALE ST","BALTIMORE","Maryland","21229",4
9291,"HAMPNETT AVE & EVERGREEN AVE, BALTIMORE,","   Baltimore","Maryland","21214",4
9292,"1500 N ELLAMONT ST","BALTIMORE","Maryland","21216",4
9293,"1509 KENHILL AVE","BALTIMORE","Maryland","21213",4
9294,"400 S ROBINSON ST","BALTIMORE","Maryland","21224",4
9295,"3700 W FRANKLIN ST","BALTIMORE","Maryland","21229",4
9296,"1233 WICKLOW RD","BALTIMORE","Maryland","21229",4
9297,"3900 SOUTHERN AVE","BALTIMORE","Maryland","21206",4
9298,"777 S EDEN ST","BALTIMORE","Maryland","21231",4
9299,"1301 GLENEAGLE RD","BALTIMORE","Maryland","21239",4
9300,"3306 HAMILTON AVE","BALTIMORE","Maryland","21214",4
9301,"726 ROUNDVIEW RD","BALTIMORE","Maryland","21225",4
9302,"7400 HARFORD RD","BALTIMORE","Maryland",NA,4
9303,"3100 HUDSON ST","BALTIMORE","Maryland","21224",4
9304,"HOLABIRD AVE & PONCABIRD PASS","BALTIMORE","Maryland","21224",4
9305,"HILLEN RD & ARGONNE DR, BALTIMORE, MD, 2",NA,"Maryland",NA,4
9306,"500 S PATTERSON PARK AVE","BALTIMORE","Maryland","21231",4
9307,"1601 E LANVALE ST","BALTIMORE","Maryland","21213",4
9308,"1312 WALTERS AVE","BALTIMORE","Maryland","21239",4
9309,"4600 SIMMS AVE","BALTIMORE","Maryland","21206",4
9310,"2 E MOUNT VERNON PL","BALTIMORE","Maryland","21202",4
9311,"1716 THAMES ST","BALTIMORE","Maryland","21231",4
9312,"600 LYNDHURST ST","BALTIMORE","Maryland","21229",4
9313,"FORT SMALLWOOD RD & FORT ARMISTEAD RD, B",NA,"Maryland",NA,4
9314,"7709 FREDKERT AVE","BALTIMORE","Maryland","21236",4
9315,"2600 N HILTON ST","BALTIMORE","Maryland","21216",4
9316,"460 GRINDALL ST","BALTIMORE","Maryland","21230",4
9317,"1900 GRINNALDS AVE","BALTIMORE","Maryland","21230",4
9318,"818 BELLEMORE RD","BALTIMORE","Maryland","21210",4
9319,"1226 BLOOMINGDALE RD","BALTIMORE","Maryland","21216",4
9320,"3011 GUILFORD AVE","BALTIMORE","Maryland","21218",4
9321,"744 W HAMBURG ST","BALTIMORE","Maryland","21230",4
9322,"127 S CASTLE ST","BALTIMORE","Maryland","21231",4
9323,"4119 SAINT GEORGES AVE","BALTIMORE","Maryland","21218",4
9324,"807 COOKS LN","BALTIMORE","Maryland","21229",4
9325,"2055 ROCKROSE AVE","BALTIMORE","Maryland","21211",4
9326,"3836 BANK ST","BALTIMORE","Maryland","21224",4
9327,"200 S BOND ST","BALTIMORE","Maryland","21231",4
9328,"2020 W FAYETTE ST","BALTIMORE","Maryland","21223",4
9329,"ALLENDALE ST & HARLEM AVE, BALTIMORE, MD",NA,"Maryland",NA,4
9330,"2800 N HOWARD ST","BALTIMORE","Maryland","21218",4
9331,"6001 MORAVIA RD","BALTIMORE","Maryland","21206",4
9332,"500 WILDWOOD PKWY","BALTIMORE","Maryland","21229",4
9333,"2000 E OLIVER ST","BALTIMORE","Maryland","21213",4
9334,"LABYRINTH RD & GIST AVE, BALTIMORE, MD,",NA,"Maryland",NA,4
9335,"COOKS LN & BRIARCLIFT RD, BALTIMORE, MD,",NA,"Maryland",NA,4
9336,"E LOMBARD ST","BALTIMORE","Maryland","21224",4
9337,"S CALHOUN ST & W LOMBARD ST, BALTIMORE,",NA,"Maryland",NA,4
9338,"306 SOUTHWAY","BALTIMORE","Maryland","21218",4
9339,"730 ROUNDVIEW RD","BALTIMORE","Maryland","21225",4
9340,"6100 BELLONA AVE","BALTIMORE","Maryland","21212",4
9341,"5506 LOMBARDY PL","BALTIMORE","Maryland","21210",4
9342,"200 W BALTIMORE ST","BALTIMORE","Maryland","21201",4
9343,"1713 S CLINTON ST","BALTIMORE","Maryland","21224",4
9344,"MAUDE AVE & 5TH ST, BALTIMORE, MD, 21225",NA,"Maryland",NA,4
9345,"201 N MONASTERY AVE","BALTIMORE","Maryland","21229",4
9346,"5200 PURLINGTON WAY","BALTIMORE","Maryland","21212",4
9347,"4600 FALLS RD","BALTIMORE","Maryland",NA,4
9348,"400 LOVEGROVE ST","BALTIMORE","Maryland","21201",4
9349,"6105 HARFORD RD","BALTIMORE","Maryland","21214",4
9350,"700 LYNDHURST ST","BALTIMORE","Maryland","21229",4
9351,"E LOMBARD ST & LIGHT ST, BALTIMORE, MD,",NA,"Maryland",NA,4
9352,"POTEE-HANOVER & W TALBOTT ST, BALTIMORE,","BALTIMORE","Maryland",NA,4
9353,"S EDEN ST & E PRATT ST, BALTIMORE, MD, 2",NA,"Maryland",NA,4
9354,"5100 BELLEVILLE AVE","BALTIMORE","Maryland","21207",4
9355,"2300 SEAMON AVE","BALTIMORE","Maryland","21225",4
9356,"2219 KENTUCKY AVE","BALTIMORE","Maryland","21213",4
9357,"GITTINGS AVE & LOCH RAVEN BLVD, BALTIMOR","BALTIMORE","Maryland",NA,4
9358,"5200 SAYBROOK RD","BALTIMORE","Maryland","21206",4
9359,"600 S FULTON AVE","BALTIMORE","Maryland","21223",4
9360,"3301 WALBROOK AVE","BALTIMORE","Maryland","21216",4
9361,"2900 INGLEWOOD AVE","BALTIMORE","Maryland","21234",4
9362,"5210 DARIEN RD","BALTIMORE","Maryland","21206",4
9363,"1541 COX ST","BALTIMORE","Maryland","21211",4
9364,"300 N PULASKI ST","BALTIMORE","Maryland","21223",4
9365,"806 EVESHAM AVE","BALTIMORE","Maryland","21212",4
9366,"500 E 39TH ST","BALTIMORE","Maryland","21218",4
9367,"1211 POPLAR HILL RD","BALTIMORE","Maryland","21210",4
9368,"210 E CENTRE ST","BALTIMORE","Maryland","21202",4
9369,"109 OVERHILL RD","BALTIMORE","Maryland","21210",4
9370,"3545 3RD ST","BALTIMORE","Maryland","21225",4
9371,"1700 RIGGS AVE","BALTIMORE","Maryland","21217",4
9372,"LOCH RAVEN BLVD & KITMORE RD, BALTIMORE,",NA,"Maryland",NA,4
9373,"5501 WILVAN AVE","BALTIMORE","Maryland","21207",4
9374,"5000 FALLS RD","BALTIMORE","Maryland",NA,4
9375,"GREENSPRING AVE","BALTIMORE","Maryland","21217",4
9376,"2503 W COLD SPRING LN","BALTIMORE","Maryland","21215",4
9377,"4111 BELLE AVE","BALTIMORE","Maryland","21215",4
9378,"1 S CULVER ST","BALTIMORE","Maryland","21229",4
9379,"4300 BREHMS LN","BALTIMORE","Maryland","21206",4
9380,"912 W NORTHERN PKWY","BALTIMORE","Maryland","21210",4
9381,"4700 YELLOWWOOD AVE","BALTIMORE","Maryland","21209",4
9382,"357 YALE AVE","BALTIMORE","Maryland","21229",4
9383,"I 83 S &E FAYETTE ST","BALTIMORE","Maryland","21202",4
9384,"PULASKI HWY & N HAVEN ST, BALTIMORE, MD,",NA,"Maryland",NA,4
9385,"700 E NORTH AVE","BALTIMORE","Maryland","21202",4
9386,"6500 PERRING PKWY","BALTIMORE","Maryland","21239",4
9387,"W READ ST & PARK AVE, BALTIMORE, MD, 212",NA,"Maryland",NA,4
9388,"2800 PROSPECT ST","BALTIMORE","Maryland",NA,4
9389,"2000 N PULASKI ST","BALTIMORE","Maryland","21217",4
9390,"4100 STOKES DR","BALTIMORE","Maryland","21229",4
9391,"E 25TH ST & LOCH RAVEN RD","BALTIMORE","Maryland","21218",4
9392,"CARDENAS AVE & LAKE AVE","BALTIMORE","Maryland","21213",4
9393,"156 N LUZERNE AVE","BALTIMORE","Maryland","21224",4
9394,"114 E LOMBARD ST","BALTIMORE","Maryland","21202",4
9395,"900 DRUID PARK LAKE DR","BALTIMORE","Maryland","21217",4
9396,"2614 ANNAPOLIS RD","BALTIMORE","Maryland",NA,4
9397,"900 S LAKEWOOD AVE","BALTIMORE","Maryland","21224",4
9398,"W FRANKLIN ST & N FULTON AVE, BALTIMORE,",NA,"Maryland",NA,4
9399,"1200 LINWORTH AVE","BALTIMORE","Maryland","21239",4
9400,"723 S BROADWAY","BALTIMORE","Maryland","21231",4
9401,"115 N WASHINGTON ST","BALTIMORE","Maryland","21231",4
9402,"1300 E NORTH AVE","BALTIMORE","Maryland","21213",4
9403,"WINSTON AVE & NORTHWOOD DR, BALTIMORE, M",NA,"Maryland",NA,4
9404,"3201 LILY AVE","HALETHORPE","Maryland","21227",4
9405,"3426 ELMORA AVE","BALTIMORE","Maryland","21213",4
9406,"5700 LOCH RAVEN BLVD","BALTIMORE","Maryland","21239",4
9407,"100 S EUTAW ST","BALTIMORE","Maryland","21201",4
9408,"6000 HOPETON AVE","BALTIMORE","Maryland","21215",4
9409,"3300 ESTHER PL","BALTIMORE","Maryland","21224",4
9410,"3700 SOUTHWESTERN BLVD","BALTIMORE","Maryland","21229",4
9411,"1600 N SPRING ST","BALTIMORE","Maryland","21213",4
9412,"1200 N MACON ST","BALTIMORE","Maryland","21205",4
9413,"W FRANKLIN ST &N GREENE ST","BALTIMORE","Maryland","21201",4
9414,"2800 FLEET ST","BALTIMORE","Maryland","21224",4
9415,"300 W MULBERRY ST","BALTIMORE","Maryland","21201",4
9416,"1800 INVERNESS AVE","BALTIMORE","Maryland","21230",4
9417,"6106 OLD HARFORD RD","BALTIMORE","Maryland","21214",4
9418,"1500 E MADISON ST","BALTIMORE","Maryland","21205",4
9419,"900 DUCATEL ST","BALTIMORE","Maryland","21217",4
9420,"218 S DUNCAN ST","BALTIMORE","Maryland","21231",4
9421,"700 CONSTITUTION ST","BALTIMORE","Maryland","21202",4
9422,"4100 GRENTON AVE","BALTIMORE","Maryland","21206",4
9423,"3319 MUELLER ST","BALTIMORE","Maryland","21224",4
9424,"6000 BELAIR RD","BALTIMORE","Maryland","21206",4
9425,"200 E MELROSE AVE","BALTIMORE","Maryland","21212",4
9426,"5813 MORAVIA RD","BALTIMORE","Maryland","21206",4
9427,"2739 N CALVERT ST","BALTIMORE","Maryland","21218",4
9428,"211 N MADEIRA ST","BALTIMORE","Maryland","21231",4
9429,"1001 WOODBOURNE AVE","BALTIMORE","Maryland","21212",4
9430,"GRACELAND AVE & OGDEN ST","BALTIMORE","Maryland","21224",4
9431,"110 E 34TH ST","BALTIMORE","Maryland","21218",4
9432,"E COLD SPRING LN & NORTHWOOD DR, BALTIMO",NA,"Maryland",NA,4
9433,"5306 TILBURY WAY","BALTIMORE","Maryland","21212",4
9434,"QUANTICO AVE & ROLAND VIEW AVE, BALTIMOR","BALTIMORE","Maryland",NA,4
9435,"N EUTAW ST & W SARATOGA ST, BALTIMORE, M",NA,"Maryland",NA,4
9436,"2001 N BROADWAY","BALTIMORE","Maryland","21213",4
9437,"2935 GUILFORD AVE","BALTIMORE","Maryland","21218",4
9438,"1400 DRUID HILL AVE","BALTIMORE","Maryland","21217",4
9439,"2600 ROBB ST","BALTIMORE","Maryland","21218",4
9440,"3606 PENNINGTON AVE","BALTIMORE","Maryland","21226",4
9441,"S CAROLINE ST & E LOMBARD ST, BALTIMORE,",NA,"Maryland",NA,4
9442,"211 S ROBINSON ST","BALTIMORE","Maryland","21224",4
9443,"2600 FLEET ST","BALTIMORE","Maryland","21224",4
9444,"4400 KATHLAND AVE","BALTIMORE","Maryland","21207",4
9445,"REGENT RD & SMITH AVE, BALTIMORE, MD, 21","   baltimore","Maryland","21209",4
9446,"3500 O'DONNELL ST","BALTIMORE","Maryland","21224",4
9447,"600 DRUID HILL AVE","BALTIMORE","Maryland","21201",4
9448,"1929 FLEET ST","BALTIMORE","Maryland","21231",4
9449,"31 LIGHT ST","BALTIMORE","Maryland","21202",4
9450,"E LOMBARD ST & S CALVERT ST, BALTIMORE,",NA,"Maryland",NA,4
9451,"2300 WESTWOOD AVE","BALTIMORE","Maryland","21216",4
9452,"4300 PARKMONT AVE","BALTIMORE","Maryland","21206",4
9453,"E FEDERAL ST & ERDMAN AVE","BALTIMORE","Maryland","21213",4
9454,"400 N CALVERT ST","BALTIMORE","Maryland","21202",4
9455,"1721 BYRD ST","BALTIMORE","Maryland","21230",4
9456,"1900 S HANOVER ST","BALTIMORE","Maryland","21230",4
9457,"841 LENTON AVE","BALTIMORE","Maryland","21212",4
9458,"6715 ROBERTS AVE","BALTIMORE","Maryland","21222",4
9459,"2302 ROBB ST","BALTIMORE","Maryland","21218",4
9460,"3800 PARKSIDE DR","BALTIMORE","Maryland","21206",4
9461,"6926 CONLEY ST","BALTIMORE","Maryland","21224",4
9462,"1300 N ELLAMONT ST","BALTIMORE","Maryland","21216",4
9463,"700 N GRANTLEY ST","BALTIMORE","Maryland","21229",4
9464,"2931 E MADISON ST","BALTIMORE","Maryland","21205",4
9465,"WALKER AVE & YORK RD, BALTIMORE, MD, 212",NA,"Maryland",NA,4
9466,"600 MOUNT HOLLY ST","BALTIMORE","Maryland","21229",4
9467,"4900 GILRAY DR","BALTIMORE","Maryland","21214",4
9468,"903 WICKLOW RD","BALTIMORE","Maryland","21229",4
9469,"4200 NICHOLAS AVE","BALTIMORE","Maryland","21206",4
9470,"W MULBERRY ST & NORMANDY AVE","BALTIMORE","Maryland","21229",4
9471,"2600 E FAYETTE ST","BALTIMORE","Maryland","21224",4
9472,"6003 BELLONA AVE","BALTIMORE","Maryland","21212",4
9473,"1400 GITTINGS AVE","BALTIMORE","Maryland","21239",4
9474,"4400 RASPE AVE","BALTIMORE","Maryland","21206",4
9475,"2300 LAURETTA AVE","BALTIMORE","Maryland","21223",4
9476,"2200 PENROSE AVE","BALTIMORE","Maryland","21223",4
9477,"3500 E BIDDLE ST","BALTIMORE","Maryland","21213",4
9478,"116 BIRCKHEAD ST","BALTIMORE","Maryland","21230",4
9479,"1510 BATTERY AVE","BALTIMORE","Maryland","21230",4
9480,"912 W NORTHERN PKWY","BALTIMORE","Maryland","21210",4
9481,"2427 ANNAPOLIS RD","BALTIMORE","Maryland","21230",4
9482,"E NORTHERN PKWY & PERRING PKWY","BALTIMORE","Maryland","21239",4
9483,"4400 CEDARGARDEN RD","BALTIMORE","Maryland","21229",4
9484,"BRADDISH AVE & HARLEM AVE","BALTIMORE","Maryland","21216",4
9485,"6400 MARIETTA AVE","BALTIMORE","Maryland","21214",4
9486,"3400 W SARATOGA ST","BALTIMORE","Maryland","21229",4
9487,"500 ALLENDALE ST","BALTIMORE","Maryland","21229",4
9488,"1409 BROENING HWY","BALTIMORE","Maryland","21224",4
9489,"100 W LOMBARD ST","BALTIMORE","Maryland","21201",4
9490,"1143 DEXTER ST","BALTIMORE","Maryland","21230",4
9491,"1700 CHARLOTTE AVE","BALTIMORE","Maryland","21224",4
9492,"2224 WESTFIELD AVE","BALTIMORE","Maryland","21214",4
9493,"1200 GLENHAVEN RD","BALTIMORE","Maryland","21239",4
9494,"401 WHITRIDGE AVE","BALTIMORE","Maryland","21218",4
9495,"3539 NORTHWAY DR","BALTIMORE","Maryland","21234",4
9496,"N BRADFORD ST & E FEDERAL ST, BALTIMORE,",NA,"Maryland",NA,4
9497,"323 S COLLINS AVE","BALTIMORE","Maryland","21229",4
9498,"W COLD SPRING LN","BALTIMORE","Maryland","21210",4
9499,"3023 ERDMAN AVE","BALTIMORE","Maryland",NA,4
9500,"2100 E COLD SPRING LN","BALTIMORE","Maryland","21214",4
9501,"3500 SINCLAIR LN","BALTIMORE","Maryland","21213",4
9502,"2200 VAIL ST","BALTIMORE","Maryland","21224",4
9503,"600 N GRANTLEY ST","BALTIMORE","Maryland","21229",4
9504,"1510 BATTERY AVE","BALTIMORE","Maryland","21230",4
9505,"6800 FAIRLAWN AVE","BALTIMORE","Maryland","21215",4
9506,"3508 WOODSTOCK AVE","BALTIMORE","Maryland","21213",4
9507,"1914 LETITIA AVE","BALTIMORE","Maryland","21230",4
9508,"HATTON RD & SHELBURNE RD, BALTIMORE, MD,",NA,"Maryland",NA,4
9509,"2200 EDGEWATER ST","BALTIMORE","Maryland","21222",4
9510,"E COLD SPRING LN & OLD YORK RD, BALTIMOR",NA,"Maryland",NA,4
9511,"403 BALTIC AVE","BALTIMORE","Maryland","21225",4
9512,"4814 BRIARCLIFT RD","BALTIMORE","Maryland","21229",4
9513,"69 COBBER LN","BALTIMORE","Maryland","21229",4
9514,"1000 FRANKFURST AVE","BALTIMORE","Maryland","21226",4
9515,"2714 CYLBURN AVE","BALTIMORE","Maryland","21215",4
9516,"HOMELAND AVE & SPRINGLAKE WAY, BALTIMORE",NA,"Maryland","21212",4
9517,"3600 W SARATOGA ST","BALTIMORE","Maryland","21229",4
9518,"100 MOUNT CLARE ST","BALTIMORE","Maryland","21223",4
9519,"3805 MACTAVISH AVE","BALTIMORE","Maryland","21229",4
9520,"3400 MANNASOTA AVE","BALTIMORE","Maryland","21213",4
9521,"2200 CHESTERFIELD AVE","BALTIMORE","Maryland","21213",4
9522,"5314 SAINT GEORGES AVE","BALTIMORE","Maryland","21212",4
9523,"500 ROBERT ST","BALTIMORE","Maryland","21217",4
9524,"5500 ROLAND AVE","BALTIMORE","Maryland","21210",4
9525,"6100 BLACKBURN LN","BALTIMORE","Maryland","21212",4
9526,"98 COTSWOLD RD","BALTIMORE","Maryland","21210",4
9527,"E 20TH ST & HOPE ST, BALTIMORE, MD, 2121",NA,"Maryland",NA,4
9528,"1100 W 41ST ST","BALTIMORE","Maryland","21211",4
9529,"151 W MCCOMAS ST","BALTIMORE","Maryland","21230",4
9530,"3616 W SARATOGA ST","BALTIMORE","Maryland","21229",4
9531,"2903 MARKLEY AVE","BALTIMORE","Maryland","21214",4
9532,"2039 FLEET ST","BALTIMORE","Maryland","21231",4
9533,"4300 LIBERTY HEIGHTS AVE","BALTIMORE","Maryland","21207",4
9534,"500 DOSWELL AVE","BALTIMORE","Maryland","21223",4
9535,"2400 E NORTHERN PKWY","BALTIMORE","Maryland","21234",4
9536,"1100 W HAMBURG ST","BALTIMORE","Maryland","21230",4
9537,"3030 CLIFTON PARK TER","BALTIMORE","Maryland","21213",4
9538,"300 E NORTHERN PKWY","BALTIMORE","Maryland","21212",4
9539,"224 GOODALE RD","BALTIMORE","Maryland","21212",4
9540,"900 S CLINTON ST","BALTIMORE","Maryland","21224",4
9541,"2701 HARFORD RD","BALTIMORE","Maryland","21213",4
9542,"2200 VAIL ST","BALTIMORE","Maryland","21224",4
9543,"4214 SHAMROCK AVE","BALTIMORE","Maryland","21206",4
9544,"1200 S CONKLING ST","BALTIMORE","Maryland","21224",4
9545,"N ELLAMONT ST & BAKER ST","BALTIMORE","Maryland","21216",4
9546,"6000 BELLE VISTA AVE","BALTIMORE","Maryland","21206",4
9547,"1216 WOODBOURNE AVE","BALTIMORE","Maryland","21239",4
9548,"1700 BELT ST","BALTIMORE","Maryland","21230",4
9549,"800 SEAGULL AVE","BALTIMORE","Maryland","21225",4
9550,"1000 E NORTHERN PKWY","BALTIMORE","Maryland","21212",4
9551,"3600 RAVENWOOD AVE","BALTIMORE","Maryland","21213",4
9552,"6 COTSWOLD RD","BALTIMORE","Maryland","21210",4
9553,"4400 HADDON AVE","BALTIMORE","Maryland","21207",4
9554,"4901 ERDMAN AVE","BALTIMORE","Maryland","21205",4
9555,"108 S MONASTERY AVE","BALTIMORE","Maryland","21229",4
9556,"4000 GROVELAND AVE","BALTIMORE","Maryland","21215",4
9557,"1008 UPNOR RD","BALTIMORE","Maryland","21212",4
9558,"751 EASTERN AVE","BALTIMORE","Maryland","21202",4
9559,"4709 CHARLTON AVE","BALTIMORE","Maryland","21214",4
9560,"1339 BROENING HWY","BALTIMORE","Maryland","21224",4
9561,"6500 PERRING PKWY","BALTIMORE","Maryland","21239",4
9562,"801 SAINT GEORGES RD","BALTIMORE","Maryland","21210",4
9563,"3855 FALLS RD","BALTIMORE","Maryland","21211",4
9564,"SHERWOOD AVE & BONAPARTE AVE, BALTIMORE,",NA,"Maryland",NA,4
9565,"1701 S CHARLES ST","BALTIMORE","Maryland","21230",4
9566,"2509 HAMILTON AVE","BALTIMORE","Maryland","21214",4
9567,"1200 SHERIDAN AVE","BALTIMORE","Maryland","21239",4
9568,"5400 THE ALAMEDA","BALTIMORE","Maryland","21212",4
9569,"W COLD SPRING LN & REISTERSTOWN RD","BALTIMORE","Maryland","21215",4
9570,"3539 W CATON AVE","BALTIMORE","Maryland","21229",4
9571,"5501 FREDERICK AVE","BALTIMORE","Maryland","21228",4
9572,"2029 CECIL AVE","BALTIMORE","Maryland","21218",4
9573,"5800 WINTHROPE AVE","BALTIMORE","Maryland","21206",4
9574,"4204 GRANADA AVE","BALTIMORE","Maryland","21215",4
9575,"500 MILLINGTON AVE","BALTIMORE","Maryland","21223",4
9576,"1600 CHURCH ST","BALTIMORE","Maryland","21226",4
9577,"5360 PERRING PKWY","BALTIMORE","Maryland","21239",4
9578,"1620 W BALTIMORE ST","BALTIMORE","Maryland","21223",4
9579,"634 BURGUNDY ST","BALTIMORE","Maryland","21230",4
9580,"WALTHER AVE & E NORTHERN PKWY, BALTIMORE",NA,"Maryland",NA,4
9581,"3921 W ROGERS AVE","BALTIMORE","Maryland","21215",4
9582,"3007 WOLCOTT AVE","BALTIMORE","Maryland","21216",4
9583,"2900 STRICKLAND ST","BALTIMORE","Maryland","21223",4
9584,"5400 LIBERTY HEIGHTS AVE","BALTIMORE","Maryland","21207",4
9585,"2201 DUKER CT","BALTIMORE","Maryland","21231",4
9586,"6100 WALLIS AVE","BALTIMORE","Maryland","21215",4
9587,"120 W HAMBURG ST","BALTIMORE","Maryland","21230",4
9588,"FENWICK AVE & E 30TH-29TH, BALTIMORE, MD",NA,"Maryland",NA,4
9589,"1900 N CALVERT ST","BALTIMORE","Maryland","21218",4
9590,"6604 FAIRDEL AVE","BALTIMORE","Maryland","21206",4
9591,"HIGHVIEW AVE & ELMORA AVE, BALTIMORE, MD",NA,"Maryland",NA,4
9592,"3137 N CALVERT ST","BALTIMORE","Maryland","21218",4
9593,"4000 PARKSIDE DR","BALTIMORE","Maryland","21206",4
9594,"900 N HOWARD ST","BALTIMORE","Maryland","21201",4
9595,"6530 WALTHER AVE","BALTIMORE","Maryland","21206",4
9596,"4600 EASTERN AVE","BALTIMORE","Maryland","21224",4
9597,"E NORTH AVE & AISQUITH ST, BALTIMORE, MD",NA,"Maryland",NA,4
9598,"631 WHITELOCK ST","BALTIMORE","Maryland","21217",4
9599,"W BALTIMORE ST & N CAREY ST, BALTIMORE,",NA,"Maryland",NA,4
9600,"DUNDALK AVE & HOLABIRD AVE","BALTIMORE","Maryland","21224",4
9601,"HOLABIRD AVE","BALTIMORE","Maryland","21224",4
9602,"5315 READY AVE","BALTIMORE","Maryland","21212",4
9603,"2051 S HANOVER ST","BALTIMORE","Maryland","21230",4
9604,"3000 GUILFORD AVE","BALTIMORE","Maryland","21218",4
9605,"632 BURGUNDY ST","BALTIMORE","Maryland","21230",4
9606,"6808 EASTBROOK AVE","BALTIMORE","Maryland","21224",4
9607,"W BALTIMORE ST & N ELLAMONT ST, BALTIMOR",NA,"Maryland",NA,4
9608,"1515 E 28TH ST","BALTIMORE","Maryland","21218",4
9609,"ROSELAWN AVE & BERTRAM AVE, BALTIMORE, M",NA,"Maryland",NA,4
9610,"1000 OGDEN ST","BALTIMORE","Maryland","21224",4
9611,"1300 MERIDENE DR","BALTIMORE","Maryland","21239",4
9612,"GITTINGS AVE & BELLONA AVE","BALTIMORE","Maryland","21212",4
9613,"3607 ELLAMONT RD","BALTIMORE","Maryland","21215",4
9614,"E BALTIMORE ST &N GAY ST","BALTIMORE","Maryland","21202",4
9615,"2300 E FAYETTE ST","BALTIMORE","Maryland","21224",4
9616,"1300 RACE ST","BALTIMORE","Maryland","21230",4
9617,"2111 PRESBURY ST","BALTIMORE","Maryland","21217",4
9618,"1600 AISQUITH ST","BALTIMORE","Maryland","21202",4
9619,"312 N ELLWOOD AVE","BALTIMORE","Maryland","21224",4
9620,"4100 RAYMONN AVE","BALTIMORE","Maryland","21213",4
9621,"200 N CONKLING ST","BALTIMORE","Maryland","21224",4
9622,"ELSRODE AVE & HAMILTON AVE, BALTIMORE, M","Baltimore","Maryland","21214",4
9623,"7100 MARLBOROUGH DR","BALTIMORE","Maryland",NA,4
9624,"N GAY ST & E NORTH AVE, BALTIMORE, MD, 2",NA,"Maryland",NA,4
9625,"4822 ROLAND AVE","BALTIMORE","Maryland","21210",4
9626,"414 N CALVERT ST","BALTIMORE","Maryland","21202",4
9627,"3701 S HANOVER ST","BALTIMORE","Maryland","21225",4
9628,"100 N GREENE ST","BALTIMORE","Maryland","21201",4
9629,"5316 TRAMORE RD","BALTIMORE","Maryland","21214",4
9630,"301 E WEST ST","BALTIMORE","Maryland","21230",4
9631,"10 TAMWORTH RD","BALTIMORE","Maryland","21210",4
9632,"3705 PARKSIDE DR","BALTIMORE","Maryland","21206",4
9633,"3900 W FRANKLIN ST","BALTIMORE","Maryland","21229",4
9634,"3708 HICKORY AVE","BALTIMORE","Maryland","21211",4
9635,"3401 ALTO RD","BALTIMORE","Maryland","21216",4
9636,"5000 BALTIMORE NATIONAL PIKE","BALTIMORE","Maryland","21229",4
9637,"4017 PARKSIDE DR","BALTIMORE","Maryland","21206",4
9638,"200 W GRISWALD LN","BALTIMORE","Maryland","21210",4
9639,"4700 GREENHILL AVE","BALTIMORE","Maryland","21206",4
9640,"2500 W FRANKLIN ST","BALTIMORE","Maryland","21223",4
9641,"823 N CURLEY ST","BALTIMORE","Maryland","21205",4
9642,"3701 EDMONDSON AVE","BALTIMORE","Maryland","21229",4
9643,"3220 GARRISON BLVD","BALTIMORE","Maryland","21216",4
9644,"1510 BATTERY AVE","BALTIMORE","Maryland","21230",4
9645,"1000 ST. CRISPINS LN","BALTIMORE","Maryland","21210",4
9646,"641 N KENWOOD AVE","BALTIMORE","Maryland","21205",4
9647,"2900 INGLEWOOD AVE","BALTIMORE","Maryland","21234",4
9648,"5000 PLYMOUTH RD","BALTIMORE","Maryland","21214",4
9649,"MORAVIA RD","BALTIMORE","Maryland","21206",4
9650,"BELGIAN AVE & ELKADER RD, BALTIMORE, MD,","BALTIMORE","Maryland",NA,4
9651,"6501 FAIRDEL AVE","BALTIMORE","Maryland","21206",4
9652,"1728 JACKSON ST","BALTIMORE","Maryland","21230",4
9653,"1700 N ROSE ST","BALTIMORE","Maryland","21213",4
9654,"1313 E NORTH AVE","BALTIMORE","Maryland","21213",4
9655,"1100 BROENING HWY","BALTIMORE","Maryland","21224",4
9656,"ALTA AVE & E NORTHERN PKWY, BALTIMORE, M",NA,"Maryland",NA,4
9657,"2300 SPRINGARDEN DR","BALTIMORE","Maryland","21209",4
9658,"115 N WASHINGTON ST","BALTIMORE","Maryland","21231",4
9659,"6500 WALTHER AVE","BALTIMORE","Maryland","21206",4
9660,"5000 MIDWOOD AVE","BALTIMORE","Maryland","21212",4
9661,"4509 WHITE AVE","BALTIMORE","Maryland","21206",4
9662,"HAMILTON AVE & BELAIR RD, BALTIMORE, MD,",NA,"Maryland",NA,4
9663,"W PRATT ST &S CALHOUN ST","BALTIMORE","Maryland","21223",4
9664,"3900 E NORTHERN PKWY","BALTIMORE","Maryland","21206",4
9665,"3817 CROWTHER ST","BALTIMORE","Maryland","21211",4
9666,"911 REVERDY RD","BALTIMORE","Maryland","21212",4
9667,"S WARWICK AVE & FREDERICK AVE, BALTIMORE",NA,"Maryland",NA,4
9668,"1007 W BARRE ST","BALTIMORE","Maryland","21230",4
9669,"1509 FERNLEY RD","BALTIMORE","Maryland","21218",4
9670,"2301 E NORTHERN PKWY","BALTIMORE","Maryland","21214",4
9671,"3606 EVERSLEY ST","BALTIMORE","Maryland","21229",4
9672,"1900 DRUID HILL AVE","BALTIMORE","Maryland","21217",4
9673,"1000 FRANKFURST AVE","BALTIMORE","Maryland","21226",4
9674,"2051 S HANOVER ST","BALTIMORE","Maryland","21230",4
9675,"2100 BRIGHTON ST","BALTIMORE","Maryland","21217",4
9676,"900 MOUNT HOLLY ST","BALTIMORE","Maryland","21229",4
9677,"3100 PINKNEY RD","BALTIMORE","Maryland",NA,4
9678,"YORK RD & GLENWOOD AVE, BALTIMORE, MD, 2",NA,"Maryland",NA,4
9679,"1300 S PONCA ST","BALTIMORE","Maryland","21224",4
9680,"83 FAYETTEEXIT","BALTIMORE","Maryland",NA,4
9681,"1500 N ROSE ST","BALTIMORE","Maryland","21213",4
9682,"3122 W BALTIMORE ST","BALTIMORE","Maryland","21229",4
9683,"525 N EDGEWOOD ST","BALTIMORE","Maryland","21229",4
9684,"GREENMOUNT AVE & E 29TH ST, BALTIMORE, M",NA,"Maryland",NA,4
9685,"CYLBURN AVE & GREENSPRING AVE","BALTIMORE","Maryland","21215",4
9686,"100 MCMECHEN ST","BALTIMORE","Maryland","21217",4
9687,"5000 GREENSPRING AVE","BALTIMORE","Maryland","21215",4
9688,"1524 N ELLAMONT ST","BALTIMORE","Maryland","21216",4
9689,"3500 THE ALAMEDA","BALTIMORE","Maryland","21218",4
9690,"700 E NORTH AVE","BALTIMORE","Maryland","21218",4
9691,"2500 SINCLAIR LN","BALTIMORE","Maryland","21213",4
9692,"1741 GORSUCH AVE","BALTIMORE","Maryland",NA,4
9693,"1510 BATTERY AVE","BALTIMORE","Maryland","21230",4
9694,"UPLAND RD & CLUB RD, BALTIMORE, MD, 2121",NA,"Maryland",NA,4
9695,"3906 FERNDALE AVE","BALTIMORE","Maryland","21207",4
9696,"2810 WINWOOD CT","BALTIMORE","Maryland","21225",4
9697,"636 W LEXINGTON ST","BALTIMORE","Maryland","21201",4
9698,"102 MALLOW HILL RD","BALTIMORE","Maryland","21229",4
9699,"1106 BELLEMORE RD","BALTIMORE","Maryland","21210",4
9700,"DUNDALK AVE & HOLABIRD AVE, BALTIMORE, M",NA,"Maryland",NA,4
9701,"1200 E NORTH AVE","BALTIMORE","Maryland","21202",4
9702,"2815 E FEDERAL ST","BALTIMORE","Maryland","21213",4
9703,"2800 LOVEGROVE ST","BALTIMORE","Maryland","21218",4
9704,"120 W DICKMAN ST","BALTIMORE","Maryland","21230",4
9705,"6401 KEITH AVE","BALTIMORE","Maryland",NA,4
9706,"4329 GLENMORE AVE","BALTIMORE","Maryland","21206",4
9707,"600 NOTTINGHAM RD","BALTIMORE","Maryland","21229",4
9708,"2920 STRANDEN RD","BALTIMORE","Maryland","21230",4
9709,"6500 EASTERN AVE","BALTIMORE","Maryland","21224",4
9710,"129 W HAMBURG ST","BALTIMORE","Maryland","21230",4
9711,"EASTERN AVE & S CURLEY ST, BALTIMORE, MD",NA,"Maryland",NA,4
9712,"E MADISON ST & FALLSWAY","BALTIMORE","Maryland","21202",4
9713,"2100 PENROSE AVE","BALTIMORE","Maryland","21223",4
9714,"BARRINGTON RD & CALLAWAY AVE, BALTIMORE,",NA,"Maryland",NA,4
9715,"2500 EVERGREEN AVE","BALTIMORE","Maryland","21214",4
9716,"1800 N FOREST PARK AVE","BALTIMORE","Maryland","21207",4
9717,"815 S EAST AVE","BALTIMORE","Maryland","21224",4
9718,"W FOREST PARK AVE & PURNELL DR, BALTIMOR",NA,"Maryland",NA,4
9719,"EAGLE ST & S FULTON AVE, BALTIMORE, MD,",NA,"Maryland",NA,4
9720,"3700 GLENMORE AVE","BALTIMORE","Maryland","21206",4
9721,"2704 BOARMAN AVE","BALTIMORE","Maryland","21215",4
9722,"5508 PEERLESS AVE","BALTIMORE","Maryland","21207",4
9723,"3231 LEEDS ST","BALTIMORE","Maryland","21229",4
9724,"5042 ORVILLE AVE","BALTIMORE","Maryland","21205",4
9725,"N HOWARD ST & W MADISON ST, BALTIMORE, M",NA,"Maryland",NA,4
9726,"DENISON ST & CARLISLE AVE","BALTIMORE","Maryland","21216",4
9727,"3513 EDMONDSON AVE","BALTIMORE","Maryland","21229",4
9728,"S MACON ST & GOUGH ST","BALTIMORE","Maryland","21224",4
9729,"3414 GLEN AVE","BALTIMORE","Maryland","21215",4
9730,"317 SUFFOLK RD","BALTIMORE","Maryland","21218-2522",4
9731,"CEDARCROFT RD & FALKIRK RD","BALTIMORE","Maryland","21239",4
9732,"1434 GITTINGS AVE","BALTIMORE","Maryland","21239",4
9733,"800 ENSOR ST","BALTIMORE","Maryland","21202",4
9734,"E NORTHERN PKWY & MCCLEAN BLVD, BALTIMOR",NA,"Maryland",NA,4
9735,"W FRANKLIN ST & N PAYSON ST, BALTIMORE,",NA,"Maryland",NA,4
9736,"ALICEANNA ST &S SPRING ST","BALTIMORE","Maryland","21202",4
9737,"E MONUMENT ST & N LAKEWOOD AVE, BALTIMOR",NA,"Maryland",NA,4
9738,"WHITE AVE & PLAINFIELD AVE, BALTIMORE, M","   baltimore","Maryland","21206",4
9739,"WOODLEA AVE & RIDGECROFT RD, BALTIMORE,",NA,"Maryland",NA,4
9740,"GWYNNS FALLS PKWY & N HILTON ST, BALTIMO",NA,"Maryland",NA,4
9741,"1915 AISQUITH ST","BALTIMORE","Maryland","21218",4
9742,"1643 W BALTIMORE ST","BALTIMORE","Maryland","21223",4
9743,"1507 FERNLEY RD","BALTIMORE","Maryland","21218",4
9744,"4200 NICHOLAS AVE","BALTIMORE","Maryland","21206",4
9745,"1021 RIVERSIDE AVE","BALTIMORE","Maryland","21230",4
9746,"3600 THE ALAMEDA","BALTIMORE","Maryland","21218",4
9747,"1544 NORTHGATE RD","BALTIMORE","Maryland","21218",4
9748,"3123 SEQUOIA AVE","BALTIMORE","Maryland","21215",4
9749,"3300 W LEXINGTON ST","BALTIMORE","Maryland","21229",4
9750,"4200 BOSTON ST","BALTIMORE","Maryland","21224",4
9751,"EUTAW PL & MCMECHEN ST, BALTIMORE, MD, 2","   Baltimore","Maryland","21217",4
9752,"1900 SWANSEA RD","BALTIMORE","Maryland","21239",4
9753,"600 N WOLFE ST","BALTIMORE","Maryland","21205",4
9754,"36 GORMAN AVE","BALTIMORE","Maryland","21223",4
9755,"1100 W HAMBURG ST","BALTIMORE","Maryland","21230",4
9756,"738 RICHWOOD AVE","BALTIMORE","Maryland","21212",4
9757,"616 E 29TH ST","BALTIMORE","Maryland","21218",4
9758,"36 N MONTFORD AVE","BALTIMORE","Maryland","21224",4
9759,"1413 S HAVEN ST","BALTIMORE","Maryland","21224",4
9760,"2645 LAURETTA AVE","BALTIMORE","Maryland","21223",4
9761,"4515 WOODLEA AVE","BALTIMORE","Maryland","21206",4
9762,"HILLEN RD","BALTIMORE","Maryland","21218",4
9763,"N BRADFORD ST &E FEDERAL ST","BALTIMORE","Maryland","21213",4
9764,"4704 DELAWARE AVE","BALTIMORE","Maryland","21215",4
9765,"3501 W MULBERRY ST","BALTIMORE","Maryland","21229",4
9766,"E 20TH ST & N CASTLE ST, BALTIMORE, MD,",NA,"Maryland",NA,4
9767,"BENSON AVE & S CATON AVE, BALTIMORE, MD,",NA,"Maryland",NA,4
9768,"5312 TILBURY WAY","BALTIMORE","Maryland","21212",4
9769,"234 E MEDWICK GARTH","BALTIMORE","Maryland","21228",4
9770,"155 GRUNDY ST","BALTIMORE","Maryland","21224",4
9771,"20 E MOUNT VERNON PL","BALTIMORE","Maryland","21201",4
9772,"5500 WINTHROPE AVE","BALTIMORE","Maryland","21214",4
9773,"906 VALENCIA CT","BALTIMORE","Maryland","21230",4
9774,"5508 PLAINFIELD AVE","BALTIMORE","Maryland","21206",4
9775,"3700 BARRINGTON RD","BALTIMORE","Maryland","21215",4
9776,"5800 ETHELBERT AVE","BALTIMORE","Maryland","21215",4
9777,"4000 LOCH RAVEN BLVD","BALTIMORE","Maryland","21218",4
9778,"BENSON AVE & S CATON AVE, BALTIMORE, MD,",NA,"Maryland",NA,4
9779,"300 N STRICKER ST","BALTIMORE","Maryland","21223",4
9780,"462 E CROSS ST","BALTIMORE","Maryland","21230",4
9781,"4600 ANNTANA AVE","BALTIMORE","Maryland","21206",4
9782,"809 BELLEMORE RD","BALTIMORE","Maryland","21210",4
9783,"6300 WEIDNER AVE","BALTIMORE","Maryland","21212",4
9784,"1000 ST. CRISPINS LN","BALTIMORE","Maryland","21210",4
9785,"4800 EDMONDSON AVE","BALTIMORE","Maryland","21229",4
9786,"1152 N STRICKER ST","BALTIMORE","Maryland","21217",4
9787,"4212 HARFORD TERR","BALTIMORE","Maryland","21214",4
9788,"2235 PELHAM AVE","BALTIMORE","Maryland","21213",4
9789,"808 N HILTON ST","BALTIMORE","Maryland","21229",4
9790,"1000 E NORTHERN PKWY","BALTIMORE","Maryland","21212",4
9791,"1927 E BALTIMORE ST","BALTIMORE","Maryland","21231",4
9792,"1900 S HANOVER ST","BALTIMORE","Maryland","21230",4
9793,"2209 DUKER CT","BALTIMORE","Maryland","21231",4
9794,"6800 PULASKI HWY","BALTIMORE","Maryland","21237",4
9795,"3200 ESTHER PL","BALTIMORE","Maryland","21224",4
9796,"6400 FAIRDEL AVE","BALTIMORE","Maryland","21206",4
9797,"2200 PRESBURY ST","BALTIMORE","Maryland","21216",4
9798,"2811 HALCYON AVE","BALTIMORE","Maryland","21214",4
9799,"MORAVIA RD","BALTIMORE","Maryland","21214",4
9800,"4111 WILKE AVE","BALTIMORE","Maryland","21206",4
9801,"6308 GREENSPRING AVE","BALTIMORE","Maryland","21209",4
9802,"4200 BREHMS LN","BALTIMORE","Maryland","21206",4
9803,"813 S CHARLES ST","BALTIMORE","Maryland","21230",4
9804,"1306 W PRATT ST","BALTIMORE","Maryland","21223",4
9805,"WALKER AVE & YORK RD, BALTIMORE, MD, 212","BALTIMORE","Maryland","21212",4
9806,"4216 LIBERTY HEIGHTS AVE","BALTIMORE","Maryland","21207",4
9807,"1500 LATROBE PARK TER","BALTIMORE","Maryland","21230",4
9808,"1329 ROLAND HEIGHTS AVE","BALTIMORE","Maryland","21211",4
9809,"200 W MCCOMAS ST","BALTIMORE","Maryland","21230",4
9810,"DOLPHIN ST & N HOWARD ST, BALTIMORE, MD,",NA,"Maryland",NA,4
9811,"2104 E BALTIMORE ST","BALTIMORE","Maryland","21231",4
9812,"4865 GREENCREST RD","BALTIMORE","Maryland","21206",4
9813,"E NORTHERN PKWY & OLD HARFORD RD, BALTIM",NA,"Maryland",NA,4
9814,"3019 GUILFORD AVE","BALTIMORE","Maryland","21218",4
9815,"5200 SINCLAIR LN","BALTIMORE","Maryland","21206",4
9816,"5300 SINCLAIR LN","BALTIMORE","Maryland","21206",4
9817,"1204 HULL ST","BALTIMORE","Maryland","21230",4
9818,"3500 SINCLAIR LN","BALTIMORE","Maryland","21213",4
9819,"1514 N MOUNT ST","BALTIMORE","Maryland","21217",4
9820,"2016 WINFORD RD","BALTIMORE","Maryland","21239",4
9821,"BOSTON ST & ELLWOOD ST, BALTIMORE, MD, 2",NA,"Maryland",NA,4
9822,"2413 FLEET ST","BALTIMORE","Maryland","21224",4
9823,"3206 JUNEAU PL","BALTIMORE","Maryland","21214",4
9824,"200 BATH ST","BALTIMORE","Maryland","21202",4
9825,"800 LYNDHURST ST","BALTIMORE","Maryland","21229",4
9826,"4906 WILMSLOW RD","BALTIMORE","Maryland","21210",4
9827,"2200 W LAFAYETTE AVE","BALTIMORE","Maryland","21216",4
9828,"1500 E COLD SPRING LN","BALTIMORE","Maryland","21218",4
9829,"E BELVEDERE AVE & PERRING PKWY, BALTIMOR",NA,"Maryland",NA,4
9830,"346 E 33RD ST","BALTIMORE","Maryland","21218",4
9831,"4200 FRANKFORD AVE","BALTIMORE","Maryland","21206",4
9832,"2006 DRUID PARK DR","BALTIMORE","Maryland","21211",4
9833,"S DUKELAND ST","BALTIMORE","Maryland","21223",4
9834,"6300 WIRT AVE","BALTIMORE","Maryland","21215",4
9835,"4500","BALTIMORE","Maryland",NA,4
9836,"5000 EUGENE AVE","BALTIMORE","Maryland","21206",4
9837,"114 E EAGER ST","BALTIMORE","Maryland","21202",4
9838,"3616 E NORTHERN PKWY","BALTIMORE","Maryland","21206",4
9839,"2813 W NORTH AVE","BALTIMORE","Maryland","21216",4
9840,"2656 W FRANKLIN ST","BALTIMORE","Maryland","21223",4
9841,"100 S STOCKTON ST","BALTIMORE","Maryland","21223",4
9842,"1600 S CATON AVE","BALTIMORE","Maryland","21227",4
9843,"2271 S CLINTON ST","BALTIMORE","Maryland","21224",4
9844,"6025 BELAIR RD","BALTIMORE","Maryland","21206",4
9845,"1400 N LONGWOOD ST","BALTIMORE","Maryland","21216",4
9846,"2900 BRIGHTON ST","BALTIMORE","Maryland","21216",4
9847,"6021 SYCAMORE RD","BALTIMORE","Maryland","21212",4
9848,"5200 SINCLAIR LN","BALTIMORE","Maryland","21206",4
9849,"JAMES ST & PARKMAN AVE, BALTIMORE, MD, 2",NA,"Maryland",NA,4
9850,"500 EVESHAM AVE","BALTIMORE","Maryland","21212",4
9851,"3500 PELHAM AVE","BALTIMORE","Maryland","21213",4
9852,"700 DRYDEN DR","BALTIMORE","Maryland","21229",4
9853,"1240 HENRY ST","BALTIMORE","Maryland","21230",4
9854,"3700 FREDERICK RD","BALTIMORE","Maryland","21229",4
9855,"307 W LAFAYETTE AVE","BALTIMORE","Maryland","21217",4
9856,"403 CROYDON RD","BALTIMORE","Maryland","21212",4
9857,"210 N KRESSON ST","BALTIMORE","Maryland","21224",4
9858,"2500 E OLIVER ST","BALTIMORE","Maryland","21213",4
9859,"2031 JEFFERSON ST","BALTIMORE","Maryland","21205",4
9860,"DULUTH AVE & BETHLEHEM AVE","BALTIMORE","Maryland","21222",4
9861,"528 SCOTT ST","BALTIMORE","Maryland","21230",4
9862,"427 S LEHIGH ST","BALTIMORE","Maryland","21224",4
9863,"N FRANKLINTOWN RD &W MULBERRY ST","BALTIMORE","Maryland","21223",4
9864,"BELLONA AVE & CEDARCROFT RD, BALTIMORE,",NA,"Maryland","21212",4
9865,"220 W 27TH ST","BALTIMORE","Maryland","21211",4
9866,"3038 PRESSTMAN ST","BALTIMORE","Maryland","21216",4
9867,"KEVIN RD & SEMINOLE AVE, BALTIMORE, MD,",NA,"Maryland",NA,4
9868,"3107 EVERGREEN AVE","BALTIMORE","Maryland","21214",4
9869,"1000 LYNDHURST ST","BALTIMORE","Maryland","21229",4
9870,"2905 N EDGEWOOD ST","BALTIMORE","Maryland","21216",4
9871,"16 E 23RD ST","BALTIMORE","Maryland","21218",4
9872,"300 ATHOLWOOD LN","BALTIMORE","Maryland","21229",4
9873,"726 GLENWOOD AVE","BALTIMORE","Maryland","21212",4
9874,"98 COTSWOLD RD","BALTIMORE","Maryland","21210",4
9875,"517 THORNFIELD RD","BALTIMORE","Maryland","21229",4
9876,"3500 BELAIR RD","BALTIMORE","Maryland","21213",4
9877,"107 CLUB RD","BALTIMORE","Maryland","21210",4
9878,"5029 THE ALAMEDA","BALTIMORE","Maryland","21239",4
9879,"ELMLEY AVE & HIGHVIEW AVE, BALTIMORE, MD",NA,"Maryland",NA,4
9880,"601 LIGHT ST","BALTIMORE","Maryland","21230",4
9881,"307 W LAFAYETTE AVE","BALTIMORE","Maryland","21217",4
9882,"MCCOMAS ST","BALTIMORE","Maryland","21230",4
9883,"2900 AILSA AVE","BALTIMORE","Maryland","21214",4
9884,"2554 FREDERICK AVE","BALTIMORE","Maryland","21223",4
9885,"4900 EUGENE AVE","BALTIMORE","Maryland","21206",4
9886,"2738 WASHINGTON BLVD","BALTIMORE","Maryland","21230",4
9887,"1000 S CONKLING ST","BALTIMORE","Maryland","21224",4
9888,"2706 CHELSEA TER","BALTIMORE","Maryland","21216",4
9889,"2407 LOYOLA SOUTHWAY","BALTIMORE","Maryland","21215",4
9890,"300 N GAY ST","BALTIMORE","Maryland","21202",4
9891,"4800 ARABIA AVE","BALTIMORE","Maryland","21214",4
9892,"W FRANKLIN ST & I 170 W","BALTIMORE","Maryland","21201",4
9893,"909 SAINT PAUL ST","BALTIMORE","Maryland","21202",4
9894,"150 S BOULDIN ST","BALTIMORE","Maryland","21224",4
9895,"N ELLAMONT ST & BAKER ST","BALTIMORE","Maryland","21216",4
9896,"2915 GEORGETOWN RD","BALTIMORE","Maryland","21230",4
9897,"4500 GARDEN DR","BALTIMORE","Maryland","21215",4
9898,"2800 BOARMAN AVE","BALTIMORE","Maryland","21215",4
9899,"4407 YORK RD","BALTIMORE","Maryland","21212",4
9900,"2417 E NORTH AVE","BALTIMORE","Maryland","21213",4
9901,"5400 HOLABIRD AVE","BALTIMORE","Maryland","21224",4
9902,"GUSRYAN ST & TOONE ST, BALTIMORE, MD, 21","BALTIMORE","Maryland","21224",4
9903,"3700 BENEFIT ST","BALTIMORE","Maryland","21224",4
9904,"2819 MONTEBELLO TER","BALTIMORE","Maryland","21214",4
9905,"E PATAPSCO AVE & SHELL RD","BALTIMORE","Maryland","21225",4
9906,"4720 PIMLICO RD","BALTIMORE","Maryland","21215",4
9907,"4101 BELAIR RD","BALTIMORE","Maryland","21213",4
9908,"3300 SEQUOIA AVE","BALTIMORE","Maryland","21215",4
9909,"1533 N MILTON AVE","BALTIMORE","Maryland","21213",4
9910,"1900 E NORTH AVE","BALTIMORE","Maryland","21213",4
9911,"3601 LAKE MONTEBELLO DR","BALTIMORE","Maryland","21218",4
9912,"6001 BELAIR RD","BALTIMORE","Maryland","21206",4
9913,"800 W FRANKLIN ST","BALTIMORE","Maryland","21201",4
9914,"800 W LOMBARD ST","BALTIMORE","Maryland","21201",4
9915,"4100 EMMART AVE","BALTIMORE","Maryland",NA,4
9916,"KIMBLE RD & E 36TH ST, BALTIMORE, MD, 21",NA,"Maryland",NA,4
9917,"ANDRE ST & BEASON ST, BALTIMORE, MD, 212",NA,"Maryland",NA,4
9918,"31 LIGHT ST","BALTIMORE","Maryland","21202",4
9919,"1112 GORSUCH AVE","BALTIMORE","Maryland","21218",4
9920,"2638 E BALTIMORE ST","BALTIMORE","Maryland","21224",4
9921,"5507 GOVANE AVE","BALTIMORE","Maryland","21212",4
9922,"3300 W NORTHERN PKWY","BALTIMORE","Maryland","21215",4
9923,"3707 N CHARLES ST","BALTIMORE","Maryland",NA,4
9924,"BELAIR RD & PARKMONT AVE","BALTIMORE","Maryland","21206",4
9925,"902 N CALVERT ST","BALTIMORE","Maryland","21202",4
9926,"ALHAMBRA-LOTHIAN & HARWOOD AVE, BALTIMOR",NA,"Maryland",NA,4
9927,"6100 LOCH RAVEN BLVD","BALTIMORE","Maryland","21239",4
9928,"BENTON HEIGHTS-GLEN FALLS & BENTON HEIGH",NA,"Maryland",NA,4
9929,"1100 SPRINGFIELD AVE","BALTIMORE","Maryland","21239",4
9930,"3505 MARY AVE","BALTIMORE","Maryland","21214",4
9931,"303 TAPLOW RD","BALTIMORE","Maryland",NA,4
9932,"4009 MARX AVE","BALTIMORE","Maryland","21206",4
9933,"1143 DEXTER ST","BALTIMORE","Maryland","21230",4
9934,"5000 GREENSPRING AVE","BALTIMORE","Maryland","21215",4
9935,"800 SEAGULL AVE","BALTIMORE","Maryland","21225",4
9936,"2700 WINCHESTER ST","BALTIMORE","Maryland","21216",4
9937,"3545 HORTON AVE","BALTIMORE","Maryland","21225",4
9938,"1740 LANCASTER ST","BALTIMORE","Maryland","21231",4
9939,"500 N MOUNT ST","BALTIMORE","Maryland","21223",4
9940,"503 COLLEEN RD","BALTIMORE","Maryland","21229",4
9941,"OLD HARFORD RD & CHESLEY AVE, BALTIMORE,",NA,"Maryland",NA,4
9942,"3526 CARDENAS AVE","BALTIMORE","Maryland","21213",4
9943,"4000 OLD FREDERICK RD","BALTIMORE","Maryland","21229",4
9944,"5938 CROSS COUNTRY BLVD","BALTIMORE","Maryland","21215",4
9945,"2000 N CALVERT ST","BALTIMORE","Maryland","21218",4
9946,"3300 ELDORADO AVE","BALTIMORE","Maryland","21207",4
9947,"E 33RD ST & HILLEN RD, BALTIMORE, MD, 21",NA,"Maryland",NA,4
9948,"3901 HILLEN RD","BALTIMORE","Maryland","21218",4
9949,"COLE ST & S VINCENT ST, BALTIMORE, MD, 2","   Baltimore","Maryland","21223",4
9950,"1500 N ELLAMONT ST","BALTIMORE","Maryland","21216",4
9951,"5 LLOYD ST","BALTIMORE","Maryland","21202",4
9952,"W MULBERRY ST & N SMALLWOOD ST, BALTIMOR",NA,"Maryland",NA,4
9953,"2813 WINCHESTER ST","BALTIMORE","Maryland","21216",4
9954,"CROSS COUNTRY BLVD & SOUTH RD","BALTIMORE","Maryland","21209",4
9955,"728 S ANN ST","BALTIMORE","Maryland","21231",4
9956,"5800 RUSHBROOK RD","BALTIMORE","Maryland","21212",4
9957,"GOVANE AVE & CHATEAU AVE, BALTIMORE, MD,",NA,"Maryland",NA,4
9958,"958 BELGIAN AVE","BALTIMORE","Maryland","21218",4
9959,"606 PARKWYRTH AVE","BALTIMORE","Maryland","21218",4
9960,"6600 WALTHER AVE","BALTIMORE","Maryland","21206",4
9961,"5638 KAVON AVE","BALTIMORE","Maryland","21206",4
9962,"5500 LIBERTY HEIGHTS AVE","BALTIMORE","Maryland","21207",4
9963,"GOODALE PL & PADDINGTON RD, BALTIMORE, M"," Baltimore","Maryland","21212",4
9964,"PULASKI HWY &N HAVEN ST","BALTIMORE","Maryland","21224",4
9965,"6201 CARTER AVE","BALTIMORE","Maryland","21214",4
9966,"3112 ROSEKEMP AVE","BALTIMORE","Maryland","21214",4
9967,"3800 PULASKI HWY","BALTIMORE","Maryland","21224",4
9968,"5609 LAURELTON AVE","BALTIMORE","Maryland","21214",4
9969,"4815 BOWLAND AVE","BALTIMORE","Maryland","21206",4
9970,"4830 ABERDEEN AVE","BALTIMORE","Maryland","21206",4
9971,"74 N CULVER ST","BALTIMORE","Maryland","21229",4
9972,"6006 PINEHURST RD","BALTIMORE","Maryland","21212",4
9973,"FALLS RD & W NORTHERN PKWY, BALTIMORE, M",NA,"Maryland",NA,4
9974,"3900 FRISBY ST","BALTIMORE","Maryland","21218",4
9975,"401 N CAROLINE ST","BALTIMORE","Maryland","21204",4
9976,"PONCA ST & O'DONNELL ST","BALTIMORE","Maryland","21224",4
9977,"900 S LAKEWOOD AVE","BALTIMORE","Maryland","21224",4
9978,"3061 FREDERICK AVE","BALTIMORE","Maryland","21229",4
9979,"6306 MCCLEAN BLVD","BALTIMORE","Maryland","21214",4
9980,"4301 PULASKI HWY","BALTIMORE","Maryland","21224",4
9981,"807 COOKS LN","BALTIMORE","Maryland","21229",4
9982,"ORLEANS ST & N LUZERNE AVE, BALTIMORE, M","BALTIMORE","Maryland",NA,4
9983,"427 YALE AVE","BALTIMORE","Maryland","21229",4
9984,"E PLEASANT ST & I 83 S, BALTIMORE, MD, 2","BALTIMORE","Maryland",NA,4
9985,"HARFORD AVE &E EAGER ST","BALTIMORE","Maryland","21202",4
9986,"2838 E BALTIMORE ST","BALTIMORE","Maryland","21224",4
9987,"4800 E LOMBARD ST","BALTIMORE","Maryland","21224",4
9988,"2111 PRESBURY ST","BALTIMORE","Maryland","21217",4
9989,"2300 FREDERICK AVE","BALTIMORE","Maryland","21228",4
9990,"ERDMAN AVE & NORMAN AVE, BALTIMORE, MD,",NA,"Maryland",NA,4
9991,"INGLEWOOD AVE & HARFORD RD, BALTIMORE, M",NA,"Maryland",NA,4
9992,"1001 W NORTH AVE","BALTIMORE","Maryland","21217",4
9993,"2200 TACOMA ST","BALTIMORE","Maryland","21230",4
9994,"4333 PLAINFIELD AVE","BALTIMORE","Maryland","21206",4
9995,"1032 N ARLINGTON AVE","BALTIMORE","Maryland","21217",4
9996,"3000 LIBERTY HEIGHTS AVE","BALTIMORE","Maryland","21215",4
9997,"SINCLAIR LN & FRANKFORD AVE, BALTIMORE,",NA,"Maryland",NA,4
9998,"5400 SINCLAIR LN","BALTIMORE","Maryland","21206",4
9999,"3102 STRICKLAND ST","BALTIMORE","Maryland","21229",4
10000,"2200 E NORTHERN PKWY","BALTIMORE","Maryland","21214",4
