"UniqueID","StreetAddress","City","State","ZIP","i"
1,"FALLS RD & I 83 S","BALTIMORE","Maryland","21211",1
2,"4207 OLD YORK RD","BALTIMORE","Maryland","21212",1
3,"4501 UNDERWOOD RD","BALTIMORE","Maryland","21212",1
4,"318 KERNEWAY","BALTIMORE","Maryland","21212",1
5,"309 KERNEWAY","BALTIMORE","Maryland","21212",1
6,"302 KERNEWAY","BALTIMORE","Maryland","21212",1
7,"MARTINGALE AVE & ADELLE TER","BALTIMORE","Maryland","21229",1
8,"3921 W ROGERS AVE","BALTIMORE","Maryland","21215",1
9,"REVERDY RD & NORTHWOOD DR","BALTIMORE","Maryland","21212",1
10,"LIBERTY HEIGHTS AVE & CALLAWAY AVE","BALTIMORE","Maryland","21215",1
11,"4500 MARBLE HALL RD","BALTIMORE","Maryland","21239",1
12,"4600 MARBLE HALL RD","BALTIMORE","Maryland","21239",1
13,"PERRING PKWY &E BELVEDERE AVE","BALTIMORE","Maryland","21239",1
14,"3300 BOSTON ST","BALTIMORE","Maryland","21224",1
15,"3009 GWYNNS FALLS PKWY","BALTIMORE","Maryland","21216",1
16,"DUNDALK AVE & HOLABIRD AVE","BALTIMORE","Maryland","21224",1
17,"5600 THE ALAMEDA","BALTIMORE","Maryland","21239",1
18,"5100 HOLABIRD AVE","BALTIMORE","Maryland","21224",1
19,"WABASH AVE &N ROGERS AVE","BALTIMORE","Maryland","21215",1
20,"N HAVEN ST &E BALTIMORE ST","BALTIMORE","Maryland","21224",1
21,"346 OLDHAM ST","BALTIMORE","Maryland","21224",1
22,"LOVEGROVE ST &E 31ST ST","BALTIMORE","Maryland","21218",1
23,"2700 MCELDERRY ST","BALTIMORE","Maryland","21205",1
24,"743 N CHESTER ST","BALTIMORE","Maryland","21205",1
25,"2800 GWYNNS FALLS PKWY","BALTIMORE","Maryland","21216",1
26,"MCCLEAN BLVD &E NORTHERN PKWY","BALTIMORE","Maryland","21214",1
27,"3512 MARY AVE","BALTIMORE","Maryland","21214",1
28,"5813 MORAVIA RD","BALTIMORE","Maryland","21206",1
29,"1419 BOLTON ST","BALTIMORE","Maryland","21217",1
30,"3500 EVERGREEN AVE","BALTIMORE","Maryland","21214",1
31,"800 W FAYETTE ST","BALTIMORE","Maryland","21201",1
32,"3400 W MULBERRY ST","BALTIMORE","Maryland","21229",1
33,"100 N BROADWAY","BALTIMORE","Maryland","21231",1
34,"2700 BROENING HWY","BALTIMORE","Maryland","21222",1
35,"11 S EUTAW ST","BALTIMORE","Maryland","21201",1
36,"544 EISLEN ST","BALTIMORE","Maryland","21230",1
37,"311 TAPLOW RD","BALTIMORE","Maryland","21212",1
38,"127 S CASTLE ST","BALTIMORE","Maryland","21231",1
39,"4203 WILLSHIRE AVE","BALTIMORE","Maryland","21206",1
40,"INTERSTATE AVE & O'DONNELL ST CUT OFF","BALTIMORE","Maryland","21224",1
41,"S BRUCE ST & MCHENRY ST","BALTIMORE","Maryland","21223",1
42,"S BRUCE ST & RAMSAY ST","BALTIMORE","Maryland","21223",1
43,"300 S BRUCE ST","BALTIMORE","Maryland","21223",1
44,"3723 RIDGECROFT RD","BALTIMORE","Maryland","21206",1
45,"5300 CEDONIA AVE","BALTIMORE","Maryland","21206",1
46,"1313 BROENING HWY","BALTIMORE","Maryland","21224",1
47,"5100 SINCLAIR LN","BALTIMORE","Maryland","21206",1
48,"3827 SAINT VICTOR ST","BALTIMORE","Maryland","21225",1
49,"3838 SINCLAIR LN","BALTIMORE","Maryland","21213",1
50,"6310 COVE AVE","BALTIMORE","Maryland","21226",1
51,"6300 ARUNDEL COVE AVE","BALTIMORE","Maryland","21226",1
52,"1500 DUNDALK AVE","BALTIMORE","Maryland","21222",1
53,"4627 BELVIEU AVE","BALTIMORE","Maryland","21207",1
54,"2510 HALCYON AVE","BALTIMORE","Maryland","21214",1
55,"HILLSDALE RD & MAINE AVE","BALTIMORE","Maryland","21207",1
56,"900 DRUID PARK LAKE DR","BALTIMORE","Maryland","21217",1
57,"3404 CHESTERFIELD AVE","BALTIMORE","Maryland","21213",1
58,"1200 E NORTH AVE","BALTIMORE","Maryland","21202",1
59,"3800 W ROGERS AVE","BALTIMORE","Maryland","21215",1
60,"PERRING PKWY &E NORTHERN PKWY","BALTIMORE","Maryland","21239",1
61,"2128 SAINT PAUL ST","BALTIMORE","Maryland","21218",1
62,"430 ELRINO ST","BALTIMORE","Maryland","21224",1
63,"W BELVEDERE AVE & PEMBRIDGE AVE","BALTIMORE","Maryland","21215",1
64,"GIST AVE &W ROGERS AVE","BALTIMORE","Maryland","21215",1
65,"5432 NELSON AVE","BALTIMORE","Maryland","21215",1
66,"N CENTRAL AVE & BIDDLE CHASE","BALTIMORE","Maryland","21202",1
67,"N BROADWAY &E FAIRMOUNT AVE","BALTIMORE","Maryland","21231",1
68,"1419 W FAYETTE ST","BALTIMORE","Maryland","21223",1
69,"100 MERCER ST","BALTIMORE","Maryland","21202",1
70,"6013 PARK HEIGHTS AVE","BALTIMORE","Maryland","21215",1
71,"1425 ALICEANNA ST","BALTIMORE","Maryland","21231",1
72,"1929 FLEET ST","BALTIMORE","Maryland","21231",1
73,"3832 LIBERTY HEIGHTS AVE","BALTIMORE","Maryland","21215",1
74,"PERRING PKWY &E NORTHERN PKWY","BALTIMORE","Maryland","21239",1
75,"1008 MARLAU DR","BALTIMORE","Maryland","21212",1
76,"300 KERNEWAY","BALTIMORE","Maryland","21212",1
77,"400 S CENTRAL AVE","BALTIMORE","Maryland","21202",1
78,"1425 ALICEANNA ST","BALTIMORE","Maryland","21231",1
79,"1209 BERNARD DR","BALTIMORE","Maryland","21223",1
80,"E 25TH ST &N CALVERT ST","BALTIMORE","Maryland","21218",1
81,"4400 PALL MALL RD","BALTIMORE","Maryland","21215",1
82,"1800 COLE ST","BALTIMORE","Maryland","21223",1
83,"3226 ROSALIE AVE","BALTIMORE","Maryland","21234",1
84,"E NORTH AVE & SAINT PAUL ST","BALTIMORE","Maryland","21202",1
85,"3217 NOBLE ST","BALTIMORE","Maryland","21224",1
86,"1606 MARSHALL ST","BALTIMORE","Maryland","21230",1
87,"E NORTH AVE &N WOLFE ST","BALTIMORE","Maryland","21213",1
88,"6213 EASTBOURNE AVE","BALTIMORE","Maryland","21224",1
89,"N EUTAW ST","BALTIMORE","Maryland","21201",1
90,"HILLEN RD &E NORTHERN PKWY","BALTIMORE","Maryland","21239",1
91,"353 N FULTON AVE","BALTIMORE","Maryland","21223",1
92,"1831 E LOMBARD ST","BALTIMORE","Maryland","21231",1
93,"2500 QUEEN ANNE RD","BALTIMORE","Maryland","21216",1
94,"5900 HILLEN RD","BALTIMORE","Maryland","21239",1
95,"JOPLIN ST & BROWN AVE","BALTIMORE","Maryland","21224",1
96,"DANVILLE AVE & PUMPHREY ST","BALTIMORE","Maryland","21224",1
97,"1715 E 32ND ST","BALTIMORE","Maryland","21218",1
98,"1600 FLEET ST","BALTIMORE","Maryland","21231",1
99,"W LOMBARD ST &S EUTAW ST","BALTIMORE","Maryland","21201",1
100,"6208 HILLTOP AVE","BALTIMORE","Maryland","21206",1
101,"SHAMROCK AVE & GREENHILL AVE","BALTIMORE","Maryland","21206",1
102,"5500 83 N","BALTIMORE","Maryland","21209",1
103,"636 W LEXINGTON ST","BALTIMORE","Maryland","21201",1
104,"6300 OLD HARFORD RD","BALTIMORE","Maryland","21214",1
105,"MCELDERRY ST &N WOLFE ST","BALTIMORE","Maryland","21205",1
106,"3705 SEQUOIA AVE","BALTIMORE","Maryland","21215",1
107,"410 WASHBURN AVE","BALTIMORE","Maryland","21225",1
108,"3310 N CALVERT ST","BALTIMORE","Maryland","21218",1
109,"2710 RUECKERT AVE","BALTIMORE","Maryland","21214",1
110,"5200 HILLBURN AVE","BALTIMORE","Maryland","21206",1
111,"5510 EDNA AVE","BALTIMORE","Maryland","21214",1
112,"GREENSPRING AVE & CYLBURN AVE","BALTIMORE","Maryland","21215",1
113,"357 YALE AVE","BALTIMORE","Maryland","21229",1
114,"E OLIVER ST &N LAKEWOOD AVE","BALTIMORE","Maryland","21213",1
115,"3812 DELVERNE RD","BALTIMORE","Maryland","21218",1
116,"4321 N CHARLES ST","BALTIMORE","Maryland","21218",1
117,"3900 BOARMAN AVE","BALTIMORE","Maryland","21215",1
118,"3900 OVERLEA AVE","BALTIMORE","Maryland","21206",1
119,"4104 ERDMAN AVE","BALTIMORE","Maryland","21213",1
120,"4202 CHARLCOTE RD","BALTIMORE","Maryland","21218",1
121,"RAMBLEWOOD RD & WILLOWTON AVE","BALTIMORE","Maryland","21239",1
122,"5817 THE ALAMEDA","BALTIMORE","Maryland","21239",1
123,"4410 THE ALAMEDA","BALTIMORE","Maryland","21239",1
124,"921 JOH AVE","BALTIMORE","Maryland","21229",1
125,"MORAVIA RD","BALTIMORE","Maryland","21214",1
126,"E FAYETTE ST &N CONKLING ST","BALTIMORE","Maryland","21224",1
127,"210 N WASHINGTON ST","BALTIMORE","Maryland","21231",1
128,"32 S WASHINGTON ST","BALTIMORE","Maryland","21231",1
129,"600 N GRANTLEY ST","BALTIMORE","Maryland","21229",1
130,"100 N HOWARD ST","BALTIMORE","Maryland","21201",1
131,"3900 GREENMOUNT AVE","BALTIMORE","Maryland","21218",1
132,"W FRANKLIN ST","BALTIMORE","Maryland","21223",1
133,"1600 COLE ST","BALTIMORE","Maryland","21223",1
134,"THE ALAMEDA & EVESHAM AVE","BALTIMORE","Maryland","21239",1
135,"425 THORNFIELD RD","BALTIMORE","Maryland","21229",1
136,"6105 BELAIR RD","BALTIMORE","Maryland","21206",1
137,"CEDONIA AVE & ARIZONA AVE","BALTIMORE","Maryland","21206",1
138,"BELAIR RD & MARLUTH AVE","BALTIMORE","Maryland","21206",1
139,"2000 E 32ND ST","BALTIMORE","Maryland","21218",1
140,"2900 E LOMBARD ST","BALTIMORE","Maryland","21224",1
141,"EASTERN AVE & PRESIDENT ST","BALTIMORE","Maryland","21202",1
142,"500 N EDGEWOOD ST","BALTIMORE","Maryland","21229",1
143,"2413 JAMES ST","BALTIMORE","Maryland","21230",1
144,"1400 BONSAL ST","BALTIMORE","Maryland","21224",1
145,"2700 WOODVIEW RD","BALTIMORE","Maryland","21225",1
146,"1700 IMLA ST","BALTIMORE","Maryland","21224",1
147,"1816 LIGHT ST","BALTIMORE","Maryland","21230",1
148,"4219 ROLAND VIEW AVE","BALTIMORE","Maryland","21215",1
149,"6802 MCCLEAN BLVD","BALTIMORE","Maryland","21234",1
150,"2017 KELLY AVE","BALTIMORE","Maryland","21209",1
151,"1001 N PATTERSON PARK AVE","BALTIMORE","Maryland","21205",1
152,"NORTHWOOD DR & PENTRIDGE RD","BALTIMORE","Maryland","21239",1
153,"1400 GREENMOUNT AVE","BALTIMORE","Maryland","21202",1
154,"1600 E MADISON ST","BALTIMORE","Maryland","21205",1
155,"2700 E OLIVER ST","BALTIMORE","Maryland","21213",1
156,"6000 HARFORD RD","BALTIMORE","Maryland","21214",1
157,"2229 VAN DEMAN ST","BALTIMORE","Maryland","21224",1
158,"909 DRUID PARK LAKE DR","BALTIMORE","Maryland","21217",1
159,"7211 PARK HEIGHTS AVE","BALTIMORE","Maryland","21208",1
160,"918 S ROBINSON ST","BALTIMORE","Maryland","21224",1
161,"1703 LANCASTER ST","BALTIMORE","Maryland","21231",1
162,"FAIRWOOD AVE & PARKMONT AVE","BALTIMORE","Maryland","21206",1
163,"6000 THE ALAMEDA","BALTIMORE","Maryland","21239",1
164,"5800 RUSHBROOK RD","BALTIMORE","Maryland","21212",1
165,"800 LENTON AVE","BALTIMORE","Maryland","21212",1
166,"800 LENTON AVE","BALTIMORE","Maryland","21212",1
167,"83 FAYETTEEXIT","BALTIMORE","Maryland",NA,1
168,"WINANS WAY & UPLANDS PKWY","BALTIMORE","Maryland","21229",1
169,"1536 NORTHGATE RD","BALTIMORE","Maryland","21218",1
170,"520 HARWOOD AVE","BALTIMORE","Maryland","21212",1
171,"100 KANE ST","BALTIMORE","Maryland","21224",1
172,"N GREENE ST","BALTIMORE","Maryland","21201",1
173,"E NORTHERN PKWY & HARFORD RD","BALTIMORE","Maryland","21214",1
174,"1800 N SPRING ST","BALTIMORE","Maryland","21213",1
175,"3122 DILLON ST","BALTIMORE","Maryland","21224",1
176,"6300 OLD HARFORD RD","BALTIMORE","Maryland","21214",1
177,"2700 VIOLET AVE","BALTIMORE","Maryland","21215",1
178,"5000 REMMELL AVE","BALTIMORE","Maryland","21206",1
179,"117 S WASHINGTON ST","BALTIMORE","Maryland","21231",1
180,"1715 E 32ND ST","BALTIMORE","Maryland","21218",1
181,"932 SEAGULL AVE","BALTIMORE","Maryland","21225",1
182,"960 SEAGULL AVE","BALTIMORE","Maryland","21225",1
183,"603 N GRANTLEY ST","BALTIMORE","Maryland","21229",1
184,"N EUTAW ST &W SARATOGA ST","BALTIMORE","Maryland","21201",1
185,"300 E 22ND ST","BALTIMORE","Maryland","21218",1
186,"600 ROUNDVIEW RD","BALTIMORE","Maryland","21225",1
187,"2051 S HANOVER ST","BALTIMORE","Maryland","21230",1
188,"1437 W PATAPSCO AVE","BALTIMORE","Maryland","21230",1
189,"400 E 25TH ST","BALTIMORE","Maryland","21218",1
190,"0 NORTHERN PKWY E","BALTIMORE","Maryland","21206",1
191,"100 E WHEELING ST","BALTIMORE","Maryland","21230",1
192,"901 DRUID PARK LAKE DR","BALTIMORE","Maryland","21217",1
193,"1000 S HANOVER ST","BALTIMORE","Maryland","21230",1
194,"GLENOAK AVE & ROSALIE AVE","BALTIMORE","Maryland","21234",1
195,"PLAINFIELD AVE & SHAMROCK AVE","BALTIMORE","Maryland","21206",1
196,"7330 HARFORD RD","BALTIMORE","Maryland","21234",1
197,"5500 CEDONIA AVE","BALTIMORE","Maryland","21206",1
198,"1600 W FRANKLIN ST","BALTIMORE","Maryland","21223",1
199,"ROSELAWN AVE & PLYMOUTH RD","BALTIMORE","Maryland","21214",1
200,"SOMERSET ST &E BIDDLE ST","BALTIMORE","Maryland","21202",1
201,"STOKES DR","BALTIMORE","Maryland","21229",1
202,"6100 FALKIRK RD","BALTIMORE","Maryland","21239",1
203,"6100 FALKIRK RD","BALTIMORE","Maryland","21239",1
204,"517 WALKER AVE","BALTIMORE","Maryland","21212",1
205,"3500 KENYON AVE","BALTIMORE","Maryland",NA,1
206,"1932 NORTHBOURNE RD","BALTIMORE","Maryland","21239",1
207,"LYNDALE AVE & DUDLEY AVE","BALTIMORE","Maryland","21213",1
208,"4118 GLENARM AVE","BALTIMORE","Maryland","21206",1
209,"2701 WHITNEY AVE","BALTIMORE","Maryland","21215",1
210,"2700 SULGRAVE AVE","BALTIMORE","Maryland","21215",1
211,"1219 N CHESTER ST","BALTIMORE","Maryland","21213",1
212,"1200 DUNDALK AVE","BALTIMORE","Maryland","21224",1
213,"1534 JACKSON ST","BALTIMORE","Maryland","21230",1
214,"1203 SLATER RD","BALTIMORE","Maryland","21225",1
215,"300 S BRUCE ST","BALTIMORE","Maryland","21223",1
216,"3600 WOODSTOCK AVE","BALTIMORE","Maryland","21213",1
217,"RALLS AVE & VAN DEMAN ST","BALTIMORE","Maryland","21222",1
218,"3111 TYNDALE AVE","BALTIMORE","Maryland","21214",1
219,"WHITMORE AVE & WINCHESTER ST","BALTIMORE","Maryland","21216",1
220,"N WARWICK AVE &W FRANKLIN ST","BALTIMORE","Maryland","21223",1
221,"400 W UNIVERSITY PKWY","BALTIMORE","Maryland","21210",1
222,"2020 WINFORD RD","BALTIMORE","Maryland","21239",1
223,"3100 N CHARLES ST","BALTIMORE","Maryland","21211",1
224,"842 TYSON ST","BALTIMORE","Maryland","21201",1
225,"3211 ORLANDO AVE","BALTIMORE","Maryland","21234",1
226,"2826 CHRISTOPHER AVE","BALTIMORE","Maryland","21214",1
227,"6200 MOYER AVE","BALTIMORE","Maryland","21206",1
228,"2016 BURNWOOD RD","BALTIMORE","Maryland","21239",1
229,"3336 PAINE ST","BALTIMORE","Maryland","21211",1
230,"PAINE ST","BALTIMORE","Maryland","21211",1
231,"2718 E FAIRMOUNT AVE","BALTIMORE","Maryland","21224",1
232,"1512 LOCHWOOD RD","BALTIMORE","Maryland","21218",1
233,"400 S BOULDIN ST","BALTIMORE","Maryland","21224",1
234,"6000 CEDONIA AVE","BALTIMORE","Maryland","21206",1
235,"W NORTH AVE & PARK AVE","BALTIMORE","Maryland","21217",1
236,"GRANDVIEW NEWPORT &W OLD COLD SPRING LN","BALTIMORE","Maryland","21209",1
237,"1020 W 42ND ST","BALTIMORE","Maryland","21211",1
238,"1101 S HANOVER ST","BALTIMORE","Maryland","21230",1
239,"LIBERTY HEIGHTS AVE & DRUID PARK DR","BALTIMORE","Maryland","21215",1
240,"3312 NERAK RD","BALTIMORE","Maryland","21208",1
241,"2404 COLLEGE AVE","BALTIMORE","Maryland","21214",1
242,"HILLEN RD & RALWORTH RD","BALTIMORE","Maryland","21218",1
243,"TIVOLY AVE & ARGONNE DR","BALTIMORE","Maryland","21218",1
244,"2304 SOUTHERN AVE","BALTIMORE","Maryland","21214",1
245,"1700 N REGESTER ST","BALTIMORE","Maryland","21213",1
246,"1600 E 30TH ST","BALTIMORE","Maryland","21218",1
247,"3100 HAWKINS POINT RD","BALTIMORE","Maryland","21226",1
248,"4600 ANNTANA AVE","BALTIMORE","Maryland","21206",1
249,"S HANOVER ST & KENT ST","BALTIMORE","Maryland","21225",1
250,"S HANOVER ST & WASHBURN AVE","BALTIMORE","Maryland","21225",1
251,"S HANOVER ST &E PONTIAC AVE","BALTIMORE","Maryland","21225",1
252,"2001 BELAIR RD","BALTIMORE","Maryland","21213",1
253,"6600 WALTHER AVE","BALTIMORE","Maryland","21206",1
254,"6500 WALTHER AVE","BALTIMORE","Maryland","21206",1
255,"6425 WALTHER AVE","BALTIMORE","Maryland","21206",1
256,"1600 W PRATT ST","BALTIMORE","Maryland","21223",1
257,"REISTERSTOWN RD & HAYWARD AVE","BALTIMORE","Maryland","21215",1
258,"4900 FREDERICK AVE","BALTIMORE","Maryland","21229",1
259,"1800 N PORT ST","BALTIMORE","Maryland","21213",1
260,"MARYLAND AVE &W 27TH ST","BALTIMORE","Maryland","21218",1
261,"2823 E FEDERAL ST","BALTIMORE","Maryland","21213",1
262,"601 E FAYETTE ST","BALTIMORE","Maryland","21202",1
263,"PURNELL DR &W FOREST PARK AVE","GWYNN OAK","Maryland","21207",1
264,"1038 S HANOVER ST","BALTIMORE","Maryland","21230",1
265,"6615 PARK HEIGHTS AVE","BALTIMORE","Maryland","21215",1
266,"2900 BOSTON ST","BALTIMORE","Maryland","21224",1
267,"5200 EDMONDSON AVE","BALTIMORE","Maryland","21229",1
268,"6698 PIONEER DR","BALTIMORE","Maryland","21214",1
269,"600 S ANN ST","BALTIMORE","Maryland","21231",1
270,"7706 VICTORY AVE","BALTIMORE","Maryland","21234",1
271,"W OSTEND ST & WARNER ST","BALTIMORE","Maryland","21230",1
272,"W OSTEND ST & RACE ST","BALTIMORE","Maryland","21230",1
273,"2600 AILSA AVE","BALTIMORE","Maryland","21214",1
274,"1600 E NORTH AVE","BALTIMORE","Maryland","21213",1
275,"401 S DEAN ST","BALTIMORE","Maryland","21224",1
276,"1549 ABBOTSTON ST","BALTIMORE","Maryland","21218",1
277,"2701 KENNEDY AVE","BALTIMORE","Maryland","21218",1
278,"400 S BOULDIN ST","BALTIMORE","Maryland","21224",1
279,"1001 FLEET ST","BALTIMORE","Maryland","21202",1
280,"BOSTON ST &S MONTFORD AVE","BALTIMORE","Maryland","21224",1
281,"5003 HOLABIRD AVE","BALTIMORE","Maryland","21224",1
282,"2823 E FEDERAL ST","BALTIMORE","Maryland","21213",1
283,"3900 WILKENS AVE","BALTIMORE","Maryland","21229",1
284,"4000 WILKENS AVE","BALTIMORE","Maryland","21229",1
285,"2300 N HILTON ST","BALTIMORE","Maryland","21216",1
286,"400 E PRESTON ST","BALTIMORE","Maryland","21202",1
287,"W PRESTON ST","BALTIMORE","Maryland","21201",1
288,"1106 EDWIGHT CT","BALTIMORE","Maryland","21225",1
289,"5103 EDMONDSON AVE","BALTIMORE","Maryland","21229",1
290,"300 FOLCROFT ST","BALTIMORE","Maryland","21224",1
291,"1715 E 32ND ST","BALTIMORE","Maryland","21218",1
292,"100 S GILMOR ST","BALTIMORE","Maryland","21223",1
293,"3510 SOUTHERN AVE","BALTIMORE","Maryland","21214",1
294,"3721 HILLSDALE RD","BALTIMORE","Maryland","21207",1
295,"1600 W NORTH AVE","BALTIMORE","Maryland","21217",1
296,"100 E PLEASANT ST","BALTIMORE","Maryland","21202",1
297,"16 E 23RD ST","BALTIMORE","Maryland","21218",1
298,"3300 ELDORADO AVE","BALTIMORE","Maryland","21207",1
299,"1821 S CHARLES ST","BALTIMORE","Maryland","21230",1
300,"2352 WILKENS AVE","BALTIMORE","Maryland","21223",1
301,"PONCA ST & O'DONNELL ST","BALTIMORE","Maryland","21224",1
302,"3900 BROOKLYN AVE","BALTIMORE","Maryland","21225",1
303,"4800 BOWLAND AVE","BALTIMORE","Maryland","21206",1
304,"2515 BOSTON ST","BALTIMORE","Maryland","21224",1
305,"3000 TEMPLE GATE","BALTIMORE","Maryland","21209",1
306,"2200 FLEETWOOD AVE","BALTIMORE","Maryland","21214",1
307,"2100 FLEETWOOD AVE","BALTIMORE","Maryland","21214",1
308,"1014 E 36TH ST","BALTIMORE","Maryland","21218",1
309,"3061 FREDERICK AVE","BALTIMORE","Maryland","21223",1
310,"3300 MERTENS ST","BALTIMORE","Maryland","21224",1
311,"3200 ECHODALE AVE","BALTIMORE","Maryland","21214",1
312,"5000 EDMONDSON AVE","BALTIMORE","Maryland","21229",1
313,"N ROSE ST &E BALTIMORE ST","BALTIMORE","Maryland","21224",1
314,"5510 THE ALAMEDA","BALTIMORE","Maryland","21239",1
315,"6300 PARK HEIGHTS AVE","BALTIMORE","Maryland","21215",1
316,"800 SEAGULL AVE","BALTIMORE","Maryland","21225",1
317,"2829 WASHINGTON BLVD","BALTIMORE","Maryland","21230",1
318,"WICOMICO ST & BUSH ST","BALTIMORE","Maryland","21230",1
319,"WICOMICO ST & BAYARD ST","BALTIMORE","Maryland","21230",1
320,"WICOMICO ST &W OSTEND ST","BALTIMORE","Maryland","21230",1
321,"4200 NADINE DR","ARLINGTON","Maryland","21215",1
322,"4200 LABYRINTH RD","BALTIMORE","Maryland","21215",1
323,"5600 PENNINGTON AVE","BALTIMORE","Maryland","21226",1
324,"MOUNT PLEASANT AVE &S FAGLEY ST","BALTIMORE","Maryland","21224",1
325,"2000 WINFORD RD","BALTIMORE","Maryland","21239",1
326,"2017 KELLY AVE","BALTIMORE","Maryland","21209",1
327,"1111 MONROE CIR","BALTIMORE","Maryland","21225",1
328,"2300 SAINT PAUL ST","BALTIMORE","Maryland","21218",1
329,"5500 PEERLESS AVE","BALTIMORE","Maryland","21207",1
330,"PALMER AVE & SPAULDING AVE","BALTIMORE","Maryland","21215",1
331,"4012 RIDGECROFT RD","BALTIMORE","Maryland","21206",1
332,"2614 ANNAPOLIS RD","BALTIMORE","Maryland","21230",1
333,"5535 HARFORD RD","BALTIMORE","Maryland","21214",1
334,"2700 BEECHLAND AVE","BALTIMORE","Maryland","21214",1
335,"5900 GLEN FALLS AVE","BALTIMORE","Maryland","21206",1
336,"3113 O'DONNELL ST","BALTIMORE","Maryland","21224",1
337,"100 N LINWOOD AVE","BALTIMORE","Maryland","21224",1
338,"LOCH RAVEN BLVD &E NORTHERN PKWY","BALTIMORE","Maryland","21239",1
339,"31 LIGHT ST","BALTIMORE","Maryland","21202",1
340,"37 S WASHINGTON ST","BALTIMORE","Maryland","21231",1
341,"2000 N WOLFE ST","BALTIMORE","Maryland","21213",1
342,"5923 KAVON AVE","BALTIMORE","Maryland","21206",1
343,"250 W PRATT ST","BALTIMORE","Maryland","21201",1
344,"208 SAINT DUNSTANS RD","BALTIMORE","Maryland","21212",1
345,"THE ALAMEDA & NORTHWOOD DR","BALTIMORE","Maryland","21212",1
346,"2300 GABLE AVE","HALETHORPE","Maryland","21227",1
347,"BROENING HWY & BESSEMER AVE","BALTIMORE","Maryland","21224",1
348,"1452 BROENING HWY","BALTIMORE","Maryland","21224",1
349,"2152 W PATAPSCO AVE","BALTIMORE","Maryland","21230",1
350,"421 N HOWARD ST","BALTIMORE","Maryland","21201",1
351,"3908 FAIRHAVEN AVE","BALTIMORE","Maryland","21226",1
352,"HUDSON ST &S MILTON AVE","BALTIMORE","Maryland","21224",1
353,"3401 EASTERN AVE","BALTIMORE","Maryland","21224",1
354,"2800 N CALVERT ST","BALTIMORE","Maryland","21218",1
355,"2551 GREENMOUNT AVE","BALTIMORE","Maryland","21218",1
356,"2000 N CALVERT ST","BALTIMORE","Maryland","21218",1
357,"1700 N CALVERT ST","BALTIMORE","Maryland","21202",1
358,"5401 WALTHER AVE","BALTIMORE","Maryland","21214",1
359,"6411 FORT SMALLWOOD RD","BALTIMORE","Maryland","21226",1
360,"6301 EFFICIENCY WAY","BALTIMORE","Maryland","21226",1
361,"4600 HILLEN RD","BALTIMORE","Maryland","21218",1
362,"500 E 39TH ST","BALTIMORE","Maryland","21218",1
363,"HAVENWOOD RD & LOCH RAVEN BLVD","BALTIMORE","Maryland","21218",1
364,"2713 BEECHLAND AVE","BALTIMORE","Maryland","21214",1
365,"2700 BEECHLAND AVE","BALTIMORE","Maryland","21214",1
366,"1120 E BALTIMORE ST","BALTIMORE","Maryland","21202",1
367,"S HIGHLAND AVE & EASTERN AVE","BALTIMORE","Maryland","21224",1
368,"EASTERN AVE &S HIGHLAND AVE","BALTIMORE","Maryland","21224",1
369,"206 TAPLOW RD","BALTIMORE","Maryland","21212",1
370,"798 E 33RD ST","BALTIMORE","Maryland","21218",1
371,"W FOREST PARK AVE & PURNELL DR","BALTIMORE","Maryland","21207",1
372,"1100 DESOTO RD","BALTIMORE","Maryland","21223",1
373,"3217 BAYONNE AVE","BALTIMORE","Maryland","21214",1
374,"WILHELM ST &S SMALLWOOD ST","BALTIMORE","Maryland","21223",1
375,"3500 DUDLEY AVE","BALTIMORE","Maryland","21213",1
376,"4443 BELAIR RD","BALTIMORE","Maryland","21206",1
377,"5705 MORAVIA RD","BALTIMORE","Maryland","21206",1
378,"4009 E NORTHERN PKWY","BALTIMORE","Maryland","21206",1
379,"2906 E NORTHERN PKWY","BALTIMORE","Maryland","21214",1
380,"2500 E NORTHERN PKWY","BALTIMORE","Maryland","21214",1
381,"2904 E NORTHERN PKWY","BALTIMORE","Maryland","21214",1
382,"2200 E NORTHERN PKWY","BALTIMORE","Maryland","21214",1
383,"700 E NORTHERN PKWY","BALTIMORE","Maryland","21212",1
384,"6213 EASTBOURNE AVE","BALTIMORE","Maryland","21224",1
385,"3204 HOLLINS FERRY RD","BALTIMORE","Maryland","21230",1
386,"1700 E 32ND ST","BALTIMORE","Maryland","21218",1
387,"2048 E BELVEDERE AVE","BALTIMORE","Maryland","21239",1
388,"3410 BELAIR RD","BALTIMORE","Maryland","21213",1
389,"SHAMROCK AVE & GREENHILL AVE","BALTIMORE","Maryland","21206",1
390,"3132 GUILFORD AVE","BALTIMORE","Maryland","21218",1
391,"600 E 38TH ST","BALTIMORE","Maryland","21218",1
392,"1945 GRIFFIS AVE","BALTIMORE","Maryland","21230",1
393,"3505 GLENMORE AVE","BALTIMORE","Maryland","21206",1
394,"2300 W PATAPSCO AVE","BALTIMORE","Maryland","21230",1
395,"1210 WILDWOOD PKWY","BALTIMORE","Maryland","21229",1
396,"19 S CONKLING ST","BALTIMORE","Maryland","21224",1
397,"507 BALTIC AVE","BALTIMORE","Maryland","21225",1
398,"1239 BAYARD ST","BALTIMORE","Maryland","21230",1
399,"4301 MAINFIELD AVE","BALTIMORE","Maryland","21214",1
400,"510 HOLLEN RD","BALTIMORE","Maryland","21212",1
401,"1000 N CENTRAL AVE","BALTIMORE","Maryland","21202",1
402,"3112 ROSEKEMP AVE","BALTIMORE","Maryland","21214",1
403,"1446 STEVENSON ST","BALTIMORE","Maryland","21230",1
404,"2500 PURNELL DR","GWYNN OAK","Maryland","21207",1
405,"432 MILLINGTON AVE","BALTIMORE","Maryland","21223",1
406,"2725 W FAIRMOUNT AVE","BALTIMORE","Maryland","21223",1
407,"1100 S HANOVER ST","BALTIMORE","Maryland","21230",1
408,"112 E 24TH ST","BALTIMORE","Maryland","21218",1
409,"2413 SAINT PAUL ST","BALTIMORE","Maryland","21218",1
410,"2420 N CALVERT ST","BALTIMORE","Maryland","21218",1
411,"W BALTIMORE ST &N ELLAMONT ST","BALTIMORE","Maryland","21229",1
412,"E 25TH ST & SAINT PAUL ST","BALTIMORE","Maryland","21218",1
413,"98 N BROADWAY","BALTIMORE","Maryland","21231",1
414,"N BOND ST &E NORTH AVE","BALTIMORE","Maryland","21213",1
415,"1323 S CHARLES ST","BALTIMORE","Maryland","21230",1
416,"201 HOLLIDAY ST","BALTIMORE","Maryland","21202",1
417,"679 S WICKHAM RD","BALTIMORE","Maryland","21229",1
418,"KENYON AVE & CLIFTMONT AVE","BALTIMORE","Maryland","21213",1
419,"3612 DUDLEY AVE","BALTIMORE","Maryland","21213",1
420,"N HAVEN ST & PULASKI HWY","BALTIMORE","Maryland","21205",1
421,"3810 OVERLEA AVE","BALTIMORE","Maryland","21206",1
422,"ALHAMBRA AVE & RICHWOOD AVE","BALTIMORE","Maryland","21212",1
423,"6307 WEIDNER AVE","BALTIMORE","Maryland","21212",1
424,"1000 FLEET ST","BALTIMORE","Maryland","21202",1
425,"3500 DUDLEY AVE","BALTIMORE","Maryland","21213",1
426,"FLEET ST &S DALLAS ST","BALTIMORE","Maryland","21231",1
427,"1900 AISQUITH ST","BALTIMORE","Maryland","21218",1
428,"5300 N CHARLES ST","BALTIMORE","Maryland","21210",1
429,"5100 SINCLAIR LN","BALTIMORE","Maryland","21206",1
430,"4900 SINCLAIR LN","BALTIMORE","Maryland","21206",1
431,"4700 SINCLAIR LN","BALTIMORE","Maryland","21206",1
432,"3800 SINCLAIR LN","BALTIMORE","Maryland","21213",1
433,"3200 E NORTHERN PKWY","BALTIMORE","Maryland","21214",1
434,"2300 FREDERICK AVE","BALTIMORE","Maryland","21228",1
435,"1800 W PRATT ST","BALTIMORE","Maryland","21223",1
436,"1000 W PRATT ST","BALTIMORE","Maryland","21223",1
437,"PERRING PKWY & ECHODALE AVE","BALTIMORE","Maryland","21239",1
438,"1135 N MOUNT ST","BALTIMORE","Maryland","21217",1
439,"6400 E PRATT ST","BALTIMORE","Maryland","21224",1
440,"E NORTHERN PKWY & YORK RD","BALTIMORE","Maryland","21212",1
441,"601 E LOMBARD ST","BALTIMORE","Maryland","21202",1
442,"LYNDALE AVE & DUDLEY AVE","BALTIMORE","Maryland","21213",1
443,"1419 WARD ST","BALTIMORE","Maryland","21230",1
444,"N HAVEN ST & PULASKI HWY","BALTIMORE","Maryland","21205",1
445,"3801 MONTEREY RD","BALTIMORE","Maryland","21218",1
446,"MORAVIA RD & RAMP","BALTIMORE","Maryland","21205",1
447,"1700 SWANSEA RD","BALTIMORE","Maryland","21239",1
448,"4400 WRENWOOD AVE","BALTIMORE","Maryland","21212",1
449,"1942 LIGHT ST","BALTIMORE","Maryland","21230",1
450,"2200 BANK ST","BALTIMORE","Maryland","21231",1
451,"E PRATT ST &S PATTERSON PARK AVE","BALTIMORE","Maryland","21224",1
452,"402 N WASHINGTON ST","BALTIMORE","Maryland","21231",1
453,"CROSS COUNTRY BLVD & GLEN AVE","BALTIMORE","Maryland","21215",1
454,"4200 KELWAY RD","BALTIMORE","Maryland","21218",1
455,"1801 N FOREST PARK AVE","BALTIMORE","Maryland","21207",1
456,"1400 WINCHESTER ST","BALTIMORE","Maryland","21217",1
457,"1100 NANTICOKE ST","BALTIMORE","Maryland","21230",1
458,"501 E 25TH ST","BALTIMORE","Maryland","21218",1
459,"6300 E PRATT ST","BALTIMORE","Maryland","21224",1
460,"FRISBY ST & ARGONNE DR","BALTIMORE","Maryland","21218",1
461,"ELLERSLIE AVE &E 39TH ST","BALTIMORE","Maryland","21218",1
462,"FAIT AVE & OLDHAM ST","BALTIMORE","Maryland","21224",1
463,"1400 RUSSELL ST","BALTIMORE","Maryland","21230",1
464,"1100 RUSSELL ST","BALTIMORE","Maryland","21230",1
465,"400 E BIDDLE ST","BALTIMORE","Maryland","21202",1
466,"2554 LOYOLA NORTHWAY","BALTIMORE","Maryland","21215",1
467,"700 FRANKFURST AVE","BALTIMORE","Maryland","21226",1
468,"3900 MILFORD AVE","BALTIMORE","Maryland","21215",1
469,"4006 BALFERN AVE","BALTIMORE","Maryland","21213",1
470,"2229 VAN DEMAN ST","BALTIMORE","Maryland","21224",1
471,"GRANDVIEW NEWPORT &W OLD COLD SPRING LN","BALTIMORE","Maryland","21209",1
472,"1020 W 42ND ST","BALTIMORE","Maryland","21211",1
473,"600 S LAKEWOOD AVE","BALTIMORE","Maryland","21224",1
474,"3400 EASTERN AVE","BALTIMORE","Maryland","21224",1
475,"2100 GUILFORD AVE","BALTIMORE","Maryland","21218",1
476,"2116 W PATAPSCO AVE","BALTIMORE","Maryland","21230",1
477,"E NORTHERN PKWY & WALTHER AVE","BALTIMORE","Maryland","21206",1
478,"100 E HEATH ST","BALTIMORE","Maryland","21230",1
479,"900 JOH AVE","BALTIMORE","Maryland","21229",1
480,"GREENMOUNT AVE &E 25TH ST","BALTIMORE","Maryland","21218",1
481,"4235 IVANHOE AVE","BALTIMORE","Maryland","21212",1
482,"HILLEN RD & LAKESIDE AVE","BALTIMORE","Maryland","21218",1
483,"500 S SHARP ST","BALTIMORE","Maryland","21201",1
484,"5300 EASTERN AVE","BALTIMORE","Maryland","21224",1
485,"901 W BALTIMORE ST","BALTIMORE","Maryland","21223",1
486,"3104 HAWKINS POINT RD","BALTIMORE","Maryland","21226",1
487,"3108 WOODRING AVE","BALTIMORE","Maryland","21234",1
488,"1147 WICOMICO ST","BALTIMORE","Maryland","21230",1
489,"807 BROOKS LN","BALTIMORE","Maryland","21217",1
490,"1100 N MACON ST","BALTIMORE","Maryland","21205",1
491,"5103 EDMONDSON AVE","BALTIMORE","Maryland","21229",1
492,"PIMLICO RD & CROSS COUNTRY BLVD","BALTIMORE","Maryland","21209",1
493,"FALLS RD &W 41ST ST","BALTIMORE","Maryland","21211",1
494,"3705 E NORTHERN PKWY","BALTIMORE","Maryland","21206",1
495,"3300 HILLEN RD","BALTIMORE","Maryland","21218",1
496,"CHERRY HILL RD & ROUND RD","BALTIMORE","Maryland","21225",1
497,"CHERRY HILL RD & GILES RD","BALTIMORE","Maryland","21225",1
498,"4838 BOWLAND AVE","BALTIMORE","Maryland","21206",1
499,"906 WICKLOW RD","BALTIMORE","Maryland","21229",1
500,"5310 WALTHER AVE","BALTIMORE","Maryland","21214",1
501,"1600 BAKER ST","BALTIMORE","Maryland","21217",1
502,"2400 WESTWOOD AVE","BALTIMORE","Maryland","21216",1
503,"6000 HILLEN RD","BALTIMORE","Maryland","21239",1
504,"1233 BROENING HWY","BALTIMORE","Maryland","21224",1
505,"2516 HERMOSA AVE","BALTIMORE","Maryland","21214",1
506,"MANNASOTA AVE & MORAVIA RD","BALTIMORE","Maryland","21206",1
507,"3632 HINELINE RD","BALTIMORE","Maryland","21229",1
508,"W PATAPSCO AVE & GABLE AVE","BALTIMORE","Maryland","21230",1
509,"CARSWELL ST & KIRK AVE","BALTIMORE","Maryland","21218",1
510,"245 S CONKLING ST","BALTIMORE","Maryland","21224",1
511,"6203 EASTERN AVE","BALTIMORE","Maryland","21224",1
512,"EASTERN AVE & ELRINO ST","BALTIMORE","Maryland","21224",1
513,"4300 6TH ST","BALTIMORE","Maryland","21225",1
514,"5400 LOCH RAVEN BLVD","BALTIMORE","Maryland","21239",1
515,"3049 E NORTHERN PKWY","BALTIMORE","Maryland","21214",1
516,"4732 MELBOURNE RD","BALTIMORE","Maryland","21229",1
517,"1100 POPLAR GROVE ST","BALTIMORE","Maryland","21216",1
518,"2907 BRIGHTON ST","BALTIMORE","Maryland","21216",1
519,"2003 HILLENWOOD RD","BALTIMORE","Maryland","21239",1
520,"5811 THE ALAMEDA","BALTIMORE","Maryland","21239",1
521,"5800 THE ALAMEDA","BALTIMORE","Maryland","21239",1
522,"5702 THE ALAMEDA","BALTIMORE","Maryland","21239",1
523,"1700 ABBOTSTON ST","BALTIMORE","Maryland","21218",1
524,"HAMILTON AVE & WALTHER AVE","BALTIMORE","Maryland","21214",1
525,"2401 FLEETWOOD AVE","BALTIMORE","Maryland","21214",1
526,"MEDFORD RD & TIVOLY AVE","BALTIMORE","Maryland","21218",1
527,"5600 PERRING PKWY","BALTIMORE","Maryland","21239",1
528,"1802 BARCLAY ST","BALTIMORE","Maryland","21202",1
529,"3304 HILLEN RD","BALTIMORE","Maryland","21218",1
530,"2835 FLEETWOOD AVE","BALTIMORE","Maryland","21214",1
531,"1000 BOLTON ST","BALTIMORE","Maryland","21201",1
532,"JORDAN ST & DOLPHIN ST","BALTIMORE","Maryland","21217",1
533,"2710 FLEETWOOD AVE","BALTIMORE","Maryland","21214",1
534,"2800 PROSPECT ST","BALTIMORE","Maryland","21216",1
535,"WEST BAY AVE & EDWIGHT CT","BALTIMORE","Maryland","21225",1
536,"2700 FLEETWOOD AVE","BALTIMORE","Maryland","21214",1
537,"33 S KOSSUTH ST","BALTIMORE","Maryland","21229",1
538,"WASHINGTON BLVD &W PATAPSCO AVE","BALTIMORE","Maryland","21227",1
539,"126 S WARWICK AVE","BALTIMORE","Maryland","21223",1
540,"2300 WASHINGTON BLVD","BALTIMORE","Maryland","21230",1
541,"2208 CEDLEY ST","BALTIMORE","Maryland","21230",1
542,"1734 W NORTH AVE","BALTIMORE","Maryland","21217",1
543,"THE ALAMEDA & RAMBLEWOOD RD","BALTIMORE","Maryland","21239",1
544,"1200 WALTERS AVE","BALTIMORE","Maryland","21239",1
545,"3300 W BALTIMORE ST","BALTIMORE","Maryland","21229",1
546,"3200 W BALTIMORE ST","BALTIMORE","Maryland","21229",1
547,"4300 MANNASOTA AVE","BALTIMORE","Maryland","21206",1
548,"3100 E BALTIMORE ST","BALTIMORE","Maryland","21224",1
549,"1000 W LANVALE ST","BALTIMORE","Maryland","21217",1
550,"3000 W BALTIMORE ST","BALTIMORE","Maryland","21229",1
551,"1101 W LANVALE ST","BALTIMORE","Maryland","21217",1
552,"1200 W LANVALE ST","BALTIMORE","Maryland","21217",1
553,"EDMONDSON AVE & HILTON PKWY","BALTIMORE","Maryland","21229",1
554,"4430 MANNASOTA AVE","BALTIMORE","Maryland","21206",1
555,"1368 PENTWOOD RD","BALTIMORE","Maryland","21239",1
556,"1324 PENTWOOD RD","BALTIMORE","Maryland","21239",1
557,"2901 JOSEPH AVE","BALTIMORE","Maryland","21225",1
558,"500 E 25TH ST","BALTIMORE","Maryland","21218",1
559,"5200 CORDELIA AVE","BALTIMORE","Maryland","21215",1
560,"2810 STEELE RD","BALTIMORE","Maryland","21209",1
561,"TIVOLY AVE &E 30TH ST","BALTIMORE","Maryland","21218",1
562,"520 HARWOOD AVE","BALTIMORE","Maryland","21212",1
563,"1117 COOKS LN","BALTIMORE","Maryland","21229",1
564,"2714 HUDSON ST","BALTIMORE","Maryland","21224",1
565,"HUDSON ST &S LAKEWOOD AVE","BALTIMORE","Maryland","21224",1
566,"1000 OGDEN ST","BALTIMORE","Maryland","21224",1
567,"101 W OSTEND ST","BALTIMORE","Maryland","21230",1
568,"811 S EAST AVE","BALTIMORE","Maryland","21224",1
569,"500 N WHEELER AVE","BALTIMORE","Maryland","21223",1
570,"400 N WARWICK AVE","BALTIMORE","Maryland","21223",1
571,"5103 EDMONDSON AVE","BALTIMORE","Maryland","21229",1
572,"E FAYETTE ST &N PRESIDENT ST","BALTIMORE","Maryland","21202",1
573,"5222 ERDMAN AVE","BALTIMORE","Maryland","21205",1
574,"5904 GLENKIRK RD","BALTIMORE","Maryland","21239",1
575,"5900 HILLEN RD","BALTIMORE","Maryland","21239",1
576,"5900 LOCH RAVEN BLVD","BALTIMORE","Maryland","21239",1
577,"4704 FURLEY AVE","BALTIMORE","Maryland","21206",1
578,"3206 ORLANDO AVE","BALTIMORE","Maryland","21234",1
579,"606 HARWOOD AVE","BALTIMORE","Maryland","21212",1
580,"MORAVIA PARK DR & PULASKI HWY","BALTIMORE","Maryland","21237",1
581,"UPLANDS PKWY","BALTIMORE","Maryland","21229",1
582,"304 RADNOR RD","BALTIMORE","Maryland","21212",1
583,"4816 LAUREL AVE","BALTIMORE","Maryland","21215",1
584,"1504 LATROBE PARK TER","BALTIMORE","Maryland","21230",1
585,"4100 ARDLEY AVE","BALTIMORE","Maryland","21213",1
586,"CEDONIA AVE & ARIZONA AVE","BALTIMORE","Maryland","21206",1
587,"1052 N IRIS AVE","BALTIMORE","Maryland","21205",1
588,"5500 CEDONIA AVE","BALTIMORE","Maryland","21206",1
589,"738 PONCA ST","BALTIMORE","Maryland","21224",1
590,"100 WILSON ST","BALTIMORE","Maryland","21217",1
591,"601 E FAYETTE ST","BALTIMORE","Maryland","21202",1
592,"1601 E 33RD ST","BALTIMORE","Maryland","21218",1
593,"3923 GREENMOUNT AVE","BALTIMORE","Maryland","21218",1
594,"3000 GREENMOUNT AVE","BALTIMORE","Maryland","21218",1
595,"3401 GARRISON BLVD","BALTIMORE","Maryland","21215",1
596,"S SHARP ST &W LEE ST","BALTIMORE","Maryland","21201",1
597,"100 MCMECHEN ST","BALTIMORE","Maryland","21217",1
598,"4200 KELWAY RD","BALTIMORE","Maryland","21218",1
599,"SAINT PAUL ST &E 22ND ST","BALTIMORE","Maryland","21218",1
600,"RACE ST &W RANDALL ST","BALTIMORE","Maryland","21230",1
601,"5000 E MONUMENT ST","BALTIMORE","Maryland","21205",1
602,"300 W FRANKLIN ST","BALTIMORE","Maryland","21201",1
603,"4719 YORK RD","BALTIMORE","Maryland","21212",1
604,"2300 W FRANKLIN ST","BALTIMORE","Maryland","21223",1
605,"2700 EDMONDSON AVE","BALTIMORE","Maryland","21223",1
606,"2600 W FRANKLIN ST","BALTIMORE","Maryland","21223",1
607,"6 W MULBERRY ST","BALTIMORE","Maryland","21201",1
608,"900 N BENTALOU ST","BALTIMORE","Maryland","21216",1
609,"O'DONNELL ST & PONCA ST","BALTIMORE","Maryland","21224",1
610,"3600 MANHATTAN AVE","BALTIMORE","Maryland","21215",1
611,"3400 WABASH AVE","BALTIMORE","Maryland","21215",1
612,"N DUKELAND ST & LIBERTY HEIGHTS AVE","BALTIMORE","Maryland","21215",1
613,"N CHARLES ST &E CENTRE ST","BALTIMORE","Maryland","21201",1
614,"5750 CROSS COUNTRY BLVD","BALTIMORE","Maryland","21209",1
615,"205 E 23RD ST","BALTIMORE","Maryland","21218",1
616,"5010 YORK RD","BALTIMORE","Maryland","21212",1
617,"LOCH RAVEN BLVD &E NORTHERN PKWY","BALTIMORE","Maryland","21239",1
618,"RACE ST &W FORT AVE","BALTIMORE","Maryland","21230",1
619,"3900 HARFORD RD","BALTIMORE","Maryland","21214",1
620,"1640 LIGHT ST","BALTIMORE","Maryland","21230",1
621,"6028 LOCH RAVEN BLVD","BALTIMORE","Maryland","21239",1
622,"5913 WINTHROPE AVE","BALTIMORE","Maryland","21206",1
623,"1300 RAMSAY ST","BALTIMORE","Maryland","21223",1
624,"1100 N MOUNT ST","BALTIMORE","Maryland","21217",1
625,"600 PARKIN ST","BALTIMORE","Maryland","21230",1
626,"TRAMORE RD & PINEWOOD AVE","BALTIMORE","Maryland","21214",1
627,"100 TAPLOW RD","BALTIMORE","Maryland","21212",1
628,"S CATON AVE & GEORGETOWN RD","BALTIMORE","Maryland","21227",1
629,"RAMSAY ST &S WOODYEAR ST","BALTIMORE","Maryland","21223",1
630,"300 E 22ND ST","BALTIMORE","Maryland","21218",1
631,"4312 ROBERTON AVE","BALTIMORE","Maryland","21206",1
632,"2015 E FAIRMOUNT AVE","BALTIMORE","Maryland","21231",1
633,"3302 TOONE ST","BALTIMORE","Maryland","21224",1
634,"1425 ALICEANNA ST","BALTIMORE","Maryland","21202",1
635,"2300 E MADISON ST","BALTIMORE","Maryland","21205",1
636,"KELWAY RD & HAVENWOOD RD","BALTIMORE","Maryland","21218",1
637,"YORK RD & WINSTON AVE","BALTIMORE","Maryland","21212",1
638,"1548 WILLIAM ST","BALTIMORE","Maryland","21230",1
639,"4600 HAZELWOOD AVE","BALTIMORE","Maryland","21206",1
640,"MAINE AVE & GRANADA AVE","BALTIMORE","Maryland","21207",1
641,"1052 N IRIS AVE","BALTIMORE","Maryland","21205",1
642,"6028 LOCH RAVEN BLVD","BALTIMORE","Maryland","21239",1
643,"902 SAINT PAUL ST","BALTIMORE","Maryland","21202",1
644,"1 N CHARLES ST","BALTIMORE","Maryland","21201",1
645,"6005 MARLUTH AVE","BALTIMORE","Maryland","21206",1
646,"5800 WALTHER AVE","BALTIMORE","Maryland","21206",1
647,"1008 E LOMBARD ST","BALTIMORE","Maryland","21202",1
648,"3205 WASHINGTON BLVD","BALTIMORE","Maryland","21230",1
649,"311 E MELROSE AVE","BALTIMORE","Maryland","21212",1
650,"HEAVER ST & BARCLAY ST","BALTIMORE","Maryland","21218",1
651,"4800 BOWLAND AVE","BALTIMORE","Maryland","21206",1
652,"BELLE VISTA AVE & FRANKFORD AVE","BALTIMORE","Maryland","21206",1
653,"200 MARTINGALE AVE","BALTIMORE","Maryland","21229",1
654,"2305 N CALVERT ST","BALTIMORE","Maryland","21218",1
655,"1054 N IRIS AVE","BALTIMORE","Maryland","21205",1
656,"MATHEWS ST & EXETER HALL AVE","BALTIMORE","Maryland","21218",1
657,"822 W LAKE AVE","BALTIMORE","Maryland","21210",1
658,"3900 W FOREST PARK AVE","BALTIMORE","Maryland","21207",1
659,"2830 E MADISON ST","BALTIMORE","Maryland","21205",1
660,"E MADISON ST &N CAROLINE ST","BALTIMORE","Maryland","21205",1
661,"2400 ERDMAN AVE","BALTIMORE","Maryland","21213",1
662,"6400 WALTHER AVE","BALTIMORE","Maryland","21206",1
663,"200 S PATTERSON PARK AVE","BALTIMORE","Maryland","21231",1
664,"4000 CRANSTON AVE","BALTIMORE","Maryland","21229",1
665,"3500 WILKENS AVE","BALTIMORE","Maryland","21229",1
666,"2400 WILKENS AVE","BALTIMORE","Maryland","21223",1
667,"4000 CRANSTON AVE","BALTIMORE","Maryland","21229",1
668,"910 N BENTALOU ST","BALTIMORE","Maryland","21216",1
669,"102 S CHAPEL ST","BALTIMORE","Maryland","21231",1
670,"100 S LINWOOD AVE","BALTIMORE","Maryland","21224",1
671,"5103 EDMONDSON AVE","BALTIMORE","Maryland","21229",1
672,"2101 ESSEX ST","BALTIMORE","Maryland","21231",1
673,"3800 CRANSTON AVE","BALTIMORE","Maryland","21229",1
674,"3700 CRANSTON AVE","BALTIMORE","Maryland","21229",1
675,"1300 W 41ST ST","BALTIMORE","Maryland","21211",1
676,"5900 BONNIE VIEW DR","BALTIMORE","Maryland","21209",1
677,"SEVEN MILE LN & PARK HEIGHTS AVE","BALTIMORE","Maryland","21208",1
678,"3203 LABYRINTH RD","BALTIMORE","Maryland","21208",1
679,"CEDARCROFT RD & SYCAMORE RD","BALTIMORE","Maryland","21212",1
680,"2100 W FAYETTE ST","BALTIMORE","Maryland","21223",1
681,"5103 EDMONDSON AVE","BALTIMORE","Maryland","21229",1
682,"CANTERBURY RD &W 39TH ST","BALTIMORE","Maryland","21218",1
683,"OLD HARFORD RD &E NORTHERN PKWY","BALTIMORE","Maryland","21214",1
684,"2909 E NORTHERN PKWY","BALTIMORE","Maryland","21214",1
685,"AUCHENTOROLY TER","BALTIMORE","Maryland","21217",1
686,"1025 S HAVEN ST","BALTIMORE","Maryland","21224",1
687,"3729 FAIT AVE","BALTIMORE","Maryland","21224",1
688,"200 S PATTERSON PARK AVE","BALTIMORE","Maryland","21231",1
689,"705 RICHWOOD AVE","BALTIMORE","Maryland","21212",1
690,"518 S LUZERNE AVE","BALTIMORE","Maryland","21224",1
691,"1200 GLENHAVEN RD","BALTIMORE","Maryland","21239",1
692,"205 SOUTHWAY","BALTIMORE","Maryland","21218",1
693,"RALLS AVE & VAN DEMAN ST","BALTIMORE","Maryland","21222",1
694,"3900 LOCH RAVEN BLVD","BALTIMORE","Maryland","21218",1
695,"1200 E 25TH ST","BALTIMORE","Maryland","21218",1
696,"3001 BOSTON ST","BALTIMORE","Maryland","21224",1
697,"SYCAMORE RD & CEDARCROFT RD","BALTIMORE","Maryland","21212",1
698,"402 CEDARCROFT RD","BALTIMORE","Maryland","21212",1
699,"3607 ASH ST","BALTIMORE","Maryland","21211",1
700,"THE ALAMEDA &E NORTHERN PKWY","BALTIMORE","Maryland","21239",1
701,"3403 GARRISON BLVD","BALTIMORE","Maryland","21215",1
702,"3403 GARRISON BLVD","BALTIMORE","Maryland","21215",1
703,"3600 ASH ST","BALTIMORE","Maryland","21211",1
704,"3600 ASH ST","BALTIMORE","Maryland","21211",1
705,"5410 GRINDON AVE","BALTIMORE","Maryland","21214",1
706,"7501 HARFORD RD","BALTIMORE","Maryland","21234",1
707,"DIVISION ST &W LANVALE ST","BALTIMORE","Maryland","21217",1
708,"4700 HAZELWOOD AVE","BALTIMORE","Maryland","21206",1
709,"5500 N CHARLES ST","BALTIMORE","Maryland","21210",1
710,"6300 WESTERN RUN DR","BALTIMORE","Maryland","21215",1
711,"1147 WICOMICO ST","BALTIMORE","Maryland","21230",1
712,"770 MCHENRY ST","BALTIMORE","Maryland","21230",1
713,"441 CORNWALL ST","BALTIMORE","Maryland","21224",1
714,"3000 CRESMONT AVE","BALTIMORE","Maryland","21211",1
715,"815 W CROSS ST","BALTIMORE","Maryland","21230",1
716,"5414 NORTHWOOD DR","BALTIMORE","Maryland","21239",1
717,"5328 LIBERTY HEIGHTS AVE","BALTIMORE","Maryland","21207",1
718,"83 N","BALTIMORE","Maryland","21202",1
719,"WATERVIEW AVE &S HANOVER ST","BALTIMORE","Maryland","21230",1
720,"5500 PERRING PKWY","BALTIMORE","Maryland","21239",1
721,"S HAVEN ST & FLEET ST","BALTIMORE","Maryland","21224",1
722,"S COLLINGTON AVE & FLEET ST","BALTIMORE","Maryland","21231",1
723,"DOLPHIN ST & MCCULLOH ST","BALTIMORE","Maryland","21217",1
724,"2200 E PRATT ST","BALTIMORE","Maryland","21231",1
725,"1600 W MOUNT ROYAL AVE","BALTIMORE","Maryland","21217",1
726,"1100 N MACON ST","BALTIMORE","Maryland","21205",1
727,"2200 N FOREST PARK AVE","BALTIMORE","Maryland","21207",1
728,"200 S PATTERSON PARK AVE","BALTIMORE","Maryland","21231",1
729,"1100 WICOMICO ST","BALTIMORE","Maryland","21230",1
730,"3901 N CHARLES ST","BALTIMORE","Maryland","21218",1
731,"108 N MONTFORD AVE","BALTIMORE","Maryland","21224",1
732,"1233 W MOUNT ROYAL AVE","BALTIMORE","Maryland","21217",1
733,"2127 CHELSEA TER","BALTIMORE","Maryland","21216",1
734,"3300 W FRANKLIN ST","BALTIMORE","Maryland","21229",1
735,"1800 E 29TH ST","BALTIMORE","Maryland","21218",1
736,"3814 BIDDISON LN","BALTIMORE","Maryland","21206",1
737,"5100 ARDMORE WAY","BALTIMORE","Maryland","21206",1
738,"400 CORNWALL ST","BALTIMORE","Maryland","21224",1
739,"300 FOLCROFT ST","BALTIMORE","Maryland","21224",1
740,"3312 PINKNEY RD","BALTIMORE","Maryland","21215",1
741,"3505 PINKNEY RD","BALTIMORE","Maryland","21215",1
742,"5710 EASTERN AVE","BALTIMORE","Maryland","21224",1
743,"4515 WHITE AVE","BALTIMORE","Maryland","21206",1
744,"4918 WESTHILLS RD","BALTIMORE","Maryland","21229",1
745,"SAGRA RD & WOODBOURNE AVE","BALTIMORE","Maryland","21239",1
746,"GREENMOUNT AVE &E 39TH ST","BALTIMORE","Maryland","21218",1
747,"2400 GREENMOUNT AVE","BALTIMORE","Maryland","21218",1
748,"3112 ROSEKEMP AVE","BALTIMORE","Maryland","21214",1
749,"3300 OAKFIELD AVE","BALTIMORE","Maryland","21207",1
750,"2500 W BALTIMORE ST","BALTIMORE","Maryland","21223",1
751,"CHESTNUT AVE &W 34TH ST","BALTIMORE","Maryland","21211",1
752,"1500 SHIELDS PL","BALTIMORE","Maryland","21217",1
753,"400 W LAFAYETTE AVE","BALTIMORE","Maryland","21217",1
754,"500 W LAFAYETTE AVE","BALTIMORE","Maryland","21217",1
755,"300 W LAFAYETTE AVE","BALTIMORE","Maryland","21217",1
756,"600 MOSHER ST","BALTIMORE","Maryland","21217",1
757,"LAURENS ST &N MOUNT ST","BALTIMORE","Maryland","21217",1
758,"417 MOSHER ST","BALTIMORE","Maryland","21217",1
759,"500 MCMECHEN ST","BALTIMORE","Maryland","21217",1
760,"1200 W MOUNT ROYAL AVE","BALTIMORE","Maryland","21217",1
761,"WINSTON AVE & YORK RD","BALTIMORE","Maryland","21212",1
762,"500 MOSHER ST","BALTIMORE","Maryland","21217",1
763,"400 WILSON ST","BALTIMORE","Maryland","21217",1
764,"300 WILSON ST","BALTIMORE","Maryland","21217",1
765,"400 WILSON ST","BALTIMORE","Maryland","21217",1
766,"3540 NORTHWAY DR","BALTIMORE","Maryland","21234",1
767,"1316 S HANOVER ST","BALTIMORE","Maryland","21230",1
768,"821 WILDWOOD PKWY","BALTIMORE","Maryland","21229",1
769,"3908 S HANOVER ST","BALTIMORE","Maryland","21225",1
770,"3916 S HANOVER ST","BALTIMORE","Maryland","21225",1
771,"714 E PRESTON ST","BALTIMORE","Maryland","21202",1
772,"714 E PRESTON ST","BALTIMORE","Maryland","21202",1
773,"1207 S HANOVER ST","BALTIMORE","Maryland","21230",1
774,"701 E PRESTON ST","BALTIMORE","Maryland","21202",1
775,"800 BRINKWOOD RD","BALTIMORE","Maryland","21229",1
776,"511 E PATAPSCO AVE","BALTIMORE","Maryland","21225",1
777,"3200 SWAN DR","BALTIMORE","Maryland","21217",1
778,"CURTIS AVE & BENHILL AVE","BALTIMORE","Maryland","21226",1
779,"314 BROADMOOR RD","BALTIMORE","Maryland","21212",1
780,"6000 MARLUTH AVE","BALTIMORE","Maryland","21206",1
781,"400 W HOFFMAN ST","BALTIMORE","Maryland","21201",1
782,"1700 E MADISON ST","BALTIMORE","Maryland","21205",1
783,"2113 FLEET ST","BALTIMORE","Maryland","21231",1
784,"200 W LAFAYETTE AVE","BALTIMORE","Maryland","21217",1
785,"300 W FAYETTE ST","BALTIMORE","Maryland","21201",1
786,"1325 EUTAW PL","BALTIMORE","Maryland","21217",1
787,"N CASTLE ST &E 20TH ST","BALTIMORE","Maryland","21213",1
788,"3714 E NORTHERN PKWY","BALTIMORE","Maryland","21206",1
789,"3110 PELHAM AVE","BALTIMORE","Maryland","21213",1
790,"2400 W COLD SPRING LN","BALTIMORE","Maryland","21215",1
791,"LOCH RAVEN BLVD &E BELVEDERE AVE","BALTIMORE","Maryland","21239",1
792,"1319 N CHARLES ST","BALTIMORE","Maryland","21201",1
793,"2467 W COLD SPRING LN","BALTIMORE","Maryland","21215",1
794,"2900 E BIDDLE ST","BALTIMORE","Maryland","21213",1
795,"3200 N HILTON ST","BALTIMORE","Maryland","21216",1
796,"1704 WINDEMERE AVE","BALTIMORE","Maryland","21218",1
797,"E NORTH AVE & GREENMOUNT AVE","BALTIMORE","Maryland","21202",1
798,"FLEET ST &S WOLFE ST","BALTIMORE","Maryland","21231",1
799,"SINCLAIR LN & CHESTERFIELD AVE","BALTIMORE","Maryland","21213",1
800,"914 N CHARLES ST","BALTIMORE","Maryland","21201",1
801,"345 MARTINGALE AVE","BALTIMORE","Maryland","21229",1
802,"2800 CHESTERFIELD AVE","BALTIMORE","Maryland","21213",1
803,"WHITE AVE & KAVON AVE","BALTIMORE","Maryland","21206",1
804,"5906 GLENKIRK RD","BALTIMORE","Maryland","21239",1
805,"4900 HOLABIRD AVE","BALTIMORE","Maryland","21224",1
806,"2306 LYNDHURST AVE","BALTIMORE","Maryland","21216",1
807,"514 N FREMONT AVE","BALTIMORE","Maryland","21201",1
808,"4100 GROVELAND AVE","BALTIMORE","Maryland","21215",1
809,"1214 BONAPARTE AVE","BALTIMORE","Maryland","21218",1
810,"2700 BEECHLAND AVE","BALTIMORE","Maryland","21214",1
811,"3460 EDNOR RD","BALTIMORE","Maryland","21218",1
812,"SHIELDS PL & PITCHER ST","BALTIMORE","Maryland","21217",1
813,"CEDARDALE RD & WABASH AVE","BALTIMORE","Maryland","21215",1
814,"203 S EXETER ST","BALTIMORE","Maryland","21202",1
815,"900 E 20TH ST","BALTIMORE","Maryland","21218",1
816,"2001 E FAIRMOUNT AVE","BALTIMORE","Maryland","21231",1
817,"45 N KRESSON ST","BALTIMORE","Maryland","21224",1
818,"114 N KRESSON ST","BALTIMORE","Maryland","21224",1
819,"103 N KRESSON ST","BALTIMORE","Maryland","21224",1
820,"I 83 S &W NORTH AVE","BALTIMORE","Maryland","21217",1
821,"300 DOLPHIN ST","BALTIMORE","Maryland","21217",1
822,"1100 N CARROLLTON AVE","BALTIMORE","Maryland","21217",1
823,"1100 N FREMONT AVE","BALTIMORE","Maryland","21217",1
824,"1426 RIGGS AVE","BALTIMORE","Maryland","21217",1
825,"1400 N BRUCE ST","BALTIMORE","Maryland","21217",1
826,"400 W LANVALE ST","BALTIMORE","Maryland","21217",1
827,"600 W LANVALE ST","BALTIMORE","Maryland","21217",1
828,"2803 GANLEY DR","BALTIMORE","Maryland","21230",1
829,"300 W LANVALE ST","BALTIMORE","Maryland","21217",1
830,"800 W LANVALE ST","BALTIMORE","Maryland","21217",1
831,"600 DOLPHIN ST","BALTIMORE","Maryland","21217",1
832,"896 BATTERY AVE","BALTIMORE","Maryland","21230",1
833,"400 W PRESTON ST","BALTIMORE","Maryland","21201",1
834,"300 W PRESTON ST","BALTIMORE","Maryland","21201",1
835,"700 N FREMONT AVE","BALTIMORE","Maryland","21217",1
836,"1600 ARGYLE AVE","BALTIMORE","Maryland","21217",1
837,"700 NOTTINGHAM RD","BALTIMORE","Maryland","21229",1
838,"1201 ARGYLE AVE","BALTIMORE","Maryland","21217",1
839,"1100 MADISON AVE","BALTIMORE","Maryland","21240",1
840,"1200 MADISON AVE","BALTIMORE","Maryland","21217",1
841,"1400 MADISON AVE","BALTIMORE","Maryland","21217",1
842,"1500 MADISON AVE","BALTIMORE","Maryland","21217",1
843,"900 E 33RD ST","BALTIMORE","Maryland","21218",1
844,"1700 BAKER ST","BALTIMORE","Maryland","21217",1
845,"1500 SCHOOL ST","BALTIMORE","Maryland","21217",1
846,"702 GOLD ST","BALTIMORE","Maryland","21217",1
847,"300 GOLD ST","BALTIMORE","Maryland","21217",1
848,"1900 ETTING ST","BALTIMORE","Maryland","21217",1
849,"2300 ETTING ST","BALTIMORE","Maryland","21217",1
850,"1928 AISQUITH ST","BALTIMORE","Maryland","21218",1
851,"1546 N FREMONT AVE","BALTIMORE","Maryland","21217",1
852,"7000 HAMLET AVE","BALTIMORE","Maryland","21234",1
853,"3043 CHESTERFIELD AVE","BALTIMORE","Maryland","21213",1
854,"1335 N FULTON AVE","BALTIMORE","Maryland","21217",1
855,"4501 UNDERWOOD RD","BALTIMORE","Maryland","21212",1
856,"800 PRIMSON AVE","BALTIMORE","Maryland","21229",1
857,"300 KERNEWAY","BALTIMORE","Maryland","21212",1
858,"40 S GAY ST","BALTIMORE","Maryland","21202",1
859,"5820 PULASKI HWY","BALTIMORE","Maryland","21205",1
860,"1920 BANK ST","BALTIMORE","Maryland","21231",1
861,"901 OLDHAM ST","BALTIMORE","Maryland","21224",1
862,"1 W 20TH ST","BALTIMORE","Maryland","21218",1
863,"3510 SPAULDING AVE","BALTIMORE","Maryland","21215",1
864,"2001 N BROADWAY","BALTIMORE","Maryland","21213",1
865,"2400 ERDMAN AVE","BALTIMORE","Maryland","21213",1
866,"1100 JOPLIN ST","BALTIMORE","Maryland","21224",1
867,"SHELBURNE RD & HATTON RD","BALTIMORE","Maryland","21208",1
868,"158 N GAY ST","BALTIMORE","Maryland","21202",1
869,"SINCLAIR LN & SHANNON DR","BALTIMORE","Maryland","21206",1
870,"3500 CHESTNUT AVE","BALTIMORE","Maryland","21211",1
871,"5222 ERDMAN AVE","BALTIMORE","Maryland","21205",1
872,"4600 BRIARCLIFT RD","BALTIMORE","Maryland","21229",1
873,"4505 SPRINGDALE AVE","BALTIMORE","Maryland","21207",1
874,"2650 W PATAPSCO AVE","BALTIMORE","Maryland","21230",1
875,"PARK HEIGHTS AVE & VIOLET AVE","BALTIMORE","Maryland","21215",1
876,"FENWICK AVE & NORTHBOURNE RD","BALTIMORE","Maryland","21239",1
877,"3700 MARMON AVE","BALTIMORE","Maryland","21207",1
878,"5309 HADDON AVE","BALTIMORE","Maryland","21207",1
879,"2804 SOUTHERN AVE","BALTIMORE","Maryland","21214",1
880,"2712 SOUTHERN AVE","BALTIMORE","Maryland","21214",1
881,"1200 N MILTON AVE","BALTIMORE","Maryland","21213",1
882,"13 S CHESTER ST","BALTIMORE","Maryland","21231",1
883,"7400 HARFORD RD","BALTIMORE","Maryland","21234",1
884,"1520 E COLD SPRING LN","BALTIMORE","Maryland","21218",1
885,"3227 WOODRING AVE","BALTIMORE","Maryland","21234",1
886,"6819 RIDGEVIEW AVE","BALTIMORE","Maryland","21234",1
887,"9 W LAKE AVE","BALTIMORE","Maryland","21210",1
888,"2463 W COLD SPRING LN","BALTIMORE","Maryland","21215",1
889,"11 E MOUNT ROYAL AVE","BALTIMORE","Maryland","21201",1
890,"1513 RALWORTH RD","BALTIMORE","Maryland","21218",1
891,"5100 HOLABIRD AVE","BALTIMORE","Maryland","21224",1
892,"1267 WASHINGTON BLVD","BALTIMORE","Maryland","21230",1
893,"1 E COLD SPRING LN","BALTIMORE","Maryland","21212",1
894,"6604 FAIRDEL AVE","BALTIMORE","Maryland","21206",1
895,"3112 ROSEKEMP AVE","BALTIMORE","Maryland","21214",1
896,"606 MONTPELIER ST","BALTIMORE","Maryland","21218",1
897,"4329 FALLS RD","BALTIMORE","Maryland","21211",1
898,"1201 W MOUNT ROYAL AVE","BALTIMORE","Maryland","21217",1
899,"KELWAY RD & HAVENWOOD RD","BALTIMORE","Maryland","21218",1
900,"431 YALE AVE","BALTIMORE","Maryland","21229",1
901,"1 E PRATT ST","BALTIMORE","Maryland","21202",1
902,"4319 FALLS RD","BALTIMORE","Maryland","21211",1
903,"5000 DENMORE AVE","BALTIMORE","Maryland","21215",1
904,"2400 CHESTERFIELD AVE","BALTIMORE","Maryland","21213",1
905,"1700 GORSUCH AVE","BALTIMORE","Maryland","21218",1
906,"1001 E PRATT ST","BALTIMORE","Maryland","21202",1
907,"400 N WARWICK AVE","BALTIMORE","Maryland","21223",1
908,"6801 MORAVIA PARK DR","BALTIMORE","Maryland","21237",1
909,"5414 BUCKNELL RD","BALTIMORE","Maryland","21206",1
910,"2800 W LAFAYETTE AVE","BALTIMORE","Maryland","21216",1
911,"1210 WILDWOOD PKWY","BALTIMORE","Maryland","21229",1
912,"2700 W LAFAYETTE AVE","BALTIMORE","Maryland","21216",1
913,"GREENMOUNT AVE &E 42ND ST","BALTIMORE","Maryland","21218",1
914,"LYNDALE AVE & DUDLEY AVE","BALTIMORE","Maryland","21213",1
915,"2000 MCCULLOH ST","BALTIMORE","Maryland","21217",1
916,"LORMAN ST & MONROE FULTON","BALTIMORE","Maryland","21217",1
917,"UPLANDS PKWY & EDMONDSON AVE","BALTIMORE","Maryland","21229",1
918,"DRUID PARK LAKE DR & MADISON AVE","BALTIMORE","Maryland","21217",1
919,"5908 LOCH RAVEN BLVD","BALTIMORE","Maryland","21239",1
920,"2200 LYNDHURST AVE","BALTIMORE","Maryland","21216",1
921,"447 N ELLWOOD AVE","BALTIMORE","Maryland","21224",1
922,"1619 E 32ND ST","BALTIMORE","Maryland","21218",1
923,"4412 N CHARLES ST","BALTIMORE","Maryland","21218",1
924,"5300 THE ALAMEDA","BALTIMORE","Maryland","21239",1
925,"5700 GILPIN RD","BALTIMORE","Maryland","21212",1
926,"1025 S HAVEN ST","BALTIMORE","Maryland","21224",1
927,"E LOMBARD ST &S WASHINGTON ST","BALTIMORE","Maryland","21231",1
928,"500 W 27TH ST","BALTIMORE","Maryland","21211",1
929,"2300 DIVISION ST","BALTIMORE","Maryland","21217",1
930,"1200 DIVISION ST","BALTIMORE","Maryland","21217",1
931,"1300 ETTING ST","BALTIMORE","Maryland","21217",1
932,"1900 ETTING ST","BALTIMORE","Maryland","21217",1
933,"1800 MCCULLOH ST","BALTIMORE","Maryland","21217",1
934,"1900 MCCULLOH ST","BALTIMORE","Maryland","21217",1
935,"1735 GORSUCH AVE","BALTIMORE","Maryland","21218",1
936,"1319 PRESSTMAN ST","BALTIMORE","Maryland","21217",1
937,"1600 PRESSTMAN ST","BALTIMORE","Maryland","21217",1
938,"1837 PRESSTMAN ST","BALTIMORE","Maryland","21217",1
939,"400 E LOMBARD ST","BALTIMORE","Maryland","21202",1
940,"1800 N BRUCE ST","BALTIMORE","Maryland","21217",1
941,"1500 N CALHOUN ST","BALTIMORE","Maryland","21217",1
942,"2924 CHRISTOPHER AVE","BALTIMORE","Maryland","21214",1
943,"S HANOVER ST &E MCCOMAS ST","BALTIMORE","Maryland","21230",1
944,"923 E BELVEDERE AVE","BALTIMORE","Maryland","21212",1
945,"E COLD SPRING LN &N CHARLES ST","BALTIMORE","Maryland","21212",1
946,"ELM AVE &W 36TH ST","BALTIMORE","Maryland","21211",1
947,"ELM AVE &W 35TH ST","BALTIMORE","Maryland","21211",1
948,"ELM AVE &W 40TH ST","BALTIMORE","Maryland","21211",1
949,"800 W 34TH ST","BALTIMORE","Maryland","21211",1
950,"6100 PULASKI HWY","BALTIMORE","Maryland","21205",1
951,"1416 N COLLINGTON AVE","BALTIMORE","Maryland","21213",1
952,"4807 PILGRIM RD","BALTIMORE","Maryland","21214",1
953,"4713 PILGRIM RD","BALTIMORE","Maryland","21214",1
954,"4651 PIMLICO RD","BALTIMORE","Maryland","21215",1
955,"4707 PILGRIM RD","BALTIMORE","Maryland","21214",1
956,"3011 GUILFORD AVE","BALTIMORE","Maryland","21218",1
957,"529 N CHARLES ST","BALTIMORE","Maryland","21201",1
958,"5301 ERDMAN AVE","BALTIMORE","Maryland",NA,1
959,"6200 PULASKI HWY","BALTIMORE","Maryland","21205",1
960,"1453 STEVENSON ST","BALTIMORE","Maryland","21230",1
961,"5301 MORELLO RD","BALTIMORE","Maryland","21214",1
962,"1829 S CHARLES ST","BALTIMORE","Maryland","21230",1
963,"2249 EDMONDSON AVE","BALTIMORE","Maryland","21223",1
964,"6425 PULASKI HWY","BALTIMORE","Maryland","21205",1
965,"CONKLING DEAN & MOUNT PLEASANT PRATT","BALTIMORE","Maryland","21224",1
966,"5708 NORTHWOOD DR","BALTIMORE","Maryland","21212",1
967,"6305 PARK HEIGHTS AVE","BALTIMORE","Maryland","21215",1
968,"6000 THE ALAMEDA","BALTIMORE","Maryland","21239",1
969,"2200 ST CLOUD AVE","BALTIMORE","Maryland","21213",1
970,"2001 N BROADWAY","BALTIMORE","Maryland","21213",1
971,"16 S CASTLE ST","BALTIMORE","Maryland","21231",1
972,"26 S CASTLE ST","BALTIMORE","Maryland","21231",1
973,"3600 W COLD SPRING LN","BALTIMORE","Maryland","21215",1
974,"906 WICKLOW RD","BALTIMORE","Maryland","21229",1
975,"ROCKWOOD AVE & KEY AVE","BALTIMORE","Maryland","21215",1
976,"408 MOUNT HOLLY ST","BALTIMORE","Maryland","21229",1
977,"2713 SHIRLEY AVE","BALTIMORE","Maryland","21215",1
978,"450 N HIGHLAND AVE","BALTIMORE","Maryland","21224",1
979,"535 S ROBINSON ST","BALTIMORE","Maryland","21224",1
980,"5300 LIBERTY HEIGHTS AVE","BALTIMORE","Maryland","21207",1
981,"5400 PURDUE AVE","BALTIMORE","Maryland","21239",1
982,"4100 HAMILTON AVE","BALTIMORE","Maryland","21206",1
983,"1743 GORSUCH AVE","BALTIMORE","Maryland","21218",1
984,"2600 LAURETTA AVE","BALTIMORE","Maryland","21223",1
985,"2716 KINSEY AVE","BALTIMORE","Maryland","21223",1
986,"4199 GREENMOUNT AVE","BALTIMORE","Maryland","21218",1
987,"6813 FAIT AVE","BALTIMORE","Maryland","21224",1
988,"3900 GREENMOUNT AVE","BALTIMORE","Maryland","21218",1
989,"2401 CYLBURN AVE","BALTIMORE","Maryland","21215",1
990,"5000 GREENSPRING AVE","BALTIMORE","Maryland","21215",1
991,"2627 GREENMOUNT AVE","BALTIMORE","Maryland","21218",1
992,"5423 O'DONNELL ST","BALTIMORE","Maryland","21224",1
993,"LAURELTON AVE & HAMILTON AVE","BALTIMORE","Maryland","21214",1
994,"1227 E NORTH AVE","BALTIMORE","Maryland","21202",1
995,"3800 ECHODALE AVE","BALTIMORE","Maryland","21206",1
996,"685 W BALTIMORE ST","BALTIMORE","Maryland","21201",1
997,"6200 PILGRIM RD","BALTIMORE","Maryland","21214",1
998,"2109 W NORTH AVE","BALTIMORE","Maryland","21217",1
999,"1400 E LOMBARD ST","BALTIMORE","Maryland","21231",1
1000,"WALTHER AVE &E NORTHERN PKWY","BALTIMORE","Maryland","21206",1
1001,"6604 FAIRDEL AVE","BALTIMORE","Maryland","21206",1
1002,"5811 KIPLING CT","BALTIMORE","Maryland","21212",1
1003,"FRANKFURST AVE & RAMP","BALTIMORE","Maryland","21225",1
1004,"6200 HILLTOP AVE","BALTIMORE","Maryland","21206",1
1005,"4600 WHITE AVE","BALTIMORE","Maryland","21206",1
1006,"32 S CATHERINE ST","BALTIMORE","Maryland","21223",1
1007,"800 N BENTALOU ST","BALTIMORE","Maryland","21216",1
1008,"915 N FRANKLINTOWN RD","BALTIMORE","Maryland","21216",1
1009,"1406 ALICEANNA ST","BALTIMORE","Maryland","21231",1
1010,"5501 GOVANE AVE","BALTIMORE","Maryland","21212",1
1011,"1400 CATHEDRAL ST","BALTIMORE","Maryland","21201",1
1012,"3522 MOUNT PLEASANT AVE","BALTIMORE","Maryland","21224",1
1013,"3304 LINWOOD AVE","BALTIMORE","Maryland","21234",1
1014,"1700 SHERWOOD AVE","BALTIMORE","Maryland","21239",1
1015,"5103 EDMONDSON AVE","BALTIMORE","Maryland","21229",1
1016,"REMMELL AVE & RIDGECROFT RD","BALTIMORE","Maryland","21206",1
1017,"100 JACK ST","BALTIMORE","Maryland","21225",1
1018,"3000 E BALTIMORE ST","BALTIMORE","Maryland","21224",1
1019,"2710 SOUTHERN AVE","BALTIMORE","Maryland","21214",1
1020,"2710 SOUTHERN AVE","BALTIMORE","Maryland","21214",1
1021,"3527 AILSA AVE","BALTIMORE","Maryland","21214",1
1022,"3500 BEECH AVE","BALTIMORE","Maryland","21211",1
1023,"3420 BEECH AVE","BALTIMORE","Maryland","21211",1
1024,"ROSEMONT AVE & WALNUT AVE","BALTIMORE","Maryland","21206",1
1025,"NORTH PT RD & PULASKI HWY","BALTIMORE","Maryland","21237",1
1026,"100 N KOSSUTH ST","BALTIMORE","Maryland","21229",1
1027,"2ND ST & FRANKFURST AVE","BALTIMORE","Maryland","21225",1
1028,"5400 INTERSTATE AVE","BALTIMORE","Maryland",NA,1
1029,"2130 PARK AVE","BALTIMORE","Maryland","21217",1
1030,"4408 VALLEY VIEW AVE","BALTIMORE","Maryland","21206",1
1031,"5000 WOODSIDE RD","BALTIMORE","Maryland","21229",1
1032,"5103 EDMONDSON AVE","BALTIMORE","Maryland","21229",1
1033,"200 N ATHOL AVE","BALTIMORE","Maryland","21229",1
1034,"3300 ROLAND AVE","BALTIMORE","Maryland","21211",1
1035,"2 E 26TH ST","BALTIMORE","Maryland","21218",1
1036,"500 N ROBINSON ST","BALTIMORE","Maryland","21205",1
1037,"3400 INGLESIDE AVE","BALTIMORE","Maryland","21215",1
1038,"CARSWELL ST & KIRK AVE","BALTIMORE","Maryland","21218",1
1039,"110 N MADEIRA ST","BALTIMORE","Maryland","21231",1
1040,"7211 HARFORD RD","BALTIMORE","Maryland","21234",1
1041,"900 CHESTNUT HILL AVE","BALTIMORE","Maryland","21218",1
1042,"764 WASHINGTON BLVD","BALTIMORE","Maryland","21230",1
1043,"LETITIA AVE & MAUDLIN AVE","BALTIMORE","Maryland","21230",1
1044,"5103 EDMONDSON AVE","BALTIMORE","Maryland","21229",1
1045,"E BALTIMORE ST & AISQUITH ST","BALTIMORE","Maryland","21202",1
1046,"3 S FREDERICK ST","BALTIMORE","Maryland","21202",1
1047,"128 S ARLINGTON AVE","BALTIMORE","Maryland","21223",1
1048,"5400 SINCLAIR LN","BALTIMORE","Maryland","21206",1
1049,"2500 W BALTIMORE ST","BALTIMORE","Maryland","21223",1
1050,"3900 LOCH RAVEN BLVD","BALTIMORE","Maryland","21218",1
1051,"5000 SINCLAIR LN","BALTIMORE","Maryland","21206",1
1052,"4800 SINCLAIR LN","BALTIMORE","Maryland","21206",1
1053,"4700 SINCLAIR LN","BALTIMORE","Maryland","21206",1
1054,"3900 SINCLAIR LN","BALTIMORE","Maryland","21213",1
1055,"GREENMOUNT AVE &E 39TH ST","BALTIMORE","Maryland","21218",1
1056,"3600 SINCLAIR LN","BALTIMORE","Maryland","21213",1
1057,"5 MILLBROOK RD","BALTIMORE","Maryland","21218",1
1058,"BONSAL ST & O'DONNELL ST","BALTIMORE","Maryland","21224",1
1059,"3800 GLENMORE AVE","BALTIMORE","Maryland","21206",1
1060,"3700 GLENMORE AVE","BALTIMORE","Maryland","21206",1
1061,"5100 BELAIR RD","BALTIMORE","Maryland","21206",1
1062,"5222 ERDMAN AVE","BALTIMORE","Maryland","21205",1
1063,"3200 BELAIR RD","BALTIMORE","Maryland","21213",1
1064,"2400 WESTFIELD AVE","BALTIMORE","Maryland","21214",1
1065,"1200 N GAY ST","BALTIMORE","Maryland","21213",1
1066,"300 S WOLFE ST","BALTIMORE","Maryland","21231",1
1067,"1800 FALLS RD","BALTIMORE","Maryland","21201",1
1068,"ECHODALE AVE & HERRING RUN DR","BALTIMORE","Maryland","21214",1
1069,"601 E FAYETTE ST","BALTIMORE","Maryland","21202",1
1070,"1000 E LAKE AVE","BALTIMORE","Maryland","21212",1
1071,"900 E LAKE AVE","BALTIMORE","Maryland","21212",1
1072,"800 E LAKE AVE","BALTIMORE","Maryland","21212",1
1073,"204 AISQUITH ST","BALTIMORE","Maryland","21202",1
1074,"700 E LAKE AVE","BALTIMORE","Maryland","21212",1
1075,"3209 LILY AVE","BALTIMORE","Maryland","21227",1
1076,"600 E LAKE AVE","BALTIMORE","Maryland","21212",1
1077,"306 COLVIN ST","BALTIMORE","Maryland","21202",1
1078,"1238 BRADDISH AVE","BALTIMORE","Maryland","21216",1
1079,"915 MOSHER ST","BALTIMORE","Maryland","21217",1
1080,"2501 WILLOW GLEN DR","BALTIMORE","Maryland","21209",1
1081,"2076 WOODBOURNE AVE","BALTIMORE","Maryland","21239",1
1082,"805 N CAROLINE ST","BALTIMORE","Maryland","21205",1
1083,"2100 E FEDERAL ST","BALTIMORE","Maryland","21213",1
1084,"3700 W FRANKLIN ST","BALTIMORE","Maryland","21229",1
1085,"29 N BROADWAY","BALTIMORE","Maryland","21231",1
1086,"2400 SINCLAIR LN","BALTIMORE","Maryland","21213",1
1087,"2127 CLIFTWOOD AVE","BALTIMORE","Maryland","21213",1
1088,"416 N BRADFORD ST","BALTIMORE","Maryland","21224",1
1089,"801 MC KIM ST","BALTIMORE","Maryland","21201",1
1090,"4900 LOCH RAVEN BLVD","BALTIMORE","Maryland","21239",1
1091,"5600 BLAND AVE","BALTIMORE","Maryland","21215",1
1092,"3403 CROSSLAND AVE","BALTIMORE","Maryland","21213",1
1093,"400 S BOULDIN ST","BALTIMORE","Maryland","21224",1
1094,"KELLY AVE & SULGRAVE AVE","BALTIMORE","Maryland","21209",1
1095,"413 DENISON ST","BALTIMORE","Maryland","21229",1
1096,"GRANADA AVE & OAKFORD AVE","BALTIMORE","Maryland","21215",1
1097,"3100 N CALVERT ST","BALTIMORE","Maryland","21218",1
1098,"4013 LOCH RAVEN BLVD","BALTIMORE","Maryland","21218",1
1099,"4160 HAMILTON AVE","BALTIMORE","Maryland","21206",1
1100,"2900 E BALTIMORE ST","BALTIMORE","Maryland","21224",1
1101,"BROADMOOR RD & HOMELAND AVE","BALTIMORE","Maryland","21212",1
1102,"101 E HIGHFIELD RD","BALTIMORE","Maryland","21218",1
1103,"312 SAINT DUNSTANS RD","BALTIMORE","Maryland","21212",1
1104,"3102 GLENMORE AVE","BALTIMORE","Maryland","21214",1
1105,"3206 GLENMORE AVE","BALTIMORE","Maryland","21214",1
1106,"1115 HOLLINS ST","BALTIMORE","Maryland","21223",1
1107,"5600 NORTHWOOD DR","BALTIMORE","Maryland","21212",1
1108,"1944 E LOMBARD ST","BALTIMORE","Maryland","21231",1
1109,"2080 WOODBOURNE AVE","BALTIMORE","Maryland","21239",1
1110,"2080 WOODBOURNE AVE","BALTIMORE","Maryland","21239",1
1111,"603 S CHARLES ST","BALTIMORE","Maryland","21201",1
1112,"1 N CHARLES ST","BALTIMORE","Maryland","21201",1
1113,"1900 WALBROOK AVE","BALTIMORE","Maryland","21217",1
1114,"6316 EVERALL AVE","BALTIMORE","Maryland","21206",1
1115,"RACE ST &W HEATH ST","BALTIMORE","Maryland","21230",1
1116,"E MONUMENT ST & GREENMOUNT AVE","BALTIMORE","Maryland","21202",1
1117,"189 S HOWARD ST","BALTIMORE","Maryland","21201",1
1118,"3729 FAIT AVE","BALTIMORE","Maryland","21224",1
1119,"BREHMS LN & SHANNON DR","BALTIMORE","Maryland","21206",1
1120,"7300 MOYER AVE","BALTIMORE","Maryland","21234",1
1121,"400 ORKNEY RD","BALTIMORE","Maryland","21212",1
1122,"3105 MARY AVE","BALTIMORE","Maryland","21214",1
1123,"3700 RAVENWOOD AVE","BALTIMORE","Maryland","21213",1
1124,"3800 SAINT PAUL ST","BALTIMORE","Maryland","21218",1
1125,"2 MARDREW RD","BALTIMORE","Maryland","21229",1
1126,"1421 S CATON AVE","BALTIMORE","Maryland","21227",1
1127,"2100 GARRISON BLVD","BALTIMORE","Maryland","21216",1
1128,"3301 BOSTON ST","BALTIMORE","Maryland","21224",1
1129,"BREHMS LN & PARKSIDE DR","BALTIMORE","Maryland","21206",1
1130,"2601 HUNTINGDON AVE","BALTIMORE","Maryland","21211",1
1131,"W BALTIMORE ST &N CATHERINE ST","BALTIMORE","Maryland","21223",1
1132,"THE ALAMEDA & CEDARCROFT RD","BALTIMORE","Maryland","21239",1
1133,"500 S BELNORD AVE","BALTIMORE","Maryland","21224",1
1134,"5915 FENWICK AVE","BALTIMORE","Maryland","21239",1
1135,"6137 CARDIFF AVE","BALTIMORE","Maryland","21224",1
1136,"LIBERTY HEIGHTS AVE & GRANADA AVE","BALTIMORE","Maryland","21207",1
1137,"1400 BAYLIS ST","BALTIMORE","Maryland","21224",1
1138,"1500 NORTHWICK RD","BALTIMORE","Maryland","21218",1
1139,"600 PITCHER ST","BALTIMORE","Maryland","21217",1
1140,"6400 EASTERN AVE","BALTIMORE","Maryland","21224",1
1141,"6500 ERDMAN AVE","BALTIMORE","Maryland","21205",1
1142,"BOLTON ST & LAURENS ST","BALTIMORE","Maryland","21217",1
1143,"600 E JEFFREY ST","BALTIMORE","Maryland","21225",1
1144,"5300 HOLABIRD AVE","BALTIMORE","Maryland","21224",1
1145,"427 YALE AVE","BALTIMORE","Maryland","21229",1
1146,"2229 VAN DEMAN ST","BALTIMORE","Maryland","21224",1
1147,"2226 W FAYETTE ST","BALTIMORE","Maryland","21223",1
1148,"1914 CASADEL AVE","BALTIMORE","Maryland","21230",1
1149,"3200 HILLSDALE RD","BALTIMORE","Maryland","21207",1
1150,"5000 GOVANE AVE","BALTIMORE","Maryland","21212",1
1151,"737 E COLD SPRING LN","BALTIMORE","Maryland","21212",1
1152,"4200 ERDMAN AVE","BALTIMORE","Maryland","21213",1
1153,"3700 REXMERE RD","BALTIMORE","Maryland","21218",1
1154,"100 MCMECHEN ST","BALTIMORE","Maryland","21217",1
1155,"1 N CHARLES ST","BALTIMORE","Maryland","21201",1
1156,"3700 BOARMAN AVE","BALTIMORE","Maryland","21215",1
1157,"TOLLEY ST & GRIFFIS AVE","BALTIMORE","Maryland","21230",1
1158,"6200 GRINDON AVE","BALTIMORE","Maryland","21214",1
1159,"5902 WAYCROSS RD","BALTIMORE","Maryland","21206",1
1160,"5900 WAYCROSS RD","BALTIMORE","Maryland","21206",1
1161,"5900 WAYCROSS RD","BALTIMORE","Maryland","21206",1
1162,"5902 WAYCROSS RD","BALTIMORE","Maryland","21206",1
1163,"5900 WAYCROSS RD","BALTIMORE","Maryland","21206",1
1164,"1117 COOKS LN","BALTIMORE","Maryland","21229",1
1165,"E BALTIMORE ST & LIGHT ST","BALTIMORE","Maryland","21202",1
1166,"1406 S HANOVER ST","BALTIMORE","Maryland","21230",1
1167,"S HANOVER ST","BALTIMORE","Maryland","21230",1
1168,"1200 BRENTWOOD AVE","BALTIMORE","Maryland","21202",1
1169,"3616 S HANOVER ST","BALTIMORE","Maryland","21225",1
1170,"MOUNTVIEW RD & UPMANOR ATHOL","BALTIMORE","Maryland","21229",1
1171,"N HAVEN ST & ORLEANS ST","BALTIMORE","Maryland","21224",1
1172,"N HAVEN ST &S HAVEN ST","BALTIMORE","Maryland","21224",1
1173,"1 N CHARLES ST","BALTIMORE","Maryland","21201",1
1174,"1800 N DURHAM ST","BALTIMORE","Maryland","21213",1
1175,"4416 POWELL AVE","BALTIMORE","Maryland","21206",1
1176,"5930 CEDONIA AVE","BALTIMORE","Maryland","21206",1
1177,"4107 LIBERTY HEIGHTS AVE","BALTIMORE","Maryland","21207",1
1178,"1200 GLENHAVEN RD","BALTIMORE","Maryland","21239",1
1179,"500 YALE AVE","BALTIMORE","Maryland","21229",1
1180,"1801 BOLTON ST","BALTIMORE","Maryland","21217",1
1181,"4900 TRUESDALE AVE","BALTIMORE","Maryland","21206",1
1182,"1200 N BENTALOU ST","BALTIMORE","Maryland","21216",1
1183,"300 TAPLOW RD","BALTIMORE","Maryland","21212",1
1184,"3500 W COLD SPRING LN","BALTIMORE","Maryland","21215",1
1185,"3714 FLEETWOOD AVE","BALTIMORE","Maryland","21206",1
1186,"E COLD SPRING LN & HILLEN RD","BALTIMORE","Maryland","21218",1
1187,"6123 BESSEMER AVE","BALTIMORE","Maryland","21224",1
1188,"3300 N HILTON ST","BALTIMORE","Maryland","21216",1
1189,"PERRING PKWY","BALTIMORE","Maryland","21239",1
1190,"1932 NORTHBOURNE RD","BALTIMORE","Maryland","21239",1
1191,"13 ENGLEWOOD RD","BALTIMORE","Maryland","21210",1
1192,"316 N ROBINSON ST","BALTIMORE","Maryland","21224",1
1193,"1500 S CATON AVE","BALTIMORE","Maryland","21227",1
1194,"S HANOVER &S HANOVER ST","BALTIMORE","Maryland","21225",1
1195,"3900 SAINT PAUL ST","BALTIMORE","Maryland","21218",1
1196,"2614 MOORE AVE","BALTIMORE","Maryland","21234",1
1197,"300 E MADISON ST","BALTIMORE","Maryland","21202",1
1198,"3525 W CATON AVE","BALTIMORE","Maryland","21229",1
1199,"3724 ELM AVE","BALTIMORE","Maryland","21211",1
1200,"1534 POPLAR GROVE ST","BALTIMORE","Maryland","21216",1
1201,"105 W 29TH ST","BALTIMORE","Maryland","21218",1
1202,"800 N BENTALOU ST","BALTIMORE","Maryland","21216",1
1203,"4267 ROKEBY RD","BALTIMORE","Maryland","21229",1
1204,"1108 BELLEMORE RD","BALTIMORE","Maryland","21210",1
1205,"1806 SOUTH RD","BALTIMORE","Maryland","21209",1
1206,"4400 RASPE AVE","BALTIMORE","Maryland","21206",1
1207,"3411 W NORTHERN PKWY","BALTIMORE","Maryland","21215",1
1208,"1739 E FAIRMOUNT AVE","BALTIMORE","Maryland","21231",1
1209,"770 E COLD SPRING LN","BALTIMORE","Maryland","21212",1
1210,"1110 E COLD SPRING LN","BALTIMORE","Maryland","21239",1
1211,"WEGWORTH LN & EASTSHIRE DR","BALTIMORE","Maryland","21230",1
1212,"FALLS RD & FALLS ROAD TER","BALTIMORE","Maryland","21210",1
1213,"200 S PULASKI ST","BALTIMORE","Maryland","21223",1
1214,"3226 SHELBURNE RD","BALTIMORE","Maryland","21208",1
1215,"3226 SHELBURNE RD","BALTIMORE","Maryland","21208",1
1216,"2 MARDREW RD","BALTIMORE","Maryland","21229",1
1217,"SEVEN MILE LN & PARK HEIGHTS AVE","BALTIMORE","Maryland","21208",1
1218,"300 TAPLOW RD","BALTIMORE","Maryland","21212",1
1219,"3400 WILKENS AVE","BALTIMORE","Maryland","21229",1
1220,"300 N MOUNT ST","BALTIMORE","Maryland","21223",1
1221,"4003 PASCAL AVE","BALTIMORE","Maryland","21226",1
1222,"3600 BOSTON ST","BALTIMORE","Maryland","21224",1
1223,"5003 HOLABIRD AVE","BALTIMORE","Maryland","21224",1
1224,"4900 HARFORD RD","BALTIMORE","Maryland","21214",1
1225,"BOSTON ST &S LINWOOD AVE","BALTIMORE","Maryland","21224",1
1226,"1719 FLEET ST","BALTIMORE","Maryland","21231",1
1227,"ALICEANNA ST &S WASHINGTON ST","BALTIMORE","Maryland","21231",1
1228,"1500 BLOOMFIELD AVE","BALTIMORE","Maryland","21227",1
1229,"N FULTON AVE &W BALTIMORE ST","BALTIMORE","Maryland","21223",1
1230,"2300 LYNDHURST AVE","BALTIMORE","Maryland","21216",1
1231,"GITTINGS AVE & YORK RD","BALTIMORE","Maryland","21212",1
1232,"6310 YORK RD","BALTIMORE","Maryland","21212",1
1233,"1900 AISQUITH ST","BALTIMORE","Maryland","21218",1
1234,"7300 HARFORD RD","BALTIMORE","Maryland","21234",1
1235,"SHIELDS PL & PITCHER ST","BALTIMORE","Maryland","21217",1
1236,"5500 PERRING PKWY","BALTIMORE","Maryland","21239",1
1237,"800 N HOWARD ST","BALTIMORE","Maryland","21201",1
1238,"3639 ROBERTS PL","BALTIMORE","Maryland","21224",1
1239,"200 N HOWARD ST","BALTIMORE","Maryland","21201",1
1240,"900 ELLICOTT DWY","BALTIMORE","Maryland","21216",1
1241,"1300 N ELLAMONT ST","BALTIMORE","Maryland","21216",1
1242,"2600 WASHINGTON BLVD","BALTIMORE","Maryland","21230",1
1243,"2500 W FRANKLIN ST","BALTIMORE","Maryland","21223",1
1244,"E NORTH AVE &N WOLFE ST","BALTIMORE","Maryland","21213",1
1245,"WOODMERE AVE & TIPPETT AVE","BALTIMORE","Maryland","21215",1
1246,"2800 CHESTERFIELD AVE","BALTIMORE","Maryland","21213",1
1247,"1426 E OLIVER ST","BALTIMORE","Maryland","21213",1
1248,"1100 JORDAN ST","BALTIMORE","Maryland","21217",1
1249,"1100 BOLTON ST","BALTIMORE","Maryland","21201",1
1250,"5100 OAKLAWN RD","BALTIMORE","Maryland","21207",1
1251,"5000 CLIFTON AVE","BALTIMORE","Maryland","21207",1
1252,"1900 AISQUITH ST","BALTIMORE","Maryland","21218",1
1253,"6200 E LOMBARD ST","BALTIMORE","Maryland","21224",1
1254,"6503 LAURELTON AVE","BALTIMORE","Maryland","21214",1
1255,"OVERLAND AVE & WALTHER AVE","BALTIMORE","Maryland","21214",1
1256,"309 FALLSWAY ST","BALTIMORE","Maryland","21202",1
1257,"3900 N CHARLES ST","BALTIMORE","Maryland","21218",1
1258,"4202 CHARLCOTE RD","BALTIMORE","Maryland","21218",1
1259,"3300 LERCH DR","BALTIMORE","Maryland","21214",1
1260,"400 S BOULDIN ST","BALTIMORE","Maryland","21224",1
1261,"400 S BOULDIN ST","BALTIMORE","Maryland","21224",1
1262,"432 N HILTON ST","BALTIMORE","Maryland","21229",1
1263,"908 PINE HEIGHTS AVE","BALTIMORE","Maryland","21229",1
1264,"1501 BURNWOOD RD","BALTIMORE","Maryland","21239",1
1265,"4103 LIBERTY HEIGHTS AVE","BALTIMORE","Maryland","21207",1
1266,"4018 LIBERTY HEIGHTS AVE","BALTIMORE","Maryland","21207",1
1267,"3900 EDGEWOOD RD","BALTIMORE","Maryland","21215",1
1268,"105 E CLEMENT ST","BALTIMORE","Maryland","21230",1
1269,"1700 S HAVEN ST","BALTIMORE","Maryland","21224",1
1270,"6300 LOCHMEDA RD","BALTIMORE","Maryland","21239",1
1271,"5103 EDMONDSON AVE","BALTIMORE","Maryland","21229",1
1272,"3708 E BALTIMORE ST","BALTIMORE","Maryland","21224",1
1273,"5809 LEITH WALK","BALTIMORE","Maryland","21239",1
1274,"PRUDENCE ST & ELMTREE ST","BALTIMORE","Maryland","21226",1
1275,"4710 GRINDON AVE","BALTIMORE","Maryland","21214",1
1276,"6112 SMITH AVE","BALTIMORE","Maryland","21209",1
1277,"4700 HAMPNETT AVE","BALTIMORE","Maryland","21214",1
1278,"0 NORTHERN PKWY E","BALTIMORE","Maryland","21206",1
1279,"2901 BAKER ST","BALTIMORE","Maryland","21216",1
1280,"2101 PRESBURY ST","BALTIMORE","Maryland","21217",1
1281,"2702 RIGGS AVE","BALTIMORE","Maryland","21216",1
1282,"527 N CALHOUN ST","BALTIMORE","Maryland","21223",1
1283,"111 S CATON AVE","BALTIMORE","Maryland","21229",1
1284,"1613 EUTAW PL","BALTIMORE","Maryland","21217",1
1285,"111 W OSTEND ST","BALTIMORE","Maryland","21230",1
1286,"1904 WILKENS AVE","BALTIMORE","Maryland","21223",1
1287,"MORAVIA PARK DR & MORAVIA RD","BALTIMORE","Maryland","21206",1
1288,"5506 FREDERICK AVE","BALTIMORE","Maryland","21228",1
1289,"6300 LOCH RAVEN BLVD","BALTIMORE","Maryland","21239",1
1290,"5500 THE ALAMEDA","BALTIMORE","Maryland","21239",1
1291,"S HANOVER ST","BALTIMORE","Maryland","21230",1
1292,"2600 INSULATOR DR","BALTIMORE","Maryland","21230",1
1293,"1022 SAINT PAUL ST","BALTIMORE","Maryland","21202",1
1294,"CROZIER DR & PERRING PKWY","BALTIMORE","Maryland","21214",1
1295,"4103 N CHARLES ST","BALTIMORE","Maryland","21218",1
1296,"2500 W PENINSULA DR","BALTIMORE","Maryland","21230",1
1297,"3512 WOODLEA AVE","BALTIMORE","Maryland","21214",1
1298,"501 CHESTNUT HILL AVE","BALTIMORE","Maryland","21218",1
1299,"2304 EVERGREEN AVE","BALTIMORE","Maryland","21214",1
1300,"100 W EAGER ST","BALTIMORE","Maryland","21201",1
1301,"936 N CHARLES ST","BALTIMORE","Maryland","21201",1
1302,"6824 HARFORD RD","BALTIMORE","Maryland","21234",1
1303,"HILLSDALE RD & WABASH AVE","BALTIMORE","Maryland","21215",1
1304,"3306 HAMILTON AVE","BALTIMORE","Maryland","21214",1
1305,"E COLD SPRING LN & KERNWOOD AVE","BALTIMORE","Maryland","21212",1
1306,"15 W NORTH AVE","BALTIMORE","Maryland","21201",1
1307,"I 83 N &W NORTHERN PKWY","BALTIMORE","Maryland","21210",1
1308,"4300 WHITE AVE","BALTIMORE","Maryland","21206",1
1309,"1500 GREENDALE RD","BALTIMORE","Maryland","21218",1
1310,"ANNAPOLIS RD &W PATAPSCO AVE","BALTIMORE","Maryland","21230",1
1311,"2700 MANHATTAN AVE","BALTIMORE","Maryland","21215",1
1312,"3300 SUMTER AVE","BALTIMORE","Maryland","21215",1
1313,"4900 CLAYBURY AVE","BALTIMORE","Maryland","21206",1
1314,"5300 REISTERSTOWN RD","BALTIMORE","Maryland","21215",1
1315,"2300 N DUKELAND ST","BALTIMORE","Maryland","21216",1
1316,"2200 N DUKELAND ST","BALTIMORE","Maryland","21216",1
1317,"1200 N BENTALOU ST","BALTIMORE","Maryland","21216",1
1318,"800 E COLD SPRING LN","BALTIMORE","Maryland","21212",1
1319,"3341 KENTUCKY AVE","BALTIMORE","Maryland","21213",1
1320,"E 39TH ST & SAINT PAUL ST","BALTIMORE","Maryland","21218",1
1321,"3500 S HANOVER ST","BALTIMORE","Maryland","21225",1
1322,"656 E 37TH ST","BALTIMORE","Maryland","21218",1
1323,"1524 E 33RD ST","BALTIMORE","Maryland","21218",1
1324,"8 CLUB RD","BALTIMORE","Maryland","21210",1
1325,"5100 EDMONDSON AVE","BALTIMORE","Maryland","21229",1
1326,"3808 SAINT PAUL ST","BALTIMORE","Maryland","21218",1
1327,"2600 W LAFAYETTE AVE","BALTIMORE","Maryland","21216",1
1328,"2300 GREENMOUNT AVE","BALTIMORE","Maryland","21218",1
1329,"100 E 33RD ST","BALTIMORE","Maryland","21218",1
1330,"3600 WILKENS AVE","BALTIMORE","Maryland","21229",1
1331,"WASHINGTON BLVD &W PATAPSCO AVE","BALTIMORE","Maryland","21230",1
1332,"25 W FAYETTE ST","BALTIMORE","Maryland","21201",1
1333,"SOUTHERN AVE & GILRAY DR","BALTIMORE","Maryland","21214",1
1334,"717 YALE AVE","BALTIMORE","Maryland","21229",1
1335,"S HANOVER ST","BALTIMORE","Maryland","21230",1
1336,"W PATAPSCO AVE & POTEE ST","BALTIMORE","Maryland","21225",1
1337,"800 APPLETON ST","BALTIMORE","Maryland","21217",1
1338,"2 E 26TH ST","BALTIMORE","Maryland","21218",1
1339,"83 N","BALTIMORE","Maryland","21202",1
1340,"710 E BELVEDERE AVE","BALTIMORE","Maryland","21212",1
1341,"5102 BROOK GREEN RD","BALTIMORE","Maryland","21229",1
1342,"2208 MARYLAND AVE","BALTIMORE","Maryland","21218",1
1343,"4202 CHARLCOTE RD","BALTIMORE","Maryland","21218",1
1344,"207 CHURCHWARDENS RD","BALTIMORE","Maryland","21212",1
1345,"701 W COLD SPRING LN","BALTIMORE","Maryland","21212",1
1346,"E 24TH ST & GREENMOUNT AVE","BALTIMORE","Maryland","21218",1
1347,"W NORTH AVE &N FULTON AVE","BALTIMORE","Maryland","21217",1
1348,"800 WYMAN PARK DR","BALTIMORE","Maryland","21211",1
1349,"4800 PIMLICO RD","BALTIMORE","Maryland","21215",1
1350,"2500 EUTAW PL","BALTIMORE","Maryland","21217",1
1351,"2200 EUTAW PL","BALTIMORE","Maryland","21217",1
1352,"2400 EUTAW PL","BALTIMORE","Maryland","21217",1
1353,"900 SAINT PAUL ST","BALTIMORE","Maryland","21202",1
1354,"2812 WATERVIEW AVE","BALTIMORE","Maryland","21230",1
1355,"OLD YORK RD &E 41ST ST","BALTIMORE","Maryland","21218",1
1356,"4001 E BALTIMORE ST","BALTIMORE","Maryland","21224",1
1357,"4300 EDMONDSON AVE","BALTIMORE","Maryland","21229",1
1358,"1900 AISQUITH ST","BALTIMORE","Maryland","21218",1
1359,"400 DREW ST","BALTIMORE","Maryland","21224",1
1360,"S HANOVER ST &W OSTEND ST","BALTIMORE","Maryland","21230",1
1361,"1000 BEAUMONT AVE","BALTIMORE","Maryland","21212",1
1362,"BROOK AVE & RASPE AVE","BALTIMORE","Maryland","21206",1
1363,"701 E LOMBARD ST","BALTIMORE","Maryland","21202",1
1364,"600 W COLD SPRING LN","BALTIMORE","Maryland","21210",1
1365,"3000 LYTTLETON RD","BALTIMORE","Maryland","21216",1
1366,"4934 FRANKFORD AVE","BALTIMORE","Maryland","21206",1
1367,"3900 SAINT PAUL ST","BALTIMORE","Maryland","21218",1
1368,"4014 LOCH RAVEN BLVD","BALTIMORE","Maryland","21218",1
1369,"3500 EVERGREEN AVE","BALTIMORE","Maryland","21214",1
1370,"3400 EDNOR RD","BALTIMORE","Maryland","21218",1
1371,"900 E 25TH ST","BALTIMORE","Maryland","21218",1
1372,"3921 EDNOR RD","BALTIMORE","Maryland","21218",1
1373,"5315 HAMLET AVE","BALTIMORE","Maryland","21214",1
1374,"1109 S EAST AVE","BALTIMORE","Maryland","21224",1
1375,"3813 MONTEREY RD","BALTIMORE","Maryland","21218",1
1376,"427 ELRINO ST","BALTIMORE","Maryland","21224",1
1377,"809 E BELVEDERE AVE","BALTIMORE","Maryland","21212",1
1378,"807 E BELVEDERE AVE","BALTIMORE","Maryland","21212",1
1379,"COOK AVE & GREENHILL AVE","BALTIMORE","Maryland","21206",1
1380,"3810 OVERLEA AVE","BALTIMORE","Maryland","21206",1
1381,"7000 PARK HEIGHTS AVE","BALTIMORE","Maryland","21215",1
1382,"1600 RUXTON AVE","BALTIMORE","Maryland","21216",1
1383,"3106 BATAVIA AVE","BALTIMORE","Maryland","21214",1
1384,"BUCHANAN AVE & MEDFIELD AVE","BALTIMORE","Maryland","21211",1
1385,"321 GITTINGS AVE","BALTIMORE","Maryland","21212",1
1386,"S WOODINGTON RD & CONNECTICUT AVE","BALTIMORE","Maryland","21229",1
1387,"3859 BOARMAN AVE","BALTIMORE","Maryland","21215",1
1388,"4107 FLEETWOOD AVE","BALTIMORE","Maryland","21206",1
1389,"2900 W PATAPSCO AVE","BALTIMORE","Maryland","21230",1
1390,"4003 FLEETWOOD AVE","BALTIMORE","Maryland","21206",1
1391,"600 W PATAPSCO AVE","BALTIMORE","Maryland","21225",1
1392,"3913 FLEETWOOD AVE","BALTIMORE","Maryland","21206",1
1393,"3910 E NORTHERN PKWY","BALTIMORE","Maryland","21206",1
1394,"100 W CONWAY ST","BALTIMORE","Maryland","21201",1
1395,"3629 S HANOVER ST","BALTIMORE","Maryland","21225",1
1396,"3908 S HANOVER ST","BALTIMORE","Maryland","21225",1
1397,"N GAY ST &E FAYETTE ST","BALTIMORE","Maryland","21202",1
1398,"3300 KENTUCKY AVE","BALTIMORE","Maryland","21213",1
1399,"2101 KLOMAN ST","BALTIMORE","Maryland","21230",1
1400,"5300 SIPPLE AVE","BALTIMORE","Maryland","21206",1
1401,"S HANOVER ST &W MCCOMAS ST","BALTIMORE","Maryland","21230",1
1402,"1316 S HANOVER ST","BALTIMORE","Maryland","21230",1
1403,"1207 S HANOVER ST","BALTIMORE","Maryland","21230",1
1404,"143 N BROADWAY","BALTIMORE","Maryland","21231",1
1405,"300 E NORTHERN PKWY","BALTIMORE","Maryland","21212",1
1406,"715 S HAVEN ST","BALTIMORE","Maryland","21224",1
1407,"2101 BELAIR RD","BALTIMORE","Maryland","21213",1
1408,"1425 ALICEANNA ST","BALTIMORE","Maryland","21231",1
1409,"6100 NORTHWOOD DR","BALTIMORE","Maryland","21212",1
1410,"1500 N GAY ST","BALTIMORE","Maryland","21213",1
1411,"6600 WALTHER AVE","BALTIMORE","Maryland","21206",1
1412,"906 WICKLOW RD","BALTIMORE","Maryland","21229",1
1413,"4806 LINDSAY RD","BALTIMORE","Maryland","21229",1
1414,"6400 WALTHER AVE","BALTIMORE","Maryland","21206",1
1415,"6302 BOXWOOD RD","BALTIMORE","Maryland","21212",1
1416,"204 N WASHINGTON ST","BALTIMORE","Maryland","21231",1
1417,"4013 ROLAND AVE","BALTIMORE","Maryland","21211",1
1418,"4011 ROLAND AVE","BALTIMORE","Maryland","21211",1
1419,"1700 S HAVEN ST","BALTIMORE","Maryland","21224",1
1420,"802 EVESHAM AVE","BALTIMORE","Maryland","21212",1
1421,"E 39TH ST & SAINT PAUL ST","BALTIMORE","Maryland","21218",1
1422,"N HAVEN ST & PULASKI HWY","BALTIMORE","Maryland","21224",1
1423,"3360 ANNAPOLIS RD","BALTIMORE","Maryland","21230",1
1424,"409 W 24TH ST","BALTIMORE","Maryland","21211",1
1425,"800 N BENTALOU ST","BALTIMORE","Maryland","21216",1
1426,"3100 N CHARLES ST","BALTIMORE","Maryland","21211",1
1427,"1307 CLARKSON ST","BALTIMORE","Maryland","21230",1
1428,"WESTBURY AVE & HOLMES AVE","BALTIMORE","Maryland","21217",1
1429,"164 N GAY ST","BALTIMORE","Maryland","21202",1
1430,"3100 N CHARLES ST","BALTIMORE","Maryland","21211",1
1431,"3700 BENSON AVE","BALTIMORE","Maryland","21227",1
1432,"W PATAPSCO AVE & ANNAPOLIS RD","BALTIMORE","Maryland","21230",1
1433,"6600 PIONEER DR","BALTIMORE","Maryland","21214",1
1434,"319 GITTINGS AVE","BALTIMORE","Maryland","21212",1
1435,"THE ALAMEDA &E COLD SPRING LN","BALTIMORE","Maryland","21239",1
1436,"6115 BELLONA AVE","BALTIMORE","Maryland","21212",1
1437,"4405 WHITE AVE","BALTIMORE","Maryland","21206",1
1438,"3000 E LOMBARD ST","BALTIMORE","Maryland","21224",1
1439,"WINDSOR MILL RD & MONTICELLO RD","BALTIMORE","Maryland","21216",1
1440,"ANNAPOLIS RD &W PATAPSCO AVE","BALTIMORE","Maryland","21230",1
1441,"E PATAPSCO AVE & FAIRFIELD RD","BALTIMORE","Maryland","21226",1
1442,"500 E 39TH ST","BALTIMORE","Maryland","21218",1
1443,"3101 N CHARLES ST","BALTIMORE","Maryland","21218",1
1444,"5606 SUMMERFIELD AVE","BALTIMORE","Maryland","21206",1
1445,"1208 S HANOVER ST","BALTIMORE","Maryland","21230",1
1446,"THE ALAMEDA & WOODBOURNE AVE","BALTIMORE","Maryland","21239",1
1447,"5425 PURLINGTON WAY","BALTIMORE","Maryland","21212",1
1448,"325 S DUNCAN ST","BALTIMORE","Maryland","21231",1
1449,"1720 PORTUGAL ST","BALTIMORE","Maryland","21231",1
1450,"LIBERTY HEIGHTS AVE","BALTIMORE","Maryland","21215",1
1451,"765 W PRATT ST","BALTIMORE","Maryland","21201",1
1452,"211 N MADEIRA ST","BALTIMORE","Maryland","21231",1
1453,"3004 NORTHWAY DR","BALTIMORE","Maryland","21234",1
1454,"1825 S CHARLES ST","BALTIMORE","Maryland","21230",1
1455,"STRAWFLOWER LN & PENNYROYAL TER","BALTIMORE","Maryland","21209",1
1456,"JAMES ST &S CAREY ST","BALTIMORE","Maryland","21223",1
1457,"500 KANE ST","BALTIMORE","Maryland","21224",1
1458,"6800 EASTERN AVE","BALTIMORE","Maryland","21224",1
1459,"6500 EASTERN AVE","BALTIMORE","Maryland","21224",1
1460,"6400 EASTERN AVE","BALTIMORE","Maryland","21224",1
1461,"600 N DUNCAN ST","BALTIMORE","Maryland","21205",1
1462,"312 S DUNCAN ST","BALTIMORE","Maryland","21231",1
1463,"324 S DUNCAN ST","BALTIMORE","Maryland","21231",1
1464,"700 W SARATOGA ST","BALTIMORE","Maryland","21201",1
1465,"PULASKI HWY &N KRESSON ST","BALTIMORE","Maryland","21205",1
1466,"5610 MCCLEAN BLVD","BALTIMORE","Maryland","21214",1
1467,"1846 BYRD ST","BALTIMORE","Maryland","21230",1
1468,"3750 RAVENWOOD AVE","BALTIMORE","Maryland","21213",1
1469,"4200 UNDERWOOD RD","BALTIMORE","Maryland","21218",1
1470,"3120 PRESBURY ST","BALTIMORE","Maryland","21216",1
1471,"2554 CECIL AVE","BALTIMORE","Maryland","21218",1
1472,"928 CATHEDRAL ST","BALTIMORE","Maryland","21201",1
1473,"119 E WEST ST","BALTIMORE","Maryland","21230",1
1474,"EASTERN AVE &S CENTRAL AVE","BALTIMORE","Maryland","21202",1
1475,"21 BIRCKHEAD ST","BALTIMORE","Maryland","21230",1
1476,"901 DRUID PARK LAKE DR","BALTIMORE","Maryland","21217",1
1477,"100 E 29TH ST","BALTIMORE","Maryland","21218",1
1478,"4000 BOARMAN AVE","BALTIMORE","Maryland","21215",1
1479,"S CHAPELGATE LN & FREDERICK AVE","BALTIMORE","Maryland","21229",1
1480,"STOKES DR & WILDWOOD PKWY","BALTIMORE","Maryland","21229",1
1481,"1453 STEVENSON ST","BALTIMORE","Maryland","21230",1
1482,"419 EAST ST","BALTIMORE","Maryland","21202",1
1483,"LETITIA AVE & JAMES ST","BALTIMORE","Maryland","21230",1
1484,"LIBERTY HEIGHTS AVE & SILVER HILL AVE","BALTIMORE","Maryland","21207",1
1485,"DECKERTS LN & TAYLOR AVE","BALTIMORE","Maryland","21236",1
1486,"1419 WILLIAM ST","BALTIMORE","Maryland","21230",1
1487,"601 E LOMBARD ST","BALTIMORE","Maryland","21202",1
1488,"WICKLOW RD & ROKEBY RD","BALTIMORE","Maryland","21229",1
1489,"760 W BALTIMORE ST","BALTIMORE","Maryland","21201",1
1490,"3600 DUDLEY AVE","BALTIMORE","Maryland","21213",1
1491,"2282 DRUID PARK DR","BALTIMORE","Maryland","21211",1
1492,"3503 GREENSPRING AVE","BALTIMORE","Maryland","21211",1
1493,"ELDERON AVE & ELDORADO AVE","BALTIMORE","Maryland","21215",1
1494,"2943 MATHEWS ST","BALTIMORE","Maryland","21218",1
1495,"MILFORD AVE & GWYNN OAK NORWOOD","BALTIMORE","Maryland","21207",1
1496,"POTEE ST &W PATAPSCO AVE","BALTIMORE","Maryland","21225",1
1497,"1704 WINDEMERE AVE","BALTIMORE","Maryland","21218",1
1498,"1442 FLEET ST","BALTIMORE","Maryland","21231",1
1499,"203 S CASTLE ST","BALTIMORE","Maryland","21231",1
1500,"203 S CASTLE ST","BALTIMORE","Maryland","21231",1
1501,"203 S CASTLE ST","BALTIMORE","Maryland","21231",1
1502,"6200 PIMLICO RD","BALTIMORE","Maryland","21209",1
1503,"PLYMOUTH RD & GIBBONS AVE","BALTIMORE","Maryland","21214",1
1504,"4800 MANNASOTA AVE","BALTIMORE","Maryland","21206",1
1505,"6810 CROSS COUNTRY BLVD","BALTIMORE","Maryland","21215",1
1506,"4800 RICHARD AVE","BALTIMORE","Maryland","21214",1
1507,"3140 WASHINGTON BLVD","BALTIMORE","Maryland","21230",1
1508,"5201 GOODNOW RD","BALTIMORE","Maryland","21206",1
1509,"2926 SYLVAN AVE","BALTIMORE","Maryland","21214",1
1510,"1809 N CHAPEL ST","BALTIMORE","Maryland","21213",1
1511,"500 PONTIAC AVE","BALTIMORE","Maryland","21225",1
1512,"4017 DEEPWOOD RD","BALTIMORE","Maryland","21218",1
1513,"E PATAPSCO AVE &S HANOVER ST","BALTIMORE","Maryland","21225",1
1514,"E COLD SPRING LN & HILLEN RD","BALTIMORE","Maryland","21218",1
1515,"3904 MAYBERRY AVE","BALTIMORE","Maryland","21206",1
1516,"4501 REISTERSTOWN RD","BALTIMORE","Maryland","21215",1
1517,"FLEET ST &S HAVEN ST","BALTIMORE","Maryland","21224",1
1518,"3300 FLEET ST","BALTIMORE","Maryland","21224",1
1519,"1 KENWOOD RD","BALTIMORE","Maryland","21210",1
1520,"1800 COLE ST","BALTIMORE","Maryland","21223",1
1521,"5500 WOODMONT AVE","BALTIMORE","Maryland","21239",1
1522,"4308 LIBERTY HEIGHTS AVE","BALTIMORE","Maryland","21207",1
1523,"3200 E BALTIMORE ST","BALTIMORE","Maryland","21224",1
1524,"3500 BANCROFT RD","BALTIMORE","Maryland","21215",1
1525,"400 E 20TH ST","BALTIMORE","Maryland","21218",1
1526,"2554 CECIL AVE","BALTIMORE","Maryland","21218",1
1527,"400 S EXETER ST","BALTIMORE","Maryland","21202",1
1528,"900 BELGIAN AVE","BALTIMORE","Maryland","21218",1
1529,"1647 SHERWOOD AVE","BALTIMORE","Maryland","21239",1
1530,"3810 MOHAWK AVE","BALTIMORE","Maryland","21207",1
1531,"3700 LEVERTON AVE","BALTIMORE","Maryland","21224",1
1532,"615 PRESIDENT ST","BALTIMORE","Maryland","21202",1
1533,"857 PARK AVE","BALTIMORE","Maryland","21201",1
1534,"857 PARK AVE","BALTIMORE","Maryland","21201",1
1535,"3100 E OLIVER ST","BALTIMORE","Maryland","21213",1
1536,"3900 ELM AVE","BALTIMORE","Maryland","21211",1
1537,"BELAIR RD & HAMILTON AVE","BALTIMORE","Maryland","21206",1
1538,"4102 HAMILTON AVE","BALTIMORE","Maryland","21206",1
1539,"2904 BAYONNE AVE","BALTIMORE","Maryland","21214",1
1540,"2400 ERDMAN AVE","BALTIMORE","Maryland","21213",1
1541,"1000 FLEET ST","BALTIMORE","Maryland","21202",1
1542,"2334 BOSTON ST","BALTIMORE","Maryland","21224",1
1543,"5003 HOLABIRD AVE","BALTIMORE","Maryland","21224",1
1544,"SHELBURNE RD & SEVEN MILE LN","BALTIMORE","Maryland","21208",1
1545,"4109 WILKE AVE","BALTIMORE","Maryland","21206",1
1546,"4300 EDMONDSON AVE","BALTIMORE","Maryland","21229",1
1547,"THE ALAMEDA & SILVERTHORNE RD","BALTIMORE","Maryland","21239",1
1548,"2800 W FRANKLIN ST","BALTIMORE","Maryland","21223",1
1549,"7350 HARFORD RD","BALTIMORE","Maryland","21234",1
1550,"7122 HARFORD RD","BALTIMORE","Maryland","21234",1
1551,"4800 MOUNT HOPE DR","BALTIMORE","Maryland","21215",1
1552,"2800 MARYLAND AVE","BALTIMORE","Maryland","21218",1
1553,"2600 MARYLAND AVE","BALTIMORE","Maryland","21218",1
1554,"2110 BANK ST","BALTIMORE","Maryland","21231",1
1555,"3601 PARKVIEW AVE","BALTIMORE","Maryland","21207",1
1556,"6100 MOYER AVE","BALTIMORE","Maryland","21206",1
1557,"738 PONCA ST","BALTIMORE","Maryland","21224",1
1558,"THAMES ST &S BROADWAY","BALTIMORE","Maryland","21231",1
1559,"CANNERY AVE","BALTIMORE","Maryland","21226",1
1560,"100 S PATTERSON PARK AVE","BALTIMORE","Maryland","21231",1
1561,"500 S WOLFE ST","BALTIMORE","Maryland","21231",1
1562,"700 EVESHAM AVE","BALTIMORE","Maryland","21212",1
1563,"700 E BELVEDERE AVE","BALTIMORE","Maryland","21212",1
1564,"5300 MIDWOOD AVE","BALTIMORE","Maryland","21212",1
1565,"1700 S HAVEN ST","BALTIMORE","Maryland","21224",1
1566,"2201 SOUTHPORT AVE","BALTIMORE","Maryland","21226",1
1567,"2200 LOUISE AVE","BALTIMORE","Maryland","21214",1
1568,"3759 BEECH AVE","BALTIMORE","Maryland","21211",1
1569,"SOUTHPORT AVE & 4TH AVE","BALTIMORE","Maryland","21226",1
1570,"415 BONSAL ST","BALTIMORE","Maryland","21224",1
1571,"NORTHWOOD DR & PENTRIDGE RD","BALTIMORE","Maryland","21239",1
1572,"ROUNDHILL RD","BALTIMORE","Maryland","21218",1
1573,"1503 UNION AVE","BALTIMORE","Maryland","21211",1
1574,"1524 OLIVE ST","BALTIMORE","Maryland","21230",1
1575,"3800 RIDGEFIELD RD","BALTIMORE","Maryland","21218",1
1576,"3200 E BIDDLE ST","BALTIMORE","Maryland","21213",1
1577,"1843 N MONTFORD AVE","BALTIMORE","Maryland","21213",1
1578,"1900 FLEET ST","BALTIMORE","Maryland","21231",1
1579,"2210 BANK ST","BALTIMORE","Maryland","21231",1
1580,"5308 HARFORD RD","BALTIMORE","Maryland","21214",1
1581,"2200 W COLD SPRING LN","BALTIMORE","Maryland","21209",1
1582,"2403 E HOFFMAN ST","BALTIMORE","Maryland","21213",1
1583,"2129 E FEDERAL ST","BALTIMORE","Maryland","21213",1
1584,"319 GITTINGS AVE","BALTIMORE","Maryland","21212",1
1585,"1410 BOLTON ST","BALTIMORE","Maryland","21217",1
1586,"4800 CLAYBURY AVE","BALTIMORE","Maryland","21206",1
1587,"3542 S HANOVER ST","BALTIMORE","Maryland","21225",1
1588,"4800 TRUESDALE AVE","BALTIMORE","Maryland","21206",1
1589,"6000 MORAVIA RD","BALTIMORE","Maryland","21206",1
1590,"3538 S HANOVER ST","BALTIMORE","Maryland","21225",1
1591,"W PATAPSCO AVE & POTEE ST","BALTIMORE","Maryland","21225",1
1592,"2500 KIRK AVE","BALTIMORE","Maryland","21218",1
1593,"2800 KIRK AVE","BALTIMORE","Maryland","21218",1
1594,"2600 WINDSOR AVE","BALTIMORE","Maryland","21216",1
1595,"1606 MARSHALL ST","BALTIMORE","Maryland","21230",1
1596,"330 S DUNCAN ST","BALTIMORE","Maryland","21231",1
1597,"328 S DUNCAN ST","BALTIMORE","Maryland","21231",1
1598,"6410 CROSS COUNTRY BLVD","BALTIMORE","Maryland","21215",1
1599,"5600 E LOMBARD ST","BALTIMORE","Maryland","21224",1
1600,"3804 GLENMORE AVE","BALTIMORE","Maryland","21206",1
1601,"3904 GLENMORE AVE","BALTIMORE","Maryland","21206",1
1602,"3722 GLENMORE AVE","BALTIMORE","Maryland","21206",1
1603,"3011 GUILFORD AVE","BALTIMORE","Maryland","21218",1
1604,"2921 GUILFORD AVE","BALTIMORE","Maryland","21218",1
1605,"2400 GUILFORD AVE","BALTIMORE","Maryland","21218",1
1606,"200 E 20TH ST","BALTIMORE","Maryland","21218",1
1607,"1300 N ROSEDALE ST","BALTIMORE","Maryland","21216",1
1608,"2902 ELLIOTT ST","BALTIMORE","Maryland","21224",1
1609,"2500 W FRANKLIN ST","BALTIMORE","Maryland","21223",1
1610,"E NORTH AVE","BALTIMORE","Maryland","21202",1
1611,"4307 WHITE AVE","BALTIMORE","Maryland","21206",1
1612,"N BENTALOU ST & PRESSTMAN ST","BALTIMORE","Maryland","21216",1
1613,"EASTERN AVE &S CAROLINE ST","BALTIMORE","Maryland","21231",1
1614,"3321 EASTERN AVE","BALTIMORE","Maryland","21224",1
1615,"6300 LOCH RAVEN BLVD","BALTIMORE","Maryland","21239",1
1616,"6001 LOCH RAVEN BLVD","BALTIMORE","Maryland","21239",1
1617,"3406 BRENDAN AVE","BALTIMORE","Maryland","21213",1
1618,"4500 WHITE AVE","BALTIMORE","Maryland","21206",1
1619,"SOUTHPORT AVE & 4TH AVE","BALTIMORE","Maryland","21226",1
1620,"3211 N CALVERT ST","BALTIMORE","Maryland","21218",1
1621,"2937 N CALVERT ST","BALTIMORE","Maryland","21218",1
1622,"5003 ALHAMBRA AVE","BALTIMORE","Maryland","21212",1
1623,"2709 N CALVERT ST","BALTIMORE","Maryland","21218",1
1624,"KEY AVE & GLEN ROCKWOOD","BALTIMORE","Maryland","21215",1
1625,"2447 N CALVERT ST","BALTIMORE","Maryland","21218",1
1626,"7 E 39TH ST","BALTIMORE","Maryland","21218",1
1627,"2229 LAKE AVE","BALTIMORE","Maryland","21213",1
1628,"1025 CHURCH ST","BALTIMORE","Maryland","21225",1
1629,"105 W SARATOGA ST","BALTIMORE","Maryland","21201",1
1630,"3100 N CHARLES ST","BALTIMORE","Maryland","21211",1
1631,"3100 N CHARLES ST","BALTIMORE","Maryland","21211",1
1632,"1700 N CALVERT ST","BALTIMORE","Maryland","21202",1
1633,"LIBERTY HEIGHTS AVE & HILLSDALE RD","BALTIMORE","Maryland","21207",1
1634,"FAIR OAKS AVE & EVERGREEN AVE","BALTIMORE","Maryland","21214",1
1635,"5115 N FRANKLINTOWN RD","BALTIMORE","Maryland","21207",1
1636,"6100 HILLEN RD","BALTIMORE","Maryland","21239",1
1637,"N CHARLES ST & I 83 S","BALTIMORE","Maryland","21201",1
1638,"4511 GROVELAND AVE","BALTIMORE","Maryland","21215",1
1639,"224 E UNIVERSITY PKWY","BALTIMORE","Maryland","21218",1
1640,"3018 REESE ST","BALTIMORE","Maryland","21218",1
1641,"3101 GRAYSON ST","BALTIMORE","Maryland","21216",1
1642,"1600 N ROSEDALE ST","BALTIMORE","Maryland","21216",1
1643,"6200 E LOMBARD ST","BALTIMORE","Maryland","21224",1
1644,"1 N EXETER ST","BALTIMORE","Maryland","21202",1
1645,"POTEE ST &S HANOVER","BALTIMORE","Maryland","21225",1
1646,"HOLLINS FERRY RD & HAMMONDS FERRY RD","HALETHORPE","Maryland","21227",1
1647,"POTEE ST &W PATAPSCO AVE","BALTIMORE","Maryland","21225",1
1648,"1116 SPRINGFIELD AVE","BALTIMORE","Maryland","21239",1
1649,"601 LIGHT ST","BALTIMORE","Maryland","21230",1
1650,"5309 EASTERN AVE","BALTIMORE","Maryland","21224",1
1651,"403 IMLA ST","BALTIMORE","Maryland","21224",1
1652,"GLENMORE AVE & EASTERN PKWY","BALTIMORE","Maryland","21206",1
1653,"2115 PARK AVE","BALTIMORE","Maryland","21217",1
1654,"N CHARLES ST &W PRESTON ST","BALTIMORE","Maryland","21201",1
1655,"100 N GILMOR ST","BALTIMORE","Maryland","21223",1
1656,"1700 N ELLAMONT ST","BALTIMORE","Maryland","21216",1
1657,"611 NOTTINGHAM RD","BALTIMORE","Maryland","21229",1
1658,"PATTERSON AVE & VINCENNES AVE","BALTIMORE","Maryland","21215",1
1659,"6000 MORAVIA RD","BALTIMORE","Maryland","21206",1
1660,"1911 BURNWOOD RD","BALTIMORE","Maryland","21239",1
1661,"EASTERN AVE &S HIGH ST","BALTIMORE","Maryland","21202",1
1662,"224 LAURENS ST","BALTIMORE","Maryland","21217",1
1663,"GOLD ST & MCCULLOH ST","BALTIMORE","Maryland","21217",1
1664,"PENTRIDGE RD & NORTHWOOD DR","BALTIMORE","Maryland","21239",1
1665,"1722 PORTUGAL ST","BALTIMORE","Maryland","21231",1
1666,"GREENSPRING AVE & DRUID PARK DR","BALTIMORE","Maryland","21215",1
1667,"6300 EASTERN PKWY","BALTIMORE","Maryland","21214",1
1668,"4363 OLD FREDERICK RD","BALTIMORE","Maryland","21229",1
1669,"YALE AVE & POTTER ST","BALTIMORE","Maryland","21229",1
1670,"1300 LIMIT AVE","BALTIMORE","Maryland","21239",1
1671,"4231 YORK RD","BALTIMORE","Maryland","21218",1
1672,"623 N DUNCAN ST","BALTIMORE","Maryland","21205",1
1673,"110 S PACA ST","BALTIMORE","Maryland","21201",1
1674,"PEMBROKE AVE & RUECKERT AVE","BALTIMORE","Maryland","21206",1
1675,"3810 OVERLEA AVE","BALTIMORE","Maryland","21206",1
1676,"201 N MONASTERY AVE","BALTIMORE","Maryland","21229",1
1677,"5900 BELAIR RD","BALTIMORE","Maryland","21206",1
1678,"6300 BELAIR RD","BALTIMORE","Maryland","21206",1
1679,"3808 SAINT PAUL ST","BALTIMORE","Maryland","21218",1
1680,"2739 E PRESTON ST","BALTIMORE","Maryland","21213",1
1681,"700 NORTH PT RD","BALTIMORE","Maryland","21224",1
1682,"3200 PARKSIDE DR","BALTIMORE","Maryland","21214",1
1683,"501 S DECKER AVE","BALTIMORE","Maryland","21224",1
1684,"3818 CEDARHURST RD","BALTIMORE","Maryland","21206",1
1685,"1 S FRANKLINTOWN RD","BALTIMORE","Maryland","21223",1
1686,"500 N WHEELER AVE","BALTIMORE","Maryland","21223",1
1687,"2900 W LAFAYETTE AVE","BALTIMORE","Maryland","21216",1
1688,"734 ROUNDVIEW RD","BALTIMORE","Maryland","21225",1
1689,"2709 CHESLEY AVE","BALTIMORE","Maryland","21234",1
1690,"4700 OLD YORK RD","BALTIMORE","Maryland","21212",1
1691,"717 YALE AVE","BALTIMORE","Maryland","21229",1
1692,"5500 NORTHWOOD DR","BALTIMORE","Maryland","21212",1
1693,"1098 CAMERON RD","BALTIMORE","Maryland","21212",1
1694,"4100 PATTERSON AVE","BALTIMORE","Maryland","21215",1
1695,"2512 FLEET ST","BALTIMORE","Maryland","21224",1
1696,"1400 GITTINGS AVE","BALTIMORE","Maryland","21239",1
1697,"5943 GLENKIRK RD","BALTIMORE","Maryland","21239",1
1698,"WINDSOR MILL RD &N FOREST PARK AVE","BALTIMORE","Maryland","21207",1
1699,"400 PITMAN PL","BALTIMORE","Maryland","21202",1
1700,"CEDONIA AVE & HAMILTON AVE","BALTIMORE","Maryland","21206",1
1701,"800 PONCA ST","BALTIMORE","Maryland","21224",1
1702,"1217 OAKHURST PL","BALTIMORE","Maryland","21216",1
1703,"1200 N LAKEWOOD AVE","BALTIMORE","Maryland","21213",1
1704,"4403 FREDERICK AVE","BALTIMORE","Maryland","21229",1
1705,"3600 BANK ST","BALTIMORE","Maryland","21224",1
1706,"E 39TH ST & SAINT PAUL ST","BALTIMORE","Maryland","21218",1
1707,"SAINT PAUL ST &E 39TH ST","BALTIMORE","Maryland","21218",1
1708,"4305 PARKMONT AVE","BALTIMORE","Maryland","21206",1
1709,"E LOMBARD ST &S ELLWOOD AVE","BALTIMORE","Maryland","21224",1
1710,"702 ARGONNE DR","BALTIMORE","Maryland","21218",1
1711,"522 E 39TH ST","BALTIMORE","Maryland","21218",1
1712,"4107 BOSTON ST","BALTIMORE","Maryland","21224",1
1713,"1323 W BALTIMORE ST","BALTIMORE","Maryland","21223",1
1714,"8 S BROADWAY","BALTIMORE","Maryland","21231",1
1715,"4901 EDMONDSON AVE","BALTIMORE","Maryland","21229",1
1716,"226 E 39TH ST","BALTIMORE","Maryland","21218",1
1717,"4619 EDMONDSON AVE","BALTIMORE","Maryland","21229",1
1718,"1029 WICKLOW RD","BALTIMORE","Maryland","21229",1
1719,"WESTVIEW RD","BALTIMORE","Maryland","21218",1
1720,"WESTVIEW RD","BALTIMORE","Maryland","21218",1
1721,"HARFORD RD & CHRISTOPHER AVE","BALTIMORE","Maryland","21214",1
1722,"4505 WALTHER AVE","BALTIMORE","Maryland","21214",1
1723,"4300 WHITE AVE","BALTIMORE","Maryland","21206",1
1724,"4700 LASALLE AVE","BALTIMORE","Maryland","21206",1
1725,"6508 EASTERN PKWY","BALTIMORE","Maryland","21214",1
1726,"4012 HICKORY AVE","BALTIMORE","Maryland","21211",1
1727,"500 OTTERBEIN ST","BALTIMORE","Maryland","21230",1
1728,"4200 WHITE AVE","BALTIMORE","Maryland","21206",1
1729,"N FRANKLINTOWN RD &W FRANKLIN ST","BALTIMORE","Maryland","21223",1
1730,"3125 ELMORA AVE","BALTIMORE","Maryland","21213",1
1731,"STAFFORD ST & WELLESLEY ST","BALTIMORE","Maryland","21223",1
1732,"808 W LEXINGTON ST","BALTIMORE","Maryland","21201",1
1733,"W NORTH AVE & MCCULLOH ST","BALTIMORE","Maryland","21217",1
1734,"7 E 39TH ST","BALTIMORE","Maryland","21218",1
1735,"1 E 32ND ST","BALTIMORE","Maryland","21218",1
1736,"2300 W COLD SPRING LN","BALTIMORE","Maryland","21209",1
1737,"4012 HICKORY AVE","BALTIMORE","Maryland","21211",1
1738,"3012 LOUISE AVE","BALTIMORE","Maryland","21214",1
1739,"3900 LOCH RAVEN BLVD","BALTIMORE","Maryland","21218",1
1740,"1425 ALICEANNA ST","BALTIMORE","Maryland","21231",1
1741,"4700 VIRGINIA AVE","BALTIMORE","Maryland","21225",1
1742,"200 S ATHOL AVE","BALTIMORE","Maryland","21229",1
1743,"3503 ELMORA AVE","BALTIMORE","Maryland","21213",1
1744,"6600 EASTERN AVE","BALTIMORE","Maryland","21224",1
1745,"1300 GLENEAGLE RD","BALTIMORE","Maryland","21239",1
1746,"1600 CHILTON ST","BALTIMORE","Maryland","21218",1
1747,"919 BAYLIS ST","BALTIMORE","Maryland","21224",1
1748,"W STRATHMORE AVE & REISTERSTOWN RD","BALTIMORE","Maryland","21215",1
1749,"2521 N CALVERT ST","BALTIMORE","Maryland","21218",1
1750,"1124 N CALVERT ST","BALTIMORE","Maryland","21202",1
1751,"5900 GLENKIRK RD","BALTIMORE","Maryland","21239",1
1752,"6300 PIONEER DR","BALTIMORE","Maryland","21214",1
1753,"3783 KEITH AVE","BALTIMORE","Maryland","21224",1
1754,"N PULASKI ST &W BALTIMORE ST","BALTIMORE","Maryland","21223",1
1755,"6600 PIONEER DR","BALTIMORE","Maryland","21214",1
1756,"4710 EUGENE AVE","BALTIMORE","Maryland","21206",1
1757,"3400 PARKLAWN AVE","BALTIMORE","Maryland","21213",1
1758,"2300 LAURETTA AVE","BALTIMORE","Maryland","21223",1
1759,"527 NOTTINGHAM RD","BALTIMORE","Maryland","21229",1
1760,"5123 GREENWICH AVE","BALTIMORE","Maryland","21229",1
1761,"3 SOUTHFIELD PL","BALTIMORE","Maryland","21212",1
1762,"4600 WHITE AVE","BALTIMORE","Maryland","21206",1
1763,"519 OVERDALE RD","BALTIMORE","Maryland","21229",1
1764,"427 GRINDALL ST","BALTIMORE","Maryland","21230",1
1765,"2200 N ROSEDALE ST","BALTIMORE","Maryland","21216",1
1766,"4805 GARRISON BLVD","BALTIMORE","Maryland","21215",1
1767,"1700 GWYNNS FALLS PKWY","BALTIMORE","Maryland","21217",1
1768,"2500 KIRK AVE","BALTIMORE","Maryland","21218",1
1769,"700 ALLENDALE ST","BALTIMORE","Maryland","21229",1
1770,"100 S CONKLING ST","BALTIMORE","Maryland","21224",1
1771,"3529 E BALTIMORE ST","BALTIMORE","Maryland","21224",1
1772,"LOCH RAVEN BLVD &E NORTHERN PKWY","BALTIMORE","Maryland","21239",1
1773,"319 GITTINGS AVE","BALTIMORE","Maryland","21212",1
1774,"1000 OGDEN ST","BALTIMORE","Maryland","21224",1
1775,"507 STAMFORD RD","BALTIMORE","Maryland","21229",1
1776,"1643 WILKENS AVE","BALTIMORE","Maryland","21223",1
1777,"2433 W COLD SPRING LN","BALTIMORE","Maryland","21215",1
1778,"6331 GREEN MEADOW PKWY","BALTIMORE","Maryland","21209",1
1779,"3300 CLARKS LN","BALTIMORE","Maryland","21215",1
1780,"2700 STEELE RD","BALTIMORE","Maryland","21209",1
1781,"4700 FREDERICK AVE","BALTIMORE","Maryland","21229",1
1782,"3418 BANCROFT RD","BALTIMORE","Maryland","21215",1
1783,"SEVEN MILE LN & SHELBURNE RD","BALTIMORE","Maryland","21208",1
1784,"2100 W PRATT ST","BALTIMORE","Maryland","21223",1
1785,"3506 BANCROFT RD","BALTIMORE","Maryland","21215",1
1786,"3404 BANCROFT RD","BALTIMORE","Maryland","21215",1
1787,"2000 FREDERICK AVE","BALTIMORE","Maryland","21223",1
1788,"300 YALE AVE","BALTIMORE","Maryland","21229",1
1789,"1800 W PRATT ST","BALTIMORE","Maryland","21223",1
1790,"600 PARKWYRTH AVE","BALTIMORE","Maryland","21218",1
1791,"1600 CHILTON ST","BALTIMORE","Maryland","21218",1
1792,"6000 MARLUTH AVE","BALTIMORE","Maryland","21206",1
1793,"1516 LANCASTER ST","BALTIMORE","Maryland","21231",1
1794,"EASTERN AVE &S CENTRAL AVE","BALTIMORE","Maryland","21202",1
1795,"2200 FLEET ST","BALTIMORE","Maryland","21231",1
1796,"5400 MAPLE AVE","BALTIMORE","Maryland","21215",1
1797,"5100 EDMONDSON AVE","BALTIMORE","Maryland","21229",1
1798,"THE ALAMEDA &E NORTHERN PKWY","BALTIMORE","Maryland","21239",1
1799,"713 HOLLEN RD","BALTIMORE","Maryland","21212",1
1800,"711 HOLLEN RD","BALTIMORE","Maryland","21212",1
1801,"709 HOLLEN RD","BALTIMORE","Maryland","21212",1
1802,"5930 NORTHWOOD DR","BALTIMORE","Maryland","21212",1
1803,"4500 GROVELAND AVE","BALTIMORE","Maryland","21215",1
1804,"1334 DELLWOOD AVE","BALTIMORE","Maryland","21211",1
1805,"6429 HARFORD RD","BALTIMORE","Maryland","21214",1
1806,"4209 PENHURST AVE","BALTIMORE","Maryland","21215",1
1807,"5587 WHITBY RD","BALTIMORE","Maryland","21206",1
1808,"3900 LEWISTON AVE","BALTIMORE","Maryland","21215",1
1809,"5200 TRAMORE RD","BALTIMORE","Maryland","21214",1
1810,"1023 W FAYETTE ST","BALTIMORE","Maryland","21223",1
1811,"4 WYNDHURST AVE","BALTIMORE","Maryland","21210",1
1812,"807 E BELVEDERE AVE","BALTIMORE","Maryland","21212",1
1813,"3600 RUECKERT AVE","BALTIMORE","Maryland","21214",1
1814,"809 E BELVEDERE AVE","BALTIMORE","Maryland","21212",1
1815,"4000 BIDDISON LN","BALTIMORE","Maryland","21206",1
1816,"EVERGREEN AVE & TRAMORE RD","BALTIMORE","Maryland","21214",1
1817,"AISQUITH ST &E NORTH AVE","BALTIMORE","Maryland","21202",1
1818,"WHITE AVE & BELAIR RD","BALTIMORE","Maryland","21206",1
1819,"900 ELLICOTT DWY","BALTIMORE","Maryland","21216",1
1820,"300 N EUTAW ST","BALTIMORE","Maryland","21201",1
1821,"4106 FORDLEIGH RD","BALTIMORE","Maryland","21215",1
1822,"BETHNAL RD","BALTIMORE","Maryland","21229",1
1823,"REISTERSTOWN PARK HEIGHTS & PARK HEIGHTS","BALTIMORE","Maryland","21215",1
1824,"1800 NORTHBOURNE RD","BALTIMORE","Maryland","21239",1
1825,"1016 OLIVE ST","BALTIMORE","Maryland","21230",1
1826,"0 DULUTH AVE","DUNDALK","Maryland","21222",1
1827,"E BELVEDERE AVE & YORK RD","BALTIMORE","Maryland","21212",1
1828,"1221 RIVERSIDE AVE","BALTIMORE","Maryland","21230",1
1829,"3901 WALNUT AVE","BALTIMORE","Maryland","21206",1
1830,"4511 SIMMS AVE","BALTIMORE","Maryland","21206",1
1831,"3817 ELLERSLIE AVE","BALTIMORE","Maryland","21218",1
1832,"2900 LAKE AVE","BALTIMORE","Maryland","21213",1
1833,"N HOWARD ST &W NORTH AVE","BALTIMORE","Maryland","21217",1
1834,"1400 DUNDALK AVE","BALTIMORE","Maryland","21224",1
1835,"7211 OLD HARFORD RD","BALTIMORE","Maryland","21234",1
1836,"7209 OLD HARFORD RD","BALTIMORE","Maryland","21234",1
1837,"7104 OLD HARFORD RD","BALTIMORE","Maryland","21234",1
1838,"2910 BAUERNWOOD AVE","BALTIMORE","Maryland","21234",1
1839,"BEAUFORT AVE & MANCHESTER AVE","BALTIMORE","Maryland","21215",1
1840,"3700 BEECH AVE","BALTIMORE","Maryland","21211",1
1841,"11 W MOUNT ROYAL AVE","BALTIMORE","Maryland","21201",1
1842,"5100 N FRANKLINTOWN RD","BALTIMORE","Maryland","21207",1
1843,"924 N CALVERT ST","BALTIMORE","Maryland","21202",1
1844,"1216 SAINT PAUL ST","BALTIMORE","Maryland","21202",1
1845,"5303 CARTER AVE","BALTIMORE","Maryland","21214",1
1846,"4400 HILLEN RD","BALTIMORE","Maryland","21251",1
1847,"EDMONDSON AVE & WESTGATE RD","BALTIMORE","Maryland","21229",1
1848,"700 W PATAPSCO AVE","BALTIMORE","Maryland","21230",1
1849,"947 BROOKS LN","BALTIMORE","Maryland","21217",1
1850,"415 YALE AVE","BALTIMORE","Maryland","21229",1
1851,"1303 CEDARCROFT RD","BALTIMORE","Maryland","21239",1
1852,"709 HOLLEN RD","BALTIMORE","Maryland","21212",1
1853,"MONTICELLO RD & WINDSOR MILL RD","BALTIMORE","Maryland","21216",1
1854,"S LOUDON AVE & MASSACHUSETTS AVE","BALTIMORE","Maryland","21229",1
1855,"PENTRIDGE RD & NORTHWOOD DR","BALTIMORE","Maryland","21239",1
1856,"RUECKERT AVE & HILLBURN AVE","BALTIMORE","Maryland","21214",1
1857,"E 39TH ST & GREENWAY","BALTIMORE","Maryland","21218",1
1858,"LAKE MONTEBELLO DR & LAKE AVE","BALTIMORE","Maryland","21218",1
1859,"E PRATT ST & COMMERCE ST","BALTIMORE","Maryland","21202",1
1860,"300 E 39TH ST","BALTIMORE","Maryland","21218",1
1861,"3400 PINKNEY RD","BALTIMORE","Maryland","21215",1
1862,"2206 CAMBRIDGE ST","BALTIMORE","Maryland","21231",1
1863,"2128 CAMBRIDGE ST","BALTIMORE","Maryland","21231",1
1864,"212 LAURENS ST","BALTIMORE","Maryland","21217",1
1865,"2222 E LOMBARD ST","BALTIMORE","Maryland","21231",1
1866,"SPAULDING AVE & PEMBRIDGE AVE","BALTIMORE","Maryland","21215",1
1867,"3530 ELMLEY AVE","BALTIMORE","Maryland","21213",1
1868,"212 LAURENS ST","BALTIMORE","Maryland","21217",1
1869,"KAVON AVE & WHITE AVE","BALTIMORE","Maryland","21206",1
1870,"4600 ANNTANA AVE","BALTIMORE","Maryland","21206",1
1871,"2051 S HANOVER ST","BALTIMORE","Maryland","21230",1
1872,"2201 RUSSELL ST","BALTIMORE","Maryland","21230",1
1873,"151 W MCCOMAS ST","BALTIMORE","Maryland","21230",1
1874,"1820 S CLINTON ST","BALTIMORE","Maryland","21224",1
1875,"5103 EDMONDSON AVE","BALTIMORE","Maryland","21229",1
1876,"400 S BEECHFIELD AVE","BALTIMORE","Maryland","21229",1
1877,"210 S EXETER ST","BALTIMORE","Maryland","21202",1
1878,"GROVELAND AVE","BALTIMORE","Maryland","21215",1
1879,"5107 EDMONDSON AVE","BALTIMORE","Maryland","21229",1
1880,"PADDINGTON RD & GOODALE PL","BALTIMORE","Maryland","21212",1
1881,"1900 BELAIR RD","BALTIMORE","Maryland","21213",1
1882,"1001 E 25TH ST","BALTIMORE","Maryland","21218",1
1883,"800 E 25TH ST","BALTIMORE","Maryland","21218",1
1884,"CURRAN DR & LAKE AVE","BALTIMORE","Maryland","21218",1
1885,"1611 BANK ST","BALTIMORE","Maryland","21231",1
1886,"6501 EASTERN AVE","BALTIMORE","Maryland","21224",1
1887,"500 KANE ST","BALTIMORE","Maryland","21224",1
1888,"6026 LOCH RAVEN BLVD","BALTIMORE","Maryland","21239",1
1889,"1200 N CALVERT ST","BALTIMORE","Maryland","21202",1
1890,"2901 INGLEWOOD AVE","BALTIMORE","Maryland","21234",1
1891,"2810 INGLEWOOD AVE","BALTIMORE","Maryland","21234",1
1892,"2523 LOYOLA SOUTHWAY","BALTIMORE","Maryland","21215",1
1893,"2748 FENWICK AVE","BALTIMORE","Maryland","21218",1
1894,"5100 EDMONDSON AVE","BALTIMORE","Maryland","21229",1
1895,"1515 EASTERN AVE","BALTIMORE","Maryland","21231",1
1896,"3121 GUILFORD AVE","BALTIMORE","Maryland","21218",1
1897,"3000 LIBERTY HEIGHTS AVE","BALTIMORE","Maryland","21215",1
1898,"3200 SEQUOIA AVE","BALTIMORE","Maryland","21215",1
1899,"6100 LOCH RAVEN BLVD","BALTIMORE","Maryland","21239",1
1900,"1051 CHURCH ST","BALTIMORE","Maryland","21225",1
1901,"4000 ARDLEY AVE","BALTIMORE","Maryland","21213",1
1902,"733 S CURLEY ST","BALTIMORE","Maryland","21224",1
1903,"PERRING PKWY","PARKVILLE","Maryland","21234",1
1904,"312 E UNIVERSITY PKWY","BALTIMORE","Maryland","21218",1
1905,"2300 TACOMA ST","BALTIMORE","Maryland","21230",1
1906,"1800 N HILTON ST","BALTIMORE","Maryland","21216",1
1907,"800 YALE AVE","BALTIMORE","Maryland","21229",1
1908,"4211 PARKMONT AVE","BALTIMORE","Maryland","21206",1
1909,"N CHARLES ST &E COLD SPRING LN","BALTIMORE","Maryland","21210",1
1910,"E COLD SPRING LN & MILLBROOK RD","BALTIMORE","Maryland","21212",1
1911,"4434 FOREST VIEW AVE","BALTIMORE","Maryland","21206",1
1912,"4200 HARFORD TER","BALTIMORE","Maryland","21214",1
1913,"4212 HARFORD TER","BALTIMORE","Maryland","21214",1
1914,"2802 PARKVIEW TER","BALTIMORE","Maryland","21214",1
1915,"611 HYSON ST","BALTIMORE","Maryland","21230",1
1916,"1414 WEBSTER ST","BALTIMORE","Maryland","21230",1
1917,"1415 JACKSON ST","BALTIMORE","Maryland","21230",1
1918,"DUNDALK AVE & HOLABIRD AVE","BALTIMORE","Maryland","21224",1
1919,"715 S ANN ST","BALTIMORE","Maryland","21231",1
1920,"LOCH RAVEN BLVD & LEITH RD","BALTIMORE","Maryland","21239",1
1921,"1200 GLENHAVEN RD","BALTIMORE","Maryland","21239",1
1922,"1234 W PRATT ST","BALTIMORE","Maryland","21223",1
1923,"N ROGERS AVE & GROVELAND AVE","BALTIMORE","Maryland","21215",1
1924,"WHITE AVE & BELAIR RD","BALTIMORE","Maryland","21206",1
1925,"4328 WHITE AVE","BALTIMORE","Maryland","21206",1
1926,"600 DRUID HILL AVE","BALTIMORE","Maryland","21201",1
1927,"2600 BRENDAN AVE","BALTIMORE","Maryland","21213",1
1928,"1100 N KENWOOD AVE","BALTIMORE","Maryland","21213",1
1929,"4312 RASPE AVE","BALTIMORE","Maryland","21206",1
1930,"CARTER AVE & BATAVIA AVE","BALTIMORE","Maryland","21214",1
1931,"258 W CHASE ST","BALTIMORE","Maryland","21201",1
1932,"5400 REISTERSTOWN RD","BALTIMORE","Maryland","21215",1
1933,"2400 W COLD SPRING LN","BALTIMORE","Maryland","21215",1
1934,"2800 AILSA AVE","BALTIMORE","Maryland","21214",1
1935,"W 23RD ST & SISSON ST","BALTIMORE","Maryland","21218",1
1936,"2500 CECIL AVE","BALTIMORE","Maryland","21218",1
1937,"5000 NELSON AVE","BALTIMORE","Maryland","21215",1
1938,"2000 N FOREST PARK AVE","BALTIMORE","Maryland","21207",1
1939,"2500 W COLD SPRING LN","BALTIMORE","Maryland","21215",1
1940,"514 OTTERBEIN ST","BALTIMORE","Maryland","21230",1
1941,"4315 RASPE AVE","BALTIMORE","Maryland","21206",1
1942,"3515 E LOMBARD ST","BALTIMORE","Maryland","21224",1
1943,"4601 NEWGATE AVE","BALTIMORE","Maryland","21224",1
1944,"2510 CHELSEA TER","BALTIMORE","Maryland","21216",1
1945,"2300 N FOREST PARK AVE","BALTIMORE","Maryland","21207",1
1946,"2008 PRESBURY ST","BALTIMORE","Maryland","21217",1
1947,"5500 N CHARLES ST","BALTIMORE","Maryland","21210",1
1948,"1800 N BENTALOU ST","BALTIMORE","Maryland","21216",1
1949,"5000 GREENSPRING AVE","BALTIMORE","Maryland","21215",1
1950,"2700 WINDSOR AVE","BALTIMORE","Maryland","21216",1
1951,"6333 BELAIR RD","BALTIMORE","Maryland","21206",1
1952,"1500 N ROSEDALE ST","BALTIMORE","Maryland","21216",1
1953,"2105 PELHAM AVE","BALTIMORE","Maryland","21218",1
1954,"3901 HILLEN RD","BALTIMORE","Maryland","21218",1
1955,"2203 BELAIR RD","BALTIMORE","Maryland","21213",1
1956,"0 PATAPSCO AVE","BALTIMORE","Maryland","21229",1
1957,"1800 N GAY ST","BALTIMORE","Maryland","21213",1
1958,"700 W HAMBURG ST","BALTIMORE","Maryland","21230",1
1959,"236 E CROSS ST","BALTIMORE","Maryland","21230",1
1960,"5000 SINCLAIR LN","BALTIMORE","Maryland","21206",1
1961,"4800 SINCLAIR LN","BALTIMORE","Maryland","21206",1
1962,"3852 SINCLAIR LN","BALTIMORE","Maryland","21213",1
1963,"3600 SINCLAIR LN","BALTIMORE","Maryland","21213",1
1964,"3300 SINCLAIR LN","BALTIMORE","Maryland","21213",1
1965,"5003 EDMONDSON AVE","BALTIMORE","Maryland","21229",1
1966,"EDMONDSON AVE &N PULASKI ST","BALTIMORE","Maryland","21223",1
1967,"2200 WESTFIELD AVE","BALTIMORE","Maryland","21214",1
1968,"W MULBERRY ST &N GREENE ST","BALTIMORE","Maryland","21201",1
1969,"W BALTIMORE ST &S WARWICK AVE","BALTIMORE","Maryland","21223",1
1970,"295","BALTIMORE","Maryland","21230",1
1971,"329 E HAMBURG ST","BALTIMORE","Maryland","21230",1
1972,"4200 WHITE AVE","BALTIMORE","Maryland","21206",1
1973,"QUINTON ST & CONLEY ST","BALTIMORE","Maryland","21224",1
1974,"6800 GOUGH ST","BALTIMORE","Maryland","21224",1
1975,"6200 THE ALAMEDA","BALTIMORE","Maryland","21239",1
1976,"S CALHOUN ST &W PRATT ST","BALTIMORE","Maryland","21223",1
1977,"200 E 39TH ST","BALTIMORE","Maryland","21218",1
1978,"2800 MOSHER ST","BALTIMORE","Maryland","21216",1
1979,"7 E 39TH ST","BALTIMORE","Maryland","21218",1
1980,"3800 PARKMONT AVE","BALTIMORE","Maryland","21206",1
1981,"1234 W PRATT ST","BALTIMORE","Maryland","21223",1
1982,"4600 HADDON AVE","BALTIMORE","Maryland","21207",1
1983,"3800 CANTERBURY RD","BALTIMORE","Maryland","21210",1
1984,"1700 N BRUCE ST","BALTIMORE","Maryland","21217",1
1985,"2001 GUILFORD AVE","BALTIMORE","Maryland","21218",1
1986,"745 CARROLL ST","BALTIMORE","Maryland","21230",1
1987,"4600 PULASKI HWY","BALTIMORE","Maryland","21224",1
1988,"4511 GROVELAND AVE","BALTIMORE","Maryland","21215",1
1989,"3520 ELMORA AVE","BALTIMORE","Maryland","21213",1
1990,"SEVILLE AVE & PIMLICO RD","BALTIMORE","Maryland","21215",1
1991,"E NORTH AVE & GREENMOUNT AVE","BALTIMORE","Maryland","21202",1
1992,"730 LINNARD ST","BALTIMORE","Maryland","21229",1
1993,"1118 CATHEDRAL ST","BALTIMORE","Maryland","21201",1
1994,"6425 PULASKI HWY","BALTIMORE","Maryland","21205",1
1995,"LOCH RAVEN BLVD & THE ALAMEDA","BALTIMORE","Maryland","21218",1
1996,"125 S HIGHLAND AVE","BALTIMORE","Maryland","21224",1
1997,"29 N HIGHLAND AVE","BALTIMORE","Maryland","21224",1
1998,"E NORTHERN PKWY & CHARLES ALLEY STALBANS","BALTIMORE","Maryland","21210",1
1999,"1453 STEVENSON ST","BALTIMORE","Maryland","21230",1
2000,"3910 LOCH RAVEN BLVD","BALTIMORE","Maryland","21218",1
2001,"925 LENTON AVE","BALTIMORE","Maryland","21212",1
2002,"TWIN OAK AVE & ECHODALE AVE","BALTIMORE","Maryland","21214",1
2003,"2000 GIRARD AVE","BALTIMORE","Maryland","21211",1
2004,"MONTEREY RD & LOCH RAVEN MONTEREY","BALTIMORE","Maryland","21218",1
2005,"EUGENE AVE & RIDGECROFT RD","BALTIMORE","Maryland","21206",1
2006,"3802 CLAREMONT ST","BALTIMORE","Maryland","21224",1
2007,"E NORTHERN PKWY & HARFORD RD","BALTIMORE","Maryland","21214",1
2008,"2900 BRIGHTON ST","BALTIMORE","Maryland","21216",1
2009,"2051 S HANOVER ST","BALTIMORE","Maryland","21230",1
2010,"W FRANKLIN ST & LYNDHURST ST","BALTIMORE","Maryland","21229",1
2011,"16 N TREMONT RD","BALTIMORE","Maryland","21229",1
2012,"423 LYNDHURST ST","BALTIMORE","Maryland","21229",1
2013,"1330 SMITH AVE","BALTIMORE","Maryland","21209",1
2014,"300 N MARTIN LUTHER KING JR BLVD","BALTIMORE","Maryland","21201",1
2015,"4200 RAYMAR AVE","BALTIMORE","Maryland","21206",1
2016,"4400 SOUTHERN AVE","BALTIMORE","Maryland","21206",1
2017,"6400 PULASKI HWY","BALTIMORE","Maryland","21205",1
2018,"6607 OLD HARFORD RD","BALTIMORE","Maryland","21214",1
2019,"N CHARLES ST &E 39TH ST","BALTIMORE","Maryland","21218",1
2020,"2200 E OLIVER ST","BALTIMORE","Maryland","21213",1
2021,"4900 GREENHILL AVE","BALTIMORE","Maryland","21206",1
2022,"N FRANKLINTOWN RD & GWYNNS FALLS PKWY","BALTIMORE","Maryland","21216",1
2023,"5900 LILLYAN AVE","BALTIMORE","Maryland","21206",1
2024,"816 MADISON AVE","BALTIMORE","Maryland","21201",1
2025,"2200 FLEETWOOD AVE","BALTIMORE","Maryland","21214",1
2026,"4619 ROKEBY RD","BALTIMORE","Maryland","21229",1
2027,"3900 LIBERTY HEIGHTS AVE","BALTIMORE","Maryland","21207",1
2028,"CRIMEA RD & WINDSOR MILL RD","BALTIMORE","Maryland","21207",1
2029,"6500 PULASKI HWY","BALTIMORE","Maryland","21205",1
2030,"3400 CHESTNUT AVE","BALTIMORE","Maryland","21211",1
2031,"1363 GORSUCH AVE","BALTIMORE","Maryland","21218",1
2032,"3140 WASHINGTON BLVD","BALTIMORE","Maryland","21230",1
2033,"W MULBERRY ST &N HOWARD ST","BALTIMORE","Maryland","21201",1
2034,"PULASKI HWY & NORTH POINT RD","BALTIMORE","Maryland","21205",1
2035,"1500 MEDFORD RD","BALTIMORE","Maryland","21218",1
2036,"2000 GIRARD AVE","BALTIMORE","Maryland","21211",1
2037,"2900 GREENMOUNT AVE","BALTIMORE","Maryland","21218",1
2038,"FLEET ST &S EXETER ST","BALTIMORE","Maryland","21202",1
2039,"FLEET ST &S WASHINGTON ST","BALTIMORE","Maryland","21231",1
2040,"6100 EASTERN PKWY","BALTIMORE","Maryland","21206",1
2041,"FLEET ST &S BETHEL ST","BALTIMORE","Maryland","21231",1
2042,"6300 PULASKI HWY","BALTIMORE","Maryland","21205",1
2043,"WINDSOR MILL RD &N FOREST PARK AVE","BALTIMORE","Maryland","21207",1
2044,"3601 LAKE MONTEBELLO DR","BALTIMORE","Maryland","21218",1
2045,"7330 HARFORD RD","BALTIMORE","Maryland","21234",1
2046,"402 N WASHINGTON ST","BALTIMORE","Maryland","21231",1
2047,"3000 O'DONNELL ST","BALTIMORE","Maryland","21224",1
2048,"1000 S LAKEWOOD AVE","BALTIMORE","Maryland","21224",1
2049,"BELLE VISTA AVE & HAMILTON AVE","BALTIMORE","Maryland","21206",1
2050,"E CHASE ST &E BIDDLE ST","BALTIMORE","Maryland","21205",1
2051,"3600 HINELINE RD","BALTIMORE","Maryland","21229",1
2052,"5904 GLENKIRK RD","BALTIMORE","Maryland","21239",1
2053,"1200 GLENEAGLE RD","BALTIMORE","Maryland","21239",1
2054,"5800 YORK RD","BALTIMORE","Maryland","21212",1
2055,"100 W MONUMENT ST","BALTIMORE","Maryland","21201",1
2056,"BEAVERBROOK RD & SAINT DUNSTANS RD","BALTIMORE","Maryland","21212",1
2057,"3809 OVERLEA AVE","BALTIMORE","Maryland","21206",1
2058,"3800 THE ALAMEDA","BALTIMORE","Maryland","21218",1
2059,"WASHINGTON BLVD & LETITIA AVE","BALTIMORE","Maryland","21230",1
2060,"301 W LOMBARD ST","BALTIMORE","Maryland","21201",1
2061,"7300 HARFORD RD","BALTIMORE","Maryland","21234",1
2062,"100 W LOMBARD ST","BALTIMORE","Maryland","21201",1
2063,"4708 HARFORD RD","BALTIMORE","Maryland","21214",1
2064,"2435 FLEET ST","BALTIMORE","Maryland","21224",1
2065,"721 S LAKEWOOD AVE","BALTIMORE","Maryland","21224",1
2066,"1100 HARFORD AVE","BALTIMORE","Maryland","21202",1
2067,"3600 LEVERTON AVE","BALTIMORE","Maryland","21224",1
2068,"1000 HARFORD AVE","BALTIMORE","Maryland","21202",1
2069,"3001 DRUID PARK DR","BALTIMORE","Maryland","21215",1
2070,"4512 YORK RD","BALTIMORE","Maryland","21212",1
2071,"YORK RD & ALLENWOOD LN","BALTIMORE","Maryland","21212",1
2072,"3816 HUDSON ST","BALTIMORE","Maryland","21224",1
2073,"5300 THE ALAMEDA","BALTIMORE","Maryland","21239",1
2074,"2200 N FOREST PARK AVE","BALTIMORE","Maryland","21207",1
2075,"3400 MOUNT PLEASANT AVE","BALTIMORE","Maryland","21224",1
2076,"1800 DUNDALK AVE","BALTIMORE","Maryland","21224",1
2077,"213 TUSCANY RD","BALTIMORE","Maryland","21210",1
2078,"WOODLAND AVE & PARK HEIGHTS AVE","BALTIMORE","Maryland","21215",1
2079,"3317 W BELVEDERE AVE","BALTIMORE","Maryland","21215",1
2080,"2944 GREENMOUNT AVE","BALTIMORE","Maryland","21218",1
2081,"1408 MADISON AVE","BALTIMORE","Maryland","21217",1
2082,"WAHOTAN AVE","BALTIMORE","Maryland","21215",1
2083,"MANHATTAN AVE & CLOVER RD","BALTIMORE","Maryland","21215",1
2084,"400 E 29TH ST","BALTIMORE","Maryland","21218",1
2085,"300 NORTHWAY","BALTIMORE","Maryland","21218",1
2086,"2500 GREENMOUNT AVE","BALTIMORE","Maryland","21218",1
2087,"100 HOPKINS PL","BALTIMORE","Maryland","21201",1
2088,"S HOWARD ST &W PRATT ST","BALTIMORE","Maryland","21201",1
2089,"5300 TWIN OAK AVE","BALTIMORE","Maryland","21214",1
2090,"404 WINSTON AVE","BALTIMORE","Maryland","21212",1
2091,"940 S LAKEWOOD AVE","BALTIMORE","Maryland","21224",1
2092,"THE ALAMEDA &E 33RD ST","BALTIMORE","Maryland","21218",1
2093,"6300 DANVILLE AVE","BALTIMORE","Maryland","21224",1
2094,"3300 MENLO DR","BALTIMORE","Maryland","21215",1
2095,"4600 NORTHWOOD DR","BALTIMORE","Maryland","21239",1
2096,"111 TAPLOW RD","BALTIMORE","Maryland","21212",1
2097,"201 W LANVALE ST","BALTIMORE","Maryland","21217",1
2098,"546 E 38TH ST","BALTIMORE","Maryland","21218",1
2099,"300 S AUGUSTA AVE","BALTIMORE","Maryland","21229",1
2100,"MENLO DR & HIGHGATE DR","BALTIMORE","Maryland","21215",1
2101,"2625 GARRETT AVE","BALTIMORE","Maryland","21218",1
2102,"ECHODALE AVE & PERRING PKWY","BALTIMORE","Maryland","21239",1
2103,"I 95 & MORAVIA RD","BALTIMORE","Maryland","21237",1
2104,"120 N GREENE ST","BALTIMORE","Maryland","21201",1
2105,"4801 GREENCREST RD","BALTIMORE","Maryland","21206",1
2106,"4706 KESWICK RD","BALTIMORE","Maryland","21210",1
2107,"POTEE ST &W PATAPSCO AVE","BALTIMORE","Maryland","21225",1
2108,"2201 W COLD SPRING LN","BALTIMORE","Maryland","21209",1
2109,"1 W MULBERRY ST","BALTIMORE","Maryland","21201",1
2110,"514 OTTERBEIN ST","BALTIMORE","Maryland","21230",1
2111,"MCCLEAN BLVD & PERRING PKWY","PARKVILLE","Maryland","21234",1
2112,"1300 HOMESTEAD ST","BALTIMORE","Maryland","21218",1
2113,"SPRINGARDEN DR & YELLOWWOOD AVE","BALTIMORE","Maryland","21209",1
2114,"5300 PURLINGTON WAY","BALTIMORE","Maryland","21212",1
2115,"5600 NORTHWOOD DR","BALTIMORE","Maryland","21212",1
2116,"5300 TILBURY WAY","BALTIMORE","Maryland","21212",1
2117,"2800 W FRANKLIN ST","BALTIMORE","Maryland","21223",1
2118,"2217 EASTERN AVE","BALTIMORE","Maryland","21231",1
2119,"5200 TRAMORE RD","BALTIMORE","Maryland","21214",1
2120,"1625 EASTERN AVE","BALTIMORE","Maryland","21231",1
2121,"EASTERN AVE &S EXETER ST","BALTIMORE","Maryland","21202",1
2122,"1900 WILKENS AVE","BALTIMORE","Maryland","21223",1
2123,"2400 E MONUMENT ST","BALTIMORE","Maryland","21205",1
2124,"3800 WILKENS AVE","BALTIMORE","Maryland","21229",1
2125,"3700 E MONUMENT ST","BALTIMORE","Maryland","21205",1
2126,"4807 EDMONDSON AVE","BALTIMORE","Maryland","21229",1
2127,"6602 PARK HEIGHTS AVE","BALTIMORE","Maryland","21215",1
2128,"6300 LOCH RAVEN BLVD","BALTIMORE","Maryland","21239",1
2129,"2900 ULMAN AVE","BALTIMORE","Maryland","21215",1
2130,"2500 LOCH RAVEN RD","BALTIMORE","Maryland","21218",1
2131,"4407 FRANKFORD AVE","BALTIMORE","Maryland","21206",1
2132,"100 E 28TH ST","BALTIMORE","Maryland","21218",1
2133,"SHELL RD & FRANKFURST AVE","BALTIMORE","Maryland","21225",1
2134,"5900 THE ALAMEDA","BALTIMORE","Maryland","21239",1
2135,"5415 THE ALAMEDA","BALTIMORE","Maryland","21239",1
2136,"2000 E PRATT ST","BALTIMORE","Maryland","21231",1
2137,"5214 THE ALAMEDA","BALTIMORE","Maryland","21239",1
2138,"313 E MELROSE AVE","BALTIMORE","Maryland","21212",1
2139,"3900 S HANOVER ST","BALTIMORE","Maryland","21225",1
2140,"3708 THE ALAMEDA","BALTIMORE","Maryland","21218",1
2141,"3500 THE ALAMEDA","BALTIMORE","Maryland","21218",1
2142,"3605 WOODLEA AVE","BALTIMORE","Maryland","21214",1
2143,"2800 WASHINGTON BLVD","BALTIMORE","Maryland","21230",1
2144,"1600 PORTUGAL ST","BALTIMORE","Maryland","21231",1
2145,"3200 CHELSEA TER","BALTIMORE","Maryland","21216",1
2146,"3300 CALLAWAY AVE","BALTIMORE","Maryland","21216",1
2147,"2200 GARRETT AVE","BALTIMORE","Maryland","21218",1
2148,"N FOREST PARK AVE & PICKWICK RD","BALTIMORE","Maryland","21207",1
2149,"2721 INGLEWOOD AVE","BALTIMORE","Maryland","21234",1
2150,"KEY HWY & LIGHT ST","BALTIMORE","Maryland","21230",1
2151,"300 N GAY ST","BALTIMORE","Maryland","21202",1
2152,"4006 RIDGECROFT RD","BALTIMORE","Maryland","21206",1
2153,"3900 RIDGECROFT RD","BALTIMORE","Maryland","21206",1
2154,"PERRING PKWY","BALTIMORE","Maryland","21239",1
2155,"PERRING PKWY & HEATHFIELD RD","BALTIMORE","Maryland","21239",1
2156,"E PRATT ST &S CENTRAL AVE","BALTIMORE","Maryland","21202",1
2157,"N BROADWAY &E FAIRMOUNT AVE","BALTIMORE","Maryland","21231",1
2158,"S BROADWAY & LANCASTER ST","BALTIMORE","Maryland","21231",1
2159,"N BROADWAY &E FAYETTE ST","BALTIMORE","Maryland","21231",1
2160,"704 S BROADWAY","BALTIMORE","Maryland","21231",1
2161,"WILKENS AVE & SOUTHWESTERN BLVD","BALTIMORE","Maryland","21229",1
2162,"5009 DENMORE AVE","BALTIMORE","Maryland","21215",1
2163,"5006 DENMORE AVE","BALTIMORE","Maryland","21215",1
2164,"5002 DENMORE AVE","BALTIMORE","Maryland","21215",1
2165,"5004 DENMORE AVE","BALTIMORE","Maryland","21215",1
2166,"738 OLDHAM ST","BALTIMORE","Maryland","21224",1
2167,"3027 TAYLOR AVE","BALTIMORE","Maryland","21234",1
2168,"7000 WILLIAMSON AVE","BALTIMORE","Maryland","21215",1
2169,"ALLENDALE ST &W MULBERRY ST","BALTIMORE","Maryland","21229",1
2170,"5319 LOCH RAVEN BLVD","BALTIMORE","Maryland","21239",1
2171,"1455 STEVENSON ST","BALTIMORE","Maryland","21230",1
2172,"1016 E 36TH ST","BALTIMORE","Maryland","21218",1
2173,"5222 TRAMORE RD","BALTIMORE","Maryland","21214",1
2174,"PERRING PKWY &E NORTHERN PKWY","BALTIMORE","Maryland","21239",1
2175,"110 S EUTAW ST","BALTIMORE","Maryland","21201",1
2176,"2109 HARGROVE ST","BALTIMORE","Maryland","21218",1
2177,"529 W PATAPSCO AVE","BALTIMORE","Maryland","21225",1
2178,"2413 SINCLAIR LN","BALTIMORE","Maryland","21213",1
2179,"2451 SINCLAIR LN","BALTIMORE","Maryland","21213",1
2180,"3600 THE ALAMEDA","BALTIMORE","Maryland","21218",1
2181,"3800 EDGEWOOD RD","BALTIMORE","Maryland","21215",1
2182,"2387 S CLINTON ST","BALTIMORE","Maryland","21224",1
2183,"W LOMBARD ST &S HOWARD ST","BALTIMORE","Maryland","21201",1
2184,"1500 WINFORD RD","BALTIMORE","Maryland","21239",1
2185,"HOLLINS FERRY RD & HURON ST","BALTIMORE","Maryland","21230",1
2186,"3817 E NORTHERN PKWY","BALTIMORE","Maryland","21206",1
2187,"1534 W MOUNT ROYAL AVE","BALTIMORE","Maryland","21217",1
2188,"1142 COOKS LN","CARROLL","Maryland","21229",1
2189,"3100 TOWANDA AVE","BALTIMORE","Maryland","21215",1
2190,"SEIDEL AVE & MANNASOTA AVE","BALTIMORE","Maryland","21206",1
2191,"3228 E NORTHERN PKWY","BALTIMORE","Maryland","21214",1
2192,"308 S EAST AVE","BALTIMORE","Maryland","21224",1
2193,"700 N MADEIRA ST","BALTIMORE","Maryland","21205",1
2194,"6307 EASTERN PKWY","BALTIMORE","Maryland","21214",1
2195,"3827 BONVIEW AVE","BALTIMORE","Maryland","21213",1
2196,"GOUGH ST &S EDEN ST","BALTIMORE","Maryland","21202",1
2197,"6214 EASTERN AVE","BALTIMORE","Maryland","21224",1
2198,"5900 LOCH RAVEN BLVD","BALTIMORE","Maryland","21239",1
2199,"2506 W LAFAYETTE AVE","BALTIMORE","Maryland","21216",1
2200,"NORTHWOOD DR & PENTRIDGE RD","BALTIMORE","Maryland","21239",1
2201,"2022 GIRARD AVE","BALTIMORE","Maryland","21211",1
2202,"4401 IVANHOE AVE","BALTIMORE","Maryland","21212",1
2203,"N KRESSON ST &E FAIRMOUNT AVE","BALTIMORE","Maryland","21224",1
2204,"2700 HERKIMER ST","BALTIMORE","Maryland","21230",1
2205,"3109 ROSEKEMP AVE","BALTIMORE","Maryland","21214",1
2206,"5700 LOCH RAVEN BLVD","BALTIMORE","Maryland","21239",1
2207,"601 HOLLEN RD","BALTIMORE","Maryland","21212",1
2208,"5537 CEDONIA AVE","BALTIMORE","Maryland","21206",1
2209,"4413 GROVELAND AVE","BALTIMORE","Maryland","21215",1
2210,"2000 PENROSE AVE","BALTIMORE","Maryland","21223",1
2211,"1800 N MILTON AVE","BALTIMORE","Maryland","21213",1
2212,"5100 NORWOOD RD","BALTIMORE","Maryland","21212",1
2213,"1200 E NORTH AVE","BALTIMORE","Maryland","21202",1
2214,"KENNEWICK RD & TIVOLY AVE","BALTIMORE","Maryland","21218",1
2215,"3500 THE ALAMEDA","BALTIMORE","Maryland","21218",1
2216,"1700 E LOMBARD ST","BALTIMORE","Maryland","21231",1
2217,"5301 GOODNOW RD","BALTIMORE","Maryland","21206",1
2218,"3713 FLEET ST","BALTIMORE","Maryland","21224",1
2219,"2400 PINEWOOD AVE","BALTIMORE","Maryland","21214",1
2220,"4617 YORK RD","BALTIMORE","Maryland","21212",1
2221,"4199 GREENMOUNT AVE","BALTIMORE","Maryland","21218",1
2222,"BELAIR RD &E NORTHERN PKWY","BALTIMORE","Maryland","21206",1
2223,"4100 GREENMOUNT AVE","BALTIMORE","Maryland","21218",1
2224,"6650 BELAIR RD","BALTIMORE","Maryland","21206",1
2225,"4737 OLD YORK RD","BALTIMORE","Maryland","21212",1
2226,"2900 GREENMOUNT AVE","BALTIMORE","Maryland","21218",1
2227,"5500 NORTHWOOD DR","BALTIMORE","Maryland","21212",1
2228,"1000 CAMERON RD","BALTIMORE","Maryland","21212",1
2229,"4006 E NORTHERN PKWY","BALTIMORE","Maryland","21206",1
2230,"3800 E NORTHERN PKWY","BALTIMORE","Maryland","21206",1
2231,"4407 N CHARLES ST","BALTIMORE","Maryland","21218",1
2232,"3037 E NORTHERN PKWY","BALTIMORE","Maryland","21214",1
2233,"I 295 & WATERVIEW AVE","BALTIMORE","Maryland","21230",1
2234,"300 E NORTHERN PKWY","BALTIMORE","Maryland","21212",1
2235,"113 TAPLOW RD","BALTIMORE","Maryland","21212",1
2236,"500 E 33RD ST","BALTIMORE","Maryland","21218",1
2237,"2913 HALCYON AVE","BALTIMORE","Maryland","21214",1
2238,"418 E 33RD ST","BALTIMORE","Maryland","21218",1
2239,"958 BELGIAN AVE","BALTIMORE","Maryland","21218",1
2240,"842 HILLEN ST","BALTIMORE","Maryland","21202",1
2241,"4100 TIVOLY AVE","BALTIMORE","Maryland","21218",1
2242,"3100 PARKSIDE DR","BALTIMORE","Maryland","21214",1
2243,"555 N CAROLINE ST","BALTIMORE","Maryland","21205",1
2244,"5129 ROLAND AVE","BALTIMORE","Maryland","21210",1
2245,"246 DOUGLASS CT","BALTIMORE","Maryland","21231",1
2246,"3303 SOUTHERN AVE","BALTIMORE","Maryland","21214",1
2247,"201 N SPRING CT","BALTIMORE","Maryland","21231",1
2248,"6200 WINNER AVE","BALTIMORE","Maryland","21215",1
2249,"2500 E MADISON ST","BALTIMORE","Maryland","21205",1
2250,"W PRATT ST &S HOWARD ST","BALTIMORE","Maryland","21201",1
2251,"N EUTAW ST &W SARATOGA ST","BALTIMORE","Maryland","21201",1
2252,"4300 HAYWARD AVE","BALTIMORE","Maryland","21215",1
2253,"1029 CHURCH ST","BALTIMORE","Maryland","21225",1
2254,"101 CHESAPEAKE AVE","BALTIMORE","Maryland","21225",1
2255,"MORAVIA PARK DR","BALTIMORE","Maryland","21237",1
2256,"3302 MENLO DR","BALTIMORE","Maryland","21215",1
2257,"5404 FREDERICK AVE","BALTIMORE","Maryland","21229",1
2258,"3939 BROOKLYN AVE","BALTIMORE","Maryland","21225",1
2259,"3808 SAINT PAUL ST","BALTIMORE","Maryland","21218",1
2260,"2609 LINWOOD RD","BALTIMORE","Maryland","21234",1
2261,"3310 ROUND RD","BALTIMORE","Maryland","21230",1
2262,"3613 MARY AVE","BALTIMORE","Maryland","21206",1
2263,"135 E BALTIMORE ST","BALTIMORE","Maryland","21202",1
2264,"701 E BALTIMORE ST","BALTIMORE","Maryland","21202",1
2265,"3820 MARY AVE","BALTIMORE","Maryland","21206",1
2266,"1312 JACKSON ST","BALTIMORE","Maryland","21230",1
2267,"3022 E PRATT ST","BALTIMORE","Maryland","21224",1
2268,"3210 BATAVIA AVE","BALTIMORE","Maryland","21214",1
2269,"200 BOSWELL RD","BALTIMORE","Maryland","21229",1
2270,"500 E LEXINGTON ST","BALTIMORE","Maryland","21202",1
2271,"3900 BROOKLYN AVE","BALTIMORE","Maryland","21225",1
2272,"4920 WESTHILLS RD","BALTIMORE","Maryland","21229",1
2273,"901 DRUID PARK LAKE DR","BALTIMORE","Maryland","21217",1
2274,"4710 GRINDON AVE","BALTIMORE","Maryland","21214",1
2275,"123 W READ ST","BALTIMORE","Maryland","21201",1
2276,"123 W READ ST","BALTIMORE","Maryland","21201",1
2277,"1719 E 31ST ST","BALTIMORE","Maryland","21218",1
2278,"1228 S CAREY ST","BALTIMORE","Maryland","21230",1
2279,"2200 WINCHESTER ST","BALTIMORE","Maryland","21216",1
2280,"W LAKE AVE & ROLAND AVE","BALTIMORE","Maryland","21210",1
2281,"PIMLICO RD &W NORTHERN PKWY","BALTIMORE","Maryland","21209",1
2282,"1014 ELLICOTT DWY","BALTIMORE","Maryland","21216",1
2283,"GUSRYAN ST.","BALTIMORE","Maryland","21224",1
2284,"2000 HOLLINS FERRY RD","BALTIMORE","Maryland","21230",1
2285,"2004 HOLLINS FERRY RD","BALTIMORE","Maryland","21230",1
2286,"1900 HOLLINS FERRY RD","BALTIMORE","Maryland","21230",1
2287,"2100 ASHLAND AVE","BALTIMORE","Maryland","21205",1
2288,"3206 HUDSON ST","BALTIMORE","Maryland","21224",1
2289,"1800 N PATTERSON PARK AVE","BALTIMORE","Maryland","21213",1
2290,"600 WHITELOCK ST","BALTIMORE","Maryland","21217",1
2291,"EASTSHIRE DR & WEGWORTH LN","BALTIMORE","Maryland","21230",1
2292,"3816 SINCLAIR LN","BALTIMORE","Maryland","21213",1
2293,"2800 KIRK AVE","BALTIMORE","Maryland","21218",1
2294,"1400 EUTAW PL","BALTIMORE","Maryland","21217",1
2295,"5515 MAYVIEW AVE","BALTIMORE","Maryland","21206",1
2296,"326 S FRANKLINTOWN RD","BALTIMORE","Maryland","21223",1
2297,"5937 BELAIR RD","BALTIMORE","Maryland","21206",1
2298,"600 CUMBERLAND ST","BALTIMORE","Maryland","21217",1
2299,"3800 BONVIEW AVE","BALTIMORE","Maryland","21213",1
2300,"1459 STEVENSON ST","BALTIMORE","Maryland","21230",1
2301,"1800 S CHARLES ST","BALTIMORE","Maryland","21230",1
2302,"6804 BANK ST","BALTIMORE","Maryland","21224",1
2303,"6808 CONLEY ST","BALTIMORE","Maryland","21224",1
2304,"3900 W ROGERS AVE","BALTIMORE","Maryland","21215",1
2305,"QUINTON ST & GOUGH ST","BALTIMORE","Maryland","21224",1
2306,"3801 ELMLEY AVE","BALTIMORE","Maryland","21213",1
2307,"COLE ST & BRUNSWICK ST","BALTIMORE","Maryland","21223",1
2308,"3800 LYNDALE AVE","BALTIMORE","Maryland","21213",1
2309,"1500 HAVENWOOD RD","BALTIMORE","Maryland","21218",1
2310,"6056 MORAVIA PARK DR","BALTIMORE","Maryland","21206",1
2311,"6601 MORAVIA PARK DR","BALTIMORE","Maryland","21237",1
2312,"400 N WOLFE ST","BALTIMORE","Maryland","21205",1
2313,"PILGRIM RD & GIBBONS AVE","BALTIMORE","Maryland","21214",1
2314,"4700 SAYER AVE","BALTIMORE","Maryland","21229",1
2315,"2229 VAN DEMAN ST","BALTIMORE","Maryland","21224",1
2316,"BELAIR RD & WHITE AVE","BALTIMORE","Maryland","21206",1
2317,"N GAY ST &E NORTH AVE","BALTIMORE","Maryland","21213",1
2318,"300 E NORTHERN PKWY","BALTIMORE","Maryland","21212",1
2319,"3329 CLIFTMONT AVE","BALTIMORE","Maryland","21213",1
2320,"3000 WISTERIA AVE","BALTIMORE","Maryland","21214",1
2321,"6600 BELAIR RD","BALTIMORE","Maryland","21206",1
2322,"SMITH AVE & TERRACE RD","BALTIMORE","Maryland","21209",1
2323,"1002 SAINT DUNSTANS RD","BALTIMORE","Maryland","21212",1
2324,"BAKER ST &N BENTALOU ST","BALTIMORE","Maryland","21216",1
2325,"1300 POPLAR GROVE ST","BALTIMORE","Maryland","21216",1
2326,"E BIDDLE ST &N COLLINGTON AVE","BALTIMORE","Maryland","21213",1
2327,"2801 O'DONNELL ST","BALTIMORE","Maryland","21224",1
2328,"3003 O'DONNELL ST","BALTIMORE","Maryland","21224",1
2329,"6800 BECHTEL RD","BALTIMORE","Maryland","21234",1
2330,"2039 CLIFTWOOD AVE","BALTIMORE","Maryland","21213",1
2331,"3043 CHESTERFIELD AVE","BALTIMORE","Maryland","21213",1
2332,"6700 MOYER AVE","BALTIMORE","Maryland","21234",1
2333,"3600 E NORTHERN PKWY","BALTIMORE","Maryland","21206",1
2334,"4000 COTTAGE AVE","BALTIMORE","Maryland","21215",1
2335,"144 IRVING ST","BALTIMORE","Maryland","21229",1
2336,"E LAKE AVE & YORK RD","BALTIMORE","Maryland","21212",1
2337,"E LAKE AVE & NORTHWOOD DR","BALTIMORE","Maryland","21212",1
2338,"5400 FORCE RD","BALTIMORE","Maryland","21206",1
2339,"3306 OAKFIELD AVE","BALTIMORE","Maryland","21207",1
2340,"3100 BATAVIA AVE","BALTIMORE","Maryland","21214",1
2341,"3500 BELAIR RD","BALTIMORE","Maryland","21213",1
2342,"6203 CARTER AVE","BALTIMORE","Maryland","21214",1
2343,"4018 RIDGECROFT RD","BALTIMORE","Maryland","21206",1
2344,"DRUID PARK DR & KEYSTONE AVE","BALTIMORE","Maryland","21211",1
2345,"4646 PIMLICO RD","BALTIMORE","Maryland","21215",1
2346,"2547 W COLD SPRING LN","BALTIMORE","Maryland","21215",1
2347,"4411 PIMLICO RD","BALTIMORE","Maryland","21215",1
2348,"2000 CLIFTON AVE","BALTIMORE","Maryland","21217",1
2349,"2700 WINCHESTER ST","BALTIMORE","Maryland","21216",1
2350,"4600 EDMONDSON AVE","BALTIMORE","Maryland","21229",1
2351,"1901 LYDONLEA WAY","BALTIMORE","Maryland","21239",1
2352,"DELVERNE RD & GREYSTONE RD","BALTIMORE","Maryland","21218",1
2353,"2813 HALCYON AVE","BALTIMORE","Maryland","21214",1
2354,"6635 BELAIR RD","BALTIMORE","Maryland","21206",1
2355,"W FRANKLIN ST &N PAYSON ST","BALTIMORE","Maryland","21223",1
2356,"5700 GOVANE AVE","BALTIMORE","Maryland","21212",1
2357,"4405 N CHARLES ST","BALTIMORE","Maryland","21218",1
2358,"3628 ROLAND AVE","BALTIMORE","Maryland","21211",1
2359,"623 N HIGHLAND AVE","BALTIMORE","Maryland","21205",1
2360,"5115 MAPLE PARK AVE","BALTIMORE","Maryland","21207",1
2361,"2600 CECIL AVE","BALTIMORE","Maryland","21218",1
2362,"700 RICHWOOD AVE","BALTIMORE","Maryland","21212",1
2363,"2800 HAMILTON AVE","BALTIMORE","Maryland","21214",1
2364,"EDMONDSON AVE &N PULASKI ST","BALTIMORE","Maryland","21223",1
2365,"4300 SOUTHERN AVE","BALTIMORE","Maryland","21206",1
2366,"5311 CURTIS AVE","BALTIMORE","Maryland","21226",1
2367,"5301 CURTIS AVE","BALTIMORE","Maryland","21226",1
2368,"1003 W CHASE ST","BALTIMORE","Maryland","21201",1
2369,"WORCESTER ST & RIDGELY ST","BALTIMORE","Maryland","21230",1
2370,"700 YALE AVE","BALTIMORE","Maryland","21229",1
2371,"HILTON PKWY & EDMONDSON AVE","BALTIMORE","Maryland","21229",1
2372,"800 GUSRYAN ST","BALTIMORE","Maryland","21224",1
2373,"4220 NORFOLK AVE","BALTIMORE","Maryland","21216",1
2374,"2800 CHESTERFIELD AVE","BALTIMORE","Maryland","21213",1
2375,"LOCH RAVEN BLVD &E NORTHERN PKWY","BALTIMORE","Maryland","21239",1
2376,"GOODALE PL & PADDINGTON RD","BALTIMORE","Maryland","21212",1
2377,"N FOREST PARK AVE & WINDSOR MILL RD","BALTIMORE","Maryland","21207",1
2378,"3700 GRANTLEY RD","BALTIMORE","Maryland","21215",1
2379,"HICKORY AVE &W 41ST ST","BALTIMORE","Maryland","21211",1
2380,"N CHARLES ST & OVERHILL RD","BALTIMORE","Maryland","21218",1
2381,"3400 ELMORA AVE","BALTIMORE","Maryland","21213",1
2382,"E NORTHERN PKWY & BELLONA AVE","BALTIMORE","Maryland","21212",1
2383,"LAKE MONTEBELLO DR & LAKE AVE","BALTIMORE","Maryland","21218",1
2384,"2226 LAKE AVE","BALTIMORE","Maryland","21213",1
2385,"500 N LINWOOD AVE","BALTIMORE","Maryland","21205",1
2386,"4300 N ROGERS AVE","BALTIMORE","Maryland","21215",1
2387,"1800 N FOREST PARK AVE","BALTIMORE","Maryland","21207",1
2388,"2200 WESTFIELD AVE","BALTIMORE","Maryland","21214",1
2389,"6300 PIONEER DR","BALTIMORE","Maryland","21214",1
2390,"3900 GWYNN OAK AVE","BALTIMORE","Maryland","21207",1
2391,"5200 BIDDISON AVE","BALTIMORE","Maryland","21206",1
2392,"4600 BRIARCLIFT RD","BALTIMORE","Maryland","21229",1
2393,"10TH ST &E PATAPSCO AVE","BALTIMORE","Maryland","21225",1
2394,"813 S EAST AVE","BALTIMORE","Maryland","21224",1
2395,"5404 FREDERICK AVE","BALTIMORE","Maryland","21229",1
2396,"600 N WOODINGTON RD","BALTIMORE","Maryland","21229",1
2397,"500 WILDWOOD PKWY","BALTIMORE","Maryland","21229",1
2398,"300 N GRANTLEY ST","BALTIMORE","Maryland","21229",1
2399,"630 JASPER ST","BALTIMORE","Maryland","21201",1
2400,"2200 CHESTERFIELD AVE","BALTIMORE","Maryland","21213",1
2401,"834 S LUZERNE AVE","BALTIMORE","Maryland","21224",1
2402,"3700 RAVENWOOD AVE","BALTIMORE","Maryland","21213",1
2403,"3004 CHESLEY AVE","BALTIMORE","Maryland","21234",1
2404,"4103 WOODLEA AVE","BALTIMORE","Maryland","21206",1
2405,"1501 S CATON AVE","BALTIMORE","Maryland","21227",1
2406,"401 NORTH BEND RD","BALTIMORE","Maryland","21229",1
2407,"501 NORTH BEND RD","BALTIMORE","Maryland","21229",1
2408,"3710 W STRATHMORE AVE","BALTIMORE","Maryland","21215",1
2409,"TAYLOR AVE & DANIELS AVE","BALTIMORE","Maryland","21234",1
2410,"2604 HERMOSA AVE","BALTIMORE","Maryland","21214",1
2411,"820 NOTTINGHAM RD","BALTIMORE","Maryland","21229",1
2412,"4800 LINDSAY RD","BALTIMORE","Maryland","21229",1
2413,"4800 WESTPARKWAY","BALTIMORE","Maryland","21229",1
2414,"4600 WHITE AVE","BALTIMORE","Maryland","21206",1
2415,"4700 DARTFORD AVE","BALTIMORE","Maryland","21229",1
2416,"4000 PARKSIDE DR","BALTIMORE","Maryland","21206",1
2417,"2908 E COLD SPRING LN","BALTIMORE","Maryland","21214",1
2418,"4200 WHITE AVE","BALTIMORE","Maryland","21206",1
2419,"1800 N SPRING ST","BALTIMORE","Maryland","21213",1
2420,"E MCCOMAS ST & I 95 S","BALTIMORE","Maryland","21230",1
2421,"BELAIR RD & GLENMORE AVE","BALTIMORE","Maryland","21206",1
2422,"5503 ARABIA AVE","BALTIMORE","Maryland","21214",1
2423,"3612 W GARRISON AVE","BALTIMORE","Maryland","21215",1
2424,"901 HARGROVE ST","BALTIMORE","Maryland","21202",1
2425,"100 OVERHILL RD","BALTIMORE","Maryland","21210",1
2426,"6327 PIONEER DR","BALTIMORE","Maryland","21214",1
2427,"3335 CLIPPER MILL RD","BALTIMORE","Maryland","21211",1
2428,"3800 GREENWAY","BALTIMORE","Maryland","21218",1
2429,"4300 GREENWAY","BALTIMORE","Maryland","21218",1
2430,"4814 BRIARCLIFT RD","BALTIMORE","Maryland","21229",1
2431,"3600 KEENE AVE","BALTIMORE","Maryland","21214",1
2432,"EDMONDSON AVE & UPLANDS PKWY","BALTIMORE","Maryland","21229",1
2433,"4226 PRUDENCE ST","BALTIMORE","Maryland","21226",1
2434,"KEY HWY & KEY HWY E","BALTIMORE","Maryland","21230",1
2435,"2200 DRUID PARK DR","BALTIMORE","Maryland","21211",1
2436,"2500 DRUID PARK DR","BALTIMORE","Maryland","21215",1
2437,"2555 CECIL AVE","BALTIMORE","Maryland","21218",1
2438,"MALLVIEW RD & WEGWORTH LN","BALTIMORE","Maryland","21230",1
2439,"1600 N SMALLWOOD ST","BALTIMORE","Maryland","21216",1
2440,"1654 N SMALLWOOD ST","BALTIMORE","Maryland","21216",1
2441,"1801 N PULASKI ST","BALTIMORE","Maryland","21217",1
2442,"1600 N PULASKI ST","BALTIMORE","Maryland","21217",1
2443,"1506 N PULASKI ST","BALTIMORE","Maryland","21217",1
2444,"1505 N PAYSON ST","BALTIMORE","Maryland","21217",1
2445,"1510 N PAYSON ST","BALTIMORE","Maryland","21217",1
2446,"1516 N PAYSON ST","BALTIMORE","Maryland","21217",1
2447,"1531 N PAYSON ST","BALTIMORE","Maryland","21217",1
2448,"1544 N PAYSON ST","BALTIMORE","Maryland","21217",1
2449,"1544 N PAYSON ST","BALTIMORE","Maryland","21217",1
2450,"1818 N PAYSON ST","BALTIMORE","Maryland","21217",1
2451,"1712 APPLETON ST","BALTIMORE","Maryland","21217",1
2452,"1545 APPLETON ST","BALTIMORE","Maryland","21217",1
2453,"1500 APPLETON ST","BALTIMORE","Maryland","21217",1
2454,"1200 BROENING HWY","BALTIMORE","Maryland","21224",1
2455,"1802 BAKER ST","BALTIMORE","Maryland","21217",1
2456,"1810 BAKER ST","BALTIMORE","Maryland","21217",1
2457,"2706 RUECKERT AVE","BALTIMORE","Maryland","21214",1
2458,"1615 N MONROE ST","BALTIMORE","Maryland","21217",1
2459,"1615 N MONROE ST","BALTIMORE","Maryland","21217",1
2460,"1607 BAKER ST","BALTIMORE","Maryland","21217",1
2461,"1500 N FULTON AVE","BALTIMORE","Maryland","21217",1
2462,"1813 PRESSTMAN ST","BALTIMORE","Maryland","21217",1
2463,"1637 RUXTON AVE","BALTIMORE","Maryland","21216",1
2464,"1526 RIVERSIDE AVE","BALTIMORE","Maryland","21230",1
2465,"2400 PRESBURY ST","BALTIMORE","Maryland","21216",1
2466,"1654 RUXTON AVE","BALTIMORE","Maryland","21216",1
2467,"2400 WESTWOOD AVE","BALTIMORE","Maryland","21216",1
2468,"1736 RUXTON AVE","BALTIMORE","Maryland","21216",1
2469,"2400 WESTWOOD AVE","BALTIMORE","Maryland","21216",1
2470,"1824 RUXTON AVE","BALTIMORE","Maryland","21216",1
2471,"200 S WOLFE ST","BALTIMORE","Maryland","21231",1
2472,"4100 PATTERSON AVE","BALTIMORE","Maryland","21215",1
2473,"1800 RUXTON AVE","BALTIMORE","Maryland","21216",1
2474,"2600 ERDMAN AVE","BALTIMORE","Maryland","21213",1
2475,"1800 N BENTALOU ST","BALTIMORE","Maryland","21216",1
2476,"1701 N BENTALOU ST","BALTIMORE","Maryland","21216",1
2477,"1700 N BENTALOU ST","BALTIMORE","Maryland","21216",1
2478,"4100 PARKWOOD AVE","BALTIMORE","Maryland","21206",1
2479,"5005 BENTON HEIGHTS AVE","BALTIMORE","Maryland","21206",1
2480,"1607 N BENTALOU ST","BALTIMORE","Maryland","21216",1
2481,"1600 N BENTALOU ST","BALTIMORE","Maryland","21216",1
2482,"1531 N BENTALOU ST","BALTIMORE","Maryland","21216",1
2483,"1521 N BENTALOU ST","BALTIMORE","Maryland","21216",1
2484,"1500 N BENTALOU ST","BALTIMORE","Maryland","21216",1
2485,"W NORTHERN PKWY & LIBERTY HEIGHTS AVE","BALTIMORE","Maryland","21207",1
2486,"4700 LIBERTY HEIGHTS AVE","BALTIMORE","Maryland","21207",1
2487,"1509 N BENTALOU ST","BALTIMORE","Maryland","21216",1
2488,"904 VALENCIA CT","BALTIMORE","Maryland","21230",1
2489,"2300 N FULTON AVE","BALTIMORE","Maryland","21217",1
2490,"1400 N BENTALOU ST","BALTIMORE","Maryland","21216",1
2491,"3640 ROLAND AVE","BALTIMORE","Maryland","21211",1
2492,"GWYNNS FALLS PKWY &N WARWICK AVE","BALTIMORE","Maryland","21215",1
2493,"3800 BELLE AVE","BALTIMORE","Maryland","21215",1
2494,"5600 CHINQUAPIN PKWY","BALTIMORE","Maryland","21239",1
2495,"WALTERS AVE & CHINQUAPIN PKWY","BALTIMORE","Maryland","21239",1
2496,"4000 REXMERE RD","BALTIMORE","Maryland","21218",1
2497,"3901 GROVELAND AVE","BALTIMORE","Maryland","21215",1
2498,"529 W PATAPSCO AVE","BALTIMORE","Maryland","21225",1
2499,"1131 ASHBURTON ST","BALTIMORE","Maryland","21216",1
2500,"2129 CAMBRIDGE ST","BALTIMORE","Maryland","21231",1
