"address","city","code","codedescription","createddate","duedate","neighborhood","servicerequestnum","state","status","statusdate","zip","activity","outcome","updateddate","lon","lat"
"3501 E BIDDLE ST","BALTIMORE","SIGNFADE","TRT-Sign Faded","2015-03-19T18:05:05.000","2015-05-08T18:05:05.000","ORANGEVILLE INDUSTRIAL AREA","15-00220212","MD","DUPCLOSD","2015-03-19T18:05:05.000","21213",NA,NA,NA,NA,NA
"2915  RUECKERT AVE","BALTIMORE","SIGNFADE","TRT-Sign Faded","2015-03-14T18:50:32.000","2015-05-03T18:50:32.000","LAURAVILLE","15-00203287","MD","CLOSED","2015-03-30T16:18:04.000","21214",NA,NA,NA,NA,NA
"3700  GELSTON DR","BALTIMORE","SIGNFADE","TRT-Sign Faded","2015-03-13T17:24:57.000","2015-05-02T17:24:57.000","EDMONDSON VILLAGE","15-00200899","MD","CLOSED","2015-04-22T09:49:17.000","21229","Generate Work Order","Sign erected","2015-04-22T09:49:00.000",NA,NA
"300 E 22 1/2 ST","BALTIMORE","SIGNFADE","TRT-Sign Faded","2015-03-12T17:42:16.000","2015-05-01T17:42:16.000","BARCLAY","15-00196184","MD","CLOSED","2015-03-26T17:32:24.000","21218","Generate Work Order","Sign erected","2015-03-26T17:32:00.000",NA,NA
"1411  BUSH ST","BALTIMORE","SIGNFADE","TRT-Sign Faded","2015-03-11T11:51:47.000","2015-04-30T11:51:47.000","WASHINGTON VILLAGE","15-00189389","MD","CLOSED","2015-04-06T10:20:23.000","21230","Generate Work Order","Sign erected","2015-04-06T10:20:00.000",NA,NA
"2100 E CHASE ST","BALTIMORE","SIGNFADE","TRT-Sign Faded","2015-03-10T15:56:12.000","2015-04-29T15:56:12.000","MIDDLE EAST","15-00186681","MD","O-PENDNG","2015-05-06T11:20:32.000","21213",NA,NA,NA,NA,NA
"3501 E BIDDLE ST","BALTIMORE","SIGNFADE","TRT-Sign Faded","2015-03-09T11:59:41.000","2015-04-28T11:59:41.000","ORANGEVILLE INDUSTRIAL AREA","15-00181074","MD","CLOSED","2015-03-16T16:57:22.000","21213",NA,NA,NA,NA,NA
"N CHARLES ST &E LAKE AVE","BALTIMORE","SIGNFADE","TRT-Sign Faded","2015-02-17T21:18:43.000","2015-04-08T21:18:43.000","BELLONA-GITTINGS","15-00116154","MD","CLOSED","2015-05-05T12:30:56.000","21210","Generate Work Order","Sign erected","2015-05-05T12:28:00.000",NA,NA
"W WELLS ST &S HANOVER ST","BALTIMORE","SIGNFADE","TRT-Sign Faded","2015-02-13T12:46:24.000","2015-04-04T12:46:24.000","SBIC","15-00104217","MD","CLOSED","2015-03-25T17:43:25.000","21230","Generate Work Order","Sign erected","2015-03-25T17:43:00.000",NA,NA
"2412 E COLD SPRING LN","BALTIMORE","SIGNFADE","TRT-Sign Faded","2015-02-09T19:27:05.000","2015-03-31T19:27:05.000","LAURAVILLE","15-00093306","MD","CLOSED","2015-02-09T19:28:15.000","21214",NA,NA,NA,NA,NA
"2900  HARFORD RD","BALTIMORE","SIGNFADE","TRT-Sign Faded","2015-02-05T13:50:11.000","2015-03-27T13:50:11.000","COLDSTREAM HOMESTEAD MONTEBELLO","15-00083729","MD","CLOSED","2015-03-26T13:16:51.000","21218",NA,NA,NA,NA,NA
"2600  BERYL AVE","BALTIMORE","SIGNFADE","TRT-Sign Faded","2015-02-04T12:49:38.000","2015-03-26T12:49:38.000","BIDDLE STREET","15-00080242","MD","CLOSED","2015-03-24T10:18:43.000","21205","Generate Work Order","Sign erected","2015-03-24T10:18:00.000",NA,NA
"2800  MARYLAND AVE","BALTIMORE","SIGNFADE","TRT-Sign Faded","2015-02-03T17:12:46.000","2015-03-25T17:12:46.000","CHARLES VILLAGE","15-00078227","MD","CLOSED","2015-04-13T10:02:52.000","21218","Generate Work Order","Sign erected","2015-04-13T10:02:00.000",NA,NA
"2024 E BALTIMORE ST","BALTIMORE","SIGNFADE","TRT-Sign Faded","2015-02-02T15:21:35.000","2015-03-24T15:21:35.000","BUTCHER'S HILL","15-00074357","MD","DUPCLOSD","2015-02-12T14:28:38.000","21231",NA,NA,NA,NA,NA
"1  COMMERCE ST","BALTIMORE","SIGNFADE","TRT-Sign Faded","2015-01-30T18:04:37.000","2015-03-21T18:04:37.000","DOWNTOWN","15-00070338","MD","CLOSED","2015-02-23T17:23:12.000","21202",NA,NA,NA,NA,NA
"2024 E BALTIMORE ST","BALTIMORE","SIGNFADE","TRT-Sign Faded","2015-01-30T17:04:54.000","2015-03-21T17:04:54.000","BUTCHER'S HILL","15-00070131","MD","DUPCLOSD","2015-02-12T14:28:38.000","21231",NA,NA,NA,NA,NA
"2221  CANARY CT","BALTIMORE","SIGNFADE","TRT-Sign Faded","2015-01-28T12:34:41.000","2015-03-19T12:34:41.000","UPPER FELLS POINT","15-00062978","MD","CLOSED","2015-03-04T10:07:26.000","21231","Generate Work Order","Sign erected","2015-03-04T10:06:00.000",NA,NA
"5512  MATTFELDT AVE","BALTIMORE","SIGNFADE","TRT-Sign Faded","2015-01-25T23:29:07.000","2015-03-16T23:29:07.000","SABINA-MATTFELDT","15-00056030","MD","O-PENDNG","2015-03-27T13:31:04.000","21209",NA,NA,NA,NA,NA
"2412 E COLD SPRING LN","BALTIMORE","SIGNFADE","TRT-Sign Faded","2015-01-21T15:54:58.000","2015-03-12T15:54:58.000","LAURAVILLE","15-00046933","MD","CLOSED","2015-02-24T11:20:35.000","21214","Generate Work Order","Sign erected","2015-02-24T11:20:00.000",NA,NA
"2026 E BALTIMORE ST","BALTIMORE","SIGNFADE","TRT-Sign Faded","2015-01-16T14:53:07.000","2015-03-07T14:53:07.000","BUTCHER'S HILL","15-00036589","MD","CLOSED","2015-02-12T14:28:39.000","21231","Generate Work Order","Sign erected","2015-02-12T14:27:00.000",NA,NA
"1100  LYNDHURST ST","BALTIMORE","SIGNFADE","TRT-Sign Faded","2015-01-05T12:47:52.000","2015-02-24T12:47:52.000","EDMONDSON VILLAGE","15-00005954","MD","CLOSED","2015-02-09T12:29:17.000","21229",NA,NA,NA,NA,NA
"1800 E FEDERAL ST","BALTIMORE","SIGNFADE","TRT-Sign Faded","2015-01-02T18:04:16.000","2015-02-21T18:04:16.000","BROADWAY EAST","15-00002776","MD","CLOSED","2015-01-13T16:07:16.000","21213",NA,NA,NA,NA,NA
"400  SAINT PAUL PL","BALTIMORE","SIGNFADE","TRT-Sign Faded","2015-01-02T12:14:44.000","2015-02-21T12:14:44.000","DOWNTOWN","15-00001219","MD","CLOSED","2015-03-04T10:02:11.000","21202","Generate Work Order","Sign erected","2015-03-04T10:01:00.000",NA,NA
"1212  HAVERHILL RD","BALTIMORE","SIGNFADE","TRT-Sign Faded","2014-12-28T14:14:10.000","2015-02-16T14:14:10.000","VIOLETVILLE","14-00961242","MD","CLOSED","2015-02-12T09:51:54.000","21229","Generate Work Order","Sign erected","2015-02-12T09:51:00.000",NA,NA
"N CHARLES ST &E LAKE AVE","BALTIMORE","SIGNFADE","TRT-Sign Faded","2014-12-28T02:44:36.000","2015-02-16T02:44:36.000","BELLONA-GITTINGS","14-00961068","MD","CLOSED","2015-02-06T15:21:03.000","21210",NA,NA,NA,NA,NA
"1600 E 32ND ST","BALTIMORE","SIGNFADE","TRT-Sign Faded","2014-12-26T16:29:26.000","2015-02-14T16:29:26.000","COLDSTREAM HOMESTEAD MONTEBELLO","14-00959363","MD","CLOSED","2015-03-16T10:17:15.000","21218","Generate Work Order","Sign erected","2015-03-16T10:17:00.000",NA,NA
"5600  BELAIR RD","BALTIMORE","SIGNFADE","TRT-Sign Faded","2014-12-18T17:57:32.000","2015-02-06T17:57:32.000","WALTHERSON","14-00943014","MD","CLOSED","2015-02-09T11:52:36.000","21206",NA,NA,NA,NA,NA
"2900  HARFORD RD","BALTIMORE","SIGNFADE","TRT-Sign Faded","2014-12-18T13:58:57.000","2015-02-06T13:58:57.000","COLDSTREAM HOMESTEAD MONTEBELLO","14-00941996","MD","CLOSED","2015-02-06T14:58:55.000","21218",NA,NA,NA,NA,NA
"200 W COLD SPRING LN","BALTIMORE","SIGNFADE","TRT-Sign Faded","2014-12-15T19:54:50.000","2015-02-03T19:54:50.000","EVERGREEN","14-00934427","MD","CLOSED","2015-01-22T15:05:48.000","21210",NA,NA,NA,NA,NA
"PENNINGTON AVE","BALTIMORE","SIGNFADE","TRT-Sign Faded","2014-12-08T12:38:38.000","2015-01-27T12:38:38.000","HAWKINS POINT","14-00916417","MD","CLOSED","2014-12-20T12:56:45.000","21226","Dispatch Investigator","Sign not needed / not warranted","2014-12-20T12:55:00.000",NA,NA
"400 E 22ND ST","BALTIMORE","SIGNFADE","TRT-Sign Faded","2014-12-04T18:29:58.000","2015-01-23T18:29:58.000","BARCLAY","14-00910419","MD","CLOSED","2015-01-14T15:09:45.000","21218","Dispatch Investigator","Sign erected","2015-01-14T15:00:00.000",NA,NA
"500 E 21ST ST","BALTIMORE","SIGNFADE","TRT-Sign Faded","2014-12-04T18:28:14.000","2015-01-23T18:28:14.000","EAST BALTIMORE MIDWAY","14-00910410","MD","CLOSED","2014-12-11T12:29:57.000","21218",NA,NA,NA,NA,NA
"400 E 21ST ST","BALTIMORE","SIGNFADE","TRT-Sign Faded","2014-12-04T18:26:47.000","2015-01-23T18:26:47.000","BARCLAY","14-00910404","MD","CLOSED","2015-01-16T16:34:52.000","21218",NA,NA,NA,NA,NA
"2913  GLENDALE AVE","BALTIMORE","SIGNFADE","TRT-Sign Faded","2014-12-04T11:50:59.000","2015-01-23T11:50:59.000","NORTH HARFORD ROAD","14-00908386","MD","CLOSED","2015-01-02T18:32:54.000","21234",NA,NA,NA,NA,NA
"835  BOYD ST","BALTIMORE CITY","SIGNFADE","TRT-Sign Faded","2014-11-03T22:14:34.000","2014-12-23T22:14:34.000","HOLLINS MARKET","14-00828779","MD","CLOSED","2015-01-22T17:57:44.000","21201",NA,NA,NA,NA,NA
"5000  LAWNDALE AVE","BALTIMORE","SIGNFADE","TRT-Sign Faded","2014-12-02T12:03:34.000","2015-01-21T12:03:34.000","WYNDHURST","14-00902193","MD","CLOSED","2014-12-12T15:43:59.000","21210",NA,NA,NA,NA,NA
"2900  WYMAN PARK DR","BALTIMORE","SIGNFADE","TRT-Sign Faded","2014-11-26T10:33:59.000","2015-01-15T10:33:59.000","REMINGTON","14-00889267","MD","CLOSED","2014-12-09T11:57:51.000","21211","Dispatch Investigator","Sign already exists","2014-12-09T11:57:00.000",NA,NA
"1106  LYNDHURST ST","BALTIMORE","SIGNFADE","TRT-Sign Faded","2014-11-24T12:04:18.000","2015-01-13T12:04:18.000","EDMONDSON VILLAGE","14-00882827","MD","CLOSED","2015-01-02T18:35:21.000","21229",NA,NA,NA,NA,NA
"1801  DUNDALK AVE","BALTIMORE","SIGNFADE","TRT-Sign Faded","2014-11-20T14:31:53.000","2015-01-09T14:31:53.000","GRACELAND PARK","14-00875520","MD","CLOSED","2015-01-08T10:48:39.000","21222",NA,NA,NA,NA,NA
"2400  FLEET ST","BALTIMORE CITY","SIGNFADE","TRT-Sign Faded","2014-11-11T13:51:04.000","2014-12-31T13:51:04.000","CANTON","14-00850800","MD","CLOSED","2014-11-12T12:17:37.000","21224",NA,NA,NA,NA,NA
"FLEET ST &S CHESTER ST","BALTIMORE CITY","SIGNFADE","TRT-Sign Faded","2014-11-11T13:50:07.000","2014-12-31T13:50:07.000","CANTON","14-00850796","MD","CLOSED","2014-11-12T12:16:41.000","21231",NA,NA,NA,NA,NA
"FLEET ST &S CHESTER ST","BALTIMORE CITY","SIGNFADE","TRT-Sign Faded","2014-11-11T13:49:02.000","2014-12-31T13:49:02.000","CANTON","14-00850790","MD","CLOSED","2014-12-16T11:24:25.000","21231","Generate Work Order","Sign erected","2014-12-16T11:24:00.000",NA,NA
"WYNDHURST AVE &N CHARLES ST","BALTIMORE CITY","SIGNFADE","TRT-Sign Faded","2014-11-06T14:02:34.000","2014-12-26T14:02:34.000","THE ORCHARDS","14-00837569","MD","CLOSED","2014-12-23T17:05:13.000","21212","Dispatch Investigator","Sign not needed / not warranted","2014-12-23T17:05:00.000",NA,NA
"5805 N CHARLES ST","BALTIMORE CITY","SIGNFADE","TRT-Sign Faded","2014-11-06T14:01:59.000","2014-12-26T14:01:59.000","THE ORCHARDS","14-00837567","MD","CLOSED","2014-12-23T17:02:33.000","21210","Dispatch Investigator","Sign not needed / not warranted","2014-12-23T17:02:00.000",NA,NA
"919 W BARRE ST","BALTIMORE CITY","SIGNFADE","TRT-Sign Faded","2014-11-05T15:51:42.000","2014-12-25T15:51:42.000","WASHINGTON VILLAGE","14-00834585","MD","CLOSED","2015-01-14T14:24:28.000","21230","Dispatch Investigator","Sign erected","2015-01-14T14:24:00.000",NA,NA
"4901  NELSON AVE","BALTIMORE CITY","SIGNFADE","TRT-Sign Faded","2014-11-04T17:55:20.000","2014-12-24T17:55:20.000","LANGSTON HUGHES","14-00830983","MD","CLOSED","2015-01-30T13:53:06.000","21215",NA,NA,NA,NA,NA
"501 N PULASKI ST","BALTIMORE CITY","SIGNFADE","TRT-Sign Faded","2014-11-03T11:33:20.000","2014-12-23T11:33:20.000","MIDTOWN-EDMONDSON","14-00825318","MD","CLOSED","2015-01-05T12:37:42.000","21223",NA,NA,NA,NA,NA
"2600  TYLER ST","BALTIMORE CITY","SIGNFADE","TRT-Sign Faded","2014-10-31T19:31:26.000","2014-12-20T19:31:26.000","COLDSTREAM HOMESTEAD MONTEBELLO","14-00821034","MD","CLOSED","2015-01-29T15:45:29.000","21218",NA,NA,NA,NA,NA
"3800  FALLSTAFF RD","BALTIMORE CITY","SIGNFADE","TRT-Sign Faded","2014-10-29T19:37:35.000","2014-12-18T19:37:35.000","FALLSTAFF","14-00814519","MD","CLOSED","2015-01-06T12:18:25.000","21215",NA,NA,NA,NA,NA
"1314  WEBSTER ST","BALTIMORE CITY","SIGNFADE","TRT-Sign Faded","2014-10-26T02:16:31.000","2014-12-15T02:16:31.000","RIVERSIDE","14-00804414","MD","CLOSED","2014-12-15T12:11:51.000","21230","Generate Work Order","Sign erected","2014-12-15T12:11:00.000",NA,NA
"4002 W BELVEDERE AVE","BALTIMORE CITY","SIGNFADE","TRT-Sign Faded","2014-10-23T20:09:14.000","2014-12-12T20:09:14.000","WOODMERE","14-00800071","MD","CLOSED","2014-12-16T11:27:41.000","21215","Generate Work Order","Sign erected","2014-12-16T11:27:00.000",NA,NA
"100 N CAREY ST","BALTIMORE CITY","SIGNFADE","TRT-Sign Faded","2014-10-23T10:54:58.000","2014-12-12T10:54:58.000","FRANKLIN SQUARE","14-00797571","MD","CLOSED","2015-01-16T18:21:19.000","21223",NA,NA,NA,NA,NA
"1600  BROENING HWY","BALTIMORE CITY","SIGNFADE","TRT-Sign Faded","2014-10-22T17:46:08.000","2014-12-11T17:46:08.000","BROENING MANOR","14-00796333","MD","CLOSED","2014-12-15T12:10:25.000","21224","Generate Work Order","Sign erected","2014-12-15T12:00:00.000",NA,NA
"2000 E LANVALE ST","BALTIMORE CITY","SIGNFADE","TRT-Sign Faded","2014-10-21T16:00:30.000","2014-12-10T16:00:30.000","BROADWAY EAST","14-00792660","MD","CLOSED","2015-01-29T15:42:32.000","21213",NA,NA,NA,NA,NA
"900 N PAYSON ST","BALTIMORE CITY","SIGNFADE","TRT-Sign Faded","2014-10-20T18:23:17.000","2014-12-09T18:23:17.000","MIDTOWN-EDMONDSON","14-00789958","MD","CLOSED","2014-12-22T14:08:23.000","21217",NA,NA,NA,NA,NA
"2 E CROSS ST","BALTIMORE CITY","SIGNFADE","TRT-Sign Faded","2014-10-16T17:34:38.000","2014-12-05T17:34:38.000","FEDERAL HILL","14-00780736","MD","CLOSED","2014-10-30T13:48:21.000","21230","Dispatch Investigator","Sign already exists","2014-10-30T13:48:00.000",NA,NA
"204 S EATON ST","BALTIMORE CITY","SIGNFADE","TRT-Sign Faded","2014-10-16T13:22:15.000","2014-12-05T13:22:15.000","HIGHLANDTOWN","14-00779632","MD","CLOSED","2014-11-21T13:38:18.000","21224","Generate Work Order","Sign erected","2014-11-21T13:38:00.000",NA,NA
"2400  FREDERICK AVE","BALTIMORE CITY","SIGNFADE","TRT-Sign Faded","2014-10-16T13:15:53.000","2014-12-05T13:15:53.000","MILLHILL","14-00779603","MD","CLOSED","2014-12-08T10:10:36.000","21223","Generate Work Order","Sign erected","2014-12-08T10:10:00.000",NA,NA
"1000  HOMESTEAD ST","BALTIMORE CITY","SIGNFADE","TRT-Sign Faded","2014-10-16T10:47:43.000","2014-12-05T10:47:43.000","BETTER WAVERLY","14-00778930","MD","CLOSED","2014-12-20T12:57:27.000","21218","Dispatch Investigator","Sign not needed / not warranted","2014-12-09T14:07:00.000",NA,NA
"BROENING HWY & BOSTON ST","BALTIMORE CITY","SIGNFADE","TRT-Sign Faded","2014-10-09T11:15:53.000","2014-11-28T11:15:53.000","MEDFORD","14-00761417","MD","CLOSED","2014-11-20T17:30:57.000","21224","Generate Work Order","Sign erected","2014-11-20T17:30:00.000",NA,NA
"6600  BIRCHWOOD AVE","BALTIMORE CITY","SIGNFADE","TRT-Sign Faded","2014-10-03T14:02:02.000","2014-11-22T14:02:02.000","CHRISTOPHER","14-00746859","MD","CLOSED","2014-12-04T12:52:06.000","21214","Dispatch Investigator","Sign already exists","2014-12-04T12:51:00.000",NA,NA
"1600  SHERWOOD AVE","BALTIMORE CITY","SIGNFADE","TRT-Sign Faded","2014-10-03T13:51:11.000","2014-11-22T13:51:11.000","LOCH RAVEN","14-00746802","MD","CLOSED","2014-12-16T11:26:33.000","21239","Generate Work Order","Sign erected","2014-12-16T11:26:00.000",NA,NA
"5000  LAWNDALE AVE","BALTIMORE CITY","SIGNFADE","TRT-Sign Faded","2014-10-02T12:01:05.000","2014-11-21T12:01:05.000","WYNDHURST","14-00742486","MD","CLOSED","2014-12-28T02:04:07.000","21210",NA,NA,NA,NA,NA
"3801  LOCH RAVEN BLVD","BALTIMORE CITY","SIGNFADE","TRT-Sign Faded","2014-09-30T12:05:09.000","2014-11-19T12:05:09.000","ORIGINAL NORTHWOOD","14-00735420","MD","CLOSED","2014-11-24T18:03:44.000","21218","Dispatch Investigator","Sign erected","2014-11-24T18:03:00.000",NA,NA
"5512  MATTFELDT AVE","BALTIMORE CITY","SIGNFADE","TRT-Sign Faded","2014-09-28T01:07:06.000","2014-11-17T01:07:06.000","SABINA-MATTFELDT","14-00730642","MD","CLOSED","2014-10-29T13:14:50.000","21209","Dispatch Investigator","Sign already exists","2014-10-29T13:14:00.000",NA,NA
"400  HILTON PKWY","BALTIMORE CITY","SIGNFADE","TRT-Sign Faded","2014-09-26T19:12:46.000","2014-11-15T19:12:46.000","CARROLL-SOUTH HILTON","14-00728766","MD","CLOSED","2014-11-18T12:37:23.000","21229","Dispatch Investigator","Sign erected","2014-11-18T12:36:00.000",NA,NA
"EVERGREEN AVE & HAMPNETT AVE","BALTIMORE CITY","SIGNFADE","TRT-Sign Faded","2014-09-25T12:51:06.000","2014-11-14T12:51:06.000","HARFORD-ECHODALE/PERRING PARKWAY","14-00724050","MD","CLOSED","2014-11-20T09:54:57.000","21214","Generate Work Order","Sign erected","2014-11-20T09:54:00.000",NA,NA
"2700  HARFORD RD","BALTIMORE CITY","SIGNFADE","TRT-Sign Faded","2014-09-25T12:47:57.000","2014-11-14T12:47:57.000","CLIFTON PARK","14-00724030","MD","CLOSED","2014-11-21T16:16:53.000","21213","Generate Work Order","Sign erected","2014-11-21T16:16:00.000",NA,NA
"500 N WHEELER AVE","BALTIMORE CITY","SIGNFADE","TRT-Sign Faded","2014-09-24T12:41:23.000","2014-11-13T12:41:23.000","ROSEMONT HOMEOWNERS/TENANTS","14-00720567","MD","CLOSED","2014-11-25T17:45:59.000","21223",NA,NA,NA,NA,NA
"300 W 31ST ST","BALTIMORE CITY","SIGNFADE","TRT-Sign Faded","2014-09-23T18:08:14.000","2014-11-12T18:08:14.000","REMINGTON","14-00718666","MD","CLOSED","2014-12-08T11:47:13.000","21211","Generate Work Order","Sign erected","2014-12-08T11:46:00.000",NA,NA
"1400  DECATUR ST","BALTIMORE CITY","SIGNFADE","TRT-Sign Faded","2014-09-22T11:14:09.000","2014-11-11T11:14:09.000","LOCUST POINT","14-00713452","MD","CLOSED","2014-09-29T14:23:47.000","21230",NA,NA,NA,NA,NA
"1908  HOLLINS ST","BALTIMORE CITY","SIGNFADE","TRT-Sign Faded","2014-09-11T20:03:20.000","2014-10-31T20:03:20.000","BOOTH-BOYD","14-00687720","MD","CLOSED","2015-01-22T14:53:58.000","21223",NA,NA,NA,NA,NA
"1908  HOLLINS ST","BALTIMORE CITY","SIGNFADE","TRT-Sign Faded","2014-09-11T02:50:19.000","2014-10-31T02:50:19.000","BOOTH-BOYD","14-00684634","MD","CLOSED","2014-09-11T20:03:18.000","21223","Dispatch Investigator","Insufficent location information","2014-09-11T19:59:00.000",NA,NA
"W STRATHMORE AVE & CROSS COUNTRY BLVD","BALTIMORE","SIGNFADE","TRT-Sign Faded","2014-09-10T20:28:58.000","2014-10-30T20:28:58.000","CHESWOLDE","14-00684272","MD","CLOSED","2014-12-08T16:25:45.000",NA,"Generate Work Order","Sign erected","2014-12-08T16:25:00.000",NA,NA
"2921  SYLVAN AVE","BALTIMORE","SIGNFADE","TRT-Sign Faded","2014-09-10T13:47:04.000","2014-10-30T13:47:04.000","WESTFIELD","14-00682288","MD","CLOSED","2014-10-23T17:42:03.000","21214","Generate Work Order","Sign erected","2014-10-23T17:41:00.000",NA,NA
"PENNINGTON AVE & ORDNANCE RD","BALTIMORE","SIGNFADE","TRT-Sign Faded","2014-09-08T12:19:28.000","2014-10-28T12:19:28.000","HAWKINS POINT","14-00674358","MD","CLOSED","2014-09-12T12:20:25.000",NA,"Dispatch Investigator","Insufficent location information","2014-09-12T12:20:00.000",NA,NA
"1920  PORTAL ST","BALTIMORE CITY","SIGNFADE","TRT-Sign Faded","2014-09-05T17:43:18.000","2014-10-25T17:43:18.000","HOLABIRD INDUSTRIAL PARK","14-00670617","MD","CLOSED","2014-09-29T11:29:11.000","21224","Generate Work Order","Sign erected","2014-09-29T11:28:00.000",NA,NA
"701 W 36TH ST","BALTIMORE CITY","SIGNFADE","TRT-Sign Faded","2014-09-03T18:24:22.000","2014-10-23T18:24:22.000","HAMPDEN","14-00663753","MD","CLOSED","2014-09-26T19:51:28.000","21211",NA,NA,NA,NA,NA
"7300  OLD HARFORD RD","BALTIMORE CITY","SIGNFADE","TRT-Sign Faded","2014-08-31T13:20:21.000","2014-10-20T13:20:21.000","HARFORD-ECHODALE/PERRING PARKWAY","14-00656001","MD","CLOSED","2014-12-03T12:09:03.000","21234","Generate Work Order","Sign erected","2014-12-03T12:00:00.000",NA,NA
"MCHENRY ST &S PULASKI ST","BALTIMORE CITY","SIGNFADE","TRT-Sign Faded","2014-08-29T14:39:07.000","2014-10-18T14:39:07.000","CARROLLTON RIDGE","14-00652884","MD","CLOSED","2014-10-30T11:21:41.000","21223","Generate Work Order","Sign erected","2014-10-30T11:21:00.000",NA,NA
"1900  MOUNT ROYAL TER","BALTIMORE CITY","SIGNFADE","TRT-Sign Faded","2014-08-26T13:07:11.000","2014-10-15T13:07:11.000","RESERVOIR HILL","14-00642081","MD","CLOSED","2014-11-18T10:02:16.000","21217","Generate Work Order","Sign erected","2014-11-18T10:02:00.000",NA,NA
"TYSON ST &W MULBERRY ST","BALTIMORE CITY","SIGNFADE","TRT-Sign Faded","2014-08-21T13:32:09.000","2014-10-10T13:32:09.000","DOWNTOWN","14-00629623","MD","CLOSED","2014-08-28T13:11:39.000","21201","Dispatch Investigator","Sign already exists","2014-08-28T13:11:00.000",NA,NA
"1304  RUTTER ST","BALTIMORE CITY","SIGNFADE","TRT-Sign Faded","2014-08-21T11:49:00.000","2014-10-10T11:49:00.000","BOLTON HILL","14-00628999","MD","CLOSED","2014-10-03T11:58:53.000","21217","Generate Work Order","Sign erected","2014-10-03T11:58:00.000",NA,NA
"1400 W 37TH ST","BALTIMORE CITY","SIGNFADE","TRT-Sign Faded","2014-08-20T15:37:09.000","2014-10-09T15:37:09.000","HAMPDEN","14-00626784","MD","CLOSED","2014-12-12T10:08:45.000","21211","Generate Work Order","Sign erected","2014-12-12T10:08:00.000",NA,NA
"4015 E NORTHERN PKWY","BALTIMORE CITY","SIGNFADE","TRT-Sign Faded","2014-08-18T13:21:14.000","2014-10-07T13:21:14.000","OVERLEA","14-00618725","MD","CLOSED","2014-10-08T09:53:53.000","21206","Generate Work Order","Sign erected","2014-10-08T09:53:00.000",NA,NA
"405  CEDARCROFT RD","BALTIMORE CITY","SIGNFADE","TRT-Sign Faded","2014-08-15T22:24:45.000","2014-10-04T22:24:45.000","CEDARCROFT","14-00615116","MD","CLOSED","2014-09-24T12:01:32.000","21212","Generate Work Order","Sign erected","2014-09-24T12:01:00.000",NA,NA
"1900 E CHASE ST","BALTIMORE CITY","SIGNFADE","TRT-Sign Faded","2014-08-14T15:01:22.000","2014-10-03T15:01:22.000","MIDDLE EAST","14-00610082","MD","CLOSED","2014-10-09T09:47:44.000","21205","Generate Work Order","Sign erected","2014-10-09T09:47:00.000",NA,NA
"2000 E EAGER ST","BALTIMORE CITY","SIGNFADE","TRT-Sign Faded","2014-08-14T14:42:46.000","2014-10-03T14:42:46.000","MIDDLE EAST","14-00609998","MD","CLOSED","2014-10-07T09:46:02.000","21205","Generate Work Order","Sign erected","2014-10-07T09:45:00.000",NA,NA
"6100  MARLORA EDLYNNE","BALTIMORE CITY","SIGNFADE","TRT-Sign Faded","2014-08-10T19:56:20.000","2014-09-29T19:56:20.000","GLEN OAKS","14-00597195","MD","CLOSED","2014-09-04T13:11:51.000","21239","Dispatch Investigator","Insufficent location information","2014-09-04T13:11:00.000",NA,NA
"1645  THAMES ST","BALTIMORE CITY","SIGNFADE","TRT-Sign Faded","2014-08-08T13:47:11.000","2014-09-27T13:47:11.000","FELLS POINT","14-00593136","MD","CLOSED","2014-09-16T09:59:55.000","21231","Generate Work Order","Sign erected","2014-09-16T09:59:00.000",NA,NA
"904 S BROADWAY","BALTIMORE CITY","SIGNFADE","TRT-Sign Faded","2014-08-08T13:44:52.000","2014-09-27T13:44:52.000","FELLS POINT","14-00593124","MD","DUPCLOSD","2014-09-16T09:58:40.000","21231",NA,NA,NA,NA,NA
"904 S BROADWAY","BALTIMORE CITY","SIGNFADE","TRT-Sign Faded","2014-08-08T13:43:25.000","2014-09-27T13:43:25.000","FELLS POINT","14-00593118","MD","CLOSED","2014-09-16T09:58:40.000","21231","Generate Work Order","Sign erected","2014-09-16T09:58:00.000",NA,NA
"6300  FAIRDEL AVE","BALTIMORE CITY","SIGNFADE","TRT-Sign Faded","2014-08-06T18:06:23.000","2014-09-25T18:06:23.000","ROSEMONT EAST","14-00586773","MD","CLOSED","2014-09-15T11:34:49.000","21206","Generate Work Order","Sign erected","2014-09-15T11:34:00.000",NA,NA
"600 N PATTERSON PARK AVE","BALTIMORE CITY","SIGNFADE","TRT-Sign Faded","2014-08-06T09:58:30.000","2014-09-25T09:58:30.000","MCELDERRY PARK","14-00584641","MD","CLOSED","2014-10-09T09:46:32.000","21205","Generate Work Order","Sign erected","2014-10-09T09:46:00.000",NA,NA
"2001 E FAIRMOUNT AVE","BALTIMORE","SIGNFADE","TRT-Sign Faded","2015-07-07T13:24:55.000","2015-08-26T13:24:55.000","BUTCHER'S HILL","15-00530765","MD","DUPCLOSD","2015-07-08T11:52:02.000","21231",NA,NA,NA,NA,NA
"1719 W NORTH AVE","BALTIMORE","SIGNFADE","TRT-Sign Faded","2015-06-22T13:41:08.000","2015-08-11T13:41:08.000","SANDTOWN-WINCHESTER","15-00484985","MD","CLOSED","2015-07-13T14:35:07.000","21217",NA,NA,NA,NA,NA
"1901 N CHARLES ST","BALTIMORE","SIGNFADE","TRT-Sign Faded","2015-05-28T17:20:02.000","2015-07-17T17:20:02.000","CHARLES NORTH","15-00417239","MD","O-PENDNG","2015-07-14T16:21:14.000","21218",NA,NA,NA,NA,NA
"100  MCMECHEN ST","BALTIMORE","SIGNFADE","TRT-Sign Faded","2015-05-29T13:01:31.000","2015-07-18T13:01:31.000","BOLTON HILL","15-00419669","MD","O-PENDNG","2015-07-13T14:46:00.000","21217",NA,NA,NA,NA,NA
"200  GAY ST","BALTIMORE","SIGNFADE","TRT-Sign Faded","2015-07-14T17:52:14.000","2015-09-02T17:52:14.000","PENN-FALLSWAY","15-00554246","MD","CLOSED","2015-07-27T17:49:16.000",NA,NA,NA,NA,NA,NA
"3555  BENZINGER RD","BALTIMORE","SIGNFADE","TRT-Sign Faded","2015-05-19T12:24:39.000","2015-07-08T12:24:39.000","VIOLETVILLE","15-00391268","MD","CLOSED","2015-07-17T09:45:15.000","21229","Generate Work Order","Sign erected","2015-07-17T09:45:00.000",NA,NA
"7221  PARK HEIGHTS AVE","BALTIMORE","SIGNFADE","TRT-Sign Faded","2015-06-04T18:14:57.000","2015-07-24T18:14:57.000","CROSS COUNTRY","15-00437410","MD","DUPCLOSD","2015-06-29T11:06:40.000","21208",NA,NA,NA,NA,NA
"4600  PEN LUCY RD","BALTIMORE","SIGNFADE","TRT-Sign Faded","2015-07-06T10:43:09.000","2015-08-25T10:43:09.000","TEN HILLS","15-00526059","MD","OPEN","2015-07-06T12:10:00.000","21229",NA,NA,NA,NA,NA
"2001 E FAIRMOUNT AVE","BALTIMORE","SIGNFADE","TRT-Sign Faded","2015-04-02T12:58:05.000","2015-05-22T12:58:05.000","BUTCHER'S HILL","15-00258809","MD","CLOSED","2015-07-08T11:52:03.000","21231","Generate Work Order","Sign erected","2015-07-08T11:51:00.000",NA,NA
"1300 S PONCA ST","BALTIMORE","SIGNFADE","TRT-Sign Faded","2015-07-25T22:38:40.000","2015-09-13T22:38:40.000","CANTON INDUSTRIAL AREA","15-00590695","MD","OPEN","2015-07-28T14:37:16.000","21224",NA,NA,NA,NA,NA
"3400  MAYFIELD AVE","BALTIMORE","SIGNFADE","TRT-Sign Faded","2015-06-15T14:59:24.000","2015-08-04T14:59:24.000","BELAIR-EDISON","15-00464063","MD","OPEN","2015-06-16T12:54:42.000","21213",NA,NA,NA,NA,NA
"2200  PRESBURY ST","BALTIMORE","SIGNFADE","TRT-Sign Faded","2015-05-29T12:57:16.000","2015-07-18T12:57:16.000","COPPIN HEIGHTS/ASH-CO-EAST","15-00419645","MD","O-PENDNG","2015-07-16T18:41:27.000","21216",NA,NA,NA,NA,NA
"1 N CURLEY ST","BALTIMORE","SIGNFADE","TRT-Sign Faded","2015-06-11T13:26:11.000","2015-07-31T13:26:11.000","BALTIMORE-LINWOOD","15-00454640","MD","OPEN","2015-06-11T13:26:11.000","21224",NA,NA,NA,NA,NA
"N WOODYEAR ST & W NORTH AVE, BALTIMORE,",NA,"SIGNFADE","TRT-Sign Faded","2015-07-09T12:49:59.000","2015-08-28T12:49:59.000","PENN NORTH","15-00538482","MD","O-PENDNG","2015-07-30T16:00:48.000",NA,NA,NA,NA,NA,NA
"ROLAND AVE &W 36TH ST","BALTIMORE","SIGNFADE","TRT-Sign Faded","2015-03-24T22:00:14.000","2015-05-13T22:00:14.000","HAMPDEN","15-00234249","MD","CLOSED","2015-05-12T09:57:55.000","21211","Generate Work Order","Sign erected","2015-05-12T09:57:00.000",NA,NA
"6437  EASTERN AVE","BALTIMORE","SIGNFADE","TRT-Sign Faded","2015-05-29T21:35:24.000","2015-07-18T21:35:24.000","PULASKI INDUSTRIAL AREA","15-00421934","MD","OPEN","2015-05-29T21:35:24.000","21224",NA,NA,NA,NA,NA
"1201 E COLD SPRING LN","BALTIMORE","SIGNFADE","TRT-Sign Faded","2015-07-30T14:56:18.000","2015-09-18T14:56:18.000","NEW NORTHWOOD","15-00603598","MD","OPEN","2015-07-31T18:30:21.000","21239",NA,NA,NA,NA,NA
"2500 W LOMBARD ST","BALTIMORE","SIGNFADE","TRT-Sign Faded","2015-04-16T18:52:04.000","2015-06-05T18:52:04.000","SHIPLEY HILL","15-00299623","MD","O-PENDNG","2015-05-29T18:12:24.000","21223",NA,NA,NA,NA,NA
"937 S CHARLES ST","BALTIMORE","SIGNFADE","TRT-Sign Faded","2015-05-20T14:35:02.000","2015-07-09T14:35:02.000","FEDERAL HILL","15-00395448","MD","CLOSED","2015-06-12T13:17:23.000","21230",NA,NA,NA,NA,NA
"532 N POTOMAC ST","BALTIMORE","SIGNFADE","TRT-Sign Faded","2015-06-22T11:37:31.000","2015-08-11T11:37:31.000","ELLWOOD PARK/MONUMENT","15-00484137","MD","CLOSED","2015-08-04T11:39:07.000","21205","Generate Work Order","Sign erected","2015-08-04T11:38:00.000",NA,NA
"1900  ETTING ST","BALTIMORE","SIGNFADE","TRT-Sign Faded","2015-05-29T12:58:40.000","2015-07-18T12:58:40.000","DRUID HEIGHTS","15-00419655","MD","O-PENDNG","2015-07-17T16:08:05.000","21217",NA,NA,NA,NA,NA
"200 E RANDALL ST","BALTIMORE","SIGNFADE","TRT-Sign Faded","2015-05-27T12:39:03.000","2015-07-16T12:39:03.000","RIVERSIDE","15-00411469","MD","CLOSED","2015-06-29T10:27:59.000","21230","Dispatch Investigator","Sign erected","2015-06-29T10:27:00.000",NA,NA
"2922  ARUNAH AVE","BALTIMORE","SIGNFADE","TRT-Sign Faded","2015-06-20T11:50:39.000","2015-08-09T11:50:39.000","FRANKLINTOWN ROAD","15-00481423","MD","OPEN","2015-06-20T11:50:39.000","21216",NA,NA,NA,NA,NA
"3800  ELMORA AVE","BALTIMORE","SIGNFADE","TRT-Sign Faded","2015-05-24T20:23:25.000","2015-07-13T20:23:25.000","BELAIR-EDISON","15-00404742","MD","O-PENDNG","2015-06-22T15:28:20.000","21213",NA,NA,NA,NA,NA
"1074  TUNBRIDGE RD","BALTIMORE","SIGNFADE","TRT-Sign Faded","2015-07-23T23:29:08.000","2015-09-11T23:29:08.000","CAMERON VILLAGE","15-00583796","MD","OPEN","2015-07-23T23:29:08.000","21212",NA,NA,NA,NA,NA
"2500 W LANVALE ST","BALTIMORE","SIGNFADE","TRT-Sign Faded","2015-04-08T12:02:00.000","2015-05-28T12:02:00.000","EVERGREEN LAWN","15-00273522","MD","CLOSED","2015-08-04T09:48:02.000","21216","Generate Work Order","Sign erected","2015-08-04T09:47:00.000",NA,NA
"1900  NORTHBOURNE RD","BALTIMORE","SIGNFADE","TRT-Sign Faded","2015-06-01T20:57:05.000","2015-07-21T20:57:05.000","PERRING LOCH","15-00428100","MD","CLOSED","2015-06-10T18:00:53.000","21239",NA,NA,NA,NA,NA
"2001 E FAIRMOUNT AVE","BALTIMORE","SIGNFADE","TRT-Sign Faded","2015-04-13T20:00:05.000","2015-06-02T20:00:05.000","BUTCHER'S HILL","15-00288827","MD","DUPCLOSD","2015-07-08T11:52:02.000","21231",NA,NA,NA,NA,NA
"2001 E FAIRMOUNT AVE","BALTIMORE","SIGNFADE","TRT-Sign Faded","2015-04-17T20:34:01.000","2015-06-06T20:34:01.000","BUTCHER'S HILL","15-00304071","MD","DUPCLOSD","2015-07-08T11:52:02.000","21231",NA,NA,NA,NA,NA
"4800  SIPPLE AVE","BALTIMORE","SIGNFADE","TRT-Sign Faded","2015-04-24T14:29:35.000","2015-06-13T14:29:35.000","FRANKFORD","15-00322122","MD","CLOSED","2015-06-29T10:22:53.000","21206","Generate Work Order","Sign erected","2015-06-29T10:22:00.000",NA,NA
"1400 W COLD SPRING LN","BALTIMORE","SIGNFADE","TRT-Sign Faded","2015-05-26T14:25:25.000","2015-07-15T14:25:25.000","CROSS KEYS","15-00407969","MD","CLOSED","2015-07-14T12:54:55.000",NA,"Generate Work Order","Sign erected","2015-07-14T12:54:00.000",NA,NA
"1700 W LOMBARD ST","BALTIMORE","SIGNFADE","TRT-Sign Faded","2015-05-22T17:41:36.000","2015-07-11T17:41:36.000","UNION SQUARE","15-00402113","MD","OPEN","2015-06-09T14:04:30.000","21223",NA,NA,NA,NA,NA
"5728  GOVANE AVE","BALTIMORE","SIGNFADE","TRT-Sign Faded","2015-07-23T22:44:42.000","2015-09-11T22:44:42.000","MID-GOVANS","15-00583722","MD","OPEN","2015-07-23T22:44:42.000","21212",NA,NA,NA,NA,NA
"1008  STILES ST","BALTIMORE","SIGNFADE","TRT-Sign Faded","2015-07-19T15:01:39.000","2015-09-07T15:01:39.000","LITTLE ITALY","15-00568210","MD","DUPOPEN","2015-07-19T15:01:39.000","21202",NA,NA,NA,NA,NA
"3204  LOCH RAVEN BLVD","BALTIMORE","SIGNFADE","TRT-Sign Faded","2015-07-07T14:11:48.000","2015-08-26T14:11:48.000","BETTER WAVERLY","15-00531085","MD","CLOSED","2015-07-08T13:45:55.000","21218",NA,NA,NA,NA,NA
"2613  REISTERSTOWN RD","BALTIMORE","SIGNFADE","TRT-Sign Faded","2015-07-17T14:48:16.000","2015-09-05T14:48:16.000","PARKVIEW/WOODBROOK","15-00564626","MD","CLOSED","2015-07-27T19:31:30.000","21217",NA,NA,NA,NA,NA
"1919  RUXTON AVE","BALTIMORE","SIGNFADE","TRT-Sign Faded","2015-05-29T13:45:21.000","2015-07-18T13:45:21.000","MONDAWMIN","15-00419939","MD","O-PENDNG","2015-07-07T18:30:57.000","21216",NA,NA,NA,NA,NA
"1710 W NORTH AVE","BALTIMORE","SIGNFADE","TRT-Sign Faded","2015-06-22T13:42:53.000","2015-08-11T13:42:53.000","PENN NORTH","15-00484993","MD","CLOSED","2015-07-06T20:00:32.000","21217",NA,NA,NA,NA,NA
"7211  PARK HEIGHTS AVE","BALTIMORE","SIGNFADE","TRT-Sign Faded","2015-05-19T13:55:26.000","2015-07-08T13:55:26.000","CROSS COUNTRY","15-00392014","MD","CLOSED","2015-06-29T11:06:40.000","21208","Generate Work Order","Sign erected","2015-06-29T11:05:00.000",NA,NA
"401 E LAKE AVE","BALTIMORE","SIGNFADE","TRT-Sign Faded","2015-08-04T20:30:24.000","2015-09-23T20:30:24.000","LAKE EVESHAM","15-00618649","MD","DUPOPEN","2015-08-04T20:30:24.000","21212",NA,NA,NA,NA,NA
"2204  PENNSYLVANIA AVE","BALTIMORE","SIGNFADE","TRT-Sign Faded","2015-07-13T15:51:49.000","2015-09-01T15:51:49.000","SANDTOWN-WINCHESTER","15-00549655","MD","OPEN","2015-07-15T12:46:00.000","21217",NA,NA,NA,NA,NA
"1001 S CHARLES ST","BALTIMORE","SIGNFADE","TRT-Sign Faded","2015-06-05T13:40:58.000","2015-07-25T13:40:58.000","FEDERAL HILL","15-00440723","MD","CLOSED","2015-06-22T09:49:24.000","21230","Generate Work Order","Sign erected","2015-06-22T09:49:00.000",NA,NA
"2400  BARCLAY ST","BALTIMORE","SIGNFADE","TRT-Sign Faded","2015-06-15T10:38:18.000","2015-08-04T10:38:18.000","BARCLAY","15-00462460","MD","O-PENDNG","2015-07-14T13:38:38.000","21218",NA,NA,NA,NA,NA
"800 N KENWOOD AVE","BALTIMORE","SIGNFADE","TRT-Sign Faded","2015-03-26T18:12:39.000","2015-05-15T18:12:39.000","MADISON-EASTEND","15-00240646","MD","CLOSED","2015-06-08T16:32:04.000","21205","Generate Work Order","Sign erected","2015-06-08T16:31:00.000",NA,NA
"1117 W 42ND ST","BALTIMORE","SIGNFADE","TRT-Sign Faded","2015-05-11T22:08:10.000","2015-06-30T22:08:10.000","HOES HEIGHTS","15-00369137","MD","CLOSED","2015-06-29T10:24:39.000","21211","Generate Work Order","Sign erected","2015-06-29T10:24:00.000",NA,NA
"3104  JUNEAU PL","BALTIMORE","SIGNFADE","TRT-Sign Faded","2015-04-18T22:42:17.000","2015-06-07T22:42:17.000","ARCADIA","15-00305517","MD","CLOSED","2015-07-06T09:54:55.000","21214","Generate Work Order","Sign erected","2015-07-06T09:54:00.000",NA,NA
"1900  NORTHBOURNE RD","BALTIMORE","SIGNFADE","TRT-Sign Faded","2015-06-10T23:04:16.000","2015-07-30T23:04:16.000","PERRING LOCH","15-00453577","MD","O-PENDNG","2015-07-14T14:33:00.000","21239",NA,NA,NA,NA,NA
"2400 E FAYETTE ST","BALTIMORE","SIGNFADE","TRT-Sign Faded","2015-06-01T13:27:48.000","2015-07-21T13:27:48.000","PATTERSON PLACE","15-00425753","MD","CLOSED","2015-06-11T12:22:27.000","21223","Dispatch Investigator","Insufficent location information","2015-06-11T12:21:00.000",NA,NA
"1704  CHILTON ST","BALTIMORE","SIGNFADE","TRT-Sign Faded","2015-04-21T23:03:07.000","2015-06-10T23:03:07.000","COLDSTREAM HOMESTEAD MONTEBELLO","15-00312780","MD","CLOSED","2015-07-29T09:48:16.000","21218","Generate Work Order","Sign erected","2015-07-29T09:48:00.000",NA,NA
"4920  SCHAUB AVE","BALTIMORE","SIGNFADE","TRT-Sign Faded","2015-07-01T16:44:12.000","2015-08-20T16:44:12.000","FRANKFORD","15-00517050","MD","OPEN","2015-07-01T16:44:12.000","21206",NA,NA,NA,NA,NA
"566  BRISBANE RD","BALTIMORE","SIGNFADE","TRT-Sign Faded","2015-06-24T05:20:14.000","2015-08-13T05:20:14.000","BEECHFIELD","15-00491231","MD","CLOSED","2015-06-30T13:51:41.000","21229",NA,NA,NA,NA,NA
"1700 E CHASE ST","BALTIMORE","SIGNFADE","TRT-Sign Faded","2015-07-28T15:20:17.000","2015-09-16T15:20:17.000","MIDDLE EAST","15-00596765","MD","OPEN","2015-07-28T16:57:18.000","21205",NA,NA,NA,NA,NA
"2001 E FAIRMOUNT AVE","BALTIMORE","SIGNFADE","TRT-Sign Faded","2015-06-15T11:46:24.000","2015-08-04T11:46:24.000","BUTCHER'S HILL","15-00462715","MD","DUPOPEN","2015-06-15T11:46:24.000","21231",NA,NA,NA,NA,NA
"202 S CASTLE ST","BALTIMORE","SIGNFADE","TRT-Sign Faded","2015-04-01T17:19:12.000","2015-05-21T17:19:12.000","UPPER FELLS POINT","15-00256813","MD","CLOSED","2015-05-12T09:56:22.000","21231","Generate Work Order","Sign erected","2015-05-12T09:56:00.000",NA,NA
"7401  PARK HEIGHTS AVE","BALTIMORE","SIGNFADE","TRT-Sign Faded","2015-06-04T18:13:19.000","2015-07-24T18:13:19.000","CROSS COUNTRY","15-00437400","MD","CLOSED","2015-08-04T11:32:03.000","21208","Generate Work Order","Sign erected","2015-08-04T11:31:00.000",NA,NA
"1710 W FAYETTE ST","BALTIMORE","SIGNFADE","TRT-Sign Faded","2015-07-22T13:59:59.000","2015-09-10T13:59:59.000","FRANKLIN SQUARE","15-00577789","MD","OPEN","2015-07-22T16:46:11.000","21223",NA,NA,NA,NA,NA
"2001 E FAIRMOUNT AVE","BALTIMORE","SIGNFADE","TRT-Sign Faded","2015-05-05T14:34:18.000","2015-06-24T14:34:18.000","BUTCHER'S HILL","15-00349942","MD","DUPCLOSD","2015-07-08T11:52:02.000","21231",NA,NA,NA,NA,NA
"319 E LAKE AVE","BALTIMORE","SIGNFADE","TRT-Sign Faded","2015-08-04T20:28:24.000","2015-09-23T20:28:24.000","LAKE EVESHAM","15-00618646","MD","OPEN","2015-08-04T20:28:24.000","21212",NA,NA,NA,NA,NA
"4001  SOUTHERN AVE","BALTIMORE","SIGNFADE","TRT-Sign Faded","2015-07-24T21:20:28.000","2015-09-12T21:20:28.000","WILSON HEIGHTS","15-00587602","MD","OPEN","2015-07-24T21:20:28.000","21206",NA,NA,NA,NA,NA
"1213 N GILMOR ST","BALTIMORE","SIGNFADE","TRT-Sign Faded","2015-06-10T17:57:00.000","2015-07-30T17:57:00.000","SANDTOWN-WINCHESTER","15-00453101","MD","O-PENDNG","2015-07-14T12:48:15.000","21217",NA,NA,NA,NA,NA
"323  MARTINGALE AVE","BALTIMORE","SIGNFADE","TRT-Sign Faded","2015-05-14T13:32:16.000","2015-07-03T13:32:16.000","IRVINGTON","15-00378395","MD","CLOSED","2015-06-15T14:02:16.000","21229",NA,NA,NA,NA,NA
"PENNINGTON AVE & ORDNANCE RD","BALTIMORE","SIGNFADE","TRT-Sign Faded","2015-04-06T13:24:26.000","2015-05-26T13:24:26.000","HAWKINS POINT","15-00266734","MD","CLOSED","2015-06-05T09:50:20.000","21226","Generate Work Order","Sign erected","2015-06-05T09:50:00.000",NA,NA
"701 S CHARLES ST","BALTIMORE","SIGNFADE","TRT-Sign Faded","2015-05-20T14:41:11.000","2015-07-09T14:41:11.000","OTTERBEIN","15-00395471","MD","CLOSED","2015-06-22T11:07:22.000","21230","Generate Work Order","Sign erected","2015-06-22T11:07:00.000",NA,NA
"801  OLDHAM ST","BALTIMORE","SIGNFADE","TRT-Sign Faded","2015-04-12T06:08:18.000","2015-06-01T06:08:18.000","GREEKTOWN","15-00284659","MD","CLOSED","2015-07-09T15:14:03.000","21224","Generate Work Order","Sign erected","2015-07-09T15:13:00.000",NA,NA
"909  STILES ST","BALTIMORE","SIGNFADE","TRT-Sign Faded","2015-07-19T14:57:55.000","2015-09-07T14:57:55.000","LITTLE ITALY","15-00568207","MD","OPEN","2015-07-21T16:41:48.000","21202",NA,NA,NA,NA,NA
"10 WEST FALLS AVE","BALTIMORE","SIGNFADE","TRT-Sign Faded","2015-07-03T07:23:57.000","2015-08-22T07:23:57.000","DOWNTOWN","15-00522402","MD","OPEN","2015-07-03T07:23:57.000","21202",NA,NA,NA,NA,NA
"2001 E FAIRMOUNT AVE","BALTIMORE","SIGNFADE","TRT-Sign Faded","2015-05-28T12:35:00.000","2015-07-17T12:35:00.000","BUTCHER'S HILL","15-00415480","MD","DUPCLOSD","2015-07-08T11:52:02.000","21231",NA,NA,NA,NA,NA
"2014  RIDGEHILL AVE","BALTIMORE","SIGNFADE","TRT-Sign Faded","2015-05-29T13:43:17.000","2015-07-18T13:43:17.000","MONDAWMIN","15-00419927","MD","O-PENDNG","2015-07-01T18:02:14.000","21217",NA,NA,NA,NA,NA
"3400 W MULBERRY ST","BALTIMORE","SIGNFADE","TRT-Sign Faded","2015-05-22T17:11:16.000","2015-07-11T17:11:16.000","ALLENDALE","15-00402038","MD","O-PENDNG","2015-07-17T16:15:47.000","21229",NA,NA,NA,NA,NA
"875 W FAYETTE ST","BALTIMORE","SIGNFADE","TRT-Sign Faded","2015-07-22T13:45:27.000","2015-09-10T13:45:27.000","POPPLETON","15-00577699","MD","OPEN","2015-07-22T14:48:06.000","21201",NA,NA,NA,NA,NA
"100  MOSHER ST","BALTIMORE","SIGNFADE","TRT-Sign Faded","2015-05-29T13:33:42.000","2015-07-18T13:33:42.000","BOLTON HILL","15-00419872","MD","O-PENDNG","2015-07-17T16:24:14.000","21217",NA,NA,NA,NA,NA
"1155 N FULTON AVE","BALTIMORE","SIGNFADE","TRT-Sign Faded","2015-06-10T17:53:10.000","2015-07-30T17:53:10.000","SANDTOWN-WINCHESTER","15-00453082","MD","CLOSED","2015-06-24T19:05:08.000","21217","Dispatch Investigator","Insufficent location information","2015-06-24T19:04:00.000",NA,NA
"839 N FULTON AVE","BALTIMORE","SIGNFADE","TRT-Sign Faded","2015-04-06T17:26:55.000","2015-05-26T17:26:55.000","HARLEM PARK","15-00268107","MD","CLOSED","2015-05-19T17:42:57.000","21217",NA,NA,NA,NA,NA
"1200  EDMONDSON AVE","BALTIMORE","SIGNFADE","TRT-Sign Faded","2015-06-15T18:17:50.000","2015-08-04T18:17:50.000","HARLEM PARK","15-00465216","MD","O-PENDNG","2015-07-17T12:07:18.000","21223",NA,NA,NA,NA,NA
"2200  CECIL AVE","BALTIMORE","SIGNFADE","TRT-Sign Faded","2015-05-19T10:58:03.000","2015-07-08T10:58:03.000","EAST BALTIMORE MIDWAY","15-00390803","MD","CLOSED","2015-07-30T10:20:28.000","21218","Generate Work Order","Sign erected","2015-07-30T10:20:00.000",NA,NA
"925 S CHARLES ST","BALTIMORE","SIGNFADE","TRT-Sign Faded","2015-06-12T10:55:42.000","2015-08-01T10:55:42.000","FEDERAL HILL","15-00457041","MD","CLOSED","2015-07-24T12:20:23.000","21230","Generate Work Order","Sign erected","2015-07-24T12:20:00.000",NA,NA
"5300  PARK HEIGHTS AVE","BALTIMORE","SIGNFADE","TRT-Sign Faded","2015-07-17T17:35:57.000","2015-09-05T17:35:57.000","ARLINGTON","15-00565269","MD","OPEN","2015-07-17T18:12:18.000","21215",NA,NA,NA,NA,NA
"500 S CHARLES ST","BALTIMORE","SIGNFADE","TRT-Sign Faded","2015-05-20T14:43:30.000","2015-07-09T14:43:30.000","OTTERBEIN","15-00395481","MD","OPEN","2015-06-09T13:24:31.000","21201",NA,NA,NA,NA,NA
"3020 E FAYETTE ST","BALTIMORE","SIGNFADE","TRT-Sign Faded","2015-07-22T13:35:03.000","2015-09-10T13:35:03.000","ELLWOOD PARK/MONUMENT","15-00577634","MD","OPEN","2015-07-22T14:44:25.000","21224",NA,NA,NA,NA,NA
"1535 W FAYETTE ST","BALTIMORE","SIGNFADE","TRT-Sign Faded","2015-07-22T13:58:20.000","2015-09-10T13:58:20.000","FRANKLIN SQUARE","15-00577773","MD","OPEN","2015-07-22T16:45:02.000","21223",NA,NA,NA,NA,NA
"4501 N CHARLES ST","BALTIMORE","SIGNFADE","TRT-Sign Faded","2015-05-28T17:23:57.000","2015-07-17T17:23:57.000","LOYOLA/NOTRE DAME","15-00417266","MD","CLOSED","2015-07-30T10:21:33.000","21210","Generate Work Order","Sign erected","2015-07-30T10:21:00.000",NA,NA
"6017  SYCAMORE RD","BALTIMORE","SIGNFADE","TRT-Sign Faded","2015-08-04T20:30:26.000","2015-09-23T20:30:26.000","LAKE EVESHAM","15-00618650","MD","OPEN","2015-08-04T20:30:26.000","21212",NA,NA,NA,NA,NA
"4432  PARK HEIGHTS AVE","BALTIMORE","SIGNFADE","TRT-Sign Faded","2015-06-04T18:28:11.000","2015-07-24T18:28:11.000","CENTRAL PARK HEIGHTS","15-00437462","MD","O-PENDNG","2015-07-14T13:04:09.000","21215",NA,NA,NA,NA,NA
"3703 N CHARLES ST","BALTIMORE","SIGNFADE","TRT-Sign Faded","2015-07-31T14:25:30.000","2015-09-19T14:25:30.000","GUILFORD","15-00606767","MD","OPEN","2015-07-31T19:00:35.000","21218",NA,NA,NA,NA,NA
"300  PRESSTMAN ST","BALTIMORE","SIGNFADE","TRT-Sign Faded","2015-05-29T13:39:19.000","2015-07-18T13:39:19.000","MADISON PARK","15-00419908","MD","CLOSED","2015-08-03T17:32:57.000","21217",NA,NA,NA,NA,NA
"800  WASHINGTON BLVD","BALTIMORE","SIGNFADE","TRT-Sign Faded","2015-04-14T12:17:24.000","2015-06-03T12:17:24.000","WASHINGTON VILLAGE","15-00290238","MD","CLOSED","2015-05-12T13:10:56.000","21230",NA,NA,NA,NA,NA
"3200  AUCHENTOROLY TER","BALTIMORE","SIGNFADE","TRT-Sign Faded","2015-05-29T13:40:15.000","2015-07-18T13:40:15.000","PARKVIEW/WOODBROOK","15-00419914","MD","CLOSED","2015-06-17T19:27:35.000","21217","Dispatch Investigator","Insufficent location information","2015-06-17T19:27:00.000",NA,NA
"600 N COLLINGTON AVE","BALTIMORE","SIGNFADE","TRT-Sign Faded","2015-07-30T14:05:17.000","2015-09-18T14:05:17.000","MIDDLE EAST","15-00603133","MD","OPEN","2015-07-31T18:01:24.000","21205",NA,NA,NA,NA,NA
"2334  BOSTON ST","BALTIMORE","SIGNFADE","TRT-Sign Faded","2015-05-07T16:38:25.000","2015-06-26T16:38:25.000","CANTON","15-00357815","MD","CLOSED","2015-06-04T14:15:27.000","21224","Generate Work Order","Sign erected","2015-06-04T14:15:00.000",NA,NA
"3900  PENHURST AVE","BALTIMORE","SIGNFADE","TRT-Sign Faded","2015-07-08T13:54:39.000","2015-08-27T13:54:39.000","DOLFIELD","15-00534948","MD","CLOSED","2015-07-28T11:56:14.000","21215",NA,NA,NA,NA,NA
"27  YOGURT LN","BALTIMORE","SIGNFADE","TRT-Sign Faded","2015-04-17T12:33:45.000","2015-06-06T12:33:45.000","WASHINGTON HILL","15-00301170","MD","CLOSED","2015-07-09T15:20:38.000","21231","Generate Work Order","Sign erected","2015-07-09T15:20:00.000",NA,NA
"803 S BROADWAY","BALTIMORE","SIGNFADE","TRT-Sign Faded","2015-07-06T14:32:39.000","2015-08-25T14:32:39.000","FELLS POINT","15-00527948","MD","CLOSED","2015-07-27T10:57:50.000","21231","Generate Work Order","Sign erected","2015-07-27T10:57:00.000",NA,NA
"300 S EAST AVE","BALTIMORE","SIGNFADE","TRT-Sign Faded","2015-06-29T18:00:36.000","2015-08-18T18:00:36.000","HIGHLANDTOWN","15-00509055","MD","CLOSED","2015-07-09T18:18:59.000","21224",NA,NA,NA,NA,NA
"100 N MONASTERY AVE","BALTIMORE","SIGNFADE","TRT-Sign Faded","2015-05-22T17:14:57.000","2015-07-11T17:14:57.000","ALLENDALE","15-00402043","MD","CLOSED","2015-07-13T14:39:43.000","21229",NA,NA,NA,NA,NA
"2537  CECIL AVE","BALTIMORE","SIGNFADE","TRT-Sign Faded","2015-07-31T15:41:36.000","2015-09-19T15:41:36.000","COLDSTREAM HOMESTEAD MONTEBELLO","15-00607085","MD","OPEN","2015-07-31T19:04:45.000","21218",NA,NA,NA,NA,NA
"2000  PRESTON BIDDLE","BALTIMORE","SIGNFADE","TRT-Sign Faded","2015-03-30T17:53:06.000","2015-05-19T17:53:06.000","BROADWAY EAST","15-00250186","MD","CLOSED","2015-06-11T09:52:49.000","21213","Generate Work Order","Sign erected","2015-06-11T09:52:00.000",NA,NA
"6206  PARK HEIGHTS AVE","BALTIMORE","SIGNFADE","TRT-Sign Faded","2015-07-29T14:16:41.000","2015-09-17T14:16:41.000","GLEN","15-00599810","MD","OPEN","2015-07-31T17:42:19.000","21215",NA,NA,NA,NA,NA
"2327 W NORTH AVE","BALTIMORE","SIGNFADE","TRT-Sign Faded","2015-07-15T12:12:40.000","2015-09-03T12:12:40.000","COPPIN HEIGHTS/ASH-CO-EAST","15-00556350","MD","OPEN","2015-07-15T13:29:55.000","21216",NA,NA,NA,NA,NA
"2100 W LEXINGTON ST","BALTIMORE","SIGNFADE","TRT-Sign Faded","2015-03-26T11:53:20.000","2015-05-15T11:53:20.000","PENROSE/FAYETTE STREET OUTREACH","15-00238598","MD","CLOSED","2015-06-23T09:49:26.000","21223","Generate Work Order","Sign erected","2015-06-23T09:49:00.000",NA,NA
"7219  PARK HEIGHTS AVE","BALTIMORE","SIGNFADE","TRT-Sign Faded","2015-06-04T18:16:10.000","2015-07-24T18:16:10.000","CROSS COUNTRY","15-00437419","MD","DUPCLOSD","2015-06-29T11:06:40.000","21208",NA,NA,NA,NA,NA
"4030  FALLS RD","BALTIMORE","SIGNFADE","TRT-Sign Faded","2015-07-31T14:06:14.000","2015-09-19T14:06:14.000","HAMPDEN","15-00606635","MD","OPEN","2015-07-31T18:58:14.000","21211",NA,NA,NA,NA,NA
"600 N BROADWAY","BALTIMORE","SIGNFADE","TRT-Sign Faded","2015-06-01T14:00:36.000","2015-07-21T14:00:36.000","DUNBAR-BROADWAY","15-00425947","MD","CLOSED","2015-06-11T12:31:26.000","21205","Dispatch Investigator","Insufficent location information","2015-06-11T12:31:00.000",NA,NA
"1600  PARK AVE","BALTIMORE","SIGNFADE","TRT-Sign Faded","2015-05-29T13:31:18.000","2015-07-18T13:31:18.000","BOLTON HILL","15-00419861","MD","O-PENDNG","2015-07-13T14:51:58.000","21217",NA,NA,NA,NA,NA
"ELSRODE AVE & HALCYON AVE","BALTIMORE","SIGNFADE","TRT-Sign Faded","2015-05-15T20:36:59.000","2015-07-04T20:36:59.000","LAURAVILLE","15-00383812","MD","CLOSED","2015-07-22T09:44:43.000","21214","Generate Work Order","Sign erected","2015-07-22T09:44:00.000",NA,NA
"2011 N SMALLWOOD ST","BALTIMORE","SIGNFADE","TRT-Sign Faded","2015-05-29T13:42:06.000","2015-07-18T13:42:06.000","MONDAWMIN","15-00419922","MD","O-PENDNG","2015-07-14T12:56:42.000","21216",NA,NA,NA,NA,NA
"6100  YORK RD","BALTIMORE","SIGNFADE","TRT-Sign Faded","2015-05-27T14:16:00.000","2015-07-16T14:16:00.000","CEDARCROFT","15-00412128","MD","O-PENDNG","2015-07-14T14:44:17.000","21212",NA,NA,NA,NA,NA
"6600  HUDSON ST","BALTIMORE","SIGNFADE","TRT-Sign Faded","2015-07-08T12:52:05.000","2015-08-27T12:52:05.000","GRACELAND PARK","15-00534533","MD","OPEN","2015-07-08T12:55:45.000","21224",NA,NA,NA,NA,NA
"100 S STRICKER ST","BALTIMORE","SIGNFADE","TRT-Sign Faded","2015-05-04T17:33:58.000","2015-06-23T17:33:58.000","UNION SQUARE","15-00347530","MD","CLOSED","2015-07-09T10:04:41.000","21223","Generate Work Order","Sign erected","2015-07-09T10:04:00.000",NA,NA
"3970  FALLS RD","BALTIMORE","SIGNFADE","TRT-Sign Faded","2015-07-31T14:07:20.000","2015-09-19T14:07:20.000","HAMPDEN","15-00606639","MD","OPEN","2015-07-31T18:59:03.000","21211",NA,NA,NA,NA,NA
"MCMECHEN ST","BALTIMORE","SIGNFADE","TRT-Sign Faded","2015-05-29T13:07:12.000","2015-07-18T13:07:12.000","BOLTON HILL","15-00419703","MD","CLOSED","2015-06-15T14:13:08.000","21217",NA,NA,NA,NA,NA
"817 S BOND ST","BALTIMORE","SIGNFADE","TRT-Sign Faded","2015-03-16T19:18:44.000","2015-05-05T19:18:44.000","FELLS POINT","15-00208388","MD","CLOSED","2015-06-24T10:16:09.000","21231","Generate Work Order","Sign erected","2015-06-24T10:15:00.000",NA,NA
"2 N WOLFE ST","BALTIMORE","SIGNFADE","TRT-Sign Faded","2015-06-10T12:50:27.000","2015-07-30T12:50:27.000","WASHINGTON HILL","15-00451458","MD","OPEN","2015-06-10T12:50:27.000","21231",NA,NA,NA,NA,NA
"1014 W LAFAYETTE AVE","BALTIMORE","SIGNFADE","TRT-Sign Faded","2015-06-11T11:36:15.000","2015-07-31T11:36:15.000","SANDTOWN-WINCHESTER","15-00454042","MD","O-PENDNG","2015-07-17T13:47:26.000","21217",NA,NA,NA,NA,NA
"2600 E CHASE ST","BALTIMORE","SIGNFADE","TRT-Sign Faded","2015-04-07T15:32:47.000","2015-05-27T15:32:47.000","BIDDLE STREET","15-00270812","MD","CLOSED","2015-06-05T09:47:00.000","21213","Generate Work Order","Sign erected","2015-06-05T09:46:00.000",NA,NA
"800 N FULTON AVE","BALTIMORE","SIGNFADE","TRT-Sign Faded","2015-07-07T14:58:23.000","2015-08-26T14:58:23.000","HARLEM PARK","15-00531295","MD","O-PENDNG","2015-07-07T15:02:10.000","21217",NA,NA,NA,NA,NA
"EDISON HWY & LAWNVIEW AVE, BALTIMORE, MD","bALTIMORE","SIGNFADE","TRT-Sign Faded","2015-08-04T17:44:54.000","2015-09-23T17:44:54.000","BELAIR-EDISON","15-00618044","MD","NEW","2015-08-04T17:44:54.000","21213",NA,NA,NA,NA,NA
"501 N PULASKI ST","BALTIMORE","SIGNFADE","TRT-Sign Faded","2015-07-01T11:02:08.000","2015-08-20T11:02:08.000","MIDTOWN-EDMONDSON","15-00515192","MD","O-PENDNG","2015-07-15T17:29:53.000","21223",NA,NA,NA,NA,NA
"2435  WASHINGTON BLVD","BALTIMORE","SIGNFADE","TRT-Sign Faded","2015-07-06T18:52:53.000","2015-08-25T18:52:53.000","MORRELL PARK","15-00529143","MD","OPEN","2015-07-06T18:52:53.000","21230",NA,NA,NA,NA,NA
"5538  FORCE RD","BALTIMORE","SIGNFADE","TRT-Sign Faded","2015-05-11T21:55:26.000","2015-06-30T21:55:26.000","FRANKFORD","15-00369110","MD","CLOSED","2015-07-07T10:53:48.000","21206","Dispatch Investigator","Sign erected","2015-07-07T10:53:00.000",NA,NA
"500 N CHESTER ST","BALTIMORE","SIGNFADE","TRT-Sign Faded","2015-03-17T11:43:06.000","2015-05-06T11:43:06.000","MIDDLE EAST","15-00209928","MD","O-PENDNG","2015-05-12T16:58:27.000","21205",NA,NA,NA,NA,NA
"6301  EASTERN AVE","BALTIMORE","SIGNFADE","TRT-Sign Faded","2015-07-24T11:39:08.000","2015-09-12T11:39:08.000","PULASKI INDUSTRIAL AREA","15-00584751","MD","OPEN","2015-07-28T13:45:38.000","21224",NA,NA,NA,NA,NA
"1710 W NORTH AVE","BALTIMORE","SIGNFADE","TRT-Sign Faded","2015-05-29T13:48:38.000","2015-07-18T13:48:38.000","PENN NORTH","15-00419967","MD","O-PENDNG","2015-07-07T18:38:25.000","21217",NA,NA,NA,NA,NA
"1127 N FULTON AVE","BALTIMORE","SIGNFADE","TRT-Sign Faded","2015-06-10T17:51:04.000","2015-07-30T17:51:04.000","SANDTOWN-WINCHESTER","15-00453068","MD","CLOSED","2015-08-04T09:53:46.000","21217","Generate Work Order","Sign erected","2015-08-04T09:53:00.000",NA,NA
"2530 N CHARLES ST","BALTIMORE","SIGNFADE","TRT-Sign Faded","2015-06-12T11:09:08.000","2015-08-01T11:09:08.000","CHARLES VILLAGE","15-00457083","MD","CLOSED","2015-07-02T16:11:32.000","21218",NA,NA,NA,NA,NA
"100 W COLD SPRING LN","BALTIMORE","SIGNFADE","TRT-Sign Faded","2015-07-24T11:44:56.000","2015-09-12T11:44:56.000","LOYOLA/NOTRE DAME","15-00584780","MD","OPEN","2015-07-24T11:44:56.000","21210",NA,NA,NA,NA,NA
"1400  GOUGH ST","BALTIMORE","SIGNFADE","TRT-Sign Faded","2015-07-16T17:29:30.000","2015-09-04T17:29:30.000","PERKINS HOMES","15-00561816","MD","OPEN","2015-07-17T17:03:27.000","21231",NA,NA,NA,NA,NA
"2001 E FAIRMOUNT AVE","BALTIMORE","SIGNFADE","TRT-Sign Faded","2015-05-13T13:08:06.000","2015-07-02T13:08:06.000","BUTCHER'S HILL","15-00374385","MD","DUPCLOSD","2015-07-08T11:52:02.000","21231",NA,NA,NA,NA,NA
"2500  ALLENDALE RD","BALTIMORE","SIGNFADE","TRT-Sign Faded","2015-05-13T18:17:40.000","2015-07-02T18:17:40.000","GARWYN OAKS","15-00375891","MD","CLOSED","2015-07-08T09:44:24.000","21216","Generate Work Order","Sign erected","2015-07-08T09:44:00.000",NA,NA
"200 S SMALLWOOD ST","BALTIMORE","SIGNFADE","TRT-Sign Faded","2015-06-16T17:47:20.000","2015-08-05T17:47:20.000","CARROLLTON RIDGE","15-00468961","MD","O-PENDNG","2015-07-16T18:58:48.000","21223",NA,NA,NA,NA,NA
"5147  PARK HEIGHTS AVE","BALTIMORE","SIGNFADE","TRT-Sign Faded","2015-06-05T16:07:10.000","2015-07-25T16:07:10.000","CENTRAL PARK HEIGHTS","15-00441312","MD","CLOSED","2015-06-09T13:11:49.000","21215",NA,NA,NA,NA,NA
"1200  WICKLOW RD","BALTIMORE","SIGNFADE","TRT-Sign Faded","2015-07-23T18:16:52.000","2015-09-11T18:16:52.000","ROGNEL HEIGHTS","15-00583003","MD","OPEN","2015-07-28T13:29:00.000","21229",NA,NA,NA,NA,NA
"5504  MATTFELDT AVE","BALTIMORE","SIGNFADE","TRT-Sign Faded","2015-05-01T14:14:48.000","2015-06-20T14:14:48.000","SABINA-MATTFELDT","15-00340903","MD","CLOSED","2015-06-29T09:35:51.000","21209","Generate Work Order","Sign erected","2015-06-29T09:35:00.000",NA,NA
"15 S EXETER ST","BALTIMORE","SIGNFADE","TRT-Sign Faded","2015-05-30T21:54:09.000","2015-07-19T21:54:09.000","JONESTOWN","15-00423591","MD","CLOSED","2015-07-28T13:40:14.000","21202",NA,NA,NA,NA,NA
"1601 N BROADWAY","BALTIMORE","SIGNFADE","TRT-Sign Faded","2015-07-06T14:28:16.000","2015-08-25T14:28:16.000","BROADWAY EAST","15-00527911","MD","O-PENDNG","2015-07-20T15:01:41.000","21213",NA,NA,NA,NA,NA
"6112  OLD HARFORD RD","BALTIMORE","SIGNFADE","TRT-Sign Faded","2015-03-18T17:17:45.000","2015-05-07T17:17:45.000","CHRISTOPHER","15-00216197","MD","CLOSED","2015-07-13T09:44:07.000","21214","Generate Work Order","Sign erected","2015-07-13T09:43:00.000",NA,NA
"400 W SARATOGA ST","BALTIMORE","SIGNFADE","TRT-Sign Faded","2015-03-30T17:36:39.000","2015-05-19T17:36:39.000","DOWNTOWN","15-00250092","MD","CLOSED","2015-06-05T15:16:14.000","21201","Generate Work Order","Sign erected","2015-06-05T15:16:00.000",NA,NA
"1900  HOMEWOOD AVE","BALTIMORE","SIGNFADE","TRT-Sign Faded","2015-04-16T17:42:38.000","2015-06-05T17:42:38.000","EAST BALTIMORE MIDWAY","15-00299356","MD","CLOSED","2015-06-23T09:40:48.000","21218","Generate Work Order","Sign erected","2015-06-23T09:40:00.000",NA,NA
"4000  EDMONDSON AVE","BALTIMORE","SIGNFADE","TRT-Sign Faded","2015-06-24T10:43:30.000","2015-08-13T10:43:30.000","EDMONDSON VILLAGE","15-00491384","MD","OPEN","2015-06-30T13:53:31.000","21229",NA,NA,NA,NA,NA
"4215  HECKEL AVE","BALTIMORE","SIGNFADE","TRT-Sign Faded","2015-07-20T19:32:51.000","2015-09-08T19:32:51.000","ARCADIA","15-00571619","MD","CLOSED","2015-07-22T14:20:55.000","21206",NA,NA,NA,NA,NA
"3420  SENECA ST","BALTIMORE","SIGNFADE","TRT-Sign Faded","2015-05-18T12:18:45.000","2015-07-07T12:18:45.000","WOODBERRY","15-00387710","MD","OPEN","2015-05-18T12:18:45.000","21211",NA,NA,NA,NA,NA
"2001 E FAIRMOUNT AVE","BALTIMORE","SIGNFADE","TRT-Sign Faded","2015-06-03T12:29:29.000","2015-07-23T12:29:29.000","BUTCHER'S HILL","15-00432495","MD","O-PENDNG","2015-08-03T17:20:30.000","21231",NA,NA,NA,NA,NA
"400  RUSSELL ST","BALTIMORE","SIGNFADE","TRT-Sign Faded","2015-06-30T17:24:26.000","2015-08-19T17:24:26.000","RIDGELY'S DELIGHT","15-00513434","MD","O-PENDNG","2015-07-15T17:16:59.000","21230",NA,NA,NA,NA,NA
"900  LIGHT ST","BALTIMORE","SIGNFADE","TRT-Sign Faded","2015-06-18T17:14:31.000","2015-08-07T17:14:31.000","FEDERAL HILL","15-00476445","MD","CLOSED","2015-08-04T11:38:07.000","21230","Generate Work Order","Sign erected","2015-08-04T11:37:00.000",NA,NA
"600 N PULASKI ST","BALTIMORE","SIGNFADE","TRT-Sign Faded","2015-07-17T12:43:30.000","2015-09-05T12:43:30.000","MIDTOWN-EDMONDSON","15-00564020","MD","OPEN","2015-07-17T18:04:14.000","21217",NA,NA,NA,NA,NA
"5500 N CHARLES ST","BALTIMORE","SIGNFADE","TRT-Sign Faded","2015-07-15T11:59:19.000","2015-09-03T11:59:19.000","THE ORCHARDS","15-00556291","MD","OPEN","2015-07-15T13:31:34.000","21210",NA,NA,NA,NA,NA
"1911 N PULASKI ST","BALTIMORE","SIGNFADE","TRT-Sign Faded","2015-05-29T13:44:11.000","2015-07-18T13:44:11.000","MONDAWMIN","15-00419932","MD","O-PENDNG","2015-07-14T13:01:21.000","21217",NA,NA,NA,NA,NA
"999 E COLD SPRING LN","BALTIMORE","SIGNFADE","TRT-Sign Faded","2015-07-30T14:57:24.000","2015-09-18T14:57:24.000","WILSON PARK","15-00603601","MD","OPEN","2015-07-31T18:35:35.000","21212",NA,NA,NA,NA,NA
"2232  DRUID HILL AVE","BALTIMORE","SIGNFADE","TRT-Sign Faded","2015-07-09T14:15:10.000","2015-08-28T14:15:10.000","DRUID HEIGHTS","15-00539202","MD","OPEN","2015-07-14T18:45:57.000","21217",NA,NA,NA,NA,NA
"100 N PINE ST","BALTIMORE","SIGNFADE","TRT-Sign Faded","2015-06-28T23:00:02.000","2015-08-17T23:00:02.000","SETON HILL","15-00505743","MD","OPEN","2015-06-28T23:00:02.000","21201",NA,NA,NA,NA,NA
"1400 W LAFAYETTE AVE","BALTIMORE","SIGNFADE","TRT-Sign Faded","2015-06-11T11:41:02.000","2015-07-31T11:41:02.000","SANDTOWN-WINCHESTER","15-00454062","MD","OPEN","2015-06-11T13:27:31.000","21217",NA,NA,NA,NA,NA
"2003 E FAIRMOUNT AVE","BALTIMORE","SIGNFADE","TRT-Sign Faded","2015-05-27T14:28:17.000","2015-07-16T14:28:17.000","BUTCHER'S HILL","15-00412215","MD","DUPCLOSD","2015-07-08T11:52:02.000","21231",NA,NA,NA,NA,NA
"2063 N BENTALOU ST","BALTIMORE","SIGNFADE","TRT-Sign Faded","2015-05-29T13:46:22.000","2015-07-18T13:46:22.000","MONDAWMIN","15-00419946","MD","O-PENDNG","2015-07-14T13:07:07.000","21216",NA,NA,NA,NA,NA
"3900  COLCHESTER RD","BALTIMORE","SIGNFADE","TRT-Sign Faded","2015-06-30T12:39:14.000","2015-08-19T12:39:14.000","OAKLEE","15-00511893","MD","OPEN","2015-06-30T14:52:11.000","21229",NA,NA,NA,NA,NA
"916 S HANOVER ST","BALTIMORE","SIGNFADE","TRT-Sign Faded","2015-06-26T16:21:48.000","2015-08-15T16:21:48.000","SHARP-LEADENHALL","15-00502029","MD","O-PENDNG","2015-07-17T16:03:50.000","21230",NA,NA,NA,NA,NA
"1203 N FULTON AVE","BALTIMORE","SIGNFADE","TRT-Sign Faded","2015-06-10T17:46:51.000","2015-07-30T17:46:51.000","SANDTOWN-WINCHESTER","15-00453054","MD","O-PENDNG","2015-07-13T16:18:35.000","21217",NA,NA,NA,NA,NA
"KANE ST & HUDSON ST","BALTIMORE","SIGNFADE","TRT-Sign Faded","2015-05-27T17:05:52.000","2015-07-16T17:05:52.000","GRACELAND PARK","15-00413024","MD","CLOSED","2015-06-15T17:44:07.000","21224",NA,NA,NA,NA,NA
"2536 E FAYETTE ST","BALTIMORE","SIGNFADE","TRT-Sign Faded","2015-06-24T10:40:59.000","2015-08-13T10:40:59.000","MCELDERRY PARK","15-00491381","MD","CLOSED","2015-07-07T19:42:55.000","21224",NA,NA,NA,NA,NA
"4211  HECKEL AVE","BALTIMORE","SIGNFADE","TRT-Sign Faded","2015-06-19T17:17:13.000","2015-08-08T17:17:13.000","ARCADIA","15-00479742","MD","O-PENDNG","2015-07-14T12:09:31.000","21206",NA,NA,NA,NA,NA
"1187 N FULTON AVE","BALTIMORE","SIGNFADE","TRT-Sign Faded","2015-06-10T17:48:31.000","2015-07-30T17:48:31.000","SANDTOWN-WINCHESTER","15-00453057","MD","CLOSED","2015-06-24T19:06:22.000","21217","Dispatch Investigator","Insufficent location information","2015-06-24T19:06:00.000",NA,NA
"500 N MONTFORD AVE","BALTIMORE","SIGNFADE","TRT-Sign Faded","2015-05-04T17:37:48.000","2015-06-23T17:37:48.000","MCELDERRY PARK","15-00347547","MD","CLOSED","2015-07-20T09:40:34.000","21205","Generate Work Order","Sign erected","2015-07-20T09:40:00.000",NA,NA
"1109  MCKEAN AVE","BALTIMORE","SIGNFADE","TRT-Sign Faded","2015-06-10T18:02:06.000","2015-07-30T18:02:06.000","SANDTOWN-WINCHESTER","15-00453122","MD","O-PENDNG","2015-07-14T12:51:25.000","21217",NA,NA,NA,NA,NA
"4100  FREDERICK AVE","BALTIMORE","SIGNFADE","TRT-Sign Faded","2015-06-16T12:30:18.000","2015-08-05T12:30:18.000","IRVINGTON","15-00467035","MD","CLOSED","2015-06-17T12:14:56.000","21229","Dispatch Investigator","Insufficent location information","2015-06-17T12:12:00.000",NA,NA
"400 E 24TH ST","BALTIMORE","SIGNFADE","TRT-Sign Faded","2015-08-03T17:24:40.000","2015-09-22T17:24:40.000","BARCLAY","15-00613671","MD","OPEN","2015-08-04T16:27:21.000","21218",NA,NA,NA,NA,NA
"1839  PENNSYLVANIA AVE","BALTIMORE","SIGNFADE","TRT-Sign Faded","2015-07-13T14:58:36.000","2015-09-01T14:58:36.000","UPTON","15-00549326","MD","OPEN","2015-07-15T12:45:07.000","21217",NA,NA,NA,NA,NA
"WINDSOR AVE &N PAYSON ST","BALTIMORE","SIGNFADE","TRT-Sign Faded","2015-05-29T13:47:28.000","2015-07-18T13:47:28.000","MONDAWMIN","15-00419956","MD","CLOSED","2015-07-30T10:14:20.000","21217","Generate Work Order","Sign erected","2015-07-30T10:14:00.000",NA,NA
"1801 N BROADWAY","BALTIMORE","SIGNFADE","TRT-Sign Faded","2015-07-20T13:50:51.000","2015-09-08T13:50:51.000","BROADWAY EAST","15-00569985","MD","CLOSED","2015-07-28T17:20:06.000","21213",NA,NA,NA,NA,NA
