"address","city","code","codedescription","createddate","duedate","neighborhood","servicerequestnum","state","status","statusdate","zip","activity","outcome","updateddate","lon","lat"
"2300  FREDERICK AVE","BALTIMORE","STEELPL2","TRM-Steel Plate Complaint","2015-05-07T15:23:36.000","2015-05-09T15:23:36.000","SHIPLEY HILL","15-00357521","MD","CLOSED","2015-05-11T10:37:20.000","21228",NA,NA,NA,NA,NA
"3300  LOCH RAVEN BLVD","BALTIMORE","STEELPL2","TRM-Steel Plate Complaint","2015-05-05T14:28:44.000","2015-05-07T14:28:44.000","EDNOR GARDENS-LAKESIDE","15-00349890","MD","CLOSED","2015-05-07T11:38:17.000","21218",NA,NA,NA,NA,NA
"309  CATHEDRAL ST","BALTIMORE","STEELPL2","TRM-Steel Plate Complaint","2015-05-05T13:27:33.000","2015-05-07T13:27:33.000","DOWNTOWN","15-00349568","MD","CLOSED","2015-05-07T11:43:19.000","21201",NA,NA,NA,NA,NA
"OAKLEY AVE & PALMER AVE","BALTIMORE","STEELPL2","TRM-Steel Plate Complaint","2015-05-05T10:38:15.000","2015-05-07T10:38:15.000","CENTRAL PARK HEIGHTS","15-00348789","MD","CLOSED","2015-05-06T11:52:43.000","21215",NA,NA,NA,NA,NA
"N CHARLES ST &E 25TH ST","BALTIMORE","STEELPL2","TRM-Steel Plate Complaint","2015-05-04T20:10:38.000","2015-05-06T20:10:38.000","CHARLES VILLAGE","15-00348206","MD","CLOSED","2015-05-07T11:51:09.000","21218",NA,NA,NA,NA,NA
"HILLEN RD & WINDEMERE AVE","BALTIMORE","STEELPL2","TRM-Steel Plate Complaint","2015-05-04T10:43:55.000","2015-05-06T10:43:55.000","EDNOR GARDENS-LAKESIDE","15-00345155","MD","CLOSED","2015-05-06T12:06:53.000","21218",NA,NA,NA,NA,NA
"300  CATHEDRAL ST","BALTIMORE","STEELPL2","TRM-Steel Plate Complaint","2015-04-30T19:11:19.000","2015-05-02T19:11:19.000","DOWNTOWN","15-00339107","MD","CLOSED","2015-05-06T12:17:25.000","21201",NA,NA,NA,NA,NA
"1700 N GAY ST","BALTIMORE","STEELPL2","TRM-Steel Plate Complaint","2015-04-30T10:15:33.000","2015-05-02T10:15:33.000","BROADWAY EAST","15-00336831","MD","CLOSED","2015-05-06T12:25:18.000","21213",NA,NA,NA,NA,NA
"945 E PATAPSCO AVE","BALTIMORE","STEELPL2","TRM-Steel Plate Complaint","2015-04-29T20:56:46.000","2015-05-01T20:56:46.000","BROOKLYN","15-00336188","MD","CLOSED","2015-05-04T10:35:07.000","21225",NA,NA,NA,NA,NA
"1549  KENNEWICK RD","BALTIMORE","STEELPL2","TRM-Steel Plate Complaint","2015-04-28T22:43:52.000","2015-04-30T22:43:52.000","EDNOR GARDENS-LAKESIDE","15-00332939","MD","CLOSED","2015-04-30T12:29:03.000","21218",NA,NA,NA,NA,NA
"655 E BALTIMORE ST","BALTIMORE","STEELPL2","TRM-Steel Plate Complaint","2015-04-27T12:38:39.000","2015-04-29T12:38:39.000","DOWNTOWN","15-00326763","MD","CLOSED","2015-04-30T12:58:00.000","21202",NA,NA,NA,NA,NA
"LOCH RAVEN BLVD & LAKESIDE AVE","BALTIMORE","STEELPL2","TRM-Steel Plate Complaint","2015-04-26T13:54:36.000","2015-04-28T13:54:36.000","EDNOR GARDENS-LAKESIDE","15-00325471","MD","CLOSED","2015-04-30T13:19:16.000","21218",NA,NA,NA,NA,NA
"HOLABIRD AVE & BROENING HWY","BALTIMORE","STEELPL2","TRM-Steel Plate Complaint","2015-04-25T21:18:11.000","2015-04-27T21:18:11.000","HOLABIRD INDUSTRIAL PARK","15-00324972","MD","CLOSED","2015-04-29T11:12:33.000","21224",NA,NA,NA,NA,NA
"7000  FIELDCREST RD","BALTIMORE","STEELPL2","TRM-Steel Plate Complaint","2015-04-22T17:44:08.000","2015-04-24T17:44:08.000","FALLSTAFF","15-00316003","MD","CLOSED","2015-04-24T11:25:16.000","21215",NA,NA,NA,NA,NA
"LOCH RAVEN BLVD &E 33RD ST","BALTIMORE","STEELPL2","TRM-Steel Plate Complaint","2015-04-22T14:40:06.000","2015-04-24T14:40:06.000","BETTER WAVERLY","15-00314970","MD","CLOSED","2015-04-23T13:24:05.000","21218",NA,NA,NA,NA,NA
"15 E BARNEY ST","BALTIMORE","STEELPL2","TRM-Steel Plate Complaint","2015-04-21T20:08:05.000","2015-04-23T20:08:05.000","SBIC","15-00312466","MD","CLOSED","2015-04-23T13:38:44.000","21230",NA,NA,NA,NA,NA
"5510  LEITH RD","BALTIMORE","STEELPL2","TRM-Steel Plate Complaint","2015-04-17T12:40:21.000","2015-04-19T12:40:21.000","WOODBOURNE HEIGHTS","15-00301209","MD","CLOSED","2015-04-17T13:51:58.000","21239",NA,NA,NA,NA,NA
"LAKESIDE AVE & LOCH RAVEN BLVD","BALTIMORE","STEELPL2","TRM-Steel Plate Complaint","2015-04-14T15:52:14.000","2015-04-16T15:52:14.000","EDNOR GARDENS-LAKESIDE","15-00291296","MD","CLOSED","2015-04-15T13:58:56.000","21218",NA,NA,NA,NA,NA
"MOUNT HOLLY ST & WINDSOR MILL RD","BALTIMORE","STEELPL2","TRM-Steel Plate Complaint","2015-04-13T20:55:09.000","2015-04-15T20:55:09.000","MOUNT HOLLY","15-00289160","MD","CLOSED","2015-04-15T14:34:20.000","21216",NA,NA,NA,NA,NA
"6600  DANVILLE AVE","BALTIMORE","STEELPL2","TRM-Steel Plate Complaint","2015-04-13T16:24:07.000","2015-04-15T16:24:07.000","BROENING MANOR","15-00287560","MD","CLOSED","2015-04-14T11:44:47.000","21224",NA,NA,NA,NA,NA
"3016  SPAULDING AVE","BALTIMORE","STEELPL2","TRM-Steel Plate Complaint","2015-04-13T14:09:04.000","2015-04-15T14:09:04.000","CENTRAL PARK HEIGHTS","15-00286819","MD","CLOSED","2015-04-15T14:10:58.000","21215",NA,NA,NA,NA,NA
"1000 E LAKE AVE","BALTIMORE","STEELPL2","TRM-Steel Plate Complaint","2015-04-13T11:36:16.000","2015-04-15T11:36:16.000","LAKE WALKER","15-00285743","MD","CLOSED","2015-04-20T11:54:54.000","21212",NA,NA,NA,NA,NA
"1465  KEY HWY","BALTIMORE","STEELPL2","TRM-Steel Plate Complaint","2015-04-12T12:18:57.000","2015-04-14T12:18:57.000","RIVERSIDE","15-00284753","MD","CLOSED","2015-04-14T12:18:01.000","21230",NA,NA,NA,NA,NA
"DANVILLE AVE & DUNDALK AVE","BALTIMORE","STEELPL2","TRM-Steel Plate Complaint","2015-04-10T15:38:44.000","2015-04-12T15:38:44.000","GRACELAND PARK","15-00281378","MD","CLOSED","2015-04-10T18:06:16.000","21224",NA,NA,NA,NA,NA
"5400  BELAIR RD","BALTIMORE","STEELPL2","TRM-Steel Plate Complaint","2015-04-10T14:22:49.000","2015-04-12T14:22:49.000","WALTHERSON","15-00281032","MD","CLOSED","2015-04-14T13:08:47.000","21206",NA,NA,NA,NA,NA
"1600 E 25TH ST","BALTIMORE","STEELPL2","TRM-Steel Plate Complaint","2015-04-10T00:28:46.000","2015-04-12T00:28:46.000","DARLEY PARK","15-00279647","MD","CLOSED","2015-04-10T18:15:17.000","21213",NA,NA,NA,NA,NA
"E BALTIMORE ST &N CENTRAL AVE","BALTIMORE","STEELPL2","TRM-Steel Plate Complaint","2015-04-09T19:54:54.000","2015-04-11T19:54:54.000","JONESTOWN","15-00279233","MD","CLOSED","2015-04-10T18:23:22.000","21202",NA,NA,NA,NA,NA
"S HANOVER ST & REEDBIRD AVE","BALTIMORE","STEELPL2","TRM-Steel Plate Complaint","2015-04-09T17:29:03.000","2015-04-11T17:29:03.000","MIDDLE BRANCH/REEDBIRD PARKS","15-00278446","MD","CLOSED","2015-04-10T18:27:46.000","21225",NA,NA,NA,NA,NA
"DANVILLE AVE & DUNDALK AVE","BALTIMORE","STEELPL2","TRM-Steel Plate Complaint","2015-04-09T17:23:49.000","2015-04-11T17:23:49.000","GRACELAND PARK","15-00278425","MD","CLOSED","2015-04-15T14:41:46.000","21222",NA,NA,NA,NA,NA
"5508  LEITH RD","BALTIMORE","STEELPL2","TRM-Steel Plate Complaint","2015-04-07T14:50:20.000","2015-04-09T14:50:20.000","WOODBOURNE HEIGHTS","15-00270586","MD","CLOSED","2015-04-22T13:42:35.000","21239",NA,NA,NA,NA,NA
"3820  SAINT VICTOR ST","BALTIMORE","STEELPL2","TRM-Steel Plate Complaint","2015-04-08T20:37:28.000","2015-04-10T20:37:28.000","BROOKLYN","15-00276025","MD","CLOSED","2015-04-27T10:45:16.000","21225",NA,NA,NA,NA,NA
"2842 W LANVALE ST","BALTIMORE","STEELPL2","TRM-Steel Plate Complaint","2015-04-07T12:20:28.000","2015-04-09T12:20:28.000","MOSHER","15-00269842","MD","CLOSED","2015-04-20T12:01:02.000","21216",NA,NA,NA,NA,NA
"241 N MILTON AVE","BALTIMORE","STEELPL2","TRM-Steel Plate Complaint","2015-04-07T11:32:32.000","2015-04-09T11:32:32.000","MCELDERRY PARK","15-00269630","MD","O-WIP","2015-04-07T11:36:28.000","21224",NA,NA,NA,NA,NA
"GREENMOUNT AVE &E PRESTON ST","BALTIMORE","STEELPL2","TRM-Steel Plate Complaint","2015-04-05T14:21:36.000","2015-04-07T14:21:36.000","JOHNSTON SQUARE","15-00265172","MD","CLOSED","2015-04-06T13:06:49.000","21202",NA,NA,NA,NA,NA
"W COLD SPRING LN & FALLS RD","BALTIMORE","STEELPL2","TRM-Steel Plate Complaint","2015-04-03T12:36:16.000","2015-04-05T12:36:16.000","CROSS KEYS","15-00262311","MD","CLOSED","2015-04-07T11:18:19.000","21209",NA,NA,NA,NA,NA
"4111  LIBERTY HEIGHTS AVE","BALTIMORE","STEELPL2","TRM-Steel Plate Complaint","2015-04-03T00:07:19.000","2015-04-05T00:07:19.000","CENTRAL FOREST PARK","15-00261627","MD","CLOSED","2015-04-07T11:34:36.000","21207",NA,NA,NA,NA,NA
"2536  HOLLINS FERRY RD","BALTIMORE","STEELPL2","TRM-Steel Plate Complaint","2015-04-02T19:41:55.000","2015-04-04T19:41:55.000","MOUNT WINANS","15-00261082","MD","CLOSED","2015-04-07T11:51:27.000","21230",NA,NA,NA,NA,NA
"E LOMBARD ST &S CAROLINE ST","BALTIMORE","STEELPL2","TRM-Steel Plate Complaint","2015-04-02T12:42:52.000","2015-04-04T12:42:52.000","WASHINGTON HILL","15-00258718","MD","CLOSED","2015-04-06T10:38:11.000","21231",NA,NA,NA,NA,NA
"E LOMBARD ST &S CAROLINE ST","BALTIMORE","STEELPL2","TRM-Steel Plate Complaint","2015-04-02T10:10:20.000","2015-04-04T10:10:20.000","WASHINGTON HILL","15-00258255","MD","CLOSED","2015-04-10T11:19:55.000","21231",NA,NA,NA,NA,NA
"FLEET ST &S LAKEWOOD AVE","BALTIMORE","STEELPL2","TRM-Steel Plate Complaint","2015-03-30T19:30:59.000","2015-04-01T19:30:59.000","CANTON","15-00250598","MD","CLOSED","2015-04-01T10:49:37.000","21224",NA,NA,NA,NA,NA
"103  SAINT JOHNS RD","BALTIMORE","STEELPL2","TRM-Steel Plate Complaint","2015-03-30T12:02:19.000","2015-04-01T12:02:19.000","ROLAND PARK","15-00248234","MD","CLOSED","2015-03-30T15:16:13.000","21210",NA,NA,NA,NA,NA
"4700  KERNWOOD AVE","BALTIMORE","STEELPL2","TRM-Steel Plate Complaint","2015-03-27T17:10:15.000","2015-03-29T17:10:15.000","KERNEWOOD","15-00244179","MD","CLOSED","2015-03-30T15:11:44.000","21212",NA,NA,NA,NA,NA
"POTEE ST &W PATAPSCO AVE","BALTIMORE","STEELPL2","TRM-Steel Plate Complaint","2015-03-25T18:39:22.000","2015-03-27T18:39:22.000","BROOKLYN","15-00236967","MD","CLOSED","2015-03-26T17:45:14.000","21225",NA,NA,NA,NA,NA
"LAKESIDE AVE & LOCH RAVEN BLVD","BALTIMORE","STEELPL2","TRM-Steel Plate Complaint","2015-03-25T18:11:58.000","2015-03-27T18:11:58.000","EDNOR GARDENS-LAKESIDE","15-00236812","MD","CLOSED","2015-03-26T17:58:42.000","21218",NA,NA,NA,NA,NA
"LIBERTY HEIGHTS AVE & ELDORADO AVE","BALTIMORE","STEELPL2","TRM-Steel Plate Complaint","2015-03-25T12:07:48.000","2015-03-27T12:07:48.000","HOWARD PARK","15-00234941","MD","CLOSED","2015-03-26T13:15:36.000","21207",NA,NA,NA,NA,NA
"ORLEANS ST &N WASHINGTON ST","BALTIMORE","STEELPL2","TRM-Steel Plate Complaint","2015-03-25T11:30:31.000","2015-03-27T11:30:31.000","MIDDLE EAST","15-00234747","MD","CLOSED","2015-03-26T13:10:32.000","21231",NA,NA,NA,NA,NA
"2500  ORLEANS ST","BALTIMORE","STEELPL2","TRM-Steel Plate Complaint","2015-03-25T11:29:01.000","2015-03-27T11:29:01.000","MCELDERRY PARK","15-00234743","MD","CLOSED","2015-03-26T12:16:57.000","21224",NA,NA,NA,NA,NA
"WINDSOR MILL RD & GWYNNS FALLS PKWY","BALTIMORE","STEELPL2","TRM-Steel Plate Complaint","2015-03-25T11:27:32.000","2015-03-27T11:27:32.000","WINDSOR HILLS","15-00234739","MD","CLOSED","2015-03-26T12:28:55.000","21216",NA,NA,NA,NA,NA
"4200  LIBERTY HEIGHTS AVE","BALTIMORE","STEELPL2","TRM-Steel Plate Complaint","2015-03-25T10:00:02.000","2015-03-27T10:00:02.000","DORCHESTER","15-00234522","MD","CLOSED","2015-03-26T12:33:00.000","21207",NA,NA,NA,NA,NA
"10 W NORTH AVE","BALTIMORE","STEELPL2","TRM-Steel Plate Complaint","2015-03-24T21:43:18.000","2015-03-26T21:43:18.000","CHARLES NORTH","15-00234197","MD","CLOSED","2015-03-27T17:22:03.000","21201",NA,NA,NA,NA,NA
"4111  LIBERTY HEIGHTS AVE","BALTIMORE","STEELPL2","TRM-Steel Plate Complaint","2015-03-24T21:11:43.000","2015-03-26T21:11:43.000","CENTRAL FOREST PARK","15-00234088","MD","CLOSED","2015-03-26T12:50:05.000","21207",NA,NA,NA,NA,NA
"MENLO DR & REISTERSTOWN RD","BALTIMORE","STEELPL2","TRM-Steel Plate Complaint","2015-03-24T11:18:09.000","2015-03-26T11:18:09.000","GLEN","15-00230806","MD","CLOSED","2015-03-26T13:05:41.000","21215",NA,NA,NA,NA,NA
"2300  MORTON ST","BALTIMORE","STEELPL2","TRM-Steel Plate Complaint","2015-03-24T17:10:35.000","2015-03-26T17:10:35.000","CHARLES VILLAGE","15-00232989","MD","CLOSED","2015-03-26T17:52:28.000","21218",NA,NA,NA,NA,NA
"4000  LIBERTY HEIGHTS AVE","BALTIMORE","STEELPL2","TRM-Steel Plate Complaint","2015-03-24T16:55:53.000","2015-03-26T16:55:53.000","DORCHESTER","15-00232928","MD","CLOSED","2015-03-26T13:00:11.000","21207",NA,NA,NA,NA,NA
"2600  FLEET ST","BALTIMORE","STEELPL2","TRM-Steel Plate Complaint","2015-03-23T14:13:41.000","2015-03-25T14:13:41.000","CANTON","15-00228361","MD","CLOSED","2015-03-23T18:32:31.000","21224",NA,NA,NA,NA,NA
"100  PENN ST","BALTIMORE","STEELPL2","TRM-Steel Plate Complaint","2015-03-22T11:50:28.000","2015-03-24T11:50:28.000","UNIVERSITY OF MARYLAND","15-00226481","MD","CLOSED","2015-03-23T18:41:23.000","21201",NA,NA,NA,NA,NA
"311  CATHEDRAL ST","BALTIMORE","STEELPL2","TRM-Steel Plate Complaint","2015-03-22T01:01:09.000","2015-03-24T01:01:09.000","DOWNTOWN","15-00226397","MD","CLOSED","2015-03-23T18:47:29.000","21201",NA,NA,NA,NA,NA
"1806  EASTERN AVE","BALTIMORE","STEELPL2","TRM-Steel Plate Complaint","2015-03-19T15:39:39.000","2015-03-21T15:39:39.000","UPPER FELLS POINT","15-00219495","MD","CLOSED","2015-03-20T10:45:54.000","21231",NA,NA,NA,NA,NA
"2330 E FAIRMOUNT AVE","BALTIMORE","STEELPL2","TRM-Steel Plate Complaint","2015-03-18T21:49:43.000","2015-03-20T21:49:43.000","PATTERSON PLACE","15-00217324","MD","CLOSED","2015-03-20T10:52:47.000","21224",NA,NA,NA,NA,NA
"1613  RIGGS AVE","BALTIMORE","STEELPL2","TRM-Steel Plate Complaint","2015-03-18T21:46:36.000","2015-03-20T21:46:36.000","SANDTOWN-WINCHESTER","15-00217313","MD","CLOSED","2015-03-20T10:58:50.000","21217",NA,NA,NA,NA,NA
"3301  BELAIR RD","BALTIMORE","STEELPL2","TRM-Steel Plate Complaint","2015-03-16T20:04:47.000","2015-03-18T20:04:47.000","BELAIR-EDISON","15-00208584","MD","CLOSED","2015-03-20T11:03:16.000","21213",NA,NA,NA,NA,NA
"S WOLFE ST &E LOMBARD ST","BALTIMORE","STEELPL2","TRM-Steel Plate Complaint","2015-03-16T19:09:59.000","2015-03-18T19:09:59.000","UPPER FELLS POINT","15-00208349","MD","CLOSED","2015-03-19T12:23:46.000","21231",NA,NA,NA,NA,NA
"18 W BARNEY ST","BALTIMORE","STEELPL2","TRM-Steel Plate Complaint","2015-03-15T13:13:46.000","2015-03-17T13:13:46.000","SBIC","15-00203881","MD","CLOSED","2015-03-17T16:35:42.000","21230",NA,NA,NA,NA,NA
"2300  FLEET ST","BALTIMORE","STEELPL2","TRM-Steel Plate Complaint","2015-03-14T23:26:30.000","2015-03-16T23:26:30.000","CANTON","15-00203594","MD","CLOSED","2015-03-17T16:50:47.000","21224",NA,NA,NA,NA,NA
"N PATTERSON PARK AVE &E BALTIMORE ST","BALTIMORE","STEELPL2","TRM-Steel Plate Complaint","2015-03-13T23:07:25.000","2015-03-15T23:07:25.000","BUTCHER'S HILL","15-00202258","MD","CLOSED","2015-03-17T16:54:29.000","21231",NA,NA,NA,NA,NA
"6816  REISTERSTOWN RD","BALTIMORE","STEELPL2","TRM-Steel Plate Complaint","2015-03-13T20:01:33.000","2015-03-15T20:01:33.000","REISTERSTOWN STATION","15-00201772","MD","CLOSED","2015-03-19T13:40:47.000","21215",NA,NA,NA,NA,NA
"1465  KEY HWY","BALTIMORE","STEELPL2","TRM-Steel Plate Complaint","2015-03-13T02:20:42.000","2015-03-15T02:20:42.000","RIVERSIDE","15-00198024","MD","CLOSED","2015-03-17T17:06:20.000","21230",NA,NA,NA,NA,NA
"6009  HARFORD RD","BALTIMORE","STEELPL2","TRM-Steel Plate Complaint","2015-03-12T14:17:14.000","2015-03-14T14:17:14.000","WESTFIELD","15-00194834","MD","CLOSED","2015-03-23T18:51:12.000","21214",NA,NA,NA,NA,NA
"505 S PATTERSON PARK AVE","BALTIMORE","STEELPL2","TRM-Steel Plate Complaint","2015-03-11T21:50:47.000","2015-03-13T21:50:47.000","CANTON","15-00192883","MD","CLOSED","2015-03-17T17:00:32.000","21231",NA,NA,NA,NA,NA
"3016  SPAULDING AVE","BALTIMORE","STEELPL2","TRM-Steel Plate Complaint","2015-03-11T13:03:10.000","2015-03-13T13:03:10.000","CENTRAL PARK HEIGHTS","15-00189895","MD","CLOSED","2015-03-13T13:32:59.000","21215",NA,NA,NA,NA,NA
"4400  BELAIR RD","BALTIMORE","STEELPL2","TRM-Steel Plate Complaint","2015-03-11T11:17:15.000","2015-03-13T11:17:15.000","ARCADIA","15-00189214","MD","CLOSED","2015-03-13T16:23:47.000","21206",NA,NA,NA,NA,NA
"400 N GREENE ST","BALTIMORE","STEELPL2","TRM-Steel Plate Complaint","2015-03-07T18:45:48.000","2015-03-09T18:45:48.000","SETON HILL","15-00177851","MD","CLOSED","2015-03-10T16:42:47.000","21201",NA,NA,NA,NA,NA
"419 W REDWOOD ST","BALTIMORE","STEELPL2","TRM-Steel Plate Complaint","2015-03-09T09:46:14.000","2015-03-11T09:46:14.000","DOWNTOWN","15-00180270","MD","CLOSED","2015-03-19T13:48:41.000","21201",NA,NA,NA,NA,NA
"PRESBURY ST &N SMALLWOOD ST","BALTIMORE","STEELPL2","TRM-Steel Plate Complaint","2015-03-07T16:16:05.000","2015-03-09T16:16:05.000","COPPIN HEIGHTS/ASH-CO-EAST","15-00177563","MD","CLOSED","2015-03-23T18:55:29.000","21216",NA,NA,NA,NA,NA
"PENNSYLVANIA AVE & RETREAT ST","BALTIMORE","STEELPL2","TRM-Steel Plate Complaint","2015-03-04T20:28:34.000","2015-03-06T20:28:34.000","PENN NORTH","15-00168158","MD","CLOSED","2015-03-09T18:57:00.000","21217",NA,NA,NA,NA,NA
"517 S PATTERSON PARK AVE","BALTIMORE","STEELPL2","TRM-Steel Plate Complaint","2015-03-04T15:58:16.000","2015-03-06T15:58:16.000","CANTON","15-00166942","MD","CLOSED","2015-03-12T12:25:25.000","21231",NA,NA,NA,NA,NA
"S HANOVER ST","BALTIMORE","STEELPL2","TRM-Steel Plate Complaint","2015-03-02T19:24:35.000","2015-03-04T19:24:35.000","BROOKLYN","15-00160881","MD","CLOSED","2015-03-09T11:23:45.000","21225",NA,NA,NA,NA,NA
"3500  ELMLEY AVE","BALTIMORE","STEELPL2","TRM-Steel Plate Complaint","2015-03-03T11:16:14.000","2015-03-05T11:16:14.000","BELAIR-EDISON","15-00162105","MD","CLOSED","2015-03-09T19:09:24.000","21213",NA,NA,NA,NA,NA
"N BELNORD AVE &E FAIRMOUNT AVE","BALTIMORE","STEELPL2","TRM-Steel Plate Complaint","2015-03-02T20:40:27.000","2015-03-04T20:40:27.000","BALTIMORE-LINWOOD","15-00161152","MD","CLOSED","2015-03-04T11:01:01.000","21224",NA,NA,NA,NA,NA
"2700 E FAIRMOUNT AVE","BALTIMORE","STEELPL2","TRM-Steel Plate Complaint","2015-02-28T22:48:21.000","2015-03-02T22:48:21.000","BALTIMORE-LINWOOD","15-00156371","MD","CLOSED","2015-03-09T11:06:52.000","21224",NA,NA,NA,NA,NA
"4203  SHELDON AVE","BALTIMORE","STEELPL2","TRM-Steel Plate Complaint","2015-02-27T14:18:08.000","2015-03-01T14:18:08.000","BELAIR-EDISON","15-00153039","MD","CLOSED","2015-03-09T10:44:21.000","21206",NA,NA,NA,NA,NA
"BUSH ST &W HAMBURG ST","BALTIMORE","STEELPL2","TRM-Steel Plate Complaint","2015-02-24T18:19:20.000","2015-02-26T18:19:20.000","WASHINGTON VILLAGE","15-00143026","MD","CLOSED","2015-03-02T13:52:16.000","21230",NA,NA,NA,NA,NA
"1803  EASTERN AVE","BALTIMORE","STEELPL2","TRM-Steel Plate Complaint","2015-02-24T12:50:37.000","2015-02-26T12:50:37.000","FELLS POINT","15-00141119","MD","CLOSED","2015-02-26T11:53:02.000","21231",NA,NA,NA,NA,NA
"5613  SAGRA RD","BALTIMORE","STEELPL2","TRM-Steel Plate Complaint","2015-02-22T21:23:47.000","2015-02-24T21:23:47.000","WOODBOURNE HEIGHTS","15-00134426","MD","CLOSED","2015-02-23T19:25:55.000","21239",NA,NA,NA,NA,NA
"2700 E FAIRMOUNT AVE","BALTIMORE","STEELPL2","TRM-Steel Plate Complaint","2015-02-21T17:57:55.000","2015-02-23T17:57:55.000","BALTIMORE-LINWOOD","15-00130978","MD","CLOSED","2015-02-23T19:18:22.000","21224",NA,NA,NA,NA,NA
"1808  EASTERN AVE","BALTIMORE","STEELPL2","TRM-Steel Plate Complaint","2015-02-20T10:37:29.000","2015-02-22T10:37:29.000","UPPER FELLS POINT","15-00125324","MD","O-PENDNG","2015-02-23T19:28:17.000","21231",NA,NA,NA,NA,NA
"26 N ROSE ST","BALTIMORE","STEELPL2","TRM-Steel Plate Complaint","2015-02-16T11:22:42.000","2015-02-18T11:22:42.000","BALTIMORE-LINWOOD","15-00109681","MD","CLOSED","2015-02-20T14:59:14.000","21224",NA,NA,NA,NA,NA
"121 W SARATOGA ST","BALTIMORE","STEELPL2","TRM-Steel Plate Complaint","2015-02-14T18:41:37.000","2015-02-16T18:41:37.000","DOWNTOWN","15-00106974","MD","CLOSED","2015-02-20T15:07:41.000","21201",NA,NA,NA,NA,NA
"6701  HOLABIRD AVE","BALTIMORE","STEELPL2","TRM-Steel Plate Complaint","2015-02-13T17:05:44.000","2015-02-15T17:05:44.000","GRACELAND PARK","15-00105418","MD","CLOSED","2015-02-20T15:15:25.000","21222",NA,NA,NA,NA,NA
"1808  EASTERN AVE","BALTIMORE","STEELPL2","TRM-Steel Plate Complaint","2015-02-09T11:05:29.000","2015-02-11T11:05:29.000","UPPER FELLS POINT","15-00090722","MD","CLOSED","2015-02-11T10:46:28.000","21231",NA,NA,NA,NA,NA
"6825  FAIRDEL AVE","BALTIMORE","STEELPL2","TRM-Steel Plate Complaint","2015-02-08T14:41:45.000","2015-02-10T14:41:45.000","OVERLEA","15-00090004","MD","CLOSED","2015-02-10T15:28:48.000","21234",NA,NA,NA,NA,NA
"BELAIR RD & ERDMAN AVE","BALTIMORE","STEELPL2","TRM-Steel Plate Complaint","2015-02-01T12:18:25.000","2015-02-03T12:18:25.000","BELAIR-EDISON","15-00072181","MD","CLOSED","2015-02-04T10:42:34.000","21213",NA,NA,NA,NA,NA
"6500  REISTERSTOWN RD","BALTIMORE","STEELPL2","TRM-Steel Plate Complaint","2015-01-29T20:31:50.000","2015-01-31T20:31:50.000","REISTERSTOWN STATION","15-00067743","MD","CLOSED","2015-01-30T13:31:29.000","21215",NA,NA,NA,NA,NA
"PATTERSON AVE & REISTERSTOWN RD","BALTIMORE","STEELPL2","TRM-Steel Plate Complaint","2015-01-29T19:57:42.000","2015-01-31T19:57:42.000","REISTERSTOWN STATION","15-00067672","MD","CLOSED","2015-01-30T13:59:53.000","21215",NA,NA,NA,NA,NA
"2200 E PRATT ST","BALTIMORE","STEELPL2","TRM-Steel Plate Complaint","2015-01-29T10:32:57.000","2015-01-31T10:32:57.000","BUTCHER'S HILL","15-00065182","MD","CLOSED","2015-01-30T14:19:29.000","21231",NA,NA,NA,NA,NA
"6110  YORK RD","BALTIMORE","STEELPL2","TRM-Steel Plate Complaint","2015-01-27T16:20:29.000","2015-01-29T16:20:29.000","CEDARCROFT","15-00061385","MD","CLOSED","2015-01-30T14:11:34.000","21212",NA,NA,NA,NA,NA
"1265 E FAYETTE ST","BALTIMORE","STEELPL2","TRM-Steel Plate Complaint","2015-01-27T16:36:30.000","2015-01-29T16:36:30.000","JONESTOWN","15-00061429","MD","CLOSED","2015-01-29T14:24:50.000","21202",NA,NA,NA,NA,NA
"1740  PATAPSCO ST","BALTIMORE","STEELPL2","TRM-Steel Plate Complaint","2015-01-26T10:12:24.000","2015-01-28T10:12:24.000","SBIC","15-00056137","MD","CLOSED","2015-01-26T18:47:46.000","21230",NA,NA,NA,NA,NA
"E BARNEY ST & COVINGTON ST","BALTIMORE","STEELPL2","TRM-Steel Plate Complaint","2015-01-25T01:24:16.000","2015-01-27T01:24:16.000","RIVERSIDE","15-00055216","MD","CLOSED","2015-01-26T18:52:59.000","21230",NA,NA,NA,NA,NA
"529 N CHARLES ST","BALTIMORE","STEELPL2","TRM-Steel Plate Complaint","2015-01-23T10:29:44.000","2015-01-25T10:29:44.000","MOUNT VERNON","15-00051426","MD","CLOSED","2015-01-23T13:25:29.000","21201",NA,NA,NA,NA,NA
"1634  CLARKSON ST","BALTIMORE","STEELPL2","TRM-Steel Plate Complaint","2015-01-21T14:25:09.000","2015-01-23T14:25:09.000","SBIC","15-00046576","MD","CLOSED","2015-01-29T14:35:12.000","21230",NA,NA,NA,NA,NA
"1740  PATAPSCO ST","BALTIMORE","STEELPL2","TRM-Steel Plate Complaint","2015-01-20T21:19:21.000","2015-01-22T21:19:21.000","SBIC","15-00045135","MD","CLOSED","2015-01-21T00:51:38.000","21230",NA,NA,NA,NA,NA
"PULASKI HWY &N BOULDIN ST","BALTIMORE","STEELPL2","TRM-Steel Plate Complaint","2015-01-20T11:56:57.000","2015-01-22T11:56:57.000","ELLWOOD PARK/MONUMENT","15-00041927","MD","CLOSED","2015-01-20T17:57:06.000","21224",NA,NA,NA,NA,NA
"1 N HOWARD ST","BALTIMORE","STEELPL2","TRM-Steel Plate Complaint","2014-12-12T11:10:03.000","2014-12-14T11:10:03.000","DOWNTOWN","14-00928058","MD","CLOSED","2014-12-12T16:44:41.000","21201",NA,NA,NA,NA,NA
"9 E BARNEY ST","BALTIMORE","STEELPL2","TRM-Steel Plate Complaint","2015-01-19T19:38:49.000","2015-01-21T19:38:49.000","SBIC","15-00041167","MD","CLOSED","2015-01-21T10:47:50.000","21230",NA,NA,NA,NA,NA
"400 N BOULDIN ST","BALTIMORE","STEELPL2","TRM-Steel Plate Complaint","2015-01-19T10:47:03.000","2015-01-21T10:47:03.000","ELLWOOD PARK/MONUMENT","15-00039976","MD","CLOSED","2015-01-22T00:20:44.000","21224",NA,NA,NA,NA,NA
"21 E BARNEY ST","BALTIMORE","STEELPL2","TRM-Steel Plate Complaint","2015-01-15T21:57:01.000","2015-01-17T21:57:01.000","SBIC","15-00035160","MD","CLOSED","2015-01-22T00:27:18.000","21230",NA,NA,NA,NA,NA
"6108  YORK RD","BALTIMORE","STEELPL2","TRM-Steel Plate Complaint","2015-01-15T00:01:53.000","2015-01-17T00:01:53.000","LAKE EVESHAM","15-00032232","MD","CLOSED","2015-01-22T00:32:58.000","21212",NA,NA,NA,NA,NA
"15 E BARNEY ST","BALTIMORE","STEELPL2","TRM-Steel Plate Complaint","2015-01-13T22:56:49.000","2015-01-15T22:56:49.000","SBIC","15-00029225","MD","CLOSED","2015-01-14T00:17:38.000","21230","Dispatch Investigator","Closed","2015-01-14T00:17:00.000",NA,NA
"1825 S CHARLES ST","BALTIMORE","STEELPL2","TRM-Steel Plate Complaint","2015-01-13T20:26:40.000","2015-01-15T20:26:40.000","SBIC","15-00028919","MD","CLOSED","2015-01-16T14:42:37.000","21230",NA,NA,NA,NA,NA
"2319  ARUNAH AVE","BALTIMORE","STEELPL2","TRM-Steel Plate Complaint","2015-01-13T14:48:43.000","2015-01-15T14:48:43.000","ROSEMONT HOMEOWNERS/TENANTS","15-00027674","MD","CLOSED","2015-02-10T15:17:22.000","21216",NA,NA,NA,NA,NA
"4713 W FOREST PARK AVE","BALTIMORE","STEELPL2","TRM-Steel Plate Complaint","2015-01-12T22:20:16.000","2015-01-14T22:20:16.000","WEST FOREST PARK","15-00026523","MD","CLOSED","2015-01-15T11:45:45.000","21207",NA,NA,NA,NA,NA
"3016  SPAULDING AVE","BALTIMORE","STEELPL2","TRM-Steel Plate Complaint","2015-01-12T18:24:07.000","2015-01-14T18:24:07.000","CENTRAL PARK HEIGHTS","15-00026015","MD","CLOSED","2015-01-15T15:34:24.000","21215",NA,NA,NA,NA,NA
"4600 E WABASH AVE","BALTIMORE","STEELPL2","TRM-Steel Plate Complaint","2015-01-10T14:10:39.000","2015-01-12T14:10:39.000","LUCILLE PARK","15-00022575","MD","CLOSED","2015-01-13T12:37:23.000","21215",NA,NA,NA,NA,NA
"421  CHARTER OAK AVE","BALTIMORE","STEELPL2","TRM-Steel Plate Complaint","2015-01-09T21:02:02.000","2015-01-11T21:02:02.000","KERNEWOOD","15-00021983","MD","CLOSED","2015-01-15T15:41:55.000","21212",NA,NA,NA,NA,NA
"FALLS RD &W 41ST ST","BALTIMORE","STEELPL2","TRM-Steel Plate Complaint","2015-01-09T13:00:47.000","2015-01-11T13:00:47.000","HAMPDEN","15-00019877","MD","CLOSED","2015-01-13T12:51:42.000","21211",NA,NA,NA,NA,NA
"8 E BARNEY ST","BALTIMORE","STEELPL2","TRM-Steel Plate Complaint","2015-01-09T01:38:02.000","2015-01-11T01:38:02.000","SBIC","15-00018952","MD","CLOSED","2015-01-09T11:33:49.000","21230",NA,NA,NA,NA,NA
"1747 S CHARLES ST","BALTIMORE","STEELPL2","TRM-Steel Plate Complaint","2015-01-08T20:26:42.000","2015-01-10T20:26:42.000","SBIC","15-00018451","MD","CLOSED","2015-01-08T22:25:53.000","21230",NA,NA,NA,NA,NA
"1 E BARNEY ST","BALTIMORE","STEELPL2","TRM-Steel Plate Complaint","2015-01-08T19:51:44.000","2015-01-10T19:51:44.000","SBIC","15-00018367","MD","CLOSED","2015-01-09T17:49:55.000","21230",NA,NA,NA,NA,NA
"LOCH RAVEN BLVD & LAKESIDE AVE","BALTIMORE","STEELPL2","TRM-Steel Plate Complaint","2015-01-05T18:12:17.000","2015-01-07T18:12:17.000","EDNOR GARDENS-LAKESIDE","15-00008161","MD","CLOSED","2015-01-22T00:38:37.000","21218",NA,NA,NA,NA,NA
"E FORT AVE & LAWRENCE ST","BALTIMORE","STEELPL2","TRM-Steel Plate Complaint","2014-12-29T19:27:16.000","2014-12-31T19:27:16.000","RIVERSIDE","14-00964319","MD","CLOSED","2014-12-31T11:14:43.000","21230",NA,NA,NA,NA,NA
"5129  FREDERICK AVE","BALTIMORE","STEELPL2","TRM-Steel Plate Complaint","2014-12-21T21:26:13.000","2014-12-23T21:26:13.000","BEECHFIELD","14-00947822","MD","CLOSED","2014-12-30T12:51:43.000","21229",NA,NA,NA,NA,NA
"1210 W 37TH ST","BALTIMORE","STEELPL2","TRM-Steel Plate Complaint","2014-12-19T14:27:33.000","2014-12-21T14:27:33.000","HAMPDEN","14-00944957","MD","CLOSED","2014-12-24T11:49:27.000","21211",NA,NA,NA,NA,NA
"310 W SARATOGA ST","BALTIMORE","STEELPL2","TRM-Steel Plate Complaint","2014-12-17T19:57:41.000","2014-12-19T19:57:41.000","DOWNTOWN","14-00940187","MD","CLOSED","2014-12-19T11:11:49.000","21201",NA,NA,NA,NA,NA
"N BENTALOU ST & BAKER ST","BALTIMORE","STEELPL2","TRM-Steel Plate Complaint","2014-12-16T17:48:06.000","2014-12-18T17:48:06.000","COPPIN HEIGHTS/ASH-CO-EAST","14-00936818","MD","CLOSED","2014-12-18T10:29:51.000","21216",NA,NA,NA,NA,NA
"BROOKFIELD AVE & WHITELOCK ST","BALTIMORE","STEELPL2","TRM-Steel Plate Complaint","2014-12-15T20:20:32.000","2014-12-17T20:20:32.000","RESERVOIR HILL","14-00934467","MD","CLOSED","2015-01-09T17:56:07.000","21217",NA,NA,NA,NA,NA
"800 S CHARLES ST","BALTIMORE","STEELPL2","TRM-Steel Plate Complaint","2014-12-12T19:07:52.000","2014-12-14T19:07:52.000","FEDERAL HILL","14-00930039","MD","CLOSED","2014-12-16T10:54:39.000","21230",NA,NA,NA,NA,NA
"S HOWARD ST &W PRATT ST","BALTIMORE","STEELPL2","TRM-Steel Plate Complaint","2014-12-11T23:18:01.000","2014-12-13T23:18:01.000","UPPER FELLS POINT","14-00927804","MD","CLOSED","2014-12-16T11:07:38.000","21201",NA,NA,NA,NA,NA
"EASTERN AVE &S PATTERSON PARK AVE","BALTIMORE","STEELPL2","TRM-Steel Plate Complaint","2014-12-10T16:59:53.000","2014-12-12T16:59:53.000","CANTON","14-00924128","MD","CLOSED","2014-12-12T17:00:55.000","21224",NA,NA,NA,NA,NA
"N BENTALOU ST & PRESBURY ST","BALTIMORE","STEELPL2","TRM-Steel Plate Complaint","2014-12-10T11:49:28.000","2014-12-12T11:49:28.000","COPPIN HEIGHTS/ASH-CO-EAST","14-00922415","MD","CLOSED","2014-12-17T11:17:09.000","21216",NA,NA,NA,NA,NA
"2000  WORCESTER ST","BALTIMORE","STEELPL2","TRM-Steel Plate Complaint","2014-12-09T18:11:49.000","2014-12-11T18:11:49.000","CARROLL - CAMDEN INDUSTRIAL AREA","14-00921510","MD","CLOSED","2014-12-12T17:12:29.000","21230",NA,NA,NA,NA,NA
"26 E HEATH ST","BALTIMORE","STEELPL2","TRM-Steel Plate Complaint","2014-12-05T17:35:24.000","2014-12-07T17:35:24.000","SBIC","14-00913222","MD","CLOSED","2014-12-09T11:16:35.000","21230",NA,NA,NA,NA,NA
"1912  OAK HILL AVE","BALTIMORE","STEELPL2","TRM-Steel Plate Complaint","2014-12-03T14:47:15.000","2014-12-05T14:47:15.000","EAST BALTIMORE MIDWAY","14-00906162","MD","CLOSED","2014-12-05T17:43:48.000","21218",NA,NA,NA,NA,NA
"CARSDALE AVE & LIBERTY HEIGHTS AVE","BALTIMORE","STEELPL2","TRM-Steel Plate Complaint","2014-11-29T19:13:21.000","2014-12-01T19:13:21.000","DORCHESTER","14-00897321","MD","CLOSED","2014-12-05T13:20:52.000","21207",NA,NA,NA,NA,NA
"3600  O'DONNELL ST","BALTIMORE","STEELPL2","TRM-Steel Plate Complaint","2014-11-29T14:28:28.000","2014-12-01T14:28:28.000","CANTON INDUSTRIAL AREA","14-00896636","MD","CLOSED","2014-12-05T12:26:42.000","21224",NA,NA,NA,NA,NA
"2506  ARBUTON AVE","BALTIMORE","STEELPL2","TRM-Steel Plate Complaint","2014-11-25T19:07:57.000","2014-11-27T19:07:57.000","LAKELAND","14-00888616","MD","CLOSED","2015-04-01T11:10:31.000","21230",NA,NA,NA,NA,NA
"1209  SAINT PAUL ST","BALTIMORE","STEELPL2","TRM-Steel Plate Complaint","2014-11-25T17:53:00.000","2014-11-27T17:53:00.000","MID-TOWN BELVEDERE","14-00888153","MD","CLOSED","2014-12-03T16:03:48.000","21202",NA,NA,NA,NA,NA
"232 E CHURCHILL ST","BALTIMORE","STEELPL2","TRM-Steel Plate Complaint","2014-11-24T12:44:35.000","2014-11-26T12:44:35.000","FEDERAL HILL","14-00883041","MD","CLOSED","2014-11-26T12:59:29.000","21230",NA,NA,NA,NA,NA
"W BALTIMORE ST &N MONROE ST","BALTIMORE","STEELPL2","TRM-Steel Plate Complaint","2014-11-23T13:35:53.000","2014-11-25T13:35:53.000","PENROSE/FAYETTE STREET OUTREACH","14-00881667","MD","CLOSED","2014-12-03T16:07:59.000","21223",NA,NA,NA,NA,NA
"SARGEANT ST &S CAREY ST","BALTIMORE","STEELPL2","TRM-Steel Plate Complaint","2014-11-22T12:07:26.000","2014-11-24T12:07:26.000","WASHINGTON VILLAGE","14-00880678","MD","CLOSED","2014-11-28T12:43:52.000","21223",NA,NA,NA,NA,NA
"2741  GWYNNS FALLS PKWY","BALTIMORE","STEELPL2","TRM-Steel Plate Complaint","2014-11-18T19:27:21.000","2014-11-20T19:27:21.000","PANWAY/BRADDISH AVENUE","14-00870282","MD","CLOSED","2014-11-24T11:29:32.000","21216",NA,NA,NA,NA,NA
"4000  PARK HEIGHTS AVE","BALTIMORE","STEELPL2","TRM-Steel Plate Complaint","2014-11-17T15:12:07.000","2014-11-19T15:12:07.000","CENTRAL PARK HEIGHTS","14-00866101","MD","CLOSED","2014-11-21T12:25:17.000","21215",NA,NA,NA,NA,NA
"32 E HEATH ST","BALTIMORE CITY","STEELPL2","TRM-Steel Plate Complaint","2014-11-14T23:13:33.000","2014-11-16T23:13:33.000","SBIC","14-00861691","MD","CLOSED","2014-11-18T12:22:59.000","21230",NA,NA,NA,NA,NA
"6310  REISTERSTOWN RD","BALTIMORE CITY","STEELPL2","TRM-Steel Plate Complaint","2014-11-14T17:42:36.000","2014-11-16T17:42:36.000","GLEN","14-00861161","MD","CLOSED","2014-11-21T12:35:36.000","21215",NA,NA,NA,NA,NA
"1739  PATAPSCO ST","BALTIMORE CITY","STEELPL2","TRM-Steel Plate Complaint","2014-11-14T00:13:41.000","2014-11-16T00:13:41.000","SBIC","14-00858864","MD","CLOSED","2014-11-14T13:32:16.000","21230",NA,NA,NA,NA,NA
"1739  PATAPSCO ST","BALTIMORE CITY","STEELPL2","TRM-Steel Plate Complaint","2014-11-12T22:13:17.000","2014-11-14T22:13:17.000","SBIC","14-00855765","MD","CLOSED","2014-11-13T19:53:40.000","21230",NA,NA,NA,NA,NA
"1700 N BENTALOU ST","BALTIMORE CITY","STEELPL2","TRM-Steel Plate Complaint","2014-11-10T11:19:47.000","2014-11-12T11:19:47.000","COPPIN HEIGHTS/ASH-CO-EAST","14-00846681","MD","CLOSED","2014-11-24T11:43:00.000","21216",NA,NA,NA,NA,NA
"27 E BARNEY ST","BALTIMORE CITY","STEELPL2","TRM-Steel Plate Complaint","2014-11-09T17:19:02.000","2014-11-11T17:19:02.000","SBIC","14-00846129","MD","CLOSED","2014-11-12T13:51:56.000","21230",NA,NA,NA,NA,NA
"1400 W OSTEND ST","BALTIMORE CITY","STEELPL2","TRM-Steel Plate Complaint","2014-11-07T19:23:22.000","2014-11-09T19:23:22.000","WASHINGTON VILLAGE","14-00842831","MD","CLOSED","2014-11-14T14:46:29.000","21223",NA,NA,NA,NA,NA
"1 W BARNEY ST","BALTIMORE CITY","STEELPL2","TRM-Steel Plate Complaint","2014-11-06T22:31:23.000","2014-11-08T22:31:23.000","SBIC","14-00839495","MD","CLOSED","2014-11-07T14:36:38.000","21230",NA,NA,NA,NA,NA
"26 E BARNEY ST","BALTIMORE CITY","STEELPL2","TRM-Steel Plate Complaint","2014-11-06T19:57:15.000","2014-11-08T19:57:15.000","SBIC","14-00839285","MD","CLOSED","2014-11-07T14:43:04.000","21230",NA,NA,NA,NA,NA
"2500  BROENING HWY","BALTIMORE CITY","STEELPL2","TRM-Steel Plate Complaint","2014-11-06T17:51:51.000","2014-11-08T17:51:51.000","HOLABIRD INDUSTRIAL PARK","14-00838816","MD","CLOSED","2014-11-12T13:44:01.000","21224",NA,NA,NA,NA,NA
"8 E BARNEY ST","BALTIMORE CITY","STEELPL2","TRM-Steel Plate Complaint","2014-11-05T22:29:10.000","2014-11-07T22:29:10.000","SBIC","14-00836104","MD","CLOSED","2014-11-07T14:53:33.000","21230",NA,NA,NA,NA,NA
"LOCH RAVEN BLVD & WINSTON AVE","BALTIMORE CITY","STEELPL2","TRM-Steel Plate Complaint","2014-11-05T16:26:11.000","2014-11-07T16:26:11.000","NEW NORTHWOOD","14-00834734","MD","CLOSED","2014-11-07T14:22:17.000","21239",NA,NA,NA,NA,NA
"26 E BARNEY ST","BALTIMORE CITY","STEELPL2","TRM-Steel Plate Complaint","2014-11-04T20:47:02.000","2014-11-06T20:47:02.000","SBIC","14-00831521","MD","CLOSED","2014-11-04T22:33:21.000","21230",NA,NA,NA,NA,NA
"32 E HEATH ST","BALTIMORE CITY","STEELPL2","TRM-Steel Plate Complaint","2014-11-04T20:10:59.000","2014-11-06T20:10:59.000","SBIC","14-00831419","MD","CLOSED","2014-11-06T13:39:14.000","21230",NA,NA,NA,NA,NA
"1739  PATAPSCO ST","BALTIMORE CITY","STEELPL2","TRM-Steel Plate Complaint","2014-11-03T20:19:06.000","2014-11-05T20:19:06.000","SBIC","14-00828552","MD","CLOSED","2014-11-06T13:13:21.000","21230",NA,NA,NA,NA,NA
"2605  AILSA AVE","BALTIMORE CITY","STEELPL2","TRM-Steel Plate Complaint","2014-11-03T12:46:07.000","2014-11-05T12:46:07.000","LAURAVILLE","14-00825934","MD","CLOSED","2014-11-06T12:27:11.000","21214",NA,NA,NA,NA,NA
"2750  BROENING HWY","BALTIMORE CITY","STEELPL2","TRM-Steel Plate Complaint","2014-10-31T10:07:49.000","2014-11-02T10:07:49.000","HOLABIRD INDUSTRIAL PARK","14-00818347","MD","CLOSED","2014-11-12T13:36:54.000","21222",NA,NA,NA,NA,NA
"26 E BARNEY ST","BALTIMORE CITY","STEELPL2","TRM-Steel Plate Complaint","2014-10-29T22:07:38.000","2014-10-31T22:07:38.000","SBIC","14-00814755","MD","CLOSED","2014-10-30T17:46:00.000","21230",NA,NA,NA,NA,NA
"27 E BARNEY ST","BALTIMORE CITY","STEELPL2","TRM-Steel Plate Complaint","2014-10-29T11:30:00.000","2014-10-31T11:30:00.000","SBIC","14-00812230","MD","CLOSED","2014-10-31T13:29:17.000","21230",NA,NA,NA,NA,NA
"E PRATT ST &S CHESTER ST","BALTIMORE CITY","STEELPL2","TRM-Steel Plate Complaint","2014-10-28T22:33:06.000","2014-10-30T22:33:06.000","BUTCHER'S HILL","14-00811631","MD","CLOSED","2014-10-30T17:58:06.000","21231",NA,NA,NA,NA,NA
"2011 W COLD SPRING LN","BALTIMORE CITY","STEELPL2","TRM-Steel Plate Complaint","2014-10-27T20:21:23.000","2014-10-29T20:21:23.000","WOODBERRY","14-00808232","MD","CLOSED","2014-11-05T13:58:21.000","21209",NA,NA,NA,NA,NA
"1012 N ROSEDALE ST","BALTIMORE CITY","STEELPL2","TRM-Steel Plate Complaint","2014-10-27T04:22:23.000","2014-10-29T04:22:23.000","FRANKLINTOWN ROAD","14-00805201","MD","CLOSED","2014-10-28T11:21:02.000","21216",NA,NA,NA,NA,NA
"5615  REISTERSTOWN RD","BALTIMORE CITY","STEELPL2","TRM-Steel Plate Complaint","2014-10-24T10:22:58.000","2014-10-26T10:22:58.000","GLEN","14-00800850","MD","CLOSED","2014-10-24T18:11:48.000","21215",NA,NA,NA,NA,NA
"30 E BARNEY ST","BALTIMORE CITY","STEELPL2","TRM-Steel Plate Complaint","2014-10-23T18:33:11.000","2014-10-25T18:33:11.000","SBIC","14-00799729","MD","CLOSED","2014-10-28T11:52:27.000","21230",NA,NA,NA,NA,NA
"W NORTHERN PKWY & REISTERSTOWN RD","BALTIMORE CITY","STEELPL2","TRM-Steel Plate Complaint","2014-10-22T21:56:02.000","2014-10-24T21:56:02.000","WOODMERE","14-00796997","MD","CLOSED","2014-10-24T18:03:54.000","21215",NA,NA,NA,NA,NA
"5900  SMITH AVE","BALTIMORE CITY","STEELPL2","TRM-Steel Plate Complaint","2014-10-21T18:14:47.000","2014-10-23T18:14:47.000","MOUNT WASHINGTON","14-00793417","MD","CLOSED","2014-10-22T12:36:41.000","21209",NA,NA,NA,NA,NA
"333 S FULTON AVE","BALTIMORE CITY","STEELPL2","TRM-Steel Plate Complaint","2014-10-20T11:55:26.000","2014-10-22T11:55:26.000","CARROLLTON RIDGE","14-00787931","MD","CLOSED","2014-10-22T12:08:53.000","21223",NA,NA,NA,NA,NA
"5800  SMITH AVE","BALTIMORE CITY","STEELPL2","TRM-Steel Plate Complaint","2014-10-17T21:17:43.000","2014-10-19T21:17:43.000","MOUNT WASHINGTON","14-00784384","MD","CLOSED","2014-10-28T11:06:14.000","21209",NA,NA,NA,NA,NA
"2018  GOUGH ST","BALTIMORE CITY","STEELPL2","TRM-Steel Plate Complaint","2014-10-17T01:38:53.000","2014-10-19T01:38:53.000","UPPER FELLS POINT","14-00781704","MD","CLOSED","2014-10-23T15:59:11.000","21231",NA,NA,NA,NA,NA
"1714  BOLTON ST","BALTIMORE CITY","STEELPL2","TRM-Steel Plate Complaint","2014-10-16T23:27:08.000","2014-10-18T23:27:08.000","BOLTON HILL","14-00781606","MD","CLOSED","2014-10-17T18:31:03.000","21217",NA,NA,NA,NA,NA
"3200 W COLD SPRING LN","BALTIMORE CITY","STEELPL2","TRM-Steel Plate Complaint","2014-10-16T20:22:54.000","2014-10-18T20:22:54.000","LUCILLE PARK","14-00781346","MD","CLOSED","2014-10-17T18:39:09.000","21215",NA,NA,NA,NA,NA
"2437  EASTERN AVE","BALTIMORE CITY","STEELPL2","TRM-Steel Plate Complaint","2014-10-16T12:40:39.000","2014-10-18T12:40:39.000","CANTON","14-00779405","MD","CLOSED","2014-10-17T18:42:16.000","21224",NA,NA,NA,NA,NA
"ASH ST & UNION AVE","BALTIMORE CITY","STEELPL2","TRM-Steel Plate Complaint","2014-10-15T20:51:35.000","2014-10-17T20:51:35.000","HAMPDEN","14-00778156","MD","CLOSED","2014-10-17T18:47:11.000","21211",NA,NA,NA,NA,NA
"1704 S CHARLES ST","BALTIMORE CITY","STEELPL2","TRM-Steel Plate Complaint","2014-10-14T21:11:34.000","2014-10-16T21:11:34.000","SBIC","14-00774962","MD","CLOSED","2014-10-16T12:02:05.000","21230",NA,NA,NA,NA,NA
"4200  ROLAND AVE","BALTIMORE CITY","STEELPL2","TRM-Steel Plate Complaint","2014-10-14T11:49:28.000","2014-10-16T11:49:28.000","ROLAND PARK","14-00772392","MD","CLOSED","2014-10-15T11:22:06.000","21210",NA,NA,NA,NA,NA
"1619  UNION AVE","BALTIMORE CITY","STEELPL2","TRM-Steel Plate Complaint","2014-10-13T12:04:41.000","2014-10-15T12:04:41.000","HAMPDEN","14-00770573","MD","CLOSED","2014-10-21T11:20:09.000","21211",NA,NA,NA,NA,NA
"N CHARLES ST &W CENTRE ST","BALTIMORE CITY","STEELPL2","TRM-Steel Plate Complaint","2014-10-10T14:10:29.000","2014-10-12T14:10:29.000","MOUNT VERNON","14-00765782","MD","CLOSED","2014-10-10T15:17:07.000","21201",NA,NA,NA,NA,NA
"HOLABIRD AVE & DUNDALK AVE","BALTIMORE CITY","STEELPL2","TRM-Steel Plate Complaint","2014-10-09T21:45:46.000","2014-10-11T21:45:46.000","GRACELAND PARK","14-00764174","MD","CLOSED","2014-10-14T11:51:06.000","21224",NA,NA,NA,NA,NA
"E BARNEY ST & PATAPSCO ST","BALTIMORE CITY","STEELPL2","TRM-Steel Plate Complaint","2014-10-06T20:36:13.000","2014-10-08T20:36:13.000","SBIC","14-00753558","MD","CLOSED","2014-10-09T13:01:15.000","21230",NA,NA,NA,NA,NA
"1101 N GILMOR ST","BALTIMORE CITY","STEELPL2","TRM-Steel Plate Complaint","2014-10-04T20:36:52.000","2014-10-06T20:36:52.000","SANDTOWN-WINCHESTER","14-00749664","MD","CLOSED","2014-10-07T10:52:13.000","21217",NA,NA,NA,NA,NA
"HOLABIRD AVE & BROENING HWY","BALTIMORE CITY","STEELPL2","TRM-Steel Plate Complaint","2014-10-03T21:15:04.000","2014-10-05T21:15:04.000","HOLABIRD INDUSTRIAL PARK","14-00748590","MD","CLOSED","2014-10-07T11:09:40.000","21224",NA,NA,NA,NA,NA
"403 N CHARLES ST","BALTIMORE CITY","STEELPL2","TRM-Steel Plate Complaint","2014-10-02T12:18:26.000","2014-10-04T12:18:26.000","DOWNTOWN","14-00742574","MD","CLOSED","2014-10-03T10:42:45.000","21201",NA,NA,NA,NA,NA
"2011 W COLD SPRING LN","BALTIMORE CITY","STEELPL2","TRM-Steel Plate Complaint","2014-10-01T20:14:51.000","2014-10-03T20:14:51.000","WOODBERRY","14-00741284","MD","CLOSED","2014-10-07T11:01:58.000","21209",NA,NA,NA,NA,NA
"5 E CENTRE ST","BALTIMORE CITY","STEELPL2","TRM-Steel Plate Complaint","2014-10-01T18:11:35.000","2014-10-03T18:11:35.000","MOUNT VERNON","14-00740813","MD","CLOSED","2014-10-02T14:39:10.000","21201",NA,NA,NA,NA,NA
"W FORT AVE &S CHARLES ST","BALTIMORE CITY","STEELPL2","TRM-Steel Plate Complaint","2014-09-28T11:39:02.000","2014-09-30T11:39:02.000","SBIC","14-00730746","MD","CLOSED","2014-09-30T11:01:35.000","21230",NA,NA,NA,NA,NA
"S MONROE ST &W BALTIMORE ST","BALTIMORE CITY","STEELPL2","TRM-Steel Plate Complaint","2014-09-26T14:03:41.000","2014-09-28T14:03:41.000","PENROSE/FAYETTE STREET OUTREACH","14-00727622","MD","CLOSED","2014-09-30T10:51:20.000","21223",NA,NA,NA,NA,NA
"2605  EASTERN AVE","BALTIMORE CITY","STEELPL2","TRM-Steel Plate Complaint","2014-09-26T11:36:46.000","2014-09-28T11:36:46.000","CANTON","14-00726814","MD","CLOSED","2014-10-01T10:52:27.000","21224",NA,NA,NA,NA,NA
"CANARY CT &S MADEIRA ST","BALTIMORE CITY","STEELPL2","TRM-Steel Plate Complaint","2014-09-25T14:19:13.000","2014-09-27T14:19:13.000","UPPER FELLS POINT","14-00724535","MD","CLOSED","2014-09-26T10:59:09.000","21231",NA,NA,NA,NA,NA
"529 N CHARLES ST","BALTIMORE CITY","STEELPL2","TRM-Steel Plate Complaint","2014-09-24T22:45:50.000","2014-09-26T22:45:50.000","MOUNT VERNON","14-00723006","MD","CLOSED","2014-09-30T11:12:17.000","21201",NA,NA,NA,NA,NA
"709 E PRESTON ST","BALTIMORE CITY","STEELPL2","TRM-Steel Plate Complaint","2014-09-22T17:39:27.000","2014-09-24T17:39:27.000","JOHNSTON SQUARE","14-00715576","MD","CLOSED","2014-09-24T11:14:33.000","21202",NA,NA,NA,NA,NA
"E NORTH AVE & HARFORD RD","BALTIMORE CITY","STEELPL2","TRM-Steel Plate Complaint","2014-09-19T16:12:13.000","2014-09-21T16:12:13.000","OLIVER","14-00709394","MD","CLOSED","2014-09-19T18:58:42.000","21213",NA,NA,NA,NA,NA
"E NORTH AVE & HARFORD AVE","BALTIMORE CITY","STEELPL2","TRM-Steel Plate Complaint","2014-09-19T11:44:56.000","2014-09-21T11:44:56.000","OLIVER","14-00708022","MD","CLOSED","2014-09-23T10:58:48.000","21213",NA,NA,NA,NA,NA
"1000  SAINT PAUL ST","BALTIMORE CITY","STEELPL2","TRM-Steel Plate Complaint","2014-09-18T16:37:36.000","2014-09-20T16:37:36.000","MID-TOWN BELVEDERE","14-00706208","MD","CLOSED","2014-09-19T11:07:24.000","21202",NA,NA,NA,NA,NA
"2501  EASTERN AVE","BALTIMORE CITY","STEELPL2","TRM-Steel Plate Complaint","2014-09-15T10:07:27.000","2014-09-17T10:07:27.000","CANTON","14-00693917","MD","CLOSED","2014-09-16T11:10:16.000","21224",NA,NA,NA,NA,NA
"4200  ROLAND AVE","BALTIMORE CITY","STEELPL2","TRM-Steel Plate Complaint","2014-09-11T20:47:51.000","2014-09-13T20:47:51.000","ROLAND PARK","14-00687827","MD","CLOSED","2014-09-16T10:43:34.000","21210",NA,NA,NA,NA,NA
"5213  PURLINGTON WAY","BALTIMORE","STEELPL2","TRM-Steel Plate Complaint","2014-09-10T21:13:56.000","2014-09-12T21:13:56.000","HOMELAND","14-00684350","MD","CLOSED","2014-09-11T19:51:30.000",NA,NA,NA,NA,NA,NA
"WASHINGTON BLVD & DESOTO RD","BALTIMORE","STEELPL2","TRM-Steel Plate Complaint","2014-09-09T15:56:31.000","2014-09-11T15:56:31.000","MORRELL PARK","14-00679316","MD","CLOSED","2014-09-17T10:19:17.000",NA,NA,NA,NA,NA,NA
"4300  ROLAND AVE","BALTIMORE","STEELPL2","TRM-Steel Plate Complaint","2014-09-08T23:29:22.000","2014-09-10T23:29:22.000","ROLAND PARK","14-00677468","MD","CLOSED","2014-09-16T11:19:32.000","21210-    ",NA,NA,NA,NA,NA
"PELHAM AVE & HARFORD RD","BALTIMORE","STEELPL2","TRM-Steel Plate Complaint","2014-09-08T09:48:25.000","2014-09-10T09:48:25.000","MAYFIELD","14-00673900","MD","CLOSED","2014-09-11T10:38:40.000",NA,NA,NA,NA,NA,NA
"1100 N LONGWOOD ST","BALTIMORE CITY","STEELPL2","TRM-Steel Plate Complaint","2014-09-04T19:12:01.000","2014-09-06T19:12:01.000","FRANKLINTOWN ROAD","14-00667846","MD","CLOSED","2014-09-09T11:43:09.000","21216",NA,NA,NA,NA,NA
"1800  WEBSTER ST","BALTIMORE CITY","STEELPL2","TRM-Steel Plate Complaint","2014-09-03T19:36:49.000","2014-09-05T19:36:49.000","RIVERSIDE","14-00664168","MD","CLOSED","2014-09-04T10:52:58.000","21230",NA,NA,NA,NA,NA
"1800  WEBSTER ST","BALTIMORE CITY","STEELPL2","TRM-Steel Plate Complaint","2014-09-03T11:29:19.000","2014-09-05T11:29:19.000","RIVERSIDE","14-00661450","MD","CLOSED","2014-09-05T10:50:16.000","21230",NA,NA,NA,NA,NA
"EASTERN AVE &S MILTON AVE","BALTIMORE CITY","STEELPL2","TRM-Steel Plate Complaint","2014-08-27T18:19:27.000","2014-08-29T18:19:27.000","CANTON","14-00647107","MD","CLOSED","2014-08-28T21:02:20.000","21224",NA,NA,NA,NA,NA
"1100  DUNDALK AVE","BALTIMORE CITY","STEELPL2","TRM-Steel Plate Complaint","2014-08-27T17:52:46.000","2014-08-29T17:52:46.000","GRACELAND PARK","14-00647011","MD","CLOSED","2014-09-04T11:04:44.000","21224",NA,NA,NA,NA,NA
"4200  SAINT GEORGES AVE","BALTIMORE CITY","STEELPL2","TRM-Steel Plate Complaint","2014-08-27T11:28:27.000","2014-08-29T11:28:27.000","PEN LUCY","14-00645181","MD","CLOSED","2014-08-27T18:08:10.000","21212",NA,NA,NA,NA,NA
"4708  GRINDON AVE","BALTIMORE CITY","STEELPL2","TRM-Steel Plate Complaint","2014-08-26T17:27:49.000","2014-08-28T17:27:49.000","LAURAVILLE","14-00643603","MD","CLOSED","2014-08-28T21:20:48.000","21214",NA,NA,NA,NA,NA
"100 N HAVEN ST","BALTIMORE CITY","STEELPL2","TRM-Steel Plate Complaint","2014-08-25T17:00:06.000","2014-08-27T17:00:06.000","BALTIMORE HIGHLANDS","14-00639925","MD","CLOSED","2014-08-26T13:10:01.000","21224",NA,NA,NA,NA,NA
"100 S FULTON AVE","BALTIMORE CITY","STEELPL2","TRM-Steel Plate Complaint","2014-08-25T16:32:04.000","2014-08-27T16:32:04.000","UNION SQUARE","14-00639802","MD","CLOSED","2014-09-04T11:20:06.000","21223",NA,NA,NA,NA,NA
"1800 E NORTH AVE","BALTIMORE CITY","STEELPL2","TRM-Steel Plate Complaint","2014-08-22T20:31:04.000","2014-08-24T20:31:04.000","BROADWAY EAST","14-00634723","MD","CLOSED","2014-08-25T14:59:42.000","21213",NA,NA,NA,NA,NA
"E NORTH AVE &N WOLFE ST","BALTIMORE CITY","STEELPL2","TRM-Steel Plate Complaint","2014-08-21T18:12:12.000","2014-08-23T18:12:12.000","BROADWAY EAST","14-00630861","MD","CLOSED","2014-08-28T21:28:36.000","21213",NA,NA,NA,NA,NA
"BOSWORTH AVE & WAYNE AVE","BALTIMORE CITY","STEELPL2","TRM-Steel Plate Complaint","2014-08-21T14:53:01.000","2014-08-23T14:53:01.000","HOWARD PARK","14-00629989","MD","CLOSED","2014-08-25T11:52:15.000","21207",NA,NA,NA,NA,NA
"800 E BELVEDERE AVE","BALTIMORE CITY","STEELPL2","TRM-Steel Plate Complaint","2014-08-20T18:37:23.000","2014-08-22T18:37:23.000","MID-GOVANS","14-00627534","MD","CLOSED","2014-08-22T12:45:24.000","21212",NA,NA,NA,NA,NA
"4119  SAINT GEORGES AVE","BALTIMORE CITY","STEELPL2","TRM-Steel Plate Complaint","2014-08-19T12:06:18.000","2014-08-21T12:06:18.000","PEN LUCY","14-00621985","MD","CLOSED","2014-09-03T14:49:55.000","21218",NA,NA,NA,NA,NA
"201 W BALTIMORE ST","BALTIMORE CITY","STEELPL2","TRM-Steel Plate Complaint","2014-08-16T23:51:06.000","2014-08-18T23:51:06.000","DOWNTOWN","14-00616501","MD","CLOSED","2014-08-20T10:53:39.000","21201",NA,NA,NA,NA,NA
"S HANOVER ST & WATERVIEW AVE","BALTIMORE CITY","STEELPL2","TRM-Steel Plate Complaint","2014-08-16T18:49:52.000","2014-08-18T18:49:52.000","MIDDLE BRANCH/REEDBIRD PARKS","14-00616218","MD","CLOSED","2014-08-19T10:27:07.000","21225",NA,NA,NA,NA,NA
"PORTUGAL ST &S MADEIRA ST","BALTIMORE CITY","STEELPL2","TRM-Steel Plate Complaint","2014-08-16T15:11:48.000","2014-08-18T15:11:48.000","UPPER FELLS POINT","14-00615967","MD","CLOSED","2014-08-20T11:27:30.000","21231",NA,NA,NA,NA,NA
"2119  EDMONDSON AVE","BALTIMORE CITY","STEELPL2","TRM-Steel Plate Complaint","2014-08-15T20:21:57.000","2014-08-17T20:21:57.000","MIDTOWN-EDMONDSON","14-00614909","MD","CLOSED","2014-08-22T12:29:47.000","21223",NA,NA,NA,NA,NA
"EASTERN AVE &S MILTON AVE","BALTIMORE CITY","STEELPL2","TRM-Steel Plate Complaint","2014-08-14T15:54:50.000","2014-08-16T15:54:50.000","CANTON","14-00610303","MD","CLOSED","2014-08-18T11:07:05.000","21224",NA,NA,NA,NA,NA
"1700 W NORTH AVE","BALTIMORE CITY","STEELPL2","TRM-Steel Plate Complaint","2014-08-13T11:37:25.000","2014-08-15T11:37:25.000","SANDTOWN-WINCHESTER","14-00605290","MD","CLOSED","2014-08-14T14:15:47.000","21217",NA,NA,NA,NA,NA
"EDMONDSON AVE &N BENTALOU ST","BALTIMORE CITY","STEELPL2","TRM-Steel Plate Complaint","2014-08-12T22:55:50.000","2014-08-14T22:55:50.000","ROSEMONT HOMEOWNERS/TENANTS","14-00604477","MD","CLOSED","2014-08-14T11:48:30.000","21223",NA,NA,NA,NA,NA
"1522  EASTERN AVE","BALTIMORE CITY","STEELPL2","TRM-Steel Plate Complaint","2014-08-11T00:02:55.000","2014-08-13T00:02:55.000","FELLS POINT","14-00597403","MD","CLOSED","2014-08-13T10:38:56.000","21231",NA,NA,NA,NA,NA
"W COLD SPRING LN & LINKWOOD RD","BALTIMORE CITY","STEELPL2","TRM-Steel Plate Complaint","2014-08-07T13:25:14.000","2014-08-09T13:25:14.000","LOYOLA/NOTRE DAME","14-00589186","MD","CLOSED","2014-08-07T13:46:16.000","21210",NA,NA,NA,NA,NA
"300 N HILTON ST","BALTIMORE CITY","STEELPL2","TRM-Steel Plate Complaint","2014-08-07T11:40:23.000","2014-08-09T11:40:23.000","ALLENDALE","14-00588521","MD","CLOSED","2014-08-08T11:25:52.000","21229",NA,NA,NA,NA,NA
"E NORTH AVE & GREENMOUNT AVE","BALTIMORE CITY","STEELPL2","TRM-Steel Plate Complaint","2014-08-06T16:25:25.000","2014-08-08T16:25:25.000","BARCLAY","14-00586304","MD","CLOSED","2014-08-08T12:44:48.000","21202",NA,NA,NA,NA,NA
"424  HOWIL TER","BALTIMORE CITY","STEELPL2","TRM-Steel Plate Complaint","2014-08-05T11:48:23.000","2014-08-07T11:48:23.000","ROSEBANK","14-00580867","MD","CLOSED","2014-08-07T11:12:57.000","21212",NA,NA,NA,NA,NA
"ERDMAN AVE & NORTH PT RD","BALTIMORE CITY","STEELPL2","TRM-Steel Plate Complaint","2014-08-04T20:02:17.000","2014-08-06T20:02:17.000","PULASKI INDUSTRIAL AREA","14-00579974","MD","CLOSED","2014-08-07T13:16:26.000","21237",NA,NA,NA,NA,NA
"N BROADWAY & ORLEANS ST","BALTIMORE CITY","STEELPL2","TRM-Steel Plate Complaint","2014-08-04T13:36:23.000","2014-08-06T13:36:23.000","DUNBAR-BROADWAY","14-00578072","MD","CLOSED","2014-08-05T13:09:08.000","21287",NA,NA,NA,NA,NA
"N BROADWAY & ORLEANS ST","BALTIMORE CITY","STEELPL2","TRM-Steel Plate Complaint","2014-08-02T22:48:05.000","2014-08-04T22:48:05.000","DUNBAR-BROADWAY","14-00575731","MD","CLOSED","2014-08-05T15:15:36.000","21287",NA,NA,NA,NA,NA
"S FULTON AVE &W PRATT ST","BALTIMORE CITY","STEELPL2","TRM-Steel Plate Complaint","2014-08-02T21:02:44.000","2014-08-04T21:02:44.000","NEW SOUTHWEST/MOUNT CLARE","14-00575614","MD","CLOSED","2014-08-07T13:51:20.000","21223",NA,NA,NA,NA,NA
"FALLS RD &W 36TH ST","BALTIMORE CITY","STEELPL2","TRM-Steel Plate Complaint","2014-08-02T19:34:20.000","2014-08-04T19:34:20.000","HAMPDEN","14-00575523","MD","CLOSED","2014-08-07T13:31:58.000","21211",NA,NA,NA,NA,NA
"FALLS RD &W 37TH ST","BALTIMORE CITY","STEELPL2","TRM-Steel Plate Complaint","2014-08-02T13:05:27.000","2014-08-04T13:05:27.000","HAMPDEN","14-00574969","MD","CLOSED","2014-08-07T13:26:52.000","21211",NA,NA,NA,NA,NA
"E SARATOGA ST &N CALVERT ST","BALTIMORE CITY","STEELPL2","TRM-Steel Plate Complaint","2014-08-01T17:09:33.000","2014-08-03T17:09:33.000","DOWNTOWN","14-00573344","MD","CLOSED","2014-08-05T14:30:02.000","21202",NA,NA,NA,NA,NA
"HARFORD AVE &E NORTH AVE","BALTIMORE CITY","STEELPL2","TRM-Steel Plate Complaint","2014-08-01T14:37:42.000","2014-08-03T14:37:42.000","OLIVER","14-00572733","MD","CLOSED","2014-08-05T14:07:05.000","21213",NA,NA,NA,NA,NA
"2437  EASTERN AVE","BALTIMORE CITY","STEELPL2","TRM-Steel Plate Complaint","2014-08-01T12:29:14.000","2014-08-03T12:29:14.000","CANTON","14-00571998","MD","CLOSED","2014-08-04T11:16:16.000","21224",NA,NA,NA,NA,NA
"1526 S CHARLES ST","BALTIMORE","STEELPL2","TRM-Steel Plate Complaint","2015-05-25T21:07:06.000","2015-05-27T21:07:06.000","SBIC","15-00406379","MD","CLOSED","2015-05-27T15:17:29.000","21230",NA,NA,NA,NA,NA
"LOCH RAVEN BLVD & LAKESIDE AVE, BALTIMOR",NA,"STEELPL2","TRM-Steel Plate Complaint","2015-07-29T12:36:54.000","2015-07-31T12:36:54.000","EDNOR GARDENS-LAKESIDE","15-00599157","MD","CLOSED","2015-07-30T11:06:13.000",NA,NA,NA,NA,NA,NA
"508  BLOOM ST","BALTIMORE","STEELPL2","TRM-Steel Plate Complaint","2015-06-10T21:48:52.000","2015-06-12T21:48:52.000","DRUID HEIGHTS","15-00453396","MD","CLOSED","2015-07-24T15:06:48.000","21217",NA,NA,NA,NA,NA
"414 N CALVERT ST","BALTIMORE","STEELPL2","TRM-Steel Plate Complaint","2015-06-26T12:06:54.000","2015-06-28T12:06:54.000","DOWNTOWN","15-00500835","MD","CLOSED","2015-07-01T11:34:40.000","21202",NA,NA,NA,NA,NA
"2400  EDMONDSON AVE","BALTIMORE","STEELPL2","TRM-Steel Plate Complaint","2015-07-15T16:16:12.000","2015-07-17T16:16:12.000","ROSEMONT HOMEOWNERS/TENANTS","15-00557436","MD","CLOSED","2015-07-16T12:18:32.000","21223",NA,NA,NA,NA,NA
"3300  EASTERN AVE","BALTIMORE","STEELPL2","TRM-Steel Plate Complaint","2015-07-30T19:55:49.000","2015-08-01T19:55:49.000","HIGHLANDTOWN","15-00604849","MD","CLOSED","2015-07-31T17:17:41.000","21224",NA,NA,NA,NA,NA
"1500 E LOMBARD ST","BALTIMORE","STEELPL2","TRM-Steel Plate Complaint","2015-05-10T12:49:55.000","2015-05-12T12:49:55.000","WASHINGTON HILL","15-00365395","MD","CLOSED","2015-05-12T13:23:57.000","21231",NA,NA,NA,NA,NA
"100 W BALTIMORE ST","BALTIMORE","STEELPL2","TRM-Steel Plate Complaint","2015-06-22T20:05:15.000","2015-06-24T20:05:15.000","DOWNTOWN","15-00486788","MD","CLOSED","2015-06-24T10:52:35.000","21201",NA,NA,NA,NA,NA
"153 S ROBINSON ST","BALTIMORE","STEELPL2","TRM-Steel Plate Complaint","2015-07-13T11:33:13.000","2015-07-15T11:33:13.000","BALTIMORE-LINWOOD","15-00547820","MD","CLOSED","2015-07-17T18:13:00.000","21224",NA,NA,NA,NA,NA
"875 W FAYETTE ST","BALTIMORE","STEELPL2","TRM-Steel Plate Complaint","2015-05-08T22:05:38.000","2015-05-10T22:05:38.000","POPPLETON","15-00362280","MD","CLOSED","2015-05-12T13:18:23.000","21201",NA,NA,NA,NA,NA
"N HOWARD ST & W BALTIMORE ST, BALTIMORE,",NA,"STEELPL2","TRM-Steel Plate Complaint","2015-06-22T19:59:49.000","2015-06-24T19:59:49.000","DOWNTOWN","15-00486776","MD","CLOSED","2015-06-24T10:56:02.000",NA,NA,NA,NA,NA,NA
"2500  ORLEANS ST","BALTIMORE","STEELPL2","TRM-Steel Plate Complaint","2015-05-17T14:48:53.000","2015-05-19T14:48:53.000","MCELDERRY PARK","15-00386236","MD","CLOSED","2015-05-19T17:58:29.000","21224",NA,NA,NA,NA,NA
"2501  EDMONDSON AVE","BALTIMORE","STEELPL2","TRM-Steel Plate Complaint","2015-07-10T11:35:42.000","2015-07-12T11:35:42.000","ROSEMONT HOMEOWNERS/TENANTS","15-00542058","MD","CLOSED","2015-07-13T12:01:45.000","21223",NA,NA,NA,NA,NA
"PERRING PKWY & E NORTHERN PKWY, BALTIMOR","BALTIMORE","STEELPL2","TRM-Steel Plate Complaint","2015-06-11T22:45:08.000","2015-06-13T22:45:08.000","HARFORD-ECHODALE/PERRING PARKWAY","15-00456793","MD","CLOSED","2015-06-15T14:51:28.000","21239",NA,NA,NA,NA,NA
"2719 E NORTHERN PKWY","BALTIMORE","STEELPL2","TRM-Steel Plate Complaint","2015-06-28T21:33:15.000","2015-06-30T21:33:15.000","WESTFIELD","15-00505658","MD","CLOSED","2015-07-01T11:20:34.000","21214",NA,NA,NA,NA,NA
"2901  FOREST GLEN RD","BALTIMORE","STEELPL2","TRM-Steel Plate Complaint","2015-07-07T10:29:26.000","2015-07-09T10:29:26.000","WEST FOREST PARK","15-00529983","MD","CLOSED","2015-07-09T11:09:44.000","21216",NA,NA,NA,NA,NA
"3507  CHESLEY AVE","BALTIMORE","STEELPL2","TRM-Steel Plate Complaint","2015-06-19T21:34:29.000","2015-06-21T21:34:29.000","WOODRING","15-00480932","MD","CLOSED","2015-06-30T11:02:20.000","21234",NA,NA,NA,NA,NA
"6037  BELAIR RD","BALTIMORE","STEELPL2","TRM-Steel Plate Complaint","2015-05-08T22:27:23.000","2015-05-10T22:27:23.000","CEDMONT","15-00362417","MD","CLOSED","2015-05-14T19:52:20.000","21206",NA,NA,NA,NA,NA
"2719 E NORTHERN PKWY","BALTIMORE","STEELPL2","TRM-Steel Plate Complaint","2015-06-23T22:52:01.000","2015-06-25T22:52:01.000","WESTFIELD","15-00490999","MD","CLOSED","2015-06-25T10:54:46.000","21214",NA,NA,NA,NA,NA
"REISTERSTOWN RD & BOARMAN AVE","BALTIMORE","STEELPL2","TRM-Steel Plate Complaint","2015-05-21T21:05:17.000","2015-05-23T21:05:17.000","TOWANDA-GRANTLEY","15-00400075","MD","CLOSED","2015-05-28T13:19:49.000","21215",NA,NA,NA,NA,NA
"PERRING PKWY & E NORTHERN PKWY, BALTIMOR",NA,"STEELPL2","TRM-Steel Plate Complaint","2015-06-11T11:15:28.000","2015-06-13T11:15:28.000","HARFORD-ECHODALE/PERRING PARKWAY","15-00453976","MD","CLOSED","2015-06-16T12:12:07.000",NA,NA,NA,NA,NA,NA
"PERRING PKWY & HILLEN RD","BALTIMORE","STEELPL2","TRM-Steel Plate Complaint","2015-05-21T10:35:14.000","2015-05-23T10:35:14.000","MORGAN STATE UNIVERSITY","15-00397850","MD","CLOSED","2015-05-27T12:03:39.000","21239",NA,NA,NA,NA,NA
"2700 E NORTHERN PKWY","BALTIMORE","STEELPL2","TRM-Steel Plate Complaint","2015-06-28T23:01:57.000","2015-06-30T23:01:57.000","NORTH HARFORD ROAD","15-00505746","MD","CLOSED","2015-06-30T10:43:39.000","21214",NA,NA,NA,NA,NA
"2328  REISTERSTOWN RD","BALTIMORE","STEELPL2","TRM-Steel Plate Complaint","2015-07-02T11:21:00.000","2015-07-04T11:21:00.000","MONDAWMIN","15-00518715","MD","CLOSED","2015-07-09T12:56:26.000","21217",NA,NA,NA,NA,NA
"3441  FAIRFIELD RD","BALTIMORE","STEELPL2","TRM-Steel Plate Complaint","2015-05-08T18:55:37.000","2015-05-10T18:55:37.000","FAIRFIELD AREA","15-00361687","MD","CLOSED","2015-06-03T11:30:17.000","21226",NA,NA,NA,NA,NA
"945 E PATAPSCO AVE","BALTIMORE","STEELPL2","TRM-Steel Plate Complaint","2015-06-15T12:47:20.000","2015-06-17T12:47:20.000","BROOKLYN","15-00463249","MD","CLOSED","2015-06-22T11:47:21.000","21225",NA,NA,NA,NA,NA
"900  BONAPARTE AVE","BALTIMORE","STEELPL2","TRM-Steel Plate Complaint","2015-06-20T00:55:52.000","2015-06-22T00:55:52.000","EAST BALTIMORE MIDWAY","15-00481170","MD","CLOSED","2015-06-23T10:55:34.000","21218",NA,NA,NA,NA,NA
"HILLEN RD & ARGONNE DR, BALTIMORE, MD, 2",NA,"STEELPL2","TRM-Steel Plate Complaint","2015-07-26T21:31:46.000","2015-07-28T21:31:46.000","MORGAN STATE UNIVERSITY","15-00591502","MD","CLOSED","2015-07-28T11:59:54.000",NA,NA,NA,NA,NA,NA
"505 S PATTERSON PARK AVE","BALTIMORE","STEELPL2","TRM-Steel Plate Complaint","2015-05-15T14:36:59.000","2015-05-17T14:36:59.000","CANTON","15-00382488","MD","CLOSED","2015-05-19T18:32:09.000","21231",NA,NA,NA,NA,NA
"LOCH RAVEN BLVD & E 33RD ST, BALTIMORE,",NA,"STEELPL2","TRM-Steel Plate Complaint","2015-07-21T11:34:11.000","2015-07-23T11:34:11.000","EDNOR GARDENS-LAKESIDE","15-00572691","MD","CLOSED","2015-07-24T10:20:57.000",NA,NA,NA,NA,NA,NA
"1300 N CHARLES ST","BALTIMORE","STEELPL2","TRM-Steel Plate Complaint","2015-07-27T18:57:11.000","2015-07-29T18:57:11.000","MID-TOWN BELVEDERE","15-00594281","MD","CLOSED","2015-07-28T17:38:57.000","21202",NA,NA,NA,NA,NA
"735 S BROADWAY","BALTIMORE","STEELPL2","TRM-Steel Plate Complaint","2015-07-06T14:48:23.000","2015-07-08T14:48:23.000","FELLS POINT","15-00528033","MD","O-PENDNG","2015-07-07T11:05:54.000","21231",NA,NA,NA,NA,NA
"1 E MOUNT VERNON PL","BALTIMORE","STEELPL2","TRM-Steel Plate Complaint","2015-06-12T23:50:58.000","2015-06-14T23:50:58.000","MOUNT VERNON","15-00460048","MD","CLOSED","2015-06-19T11:31:06.000","21201",NA,NA,NA,NA,NA
"3500  HILLEN RD","BALTIMORE","STEELPL2","TRM-Steel Plate Complaint","2015-05-21T17:20:24.000","2015-05-23T17:20:24.000","EDNOR GARDENS-LAKESIDE","15-00399412","MD","CLOSED","2015-06-03T11:26:50.000","21218",NA,NA,NA,NA,NA
"6309  HARFORD RD","BALTIMORE","STEELPL2","TRM-Steel Plate Complaint","2015-07-23T22:18:58.000","2015-07-25T22:18:58.000","WESTFIELD","15-00583678","MD","CLOSED","2015-07-24T14:56:37.000","21214",NA,NA,NA,NA,NA
"1613  EUTAW PL","BALTIMORE","STEELPL2","TRM-Steel Plate Complaint","2015-06-07T19:01:47.000","2015-06-09T19:01:47.000","MADISON PARK","15-00443868","MD","CLOSED","2015-06-09T10:43:19.000","21217",NA,NA,NA,NA,NA
"7100  BOXFORD RD","BALTIMORE","STEELPL2","TRM-Steel Plate Complaint","2015-06-12T10:59:20.000","2015-06-14T10:59:20.000","CROSS COUNTRY","15-00457048","MD","CLOSED","2015-06-16T13:29:20.000","21215",NA,NA,NA,NA,NA
"EASTERN AVE & S LUZERNE AVE, BALTIMORE,",NA,"STEELPL2","TRM-Steel Plate Complaint","2015-06-19T14:22:29.000","2015-06-21T14:22:29.000","CANTON","15-00479048","MD","CLOSED","2015-06-22T11:20:13.000",NA,NA,NA,NA,NA,NA
"3318  MONDAWMIN AVE","BALTIMORE","STEELPL2","TRM-Steel Plate Complaint","2015-06-04T23:14:09.000","2015-06-06T23:14:09.000","HANLON-LONGWOOD","15-00438068","MD","CLOSED","2015-06-09T12:03:52.000","21216",NA,NA,NA,NA,NA
"1700 E COLD SPRING LN","BALTIMORE","STEELPL2","TRM-Steel Plate Complaint","2015-07-05T13:47:07.000","2015-07-07T13:47:07.000","STONEWOOD-PENTWOOD-WINSTON","15-00525213","MD","CLOSED","2015-07-16T12:10:44.000","21239",NA,NA,NA,NA,NA
"KEY HWY &E CROSS ST","BALTIMORE","STEELPL2","TRM-Steel Plate Complaint","2015-06-03T11:19:40.000","2015-06-05T11:19:40.000","RIVERSIDE","15-00432087","MD","CLOSED","2015-06-04T11:53:44.000","21230",NA,NA,NA,NA,NA
"6037  BELAIR RD","BALTIMORE","STEELPL2","TRM-Steel Plate Complaint","2015-07-17T16:35:19.000","2015-07-19T16:35:19.000","CEDMONT","15-00565036","MD","CLOSED","2015-07-22T12:01:45.000","21206",NA,NA,NA,NA,NA
"E NORTHERN PKWY & OLD HARFORD RD, BALTIM",NA,"STEELPL2","TRM-Steel Plate Complaint","2015-06-14T19:15:20.000","2015-06-16T19:15:20.000","WESTFIELD","15-00461876","MD","CLOSED","2015-06-16T13:07:16.000",NA,NA,NA,NA,NA,NA
"HILLEN RD & E 33RD ST, BALTIMORE, MD, 21",NA,"STEELPL2","TRM-Steel Plate Complaint","2015-07-30T10:11:56.000","2015-08-01T10:11:56.000","MONTEBELLO","15-00602198","MD","CLOSED","2015-07-31T17:37:57.000",NA,NA,NA,NA,NA,NA
"200 N MILTON AVE","BALTIMORE","STEELPL2","TRM-Steel Plate Complaint","2015-05-07T10:59:26.000","2015-05-09T10:59:26.000","PATTERSON PLACE","15-00356323","MD","CLOSED","2015-05-12T12:52:25.000","21224",NA,NA,NA,NA,NA
"E MADISON ST &N ROSE ST","BALTIMORE","STEELPL2","TRM-Steel Plate Complaint","2015-05-27T09:45:01.000","2015-05-29T09:45:01.000","MILTON-MONTFORD","15-00410675","MD","CLOSED","2015-05-28T13:03:10.000","21205",NA,NA,NA,NA,NA
"800 S BROADWAY","BALTIMORE","STEELPL2","TRM-Steel Plate Complaint","2015-08-04T13:19:17.000","2015-08-06T13:19:17.000","FELLS POINT","15-00616623","MD","O-PENDNG","2015-08-04T18:29:03.000","21231",NA,NA,NA,NA,NA
"EASTERN AVE &S LUZERNE AVE","BALTIMORE","STEELPL2","TRM-Steel Plate Complaint","2015-05-16T16:30:16.000","2015-05-18T16:30:16.000","CANTON","15-00385135","MD","CLOSED","2015-05-19T18:17:20.000","21224",NA,NA,NA,NA,NA
"1606 W FRANKLIN ST","BALTIMORE","STEELPL2","TRM-Steel Plate Complaint","2015-07-11T14:56:21.000","2015-07-13T14:56:21.000","HARLEM PARK","15-00545608","MD","CLOSED","2015-07-16T12:05:18.000","21223",NA,NA,NA,NA,NA
"2510 E MADISON ST","BALTIMORE","STEELPL2","TRM-Steel Plate Complaint","2015-06-22T20:55:38.000","2015-06-24T20:55:38.000","MILTON-MONTFORD","15-00486953","MD","CLOSED","2015-06-24T10:43:05.000","21205",NA,NA,NA,NA,NA
"3300  LOCH RAVEN BLVD","BALTIMORE","STEELPL2","TRM-Steel Plate Complaint","2015-06-18T09:14:05.000","2015-06-20T09:14:05.000","EDNOR GARDENS-LAKESIDE","15-00474702","MD","CLOSED","2015-07-07T10:32:06.000","21218",NA,NA,NA,NA,NA
"LOUISE AVE & OLD HARFORD RD, BALTIMORE,",NA,"STEELPL2","TRM-Steel Plate Complaint","2015-06-18T21:44:48.000","2015-06-20T21:44:48.000","CHRISTOPHER","15-00477416","MD","CLOSED","2015-06-22T11:38:44.000",NA,NA,NA,NA,NA,NA
"S CAROLINE ST &E LOMBARD ST","BALTIMORE","STEELPL2","TRM-Steel Plate Complaint","2015-05-10T13:55:37.000","2015-05-12T13:55:37.000","WASHINGTON HILL","15-00365447","MD","CLOSED","2015-05-22T10:51:03.000","21231",NA,NA,NA,NA,NA
"3100  ELMORA AVE","BALTIMORE","STEELPL2","TRM-Steel Plate Complaint","2015-07-15T18:16:53.000","2015-07-17T18:16:53.000","CLIFTON PARK","15-00558013","MD","CLOSED","2015-07-20T17:53:35.000","21213",NA,NA,NA,NA,NA
"700 S CHARLES ST","BALTIMORE","STEELPL2","TRM-Steel Plate Complaint","2015-07-24T18:18:49.000","2015-07-26T18:18:49.000","OTTERBEIN","15-00587087","MD","CLOSED","2015-07-28T12:02:40.000","21230",NA,NA,NA,NA,NA
"900 S POTOMAC ST","BALTIMORE","STEELPL2","TRM-Steel Plate Complaint","2015-06-26T18:52:54.000","2015-06-28T18:52:54.000","CANTON","15-00502534","MD","CLOSED","2015-06-30T10:54:56.000","21224",NA,NA,NA,NA,NA
"PARK HEIGHTS AVE & VIRGINIA AVE","BALTIMORE","STEELPL2","TRM-Steel Plate Complaint","2015-06-04T10:43:31.000","2015-06-06T10:43:31.000","CENTRAL PARK HEIGHTS","15-00435424","MD","CLOSED","2015-06-05T10:59:01.000","21215",NA,NA,NA,NA,NA
"OLD HARFORD RD & E NORTHERN PKWY, BALTIM",NA,"STEELPL2","TRM-Steel Plate Complaint","2015-07-06T20:46:41.000","2015-07-08T20:46:41.000","CHRISTOPHER","15-00529448","MD","CLOSED","2015-07-09T11:14:56.000",NA,NA,NA,NA,NA,NA
"102 S MONROE ST","BALTIMORE","STEELPL2","TRM-Steel Plate Complaint","2015-07-02T15:57:05.000","2015-07-04T15:57:05.000","CARROLLTON RIDGE","15-00520229","MD","CLOSED","2015-07-09T12:00:41.000","21223",NA,NA,NA,NA,NA
"2304 E FAYETTE ST","BALTIMORE","STEELPL2","TRM-Steel Plate Complaint","2015-07-30T10:51:34.000","2015-08-01T10:51:34.000","PATTERSON PLACE","15-00602318","MD","CLOSED","2015-07-31T17:26:40.000","21221",NA,NA,NA,NA,NA
"2321  BOSTON ST","BALTIMORE","STEELPL2","TRM-Steel Plate Complaint","2015-08-02T00:05:19.000","2015-08-04T00:05:19.000","CANTON","15-00609635","MD","CLOSED","2015-08-04T18:24:27.000","21224",NA,NA,NA,NA,NA
"3016  SPAULDING AVE","BALTIMORE","STEELPL2","TRM-Steel Plate Complaint","2015-05-27T19:45:55.000","2015-05-29T19:45:55.000","CENTRAL PARK HEIGHTS","15-00413742","MD","CLOSED","2015-06-04T11:57:14.000","21215",NA,NA,NA,NA,NA
"E SARATOGA ST & GUILFORD AVE","BALTIMORE","STEELPL2","TRM-Steel Plate Complaint","2015-05-26T16:17:49.000","2015-05-28T16:17:49.000","DOWNTOWN","15-00408658","MD","CLOSED","2015-06-02T12:50:14.000","21202",NA,NA,NA,NA,NA
"S MONROE ST &W BALTIMORE ST","BALTIMORE","STEELPL2","TRM-Steel Plate Complaint","2015-05-26T14:16:47.000","2015-05-28T14:16:47.000","PENROSE/FAYETTE STREET OUTREACH","15-00407928","MD","CLOSED","2015-06-01T10:38:11.000","21223",NA,NA,NA,NA,NA
"5800  FALLS RD","BALTIMORE","STEELPL2","TRM-Steel Plate Complaint","2015-05-10T18:05:47.000","2015-05-12T18:05:47.000","SABINA-MATTFELDT","15-00365695","MD","CLOSED","2015-05-12T14:10:44.000","21209",NA,NA,NA,NA,NA
"HILLEN RD & PERRING PKWY, BALTIMORE, MD,",NA,"STEELPL2","TRM-Steel Plate Complaint","2015-07-06T20:07:43.000","2015-07-08T20:07:43.000","MORGAN STATE UNIVERSITY","15-00529360","MD","CLOSED","2015-07-09T11:20:26.000",NA,NA,NA,NA,NA,NA
"3441  FAIRFIELD RD","BALTIMORE","STEELPL2","TRM-Steel Plate Complaint","2015-05-11T20:04:28.000","2015-05-13T20:04:28.000","FAIRFIELD AREA","15-00368823","MD","CLOSED","2015-05-12T12:44:35.000","21226",NA,NA,NA,NA,NA
"201 S ROBINSON ST","BALTIMORE","STEELPL2","TRM-Steel Plate Complaint","2015-07-15T21:43:58.000","2015-07-17T21:43:58.000","HIGHLANDTOWN","15-00558943","MD","CLOSED","2015-07-17T18:09:42.000","21224",NA,NA,NA,NA,NA
"OLD HARFORD RD & E NORTHERN PKWY, BALTIM","BALTIMORE","STEELPL2","TRM-Steel Plate Complaint","2015-07-23T22:27:43.000","2015-07-25T22:27:43.000","WESTFIELD","15-00583694","MD","CLOSED","2015-07-23T23:38:50.000",NA,NA,NA,NA,NA,NA
"637  PERKINS ST","BALTIMORE","STEELPL2","TRM-Steel Plate Complaint","2015-05-19T17:31:59.000","2015-05-21T17:31:59.000","HERITAGE CROSSING","15-00393177","MD","CLOSED","2015-05-28T13:12:25.000","21201",NA,NA,NA,NA,NA
"W BALTIMORE ST & N LIBERTY ST, BALTIMORE",NA,"STEELPL2","TRM-Steel Plate Complaint","2015-06-22T16:17:52.000","2015-06-24T16:17:52.000","DOWNTOWN","15-00485844","MD","CLOSED","2015-06-24T11:04:40.000",NA,NA,NA,NA,NA,NA
"6500  OLD HARFORD RD","BALTIMORE","STEELPL2","TRM-Steel Plate Complaint","2015-05-10T17:56:28.000","2015-05-12T17:56:28.000","CHRISTOPHER","15-00365687","MD","CLOSED","2015-05-12T14:05:40.000","21214",NA,NA,NA,NA,NA
"2801 E NORTHERN PKWY","BALTIMORE","STEELPL2","TRM-Steel Plate Complaint","2015-07-06T19:36:29.000","2015-07-08T19:36:29.000","WESTFIELD","15-00529270","MD","CLOSED","2015-07-09T11:28:37.000","21214",NA,NA,NA,NA,NA
"1700 E COLD SPRING LN","BALTIMORE","STEELPL2","TRM-Steel Plate Complaint","2015-07-06T16:31:32.000","2015-07-08T16:31:32.000","STONEWOOD-PENTWOOD-WINSTON","15-00528555","MD","CLOSED","2015-07-07T10:25:24.000","21239",NA,NA,NA,NA,NA
"OLD HARFORD RD &E NORTHERN PKWY","BALTIMORE","STEELPL2","TRM-Steel Plate Complaint","2015-05-10T17:59:30.000","2015-05-12T17:59:30.000","CHRISTOPHER","15-00365689","MD","CLOSED","2015-05-12T13:55:09.000","21214",NA,NA,NA,NA,NA
"PERRING PKWY & HILLEN RD, BALTIMORE, MD,",NA,"STEELPL2","TRM-Steel Plate Complaint","2015-07-20T17:30:59.000","2015-07-22T17:30:59.000","MORGAN STATE UNIVERSITY","15-00571056","MD","CLOSED","2015-07-23T11:20:43.000",NA,NA,NA,NA,NA,NA
"1 E CHASE ST","BALTIMORE","STEELPL2","TRM-Steel Plate Complaint","2015-06-15T11:44:55.000","2015-06-17T11:44:55.000","MID-TOWN BELVEDERE","15-00462700","MD","CLOSED","2015-06-16T12:53:35.000","21202",NA,NA,NA,NA,NA
"LAKESIDE AVE & LOCH RAVEN BLVD","BALTIMORE","STEELPL2","TRM-Steel Plate Complaint","2015-05-07T13:00:38.000","2015-05-09T13:00:38.000","EDNOR GARDENS-LAKESIDE","15-00356878","MD","CLOSED","2015-05-12T13:04:01.000","21218",NA,NA,NA,NA,NA
"OLD HARFORD RD & HEMLOCK AVE, BALTIMORE,",NA,"STEELPL2","TRM-Steel Plate Complaint","2015-07-23T22:35:03.000","2015-07-25T22:35:03.000","CHRISTOPHER","15-00583707","MD","CLOSED","2015-07-23T23:41:14.000",NA,NA,NA,NA,NA,NA
"3025 E MONUMENT ST","BALTIMORE","STEELPL2","TRM-Steel Plate Complaint","2015-07-07T19:52:35.000","2015-07-09T19:52:35.000","ELLWOOD PARK/MONUMENT","15-00532619","MD","CLOSED","2015-07-14T12:00:16.000","21205",NA,NA,NA,NA,NA
"2506  ARBUTON AVE","BALTIMORE","STEELPL2","TRM-Steel Plate Complaint","2015-05-27T19:12:34.000","2015-05-29T19:12:34.000","LAKELAND","15-00413606","MD","CLOSED","2015-06-16T13:18:17.000","21230",NA,NA,NA,NA,NA
"LAKESIDE AVE & LOCH RAVEN BLVD, BALTIMOR",NA,"STEELPL2","TRM-Steel Plate Complaint","2015-06-22T12:37:59.000","2015-06-24T12:37:59.000","EDNOR GARDENS-LAKESIDE","15-00484543","MD","CLOSED","2015-06-23T10:20:58.000",NA,NA,NA,NA,NA,NA
"2100 N CHARLES ST","BALTIMORE","STEELPL2","TRM-Steel Plate Complaint","2015-07-13T20:40:00.000","2015-07-15T20:40:00.000","CHARLES NORTH","15-00550919","MD","CLOSED","2015-07-17T10:56:23.000","21218",NA,NA,NA,NA,NA
"2100 W COLD SPRING LN","BALTIMORE","STEELPL2","TRM-Steel Plate Complaint","2015-06-20T18:55:39.000","2015-06-22T18:55:39.000","COLDSPRING","15-00482614","MD","CLOSED","2015-06-23T10:49:16.000","21209",NA,NA,NA,NA,NA
"N WARWICK AVE & EDMONDSON AVE","BALTIMORE","STEELPL2","TRM-Steel Plate Complaint","2015-05-17T00:05:07.000","2015-05-19T00:05:07.000","ROSEMONT HOMEOWNERS/TENANTS","15-00385626","MD","CLOSED","2015-05-19T18:10:36.000","21223",NA,NA,NA,NA,NA
"LOCH RAVEN BLVD & LAKESIDE AVE, BALTIMOR",NA,"STEELPL2","TRM-Steel Plate Complaint","2015-07-01T11:09:07.000","2015-07-03T11:09:07.000","EDNOR GARDENS-LAKESIDE","15-00515221","MD","CLOSED","2015-07-02T10:57:54.000",NA,NA,NA,NA,NA,NA
"OLD HARFORD RD & E NORTHERN PKWY, BALTIM",NA,"STEELPL2","TRM-Steel Plate Complaint","2015-06-18T22:37:48.000","2015-06-20T22:37:48.000","CHRISTOPHER","15-00477513","MD","CLOSED","2015-06-19T11:08:33.000",NA,NA,NA,NA,NA,NA
"2440  EASTERN AVE","BALTIMORE","STEELPL2","TRM-Steel Plate Complaint","2015-05-17T13:57:33.000","2015-05-19T13:57:33.000","PATTERSON PARK","15-00386183","MD","CLOSED","2015-05-19T18:04:43.000","21224",NA,NA,NA,NA,NA
