"activity","address","city","code","codedescription","createddate","duedate","neighborhood","outcome","servicerequestnum","state","status","statusdate","updateddate","zip","lon","lat"
"Cityworks SR Comments","GRANBY ST &S CENTRAL AVE","BALTIMORE","STREETL2","TRM-StLight Damaged/Knocked Down/Rusted","2015-05-07T13:12:59.000","2015-05-10T13:12:59.000","JONESTOWN","UPDATED","15-00356920","MD","CLOSED","2015-05-09T12:06:20.000","2015-05-09T12:18:23.000","21202",NA,NA
"Cityworks SR Comments","3815  HAYWARD AVE","BALTIMORE","STREETL2","TRM-StLight Damaged/Knocked Down/Rusted","2015-05-06T12:40:41.000","2015-05-09T12:40:41.000","ARLINGTON","UPDATED","15-00353321","MD","CLOSED","2015-05-09T12:04:55.000","2015-05-09T12:08:15.000","21215",NA,NA
"Cityworks SR Comments","1418  MADISON AVE","BALTIMORE","STREETL2","TRM-StLight Damaged/Knocked Down/Rusted","2015-05-06T09:55:51.000","2015-05-09T09:55:51.000","MADISON PARK","UPDATED","15-00352686","MD","CLOSED","2015-05-06T20:05:25.000","2015-05-06T20:16:28.000","21217",NA,NA
"Cityworks SR Comments","E EAGER ST & STIRLING ST","BALTIMORE","STREETL2","TRM-StLight Damaged/Knocked Down/Rusted","2015-05-05T17:08:48.000","2015-05-08T17:08:48.000","OLDTOWN","UPDATED","15-00350534","MD","CLOSED","2015-05-06T20:06:22.000","2015-05-06T20:16:28.000","21202",NA,NA
"Cityworks SR Comments","HARFORD RD & ARGONNE DR","BALTIMORE","STREETL2","TRM-StLight Damaged/Knocked Down/Rusted","2015-05-05T13:38:56.000","2015-05-08T13:38:56.000","ARCADIA","UPDATED","15-00349636","MD","CLOSED","2015-05-06T20:05:55.000","2015-05-06T20:16:28.000","21214",NA,NA
"WO - Repair Damaged Pole","500 N ROSE ST","BALTIMORE","STREETL2","TRM-StLight Damaged/Knocked Down/Rusted","2015-05-04T21:48:12.000","2015-05-07T21:48:12.000","MCELDERRY PARK","CLOSED","15-00348414","MD","CLOSED","2015-05-07T20:57:09.000","2015-05-07T12:35:32.000","21205",NA,NA
"Cityworks SR Comments","812 S BROADWAY","BALTIMORE","STREETL2","TRM-StLight Damaged/Knocked Down/Rusted","2015-05-03T17:12:02.000","2015-05-06T17:12:02.000","FELLS POINT","UPDATED","15-00344506","MD","CLOSED","2015-05-05T18:57:04.000","2015-05-05T19:05:16.000","21231",NA,NA
"Cityworks SR Comments","COOLIDGE AVE & HAVERHILL RD","BALTIMORE","STREETL2","TRM-StLight Damaged/Knocked Down/Rusted","2015-05-02T12:38:16.000","2015-05-05T12:38:16.000","VIOLETVILLE","UPDATED","15-00342862","MD","CLOSED","2015-05-06T13:54:21.000","2015-05-06T14:05:42.000","21229",NA,NA
"Cityworks SR Comments","3000  ERDMAN AVE","BALTIMORE","STREETL2","TRM-StLight Damaged/Knocked Down/Rusted","2015-04-30T14:53:27.000","2015-05-03T14:53:27.000","BELAIR-EDISON","UPDATED","15-00338088","MD","CLOSED","2015-05-01T16:19:09.000","2015-05-01T16:36:11.000","21213",NA,NA
"Cityworks SR Comments","3600  GARRISON BLVD","BALTIMORE","STREETL2","TRM-StLight Damaged/Knocked Down/Rusted","2015-04-28T20:40:00.000","2015-05-01T20:40:00.000","DORCHESTER","UPDATED","15-00332639","MD","CLOSED","2015-04-30T11:51:20.000","2015-04-30T11:57:07.000","21215",NA,NA
"WO - Repair Streetlight Out","600 N GRANTLEY ST","BALTIMORE","STREETL2","TRM-StLight Damaged/Knocked Down/Rusted","2015-04-24T11:46:03.000","2015-04-27T11:46:03.000","EDMONDSON VILLAGE","CLOSED","15-00321268","MD","CLOSED","2015-04-24T18:33:04.000","2015-04-27T21:50:07.000","21229",NA,NA
"Cityworks SR Comments","HOMELAND AVE &N CHARLES ST","BALTIMORE","STREETL2","TRM-StLight Damaged/Knocked Down/Rusted","2015-04-24T11:01:42.000","2015-04-27T11:01:42.000","BLYTHEWOOD","UPDATED","15-00321103","MD","CLOSED","2015-04-28T20:18:36.000","2015-04-28T20:25:21.000","21212",NA,NA
"Cityworks SR Comments","E 25TH ST & LOCH RAVEN RD","BALTIMORE","STREETL2","TRM-StLight Damaged/Knocked Down/Rusted","2015-04-23T23:53:09.000","2015-04-26T23:53:09.000","BETTER WAVERLY","UPDATED","15-00320839","MD","CLOSED","2015-04-24T14:04:57.000","2015-04-24T14:11:57.000","21218",NA,NA
"Cityworks SR Comments","SWAN DR & LAKE DR","BALTIMORE","STREETL2","TRM-StLight Damaged/Knocked Down/Rusted","2015-04-22T20:06:49.000","2015-04-25T20:06:49.000","DRUID HILL PARK","UPDATED","15-00316622","MD","CLOSED","2015-04-24T11:29:17.000","2015-04-24T11:31:56.000","21217",NA,NA
"Cityworks SR Comments","1900 W BALTIMORE ST","BALTIMORE","STREETL2","TRM-StLight Damaged/Knocked Down/Rusted","2015-04-22T18:05:52.000","2015-04-25T18:05:52.000","PENROSE/FAYETTE STREET OUTREACH","UPDATED","15-00316176","MD","CLOSED","2015-04-23T12:09:38.000","2015-04-23T12:21:30.000","21223",NA,NA
"Cityworks SR Comments","4155  CREST HEIGHTS RD","BALTIMORE","STREETL2","TRM-StLight Damaged/Knocked Down/Rusted","2015-04-22T16:50:37.000","2015-04-25T16:50:37.000","REISTERSTOWN STATION","UPDATED","15-00315640","MD","CLOSED","2015-04-23T18:54:15.000","2015-04-23T19:01:11.000","21215",NA,NA
"Cityworks SR Comments","W NORTH AVE &N HOWARD ST","BALTIMORE","STREETL2","TRM-StLight Damaged/Knocked Down/Rusted","2015-04-22T16:31:25.000","2015-04-25T16:31:25.000","CHARLES NORTH","UPDATED","15-00315523","MD","CLOSED","2015-04-24T18:34:39.000","2015-04-24T18:42:57.000","21217",NA,NA
"Cityworks SR Comments","1640 N SMALLWOOD ST","BALTIMORE","STREETL2","TRM-StLight Damaged/Knocked Down/Rusted","2015-04-21T18:42:56.000","2015-04-24T18:42:56.000","COPPIN HEIGHTS/ASH-CO-EAST","UPDATED","15-00312215","MD","CLOSED","2015-04-22T18:11:10.000","2015-04-22T18:20:22.000","21216",NA,NA
"Cityworks SR Comments","PERRING PKWY & ECHODALE AVE","BALTIMORE","STREETL2","TRM-StLight Damaged/Knocked Down/Rusted","2015-04-21T18:29:02.000","2015-04-24T18:29:02.000","MORGAN STATE UNIVERSITY","UPDATED","15-00312154","MD","CLOSED","2015-04-23T12:08:57.000","2015-04-23T12:21:30.000","21239",NA,NA
"Cityworks SR Comments","N WARWICK AVE &W FAYETTE ST","BALTIMORE","STREETL2","TRM-StLight Damaged/Knocked Down/Rusted","2015-04-20T08:50:04.000","2015-04-23T08:50:04.000","PENROSE/FAYETTE STREET OUTREACH","UPDATED","15-00306547","MD","CLOSED","2015-04-20T18:50:09.000","2015-04-20T18:58:53.000","21223",NA,NA
"Cityworks SR Comments","3801  GARRISON BLVD","BALTIMORE","STREETL2","TRM-StLight Damaged/Knocked Down/Rusted","2015-04-19T16:42:48.000","2015-04-22T16:42:48.000","CALLAWAY-GARRISON","UPDATED","15-00306062","MD","CLOSED","2015-04-21T12:26:32.000","2015-04-21T12:29:40.000","21215",NA,NA
"Cityworks SR Comments","617 S SHARP ST","BALTIMORE","STREETL2","TRM-StLight Damaged/Knocked Down/Rusted","2015-04-18T18:29:55.000","2015-04-21T18:29:55.000","OTTERBEIN","UPDATED","15-00305262","MD","CLOSED","2015-04-20T18:49:08.000","2015-04-20T18:58:53.000","21230",NA,NA
"Cityworks SR Comments","4622  ASBURY AVE","BALTIMORE","STREETL2","TRM-StLight Damaged/Knocked Down/Rusted","2015-04-17T09:54:39.000","2015-04-20T09:54:39.000","FRANKFORD","UPDATED","15-00300572","MD","CLOSED","2015-04-20T15:15:43.000","2015-04-20T15:18:33.000","21206",NA,NA
"Cityworks SR Comments","2001 E FAIRMOUNT AVE","BALTIMORE","STREETL2","TRM-StLight Damaged/Knocked Down/Rusted","2015-04-13T20:01:55.000","2015-04-16T20:01:55.000","BUTCHER'S HILL","UPDATED","15-00288839","MD","CLOSED","2015-04-14T19:29:11.000","2015-04-16T19:35:25.000","21231",NA,NA
"Cityworks SR Comments","4701 N CHARLES ST","BALTIMORE","STREETL2","TRM-StLight Damaged/Knocked Down/Rusted","2015-04-12T12:44:59.000","2015-04-15T12:44:59.000","LOYOLA/NOTRE DAME","UPDATED","15-00284773","MD","CLOSED","2015-04-14T11:05:00.000","2015-04-14T11:13:19.000","21210",NA,NA
"Cityworks SR Comments","2000  ALICEANNA ST","BALTIMORE","STREETL2","TRM-StLight Damaged/Knocked Down/Rusted","2015-04-09T17:26:22.000","2015-04-12T17:26:22.000","FELLS POINT","UPDATED","15-00278436","MD","CLOSED","2015-04-10T18:35:07.000","2015-04-10T12:40:17.000","21231",NA,NA
"Cityworks SR Comments","N BROADWAY &E BIDDLE ST","BALTIMORE","STREETL2","TRM-StLight Damaged/Knocked Down/Rusted","2015-04-07T22:28:26.000","2015-04-10T22:28:26.000","OLIVER","UPDATED","15-00272786","MD","LOCKED","2015-04-07T22:34:19.000","2015-04-08T00:24:44.000","21213",NA,NA
"Cityworks SR Comments","1300 S POTOMAC ST","BALTIMORE","STREETL2","TRM-StLight Damaged/Knocked Down/Rusted","2015-04-05T21:25:17.000","2015-04-08T21:25:17.000","CANTON","UPDATED","15-00265463","MD","HOLDLOCK","2015-04-06T10:48:24.000","2015-04-06T01:00:53.000","21224",NA,NA
"Cityworks SR Comments","1018  RIVERSIDE AVE","BALTIMORE","STREETL2","TRM-StLight Damaged/Knocked Down/Rusted","2015-04-04T16:37:36.000","2015-04-07T16:37:36.000","FEDERAL HILL","UPDATED","15-00264496","MD","HOLDLOCK","2015-04-06T10:48:26.000","2015-04-04T19:03:43.000","21230",NA,NA
"Cityworks SR Comments","301  SAINT PAUL PL","BALTIMORE","STREETL2","TRM-StLight Damaged/Knocked Down/Rusted","2015-04-02T14:02:06.000","2015-04-05T14:02:06.000","DOWNTOWN","UPDATED","15-00259349","MD","HOLDLOCK","2015-04-02T18:19:05.000","2015-04-02T16:04:56.000","21202",NA,NA
"Cityworks SR Comments","200 E BALTIMORE ST","BALTIMORE","STREETL2","TRM-StLight Damaged/Knocked Down/Rusted","2015-04-01T00:30:06.000","2015-04-04T00:30:06.000","DOWNTOWN","UPDATED","15-00254585","MD","CLOSED","2015-04-01T14:34:19.000","2015-04-01T18:46:24.000","21202",NA,NA
"Cityworks SR Comments","1120  KEVIN RD","BALTIMORE","STREETL2","TRM-StLight Damaged/Knocked Down/Rusted","2015-03-31T12:17:15.000","2015-04-03T12:17:15.000","ROGNEL HEIGHTS","UPDATED","15-00251846","MD","CLOSED","2015-04-01T13:37:36.000","2015-04-01T14:20:55.000","21229",NA,NA
"Cityworks SR Comments","AVONDALE AVE & MAPLE AVE","BALTIMORE","STREETL2","TRM-StLight Damaged/Knocked Down/Rusted","2015-03-30T13:02:22.000","2015-04-02T13:02:22.000","PIMLICO GOOD NEIGHBORS","UPDATED","15-00248572","MD","CLOSED","2015-03-31T12:12:01.000","2015-03-31T12:15:03.000","21215",NA,NA
"Cityworks SR Comments","POTEE ST & I 895 S","BALTIMORE","STREETL2","TRM-StLight Damaged/Knocked Down/Rusted","2015-03-28T11:55:50.000","2015-03-31T11:55:50.000","BROOKLYN","UPDATED","15-00245706","MD","CLOSED","2015-03-30T18:19:02.000","2015-03-30T19:17:56.000","21225",NA,NA
"Cityworks SR Comments","4592  MAPLE WOOD DR","BALTIMORE","STREETL2","TRM-StLight Damaged/Knocked Down/Rusted","2015-03-26T17:44:58.000","2015-03-29T17:44:58.000","UPLANDS","UPDATED","15-00240538","MD","CLOSED","2015-03-30T20:19:31.000","2015-03-30T23:37:35.000","21229",NA,NA
"Cityworks SR Comments","E FRANKLIN ST & HARGROVE ALY","BALTIMORE","STREETL2","TRM-StLight Damaged/Knocked Down/Rusted","2015-03-26T16:33:20.000","2015-03-29T16:33:20.000","MOUNT VERNON","UPDATED","15-00240214","MD","CLOSED","2015-03-27T17:52:52.000","2015-03-27T20:27:15.000","21202",NA,NA
"Cityworks SR Comments","4601  ROLAND AVE","BALTIMORE","STREETL2","TRM-StLight Damaged/Knocked Down/Rusted","2015-03-23T17:17:41.000","2015-03-26T17:17:41.000","ROLAND PARK","UPDATED","15-00229336","MD","CLOSED","2015-03-25T11:49:19.000","2015-03-25T13:43:34.000","21210",NA,NA
"Cityworks SR Comments","200 W PRATT ST","BALTIMORE","STREETL2","TRM-StLight Damaged/Knocked Down/Rusted","2015-03-23T15:06:20.000","2015-03-26T15:06:20.000","INNER HARBOR","UPDATED","15-00228615","MD","CLOSED","2015-03-25T11:59:42.000","2015-03-25T13:43:34.000","21201",NA,NA
"Cityworks SR Comments","1901  NORTHBOURNE RD","BALTIMORE","STREETL2","TRM-StLight Damaged/Knocked Down/Rusted","2015-03-23T11:14:51.000","2015-03-26T11:14:51.000","PERRING LOCH","UPDATED","15-00227493","MD","CLOSED","2015-03-24T15:21:38.000","2015-03-24T16:48:44.000","21239",NA,NA
"Cityworks SR Comments","1 N BENTALOU ST","BALTIMORE","STREETL2","TRM-StLight Damaged/Knocked Down/Rusted","2015-03-19T17:21:41.000","2015-03-22T17:21:41.000","PENROSE/FAYETTE STREET OUTREACH","UPDATED","15-00219995","MD","CLOSED","2015-05-09T12:08:46.000","2015-05-09T12:18:23.000","21223",NA,NA
"Cityworks SR Comments","606  CUMBERLAND ST","BALTIMORE","STREETL2","TRM-StLight Damaged/Knocked Down/Rusted","2015-03-18T21:41:13.000","2015-03-21T21:41:13.000","PENN NORTH","UPDATED","15-00217299","MD","CLOSED","2015-03-26T16:43:04.000","2015-03-26T19:17:26.000","21217",NA,NA
"Cityworks SR Comments","3135 W NORTH AVE","BALTIMORE","STREETL2","TRM-StLight Damaged/Knocked Down/Rusted","2015-03-18T19:59:32.000","2015-03-21T19:59:32.000","NORTHWEST COMMUNITY ACTION","UPDATED","15-00217018","MD","CLOSED","2015-03-26T16:54:11.000","2015-03-26T19:17:26.000","21216",NA,NA
"Cityworks SR Comments","4600  BRIARCLIFT RD","BALTIMORE","STREETL2","TRM-StLight Damaged/Knocked Down/Rusted","2015-03-17T23:07:14.000","2015-03-20T23:07:14.000","HUNTING RIDGE","UPDATED","15-00214038","MD","CLOSED","2015-03-18T19:48:02.000","2015-03-18T20:24:16.000","21229",NA,NA
"Cityworks SR Comments","1035  COOKS LN","BALTIMORE","STREETL2","TRM-StLight Damaged/Knocked Down/Rusted","2015-03-17T16:14:23.000","2015-03-20T16:14:23.000","WEST HILLS","UPDATED","15-00212164","MD","CLOSED","2015-03-18T19:38:41.000","2015-03-18T20:24:16.000","21229",NA,NA
"Cityworks SR Comments","1876  MANSION HOUSE DR","BALTIMORE","STREETL2","TRM-StLight Damaged/Knocked Down/Rusted","2015-03-16T18:25:51.000","2015-03-19T18:25:51.000","DRUID HILL PARK","UPDATED","15-00207925","MD","CLOSED","2015-03-25T18:27:45.000","2015-03-25T22:15:16.000","21205",NA,NA
"WO - Install New Pole","3900 W FRANKLIN ST","BALTIMORE","STREETL2","TRM-StLight Damaged/Knocked Down/Rusted","2015-03-15T17:54:32.000","2015-03-18T17:54:32.000","ALLENDALE","CLOSED","15-00204341","MD","CLOSED","2015-03-16T19:27:50.000","2015-03-19T18:25:17.000","21229",NA,NA
"Cityworks SR Comments","S MARTIN LUTHER KING JR BLVD & WASHINGTO","BALTIMORE","STREETL2","TRM-StLight Damaged/Knocked Down/Rusted","2015-03-15T16:16:36.000","2015-03-18T16:16:36.000","WASHINGTON VILLAGE","UPDATED","15-00204156","MD","CLOSED","2015-03-16T19:37:35.000","2015-03-16T19:57:13.000","21201",NA,NA
"Cityworks SR Comments","N CHARLES ST & HOMELAND AVE","BALTIMORE","STREETL2","TRM-StLight Damaged/Knocked Down/Rusted","2015-03-15T13:19:47.000","2015-03-18T13:19:47.000","BLYTHEWOOD","UPDATED","15-00203892","MD","CLOSED","2015-03-16T20:02:33.000","2015-03-16T23:59:48.000","21210",NA,NA
"Cityworks SR Comments","1353  SHERWOOD AVE","BALTIMORE","STREETL2","TRM-StLight Damaged/Knocked Down/Rusted","2015-03-13T14:41:18.000","2015-03-16T14:41:18.000","RAMBLEWOOD","UPDATED","15-00199922","MD","CLOSED","2015-03-16T12:59:09.000","2015-03-16T15:42:02.000","21239",NA,NA
"Cityworks SR Comments","S FRANKLINTOWN RD & MCHENRY ST","BALTIMORE","STREETL2","TRM-StLight Damaged/Knocked Down/Rusted","2015-03-12T16:50:40.000","2015-03-15T16:50:40.000","SHIPLEY HILL","UPDATED","15-00195899","MD","CLOSED","2015-03-16T12:20:40.000","2015-03-16T15:42:02.000","21223",NA,NA
"Cityworks SR Comments","3810  RIDGEWOOD AVE","BALTIMORE","STREETL2","TRM-StLight Damaged/Knocked Down/Rusted","2015-03-11T21:20:20.000","2015-03-14T21:20:20.000","DOLFIELD","UPDATED","15-00192790","MD","CLOSED","2015-03-16T11:47:12.000","2015-03-16T15:42:02.000","21215",NA,NA
"Cityworks SR Comments","1014  PATAPSCO ST","BALTIMORE","STREETL2","TRM-StLight Damaged/Knocked Down/Rusted","2015-03-11T19:30:55.000","2015-03-14T19:30:55.000","FEDERAL HILL","UPDATED","15-00192261","MD","CLOSED","2015-03-12T19:34:46.000","2015-03-12T21:39:13.000","21230",NA,NA
"Cityworks SR Comments","2701  INGLEWOOD AVE","BALTIMORE","STREETL2","TRM-StLight Damaged/Knocked Down/Rusted","2015-03-11T16:29:46.000","2015-03-14T16:29:46.000","NORTH HARFORD ROAD","UPDATED","15-00191335","MD","CLOSED","2015-03-12T16:24:30.000","2015-03-12T17:39:51.000","21234",NA,NA
"Cityworks SR Comments","8 W MOUNT VERNON PL","BALTIMORE","STREETL2","TRM-StLight Damaged/Knocked Down/Rusted","2015-03-10T14:42:53.000","2015-03-13T14:42:53.000","MOUNT VERNON","UPDATED","15-00186296","MD","CLOSED","2015-03-11T19:20:24.000","2015-03-11T22:26:30.000","21201",NA,NA
"Cityworks SR Comments","2807  ROCKROSE AVE","BALTIMORE","STREETL2","TRM-StLight Damaged/Knocked Down/Rusted","2015-03-09T18:59:48.000","2015-03-12T18:59:48.000","PARK CIRCLE","UPDATED","15-00183630","MD","CLOSED","2015-03-10T19:00:02.000","2015-03-10T19:25:27.000","21215",NA,NA
"WO - Install New Pole","420 N STREEPER ST","BALTIMORE","STREETL2","TRM-StLight Damaged/Knocked Down/Rusted","2015-03-09T12:53:57.000","2015-03-12T12:53:57.000","MCELDERRY PARK","CLOSED","15-00181575","MD","CLOSED","2015-03-18T12:32:22.000","2015-03-25T16:43:46.000","21224",NA,NA
"Cityworks SR Comments","N PINE ST &W FAYETTE ST","BALTIMORE","STREETL2","TRM-StLight Damaged/Knocked Down/Rusted","2015-03-08T01:23:40.000","2015-03-11T01:23:40.000","UNIVERSITY OF MARYLAND","UPDATED","15-00178523","MD","CLOSED","2015-03-10T16:38:40.000","2015-03-10T19:25:27.000","21201",NA,NA
"Cityworks SR Comments","1710  THAMES ST","BALTIMORE","STREETL2","TRM-StLight Damaged/Knocked Down/Rusted","2015-02-25T17:00:48.000","2015-02-28T17:00:48.000","FELLS POINT","UPDATED","15-00146757","MD","HOLDLOCK","2015-02-25T19:33:50.000","2015-02-25T20:52:25.000","21231",NA,NA
"Cityworks SR Comments","WHITELOCK ST","BALTIMORE","STREETL2","TRM-StLight Damaged/Knocked Down/Rusted","2015-02-25T13:19:15.000","2015-02-28T13:19:15.000","PENN NORTH","UPDATED","15-00145593","MD","HOLDLOCK","2015-02-25T19:33:51.000","2015-02-25T14:45:44.000","21217",NA,NA
"Cityworks SR Comments","3915  ANNELLEN RD","BALTIMORE","STREETL2","TRM-StLight Damaged/Knocked Down/Rusted","2015-02-24T19:21:08.000","2015-02-27T19:21:08.000","EAST ARLINGTON","UPDATED","15-00143373","MD","CLOSED","2015-02-25T19:31:17.000","2015-02-25T20:52:25.000","21215",NA,NA
"Cityworks SR Comments","4248  LABYRINTH RD","BALTIMORE","STREETL2","TRM-StLight Damaged/Knocked Down/Rusted","2015-02-23T16:26:48.000","2015-02-26T16:26:48.000","REISTERSTOWN STATION","UPDATED","15-00137953","MD","CLOSED","2015-02-25T18:17:37.000","2015-02-25T20:52:25.000","21215",NA,NA
"Cityworks SR Comments","607 N CURLEY ST","BALTIMORE","STREETL2","TRM-StLight Damaged/Knocked Down/Rusted","2015-02-22T18:02:42.000","2015-02-25T18:02:42.000","ELLWOOD PARK/MONUMENT","UPDATED","15-00133952","MD","CLOSED","2015-02-24T19:57:36.000","2015-02-24T21:08:33.000","21205",NA,NA
"Cityworks SR Comments","300  SAINT PAUL PL","BALTIMORE","STREETL2","TRM-StLight Damaged/Knocked Down/Rusted","2015-02-19T19:36:47.000","2015-02-22T19:36:47.000","DOWNTOWN","UPDATED","15-00124159","MD","CLOSED","2015-02-25T18:24:15.000","2015-02-25T20:52:25.000","21202",NA,NA
"Cityworks SR Comments","ELIZABETH AVE","BALTIMORE","STREETL2","TRM-StLight Damaged/Knocked Down/Rusted","2015-02-19T11:44:16.000","2015-02-22T11:44:16.000","LAKELAND","UPDATED","15-00121477","MD","CLOSED","2015-02-20T11:51:39.000","2015-02-20T12:54:16.000","21230",NA,NA
"Cityworks SR Comments","600  PITCHER ST","BALTIMORE","STREETL2","TRM-StLight Damaged/Knocked Down/Rusted","2015-02-19T09:49:59.000","2015-02-22T09:49:59.000","UPTON","UPDATED","15-00120994","MD","CLOSED","2015-02-20T11:53:33.000","2015-02-20T12:54:16.000","21217",NA,NA
"Cityworks SR Comments","1815  DUNDALK AVE","BALTIMORE","STREETL2","TRM-StLight Damaged/Knocked Down/Rusted","2015-02-17T03:34:54.000","2015-02-20T03:34:54.000","GRACELAND PARK","UPDATED","15-00112598","MD","CLOSED","2015-02-18T20:52:17.000","2015-02-18T21:08:23.000","21222",NA,NA
"Cityworks SR Comments","269 S DALLAS CT","BALTIMORE","STREETL2","TRM-StLight Damaged/Knocked Down/Rusted","2015-02-16T23:28:24.000","2015-02-19T23:28:24.000","PERKINS HOMES","UPDATED","15-00112439","MD","CLOSED","2015-02-18T20:45:35.000","2015-02-18T21:08:23.000","21223",NA,NA
"Cityworks SR Comments","1400  LOCHNER RD","BALTIMORE","STREETL2","TRM-StLight Damaged/Knocked Down/Rusted","2015-02-16T18:19:46.000","2015-02-19T18:19:46.000","WOODBOURNE HEIGHTS","UPDATED","15-00111672","MD","CLOSED","2015-02-18T20:37:24.000","2015-02-18T21:08:23.000","21239",NA,NA
"Cityworks SR Comments","3533  BELAIR RD","BALTIMORE","STREETL2","TRM-StLight Damaged/Knocked Down/Rusted","2015-02-15T16:27:20.000","2015-02-18T16:27:20.000","BELAIR-EDISON","UPDATED","15-00108464","MD","CLOSED","2015-02-18T20:46:26.000","2015-02-18T21:08:23.000","21213",NA,NA
"Cityworks SR Comments","S MARTIN LUTHER KING JR BLVD & WASHINGTO","BALTIMORE","STREETL2","TRM-StLight Damaged/Knocked Down/Rusted","2015-02-15T16:12:20.000","2015-02-18T16:12:20.000","WASHINGTON VILLAGE","UPDATED","15-00108423","MD","CLOSED","2015-02-18T21:00:23.000","2015-02-18T21:08:23.000","21201",NA,NA
"Cityworks SR Comments","1225  WASHINGTON BLVD","BALTIMORE","STREETL2","TRM-StLight Damaged/Knocked Down/Rusted","2015-02-15T11:55:53.000","2015-02-18T11:55:53.000","WASHINGTON VILLAGE","UPDATED","15-00107732","MD","CLOSED","2015-02-20T11:49:59.000","2015-02-20T12:54:16.000","21230",NA,NA
"Cityworks SR Comments","1300  RUSSELL ST","BALTIMORE","STREETL2","TRM-StLight Damaged/Knocked Down/Rusted","2015-02-15T07:28:24.000","2015-02-18T07:28:24.000","CARROLL - CAMDEN INDUSTRIAL AREA","UPDATED","15-00107465","MD","CLOSED","2015-02-20T13:05:08.000","2015-02-20T15:42:33.000","21230",NA,NA
"Cityworks SR Comments","E PRATT ST &S CALVERT ST","BALTIMORE","STREETL2","TRM-StLight Damaged/Knocked Down/Rusted","2015-02-15T07:00:02.000","2015-02-18T07:00:02.000","INNER HARBOR","UPDATED","15-00107458","MD","CLOSED","2015-02-18T20:53:55.000","2015-02-18T21:08:23.000","21202",NA,NA
"Cityworks SR Comments","200 W BALTIMORE ST","BALTIMORE","STREETL2","TRM-StLight Damaged/Knocked Down/Rusted","2015-02-14T19:23:33.000","2015-02-17T19:23:33.000","DOWNTOWN","UPDATED","15-00107022","MD","CLOSED","2015-02-18T20:57:10.000","2015-02-18T21:08:23.000","21201",NA,NA
"Cityworks SR Comments","3701  GIBBONS AVE","BALTIMORE","STREETL2","TRM-StLight Damaged/Knocked Down/Rusted","2015-02-14T17:27:32.000","2015-02-17T17:27:32.000","WALTHERSON","UPDATED","15-00106885","MD","CLOSED","2015-02-20T11:46:40.000","2015-02-20T12:54:16.000","21206",NA,NA
"Cityworks SR Comments","200 W BALTIMORE ST","BALTIMORE","STREETL2","TRM-StLight Damaged/Knocked Down/Rusted","2015-02-13T14:32:01.000","2015-02-16T14:32:01.000","DOWNTOWN","UPDATED","15-00104802","MD","CLOSED","2015-02-18T20:56:16.000","2015-02-18T21:08:23.000","21201",NA,NA
"Cityworks SR Comments","600 W BALTIMORE ST","BALTIMORE","STREETL2","TRM-StLight Damaged/Knocked Down/Rusted","2015-02-13T14:19:00.000","2015-02-16T14:19:00.000","UNIVERSITY OF MARYLAND","UPDATED","15-00104740","MD","CLOSED","2015-02-25T18:22:18.000","2015-02-25T20:52:25.000","21201",NA,NA
"Cityworks SR Comments","HARFORD RD & CHESTERFIELD AVE","BALTIMORE","STREETL2","TRM-StLight Damaged/Knocked Down/Rusted","2015-02-12T20:21:50.000","2015-02-15T20:21:50.000","MAYFIELD","UPDATED","15-00103145","MD","CLOSED","2015-02-13T17:56:46.000","2015-02-13T19:02:47.000","21218",NA,NA
"Cityworks SR Comments","5711  RANNY RD","BALTIMORE","STREETL2","TRM-StLight Damaged/Knocked Down/Rusted","2015-02-12T18:25:24.000","2015-02-15T18:25:24.000","MOUNT WASHINGTON","UPDATED","15-00102723","MD","CLOSED","2015-02-13T18:08:37.000","2015-02-13T19:02:47.000","21209",NA,NA
"Cityworks SR Comments","349 N CALVERT ST","BALTIMORE","STREETL2","TRM-StLight Damaged/Knocked Down/Rusted","2015-02-12T16:08:35.000","2015-02-15T16:08:35.000","DOWNTOWN","UPDATED","15-00102139","MD","CLOSED","2015-02-13T17:56:16.000","2015-02-13T19:02:47.000","21202",NA,NA
"Cityworks SR Comments","ERDMAN AVE","BALTIMORE","STREETL2","TRM-StLight Damaged/Knocked Down/Rusted","2015-02-10T14:42:44.000","2015-02-13T14:42:44.000","BELAIR-EDISON","UPDATED","15-00094892","MD","CLOSED","2015-02-11T16:20:42.000","2015-02-11T17:00:37.000","21213",NA,NA
"Cityworks SR Comments","S CLINTON ST & FLEET ST","BALTIMORE","STREETL2","TRM-StLight Damaged/Knocked Down/Rusted","2015-02-10T12:46:25.000","2015-02-13T12:46:25.000","CANTON","UPDATED","15-00094222","MD","CLOSED","2015-02-11T13:36:02.000","2015-02-11T14:36:11.000","21224",NA,NA
"Cityworks SR Comments","LAKEVIEW AVE & DRUID PARK LAKE DR","BALTIMORE","STREETL2","TRM-StLight Damaged/Knocked Down/Rusted","2015-02-10T09:12:36.000","2015-02-13T09:12:36.000","RESERVOIR HILL","UPDATED","15-00093818","MD","CLOSED","2015-02-11T13:38:27.000","2015-02-11T14:36:11.000","21217",NA,NA
"Cityworks SR Comments","HORNEL ST & BANK ST","BALTIMORE","STREETL2","TRM-StLight Damaged/Knocked Down/Rusted","2015-02-09T16:12:58.000","2015-02-12T16:12:58.000","JOSEPH LEE","UPDATED","15-00092441","MD","CLOSED","2015-02-12T13:46:17.000","2015-02-12T14:46:55.000","21224",NA,NA
"Cityworks SR Comments","SAINT GEMMA RD & STAMFORD RD","BALTIMORE","STREETL2","TRM-StLight Damaged/Knocked Down/Rusted","2015-02-09T14:57:47.000","2015-02-12T14:57:47.000","WEST HILLS","UPDATED","15-00092135","MD","CLOSED","2015-02-11T16:19:39.000","2015-02-11T17:00:37.000","21229",NA,NA
"Cityworks SR Comments","W FAYETTE ST &N PACA ST","BALTIMORE","STREETL2","TRM-StLight Damaged/Knocked Down/Rusted","2015-02-06T03:34:12.000","2015-02-09T03:34:12.000","DOWNTOWN","UPDATED","15-00085787","MD","CLOSED","2015-02-06T17:50:30.000","2015-02-06T18:25:34.000","21201",NA,NA
"WO - Install New Pole","905  ANN ST","BALTIMORE","STREETL2","TRM-StLight Damaged/Knocked Down/Rusted","2015-02-05T12:41:30.000","2015-02-08T12:41:30.000","FELLS POINT","CLOSED","15-00083239","MD","CLOSED","2015-02-06T17:53:13.000","2015-02-09T18:48:15.000","21231",NA,NA
"Cityworks SR Comments","1900 W LAFAYETTE AVE","BALTIMORE","STREETL2","TRM-StLight Damaged/Knocked Down/Rusted","2015-02-03T10:23:00.000","2015-02-06T10:23:00.000","MIDTOWN-EDMONDSON","UPDATED","15-00076052","MD","CLOSED","2015-02-03T18:20:32.000","2015-02-03T19:15:55.000","21217",NA,NA
"Cityworks SR Comments","2611  CHESTERFIELD AVE","BALTIMORE","STREETL2","TRM-StLight Damaged/Knocked Down/Rusted","2015-02-02T17:10:04.000","2015-02-05T17:10:04.000","BELAIR-EDISON","UPDATED","15-00074764","MD","CLOSED","2015-02-04T10:46:34.000","2015-02-04T11:05:33.000","21213",NA,NA
"Cityworks SR Comments","S EXETER ST & ALICEANNA ST","BALTIMORE","STREETL2","TRM-StLight Damaged/Knocked Down/Rusted","2015-02-02T12:46:05.000","2015-02-05T12:46:05.000","INNER HARBOR","UPDATED","15-00073514","MD","CLOSED","2015-02-02T13:34:36.000","2015-02-02T13:37:49.000","21202",NA,NA
"Cityworks SR Comments","MORAVIA RD & SIPPLE AVE","BALTIMORE","STREETL2","TRM-StLight Damaged/Knocked Down/Rusted","2015-01-30T21:07:30.000","2015-02-02T21:07:30.000","FRANKFORD","UPDATED","15-00070834","MD","CLOSED","2015-02-02T19:07:37.000","2015-02-02T20:32:35.000","21206",NA,NA
"WO - Install New Pole","500 W PRATT ST","BALTIMORE","STREETL2","TRM-StLight Damaged/Knocked Down/Rusted","2015-01-30T19:29:03.000","2015-02-02T19:29:03.000","INNER HARBOR","CLOSED","15-00070655","MD","CLOSED","2015-02-03T18:24:56.000","2015-02-05T11:20:00.000","21201",NA,NA
NA,"S PACA ST &W PRATT ST","BALTIMORE","STREETL2","TRM-StLight Damaged/Knocked Down/Rusted","2015-01-30T19:25:58.000","2015-02-02T19:25:58.000","INNER HARBOR",NA,"15-00070650","MD","CLOSED","2015-01-30T19:29:58.000",NA,"21201",NA,NA
"Cityworks SR Comments","2151  CHELSEA TER","BALTIMORE","STREETL2","TRM-StLight Damaged/Knocked Down/Rusted","2015-01-28T12:16:43.000","2015-01-31T12:16:43.000","MOUNT HOLLY","UPDATED","15-00062894","MD","CLOSED","2015-01-29T18:17:57.000","2015-01-29T18:26:30.000","21216",NA,NA
"Cityworks SR Comments","600 S CHAPELGATE LN","BALTIMORE","STREETL2","TRM-StLight Damaged/Knocked Down/Rusted","2015-01-28T03:50:38.000","2015-01-31T03:50:38.000","BEECHFIELD","UPDATED","15-00062481","MD","CLOSED","2015-01-28T20:06:06.000","2015-01-28T20:13:13.000","21229",NA,NA
"Cityworks SR Comments","2800  DRUID PARK DR","BALTIMORE","STREETL2","TRM-StLight Damaged/Knocked Down/Rusted","2015-01-27T22:00:23.000","2015-01-30T22:00:23.000","PARK CIRCLE","UPDATED","15-00062321","MD","CLOSED","2015-01-28T20:03:01.000","2015-01-28T20:13:13.000","21215",NA,NA
"Cityworks SR Comments","SEQUOIA AVE & CALLAWAY AVE","BALTIMORE","STREETL2","TRM-StLight Damaged/Knocked Down/Rusted","2015-01-27T17:49:01.000","2015-01-30T17:49:01.000","CALLAWAY-GARRISON","UPDATED","15-00061726","MD","CLOSED","2015-01-28T20:07:02.000","2015-01-28T20:13:13.000","21215",NA,NA
"Cityworks SR Comments","227  SAINT PAUL PL","BALTIMORE","STREETL2","TRM-StLight Damaged/Knocked Down/Rusted","2015-01-26T15:00:03.000","2015-01-29T15:00:03.000","DOWNTOWN","UPDATED","15-00058134","MD","CLOSED","2015-01-27T18:13:19.000","2015-01-27T19:41:40.000","21202",NA,NA
"Cityworks SR Comments","2000 E NORTH AVE","BALTIMORE","STREETL2","TRM-StLight Damaged/Knocked Down/Rusted","2015-01-26T12:06:22.000","2015-01-29T12:06:22.000","SOUTH CLIFTON PARK","UPDATED","15-00056622","MD","CLOSED","2015-01-27T18:11:14.000","2015-01-27T19:41:40.000","21213",NA,NA
"Cityworks SR Comments","S HANOVER ST &W HAMBURG ST","BALTIMORE","STREETL2","TRM-StLight Damaged/Knocked Down/Rusted","2015-01-24T17:08:04.000","2015-01-27T17:08:04.000","FEDERAL HILL","UPDATED","15-00054795","MD","CLOSED","2015-01-27T18:26:51.000","2015-01-27T19:41:40.000","21230",NA,NA
"Cityworks SR Comments","683 S WICKHAM RD","BALTIMORE","STREETL2","TRM-StLight Damaged/Knocked Down/Rusted","2015-01-23T21:37:37.000","2015-01-26T21:37:37.000","BEECHFIELD","UPDATED","15-00054060","MD","CLOSED","2015-01-27T18:12:23.000","2015-01-27T19:41:40.000","21229",NA,NA
"Cityworks SR Comments","500 W BALTIMORE ST","BALTIMORE","STREETL2","TRM-StLight Damaged/Knocked Down/Rusted","2015-01-22T14:24:08.000","2015-01-25T14:24:08.000","UNIVERSITY OF MARYLAND","UPDATED","15-00049682","MD","CLOSED","2015-01-23T11:13:57.000","2015-01-23T13:02:59.000","21201",NA,NA
"Cityworks SR Comments","3722  GREENMOUNT AVE","BALTIMORE","STREETL2","TRM-StLight Damaged/Knocked Down/Rusted","2015-01-18T18:30:09.000","2015-01-21T18:30:09.000","GUILFORD","UPDATED","15-00039636","MD","CLOSED","2015-01-20T18:30:36.000","2015-01-20T20:09:49.000","21218",NA,NA
"Cityworks SR Comments","1810 E MONUMENT ST","BALTIMORE","STREETL2","TRM-StLight Damaged/Knocked Down/Rusted","2015-01-16T17:58:12.000","2015-01-19T17:58:12.000","MIDDLE EAST","UPDATED","15-00037220","MD","CLOSED","2015-01-20T18:32:11.000","2015-01-20T20:09:49.000","21287",NA,NA
"Cityworks SR Comments","4813  BELAIR RD","BALTIMORE","STREETL2","TRM-StLight Damaged/Knocked Down/Rusted","2015-01-15T17:05:12.000","2015-01-18T17:05:12.000","FRANKFORD","UPDATED","15-00034297","MD","CLOSED","2015-01-17T13:34:30.000","2015-01-17T13:58:48.000","21206",NA,NA
"Cityworks SR Comments","17  COMMERCE ST","BALTIMORE","STREETL2","TRM-StLight Damaged/Knocked Down/Rusted","2015-01-14T15:55:42.000","2015-01-17T15:55:42.000","DOWNTOWN","UPDATED","15-00030925","MD","CLOSED","2015-01-22T18:22:12.000","2015-01-22T18:33:14.000","21202",NA,NA
"Cityworks SR Comments","W FRANKLIN ST","BALTIMORE","STREETL2","TRM-StLight Damaged/Knocked Down/Rusted","2015-01-14T12:41:51.000","2015-01-17T12:41:51.000","HARLEM PARK","UPDATED","15-00029870","MD","CLOSED","2015-01-20T15:33:57.000","2015-01-20T16:10:02.000","21223",NA,NA
"Cityworks SR Comments","E LOMBARD ST & MARKET PL","BALTIMORE","STREETL2","TRM-StLight Damaged/Knocked Down/Rusted","2015-01-13T09:58:29.000","2015-01-16T09:58:29.000","INNER HARBOR","UPDATED","15-00026716","MD","CLOSED","2015-01-13T18:31:49.000","2015-01-13T18:47:40.000","21202",NA,NA
"Cityworks SR Comments","1700  HILTON PKWY","BALTIMORE","STREETL2","TRM-StLight Damaged/Knocked Down/Rusted","2015-01-12T20:14:56.000","2015-01-15T20:14:56.000","FAIRMONT","UPDATED","15-00026349","MD","CLOSED","2015-01-15T19:04:50.000","2015-01-15T19:12:17.000","21216",NA,NA
"WO - Repair Damaged Pole","SAINT LO DR","BALTIMORE","STREETL2","TRM-StLight Damaged/Knocked Down/Rusted","2015-01-12T11:50:11.000","2015-01-15T11:50:11.000","CLIFTON PARK","CLOSED","15-00024308","MD","CLOSED","2015-01-14T15:05:32.000","2015-01-13T13:10:34.000","21213",NA,NA
"Cityworks SR Comments","EDISON HWY & CLIFTMONT AVE","BALTIMORE","STREETL2","TRM-StLight Damaged/Knocked Down/Rusted","2015-01-11T08:22:45.000","2015-01-14T08:22:45.000","BELAIR-EDISON","UPDATED","15-00023269","MD","CLOSED","2015-01-13T18:35:47.000","2015-01-13T18:47:40.000","21213",NA,NA
"Cityworks SR Comments","FLEET ST &S MILTON AVE","BALTIMORE","STREETL2","TRM-StLight Damaged/Knocked Down/Rusted","2015-01-08T21:35:03.000","2015-01-11T21:35:03.000","CANTON","UPDATED","15-00018658","MD","CLOSED","2015-01-09T16:26:47.000","2015-01-09T17:10:27.000","21224",NA,NA
"WO - Install New Pole","S KENWOOD AVE & BOSTON ST","BALTIMORE","STREETL2","TRM-StLight Damaged/Knocked Down/Rusted","2015-01-08T05:30:44.000","2015-01-11T05:30:44.000","CANTON","CLOSED","15-00015774","MD","CLOSED","2015-01-08T19:13:00.000","2015-01-21T20:41:04.000","21224",NA,NA
"Cityworks SR Comments","400  MILLINGTON AVE","BALTIMORE","STREETL2","TRM-StLight Damaged/Knocked Down/Rusted","2015-01-05T16:21:40.000","2015-01-08T16:21:40.000","MILLHILL","UPDATED","15-00007646","MD","CLOSED","2015-01-07T12:54:11.000","2015-01-07T14:48:12.000","21223",NA,NA
"WO - Install New Pole","W PRATT ST & HOPKINS PL","BALTIMORE","STREETL2","TRM-StLight Damaged/Knocked Down/Rusted","2015-01-04T23:07:20.000","2015-01-07T23:07:20.000","INNER HARBOR","CLOSED","15-00005105","MD","CLOSED","2015-01-05T17:42:32.000","2015-01-13T18:36:36.000","21201",NA,NA
"Cityworks SR Comments","600  LYNDHURST ST","BALTIMORE","STREETL2","TRM-StLight Damaged/Knocked Down/Rusted","2015-01-03T20:44:05.000","2015-01-06T20:44:05.000","EDMONDSON VILLAGE","UPDATED","15-00004300","MD","CLOSED","2015-01-09T13:13:15.000","2015-01-09T13:18:44.000","21229",NA,NA
"WO - Install New Pole","400 N STREEPER ST","BALTIMORE","STREETL2","TRM-StLight Damaged/Knocked Down/Rusted","2014-12-29T21:06:23.000","2015-01-01T21:06:23.000","MCELDERRY PARK","CLOSED","14-00964470","MD","CLOSED","2014-12-30T18:42:32.000","2015-01-15T19:02:06.000","21224",NA,NA
"Cityworks SR Comments","5602  KEY AVE","BALTIMORE","STREETL2","TRM-StLight Damaged/Knocked Down/Rusted","2014-12-29T15:06:24.000","2015-01-01T15:06:24.000","GLEN","UPDATED","14-00963332","MD","CLOSED","2014-12-31T17:50:10.000","2014-12-31T19:32:41.000","21215",NA,NA
"WO - Install New Pole","24  COMMERCE ST","BALTIMORE","STREETL2","TRM-StLight Damaged/Knocked Down/Rusted","2014-12-29T10:30:49.000","2015-01-01T10:30:49.000","DOWNTOWN","CLOSED","14-00961817","MD","CLOSED","2014-12-29T18:19:04.000","2015-01-15T18:16:29.000","21202",NA,NA
"Cityworks SR Comments","3000  FALLS RD","BALTIMORE","STREETL2","TRM-StLight Damaged/Knocked Down/Rusted","2014-12-28T15:27:38.000","2014-12-31T15:27:38.000","JONES FALLS AREA","UPDATED","14-00961327","MD","CLOSED","2014-12-29T18:12:55.000","2014-12-29T19:49:42.000","21211",NA,NA
"Cityworks SR Comments","400  WATER ST","BALTIMORE","STREETL2","TRM-StLight Damaged/Knocked Down/Rusted","2014-12-28T06:32:18.000","2014-12-31T06:32:18.000","DOWNTOWN","UPDATED","14-00961083","MD","CLOSED","2014-12-29T18:19:46.000","2014-12-29T19:49:42.000","21202",NA,NA
"Cityworks SR Comments","E COLD SPRING LN &N CHARLES ST","BALTIMORE","STREETL2","TRM-StLight Damaged/Knocked Down/Rusted","2014-12-25T15:03:10.000","2014-12-28T15:03:10.000","LOYOLA/NOTRE DAME","UPDATED","14-00957274","MD","CLOSED","2014-12-29T18:07:35.000","2014-12-29T19:49:42.000","21212",NA,NA
"Cityworks SR Comments","4500  HILLEN RD","BALTIMORE","STREETL2","TRM-StLight Damaged/Knocked Down/Rusted","2014-12-21T14:34:39.000","2014-12-24T14:34:39.000","HILLEN","UPDATED","14-00947506","MD","CLOSED","2014-12-23T10:51:36.000","2014-12-23T11:37:48.000","21251",NA,NA
"Cityworks SR Comments","5100  PERRING PKWY","BALTIMORE","STREETL2","TRM-StLight Damaged/Knocked Down/Rusted","2014-12-20T06:53:32.000","2014-12-23T06:53:32.000","PERRING LOCH","UPDATED","14-00946442","MD","CLOSED","2014-12-23T10:54:10.000","2014-12-23T11:37:48.000","21239",NA,NA
"Cityworks SR Comments","800 N AUGUSTA AVE","BALTIMORE","STREETL2","TRM-StLight Damaged/Knocked Down/Rusted","2014-12-18T19:28:15.000","2014-12-21T19:28:15.000","EDMONDSON VILLAGE","UPDATED","14-00943472","MD","CLOSED","2014-12-19T16:17:34.000","2014-12-19T17:16:53.000","21229",NA,NA
"Cityworks SR Comments","SHERWOOD AVE & LEITH WALK","BALTIMORE","STREETL2","TRM-StLight Damaged/Knocked Down/Rusted","2014-12-18T12:23:31.000","2014-12-21T12:23:31.000","RAMBLEWOOD","UPDATED","14-00941175","MD","CLOSED","2014-12-19T16:21:11.000","2014-12-19T17:16:53.000","21239",NA,NA
"Cityworks SR Comments","FAWN ST &S HIGH ST","BALTIMORE","STREETL2","TRM-StLight Damaged/Knocked Down/Rusted","2014-12-18T11:24:18.000","2014-12-21T11:24:18.000","LITTLE ITALY","UPDATED","14-00940708","MD","CLOSED","2014-12-29T18:47:26.000","2014-12-29T19:49:42.000","21202",NA,NA
"WO - Install New Pole","1724  THAMES ST","BALTIMORE","STREETL2","TRM-StLight Damaged/Knocked Down/Rusted","2014-12-18T11:12:15.000","2014-12-21T11:12:15.000","FELLS POINT","CLOSED","14-00940663","MD","CLOSED","2014-12-23T10:58:34.000","2014-12-22T10:58:26.000","21231",NA,NA
"Cityworks SR Comments","HILLEN RD & HILLENWOOD RD","BALTIMORE","STREETL2","TRM-StLight Damaged/Knocked Down/Rusted","2014-12-17T17:53:05.000","2014-12-20T17:53:05.000","PERRING LOCH","UPDATED","14-00939744","MD","CLOSED","2014-12-19T16:20:00.000","2014-12-19T17:16:53.000","21239",NA,NA
"Cityworks SR Comments","3700  FLOWERTON RD","BALTIMORE","STREETL2","TRM-StLight Damaged/Knocked Down/Rusted","2014-12-17T10:26:31.000","2014-12-20T10:26:31.000","EDMONDSON VILLAGE","UPDATED","14-00937456","MD","CLOSED","2014-12-17T18:28:27.000","2014-12-17T19:24:29.000","21229",NA,NA
"Cityworks SR Comments","3000  VIRGINIA AVE","BALTIMORE","STREETL2","TRM-StLight Damaged/Knocked Down/Rusted","2014-12-16T21:05:48.000","2014-12-19T21:05:48.000","CYLBURN","UPDATED","14-00937225","MD","CLOSED","2014-12-17T18:06:02.000","2014-12-17T19:24:29.000","21215",NA,NA
"Cityworks SR Comments","E 25TH ST & KIRK AVE","BALTIMORE","STREETL2","TRM-StLight Damaged/Knocked Down/Rusted","2014-12-16T19:06:51.000","2014-12-19T19:06:51.000","COLDSTREAM HOMESTEAD MONTEBELLO","UPDATED","14-00937048","MD","CLOSED","2014-12-17T18:05:15.000","2014-12-17T19:24:29.000","21218",NA,NA
"Cityworks SR Comments","BOSTON ST &S NEWKIRK ST","BALTIMORE","STREETL2","TRM-StLight Damaged/Knocked Down/Rusted","2014-12-16T05:09:53.000","2014-12-19T05:09:53.000","CANTON INDUSTRIAL AREA","UPDATED","14-00934741","MD","CLOSED","2014-12-16T18:17:21.000","2014-12-16T18:56:00.000","21224",NA,NA
"Cityworks SR Comments","6301  WABASH AVE","BALTIMORE","STREETL2","TRM-StLight Damaged/Knocked Down/Rusted","2014-12-11T14:52:39.000","2014-12-14T14:52:39.000","REISTERSTOWN STATION","UPDATED","14-00926580","MD","CLOSED","2014-12-13T11:05:57.000","2014-12-13T12:13:47.000","21215",NA,NA
"Cityworks SR Comments","W HAMBURG ST & RUSSELL ST","BALTIMORE","STREETL2","TRM-StLight Damaged/Knocked Down/Rusted","2014-12-11T13:18:44.000","2014-12-14T13:18:44.000","WASHINGTON VILLAGE","UPDATED","14-00926065","MD","CLOSED","2014-12-12T13:13:29.000","2014-12-12T13:56:29.000","21230",NA,NA
"Cityworks SR Comments","2700  GWYNNS FALLS PKWY","BALTIMORE","STREETL2","TRM-StLight Damaged/Knocked Down/Rusted","2014-12-11T13:16:27.000","2014-12-14T13:16:27.000","HANLON-LONGWOOD","UPDATED","14-00926054","MD","CLOSED","2014-12-13T11:04:14.000","2014-12-13T12:13:47.000","21216",NA,NA
"Cityworks SR Comments","3032  WINDSOR AVE","BALTIMORE","STREETL2","TRM-StLight Damaged/Knocked Down/Rusted","2014-12-10T13:43:46.000","2014-12-13T13:43:46.000","WALBROOK","UPDATED","14-00923179","MD","CLOSED","2014-12-11T19:11:22.000","2014-12-11T20:31:30.000","21216",NA,NA
"Cityworks SR Comments","1 W CONWAY ST","BALTIMORE","STREETL2","TRM-StLight Damaged/Knocked Down/Rusted","2014-12-10T11:31:50.000","2014-12-13T11:31:50.000","OTTERBEIN","UPDATED","14-00922333","MD","CLOSED","2014-12-11T19:08:55.000","2014-12-11T20:31:30.000","21201",NA,NA
"Cityworks SR Comments","E LOMBARD ST & SOUTH ST","BALTIMORE","STREETL2","TRM-StLight Damaged/Knocked Down/Rusted","2014-12-09T02:14:05.000","2014-12-12T02:14:05.000","INNER HARBOR","UPDATED","14-00919518","MD","CLOSED","2014-12-10T10:44:04.000","2014-12-10T11:07:45.000","21202",NA,NA
"Cityworks SR Comments","2100  ANNAPOLIS RD","BALTIMORE","STREETL2","TRM-StLight Damaged/Knocked Down/Rusted","2014-12-05T03:01:21.000","2014-12-08T03:01:21.000","WESTPORT","UPDATED","14-00911125","MD","CLOSED","2014-12-08T11:11:32.000","2014-12-08T12:35:13.000","21230",NA,NA
"Cityworks SR Comments","911  CHESTNUT HILL AVE","BALTIMORE","STREETL2","TRM-StLight Damaged/Knocked Down/Rusted","2014-12-02T20:55:03.000","2014-12-05T20:55:03.000","EDNOR GARDENS-LAKESIDE","UPDATED","14-00904577","MD","CLOSED","2014-12-04T18:53:14.000","2014-12-04T19:30:03.000","21218",NA,NA
"Cityworks SR Comments","5600  THE ALAMEDA","BALTIMORE","STREETL2","TRM-StLight Damaged/Knocked Down/Rusted","2014-11-27T03:40:13.000","2014-11-30T03:40:13.000","GLEN OAKS","UPDATED","14-00891680","MD","CLOSED","2014-12-01T10:50:45.000","2014-12-01T11:09:24.000","21239",NA,NA
"Cityworks SR Comments","46  POULTNEY ST","BALTIMORE","STREETL2","TRM-StLight Damaged/Knocked Down/Rusted","2014-11-26T00:23:58.000","2014-11-29T00:23:58.000","FEDERAL HILL","UPDATED","14-00889133","MD","CLOSED","2014-12-01T21:00:09.000","2014-12-01T21:31:33.000","21230",NA,NA
"Cityworks SR Comments","S SHARP ST &W PRATT ST","BALTIMORE","STREETL2","TRM-StLight Damaged/Knocked Down/Rusted","2014-11-25T18:41:15.000","2014-11-28T18:41:15.000","INNER HARBOR","UPDATED","14-00888519","MD","CLOSED","2014-12-01T11:04:55.000","2014-12-01T11:09:24.000","21201",NA,NA
"Cityworks SR Comments","5413  SPRINGLAKE WAY","BALTIMORE","STREETL2","TRM-StLight Damaged/Knocked Down/Rusted","2014-11-25T18:12:25.000","2014-11-28T18:12:25.000","HOMELAND","UPDATED","14-00888324","MD","CLOSED","2014-11-26T16:24:41.000","2014-11-26T16:49:56.000","21212",NA,NA
"Cityworks SR Comments","5217  YORK RD","BALTIMORE","STREETL2","TRM-StLight Damaged/Knocked Down/Rusted","2014-11-25T14:12:23.000","2014-11-28T14:12:23.000","WOODBOURNE-MCCABE","UPDATED","14-00887035","MD","CLOSED","2014-11-26T16:55:25.000","2014-11-26T18:18:18.000","21212",NA,NA
"Cityworks SR Comments","E FAYETTE ST &N LINWOOD AVE","BALTIMORE","STREETL2","TRM-StLight Damaged/Knocked Down/Rusted","2014-11-24T15:10:26.000","2014-11-27T15:10:26.000","ELLWOOD PARK/MONUMENT","UPDATED","14-00883701","MD","CLOSED","2014-11-25T19:36:19.000","2014-11-25T20:37:50.000","21224",NA,NA
"Cityworks SR Comments","500  STAMFORD RD","BALTIMORE","STREETL2","TRM-StLight Damaged/Knocked Down/Rusted","2014-11-24T14:10:20.000","2014-11-27T14:10:20.000","TEN HILLS","UPDATED","14-00883422","MD","CLOSED","2014-11-25T19:37:37.000","2014-11-25T20:37:50.000","21229",NA,NA
"Cityworks SR Comments","1000 N ELLAMONT ST","BALTIMORE","STREETL2","TRM-StLight Damaged/Knocked Down/Rusted","2014-11-22T01:19:52.000","2014-11-25T01:19:52.000","ROSEMONT","UPDATED","14-00880514","MD","CLOSED","2014-11-25T11:27:26.000","2014-11-25T11:53:10.000","21216",NA,NA
"Cityworks SR Comments","2501  BOSTON ST","BALTIMORE","STREETL2","TRM-StLight Damaged/Knocked Down/Rusted","2014-11-20T13:57:12.000","2014-11-23T13:57:12.000","CANTON","UPDATED","14-00875360","MD","CLOSED","2014-12-02T12:46:31.000","2014-11-21T18:40:57.000","21224",NA,NA
"Cityworks SR Comments","E FORT AVE & LIGHT ST","BALTIMORE","STREETL2","TRM-StLight Damaged/Knocked Down/Rusted","2014-11-18T15:15:40.000","2014-11-21T15:15:40.000","SBIC","UPDATED","14-00869197","MD","CLOSED","2014-11-19T15:55:25.000","2014-11-19T17:21:31.000","21230",NA,NA
"WO - Install New Pole","414  KEY HWY","BALTIMORE","STREETL2","TRM-StLight Damaged/Knocked Down/Rusted","2014-11-16T14:57:04.000","2014-11-19T14:57:04.000","INNER HARBOR","CLOSED","14-00863759","MD","CLOSED","2014-11-18T18:21:37.000","2014-11-18T18:21:25.000","21230",NA,NA
"Cityworks SR Comments","1210 N CURLEY ST","BALTIMORE CITY","STREETL2","TRM-StLight Damaged/Knocked Down/Rusted","2014-11-15T13:44:53.000","2014-11-18T13:44:53.000","BEREA","UPDATED","14-00862418","MD","CLOSED","2014-11-17T19:11:40.000","2014-11-17T19:44:36.000","21213",NA,NA
"Cityworks SR Comments","FOREST GLEN RD &W FOREST PARK AVE","BALTIMORE CITY","STREETL2","TRM-StLight Damaged/Knocked Down/Rusted","2014-11-14T13:13:02.000","2014-11-17T13:13:02.000","WEST FOREST PARK","UPDATED","14-00859930","MD","CLOSED","2014-11-17T17:29:17.000","2014-11-17T18:22:08.000","21207",NA,NA
"WO - Install New Pole","400  RUSSELL ST","BALTIMORE CITY","STREETL2","TRM-StLight Damaged/Knocked Down/Rusted","2014-11-09T06:03:35.000","2014-11-12T06:03:35.000","STADIUM AREA","CLOSED","14-00845414","MD","CLOSED","2014-11-14T12:20:23.000","2014-11-13T12:20:05.000","21230",NA,NA
"Cityworks SR Comments","3615  MANCHESTER AVE","BALTIMORE CITY","STREETL2","TRM-StLight Damaged/Knocked Down/Rusted","2014-11-08T17:01:52.000","2014-11-11T17:01:52.000","CENTRAL PARK HEIGHTS","UPDATED","14-00844946","MD","CLOSED","2014-11-10T19:44:40.000","2014-11-10T20:37:15.000","21215",NA,NA
"Cityworks SR Comments","3700  SAINT PAUL ST","BALTIMORE CITY","STREETL2","TRM-StLight Damaged/Knocked Down/Rusted","2014-11-07T21:29:50.000","2014-11-10T21:29:50.000","GUILFORD","UPDATED","14-00843133","MD","CLOSED","2014-11-10T19:54:44.000","2014-11-10T20:37:15.000","21218",NA,NA
"Cityworks SR Comments","4400 N CHARLES ST","BALTIMORE CITY","STREETL2","TRM-StLight Damaged/Knocked Down/Rusted","2014-11-07T16:56:28.000","2014-11-10T16:56:28.000","GUILFORD","UPDATED","14-00842117","MD","CLOSED","2014-11-10T19:48:36.000","2014-11-10T20:37:15.000","21218",NA,NA
"Cityworks SR Comments","2282  DRUID PARK DR","BALTIMORE CITY","STREETL2","TRM-StLight Damaged/Knocked Down/Rusted","2014-11-06T03:33:45.000","2014-11-09T03:33:45.000","DRUID HILL PARK","UPDATED","14-00836246","MD","CLOSED","2014-11-07T11:40:49.000","2014-11-07T12:28:19.000","21211",NA,NA
NA,"601 E LOMBARD ST","BALTIMORE CITY","STREETL2","TRM-StLight Damaged/Knocked Down/Rusted","2014-11-05T14:08:44.000","2014-11-08T14:08:44.000","DOWNTOWN",NA,"14-00833847","MD","DUPCLOSD","2014-11-05T15:35:24.000",NA,"21202",NA,NA
"WO - Install New Pole","E LOMBARD ST &S FREDERICK ST","BALTIMORE CITY","STREETL2","TRM-StLight Damaged/Knocked Down/Rusted","2014-11-04T16:59:21.000","2014-11-07T16:59:21.000","DOWNTOWN","CLOSED","14-00830780","MD","CLOSED","2014-11-08T12:51:33.000","2014-11-07T12:51:25.000","21202",NA,NA
"Cityworks SR Comments","5500  CALIFORNIA BLVD","BALTIMORE CITY","STREETL2","TRM-StLight Damaged/Knocked Down/Rusted","2014-11-04T15:52:50.000","2014-11-07T15:52:50.000","HOWARD PARK","UPDATED","14-00830488","MD","CLOSED","2014-11-07T11:41:15.000","2014-11-07T12:28:19.000","21207",NA,NA
"Cityworks SR Comments","GREENWAY & CHARLCOTE RD","BALTIMORE CITY","STREETL2","TRM-StLight Damaged/Knocked Down/Rusted","2014-11-03T20:30:46.000","2014-11-06T20:30:46.000","GUILFORD","UPDATED","14-00828588","MD","CLOSED","2014-11-06T10:54:55.000","2014-11-06T11:27:39.000","21218",NA,NA
"Cityworks SR Comments","3711  THE ALAMEDA","BALTIMORE CITY","STREETL2","TRM-StLight Damaged/Knocked Down/Rusted","2014-11-03T14:15:17.000","2014-11-06T14:15:17.000","EDNOR GARDENS-LAKESIDE","UPDATED","14-00826724","MD","CLOSED","2014-11-05T11:23:00.000","2014-11-05T11:52:53.000","21218",NA,NA
"Cityworks SR Comments","3700  SAINT PAUL ST","BALTIMORE CITY","STREETL2","TRM-StLight Damaged/Knocked Down/Rusted","2014-11-02T22:27:23.000","2014-11-05T22:27:23.000","GUILFORD","UPDATED","14-00824969","MD","CLOSED","2014-11-03T18:47:47.000","2014-11-03T19:58:07.000","21218",NA,NA
"Cityworks SR Comments","1437  BOYLE ST","BALTIMORE CITY","STREETL2","TRM-StLight Damaged/Knocked Down/Rusted","2014-11-02T20:41:16.000","2014-11-05T20:41:16.000","RIVERSIDE","UPDATED","14-00824896","MD","CLOSED","2014-11-07T16:54:55.000","2014-11-07T17:48:59.000","21230",NA,NA
"Cityworks SR Comments","BANK ST &S PATTERSON PARK AVE","BALTIMORE CITY","STREETL2","TRM-StLight Damaged/Knocked Down/Rusted","2014-11-02T15:05:50.000","2014-11-05T15:05:50.000","UPPER FELLS POINT","UPDATED","14-00824129","MD","CLOSED","2014-11-03T19:09:59.000","2014-11-03T19:58:07.000","21224",NA,NA
"Cityworks SR Comments","4402  NORWOOD RD","BALTIMORE CITY","STREETL2","TRM-StLight Damaged/Knocked Down/Rusted","2014-11-02T11:09:34.000","2014-11-05T11:09:34.000","GUILFORD","UPDATED","14-00823879","MD","CLOSED","2014-11-03T18:39:38.000","2014-11-03T19:58:07.000","21218",NA,NA
"Cityworks SR Comments","W MULBERRY ST &N POPPLETON ST","BALTIMORE CITY","STREETL2","TRM-StLight Damaged/Knocked Down/Rusted","2014-11-02T10:29:43.000","2014-11-05T10:29:43.000","HARLEM PARK","UPDATED","14-00823838","MD","CLOSED","2014-11-03T19:13:47.000","2014-11-03T19:58:07.000","21223",NA,NA
"Cityworks SR Comments","5413  SPRINGLAKE WAY","BALTIMORE CITY","STREETL2","TRM-StLight Damaged/Knocked Down/Rusted","2014-11-02T00:49:14.000","2014-11-05T00:49:14.000","HOMELAND","UPDATED","14-00823455","MD","CLOSED","2014-11-03T18:52:45.000","2014-11-03T19:58:07.000","21212",NA,NA
"Cityworks SR Comments","E FORT AVE & HAUBERT ST","BALTIMORE CITY","STREETL2","TRM-StLight Damaged/Knocked Down/Rusted","2014-11-02T00:42:47.000","2014-11-05T00:42:47.000","LOCUST POINT","UPDATED","14-00823451","MD","CLOSED","2014-11-03T18:59:09.000","2014-11-03T19:58:07.000","21230",NA,NA
"Cityworks SR Comments","LOCH RAVEN BLVD &E COLD SPRING LN","BALTIMORE CITY","STREETL2","TRM-StLight Damaged/Knocked Down/Rusted","2014-11-02T00:30:18.000","2014-11-05T00:30:18.000","NEW NORTHWOOD","UPDATED","14-00823432","MD","CLOSED","2014-11-03T18:55:03.000","2014-11-03T19:58:07.000","21239",NA,NA
"Cityworks SR Comments","BRENDAN AVE & BELAIR RD","BALTIMORE CITY","STREETL2","TRM-StLight Damaged/Knocked Down/Rusted","2014-11-01T16:28:30.000","2014-11-04T16:28:30.000","BELAIR-EDISON","UPDATED","14-00822678","MD","CLOSED","2014-11-03T18:36:46.000","2014-11-03T18:40:24.000","21213",NA,NA
"Cityworks SR Comments","2400 N HILTON ST","BALTIMORE CITY","STREETL2","TRM-StLight Damaged/Knocked Down/Rusted","2014-10-31T20:13:26.000","2014-11-03T20:13:26.000","HANLON-LONGWOOD","UPDATED","14-00821141","MD","CLOSED","2014-11-03T18:41:54.000","2014-11-03T19:58:07.000","21216",NA,NA
"Cityworks SR Comments","1801  MCHENRY ST","BALTIMORE CITY","STREETL2","TRM-StLight Damaged/Knocked Down/Rusted","2014-10-29T21:07:04.000","2014-11-01T21:07:04.000","CARROLLTON RIDGE","UPDATED","14-00814684","MD","CLOSED","2014-10-31T10:36:00.000","2014-10-31T11:02:26.000","21223",NA,NA
"WO - Install New Pole","LANCASTER ST &S DALLAS ST","BALTIMORE CITY","STREETL2","TRM-StLight Damaged/Knocked Down/Rusted","2014-10-29T16:16:34.000","2014-11-01T16:16:34.000","FELLS POINT","CLOSED","14-00813612","MD","CLOSED","2014-10-31T12:43:37.000","2014-10-30T12:43:27.000","21231",NA,NA
"Cityworks SR Comments","3840 W COLD SPRING LN","BALTIMORE CITY","STREETL2","TRM-StLight Damaged/Knocked Down/Rusted","2014-10-29T13:00:30.000","2014-11-01T13:00:30.000","DOLFIELD","UPDATED","14-00812600","MD","CLOSED","2014-10-31T10:32:25.000","2014-10-31T11:02:26.000","21215",NA,NA
"Dispatch Work Crew","WINCHESTER ST & BRADDISH AVE","BALTIMORE CITY","STREETL2","TRM-StLight Damaged/Knocked Down/Rusted","2014-10-29T11:16:30.000","2014-11-01T11:16:30.000","WINCHESTER",NA,"14-00812195","MD","CLOSED","2014-11-13T11:40:49.000","2014-10-31T11:43:00.000","21216",NA,NA
"Cityworks SR Comments","3738  ELMORA AVE","BALTIMORE CITY","STREETL2","TRM-StLight Damaged/Knocked Down/Rusted","2014-10-28T01:58:40.000","2014-10-31T01:58:40.000","BELAIR-EDISON","UPDATED","14-00808578","MD","CLOSED","2014-10-29T17:53:26.000","2014-10-29T18:31:08.000","21213",NA,NA
"WO - Install New Pole","104 W BARRE ST","BALTIMORE CITY","STREETL2","TRM-StLight Damaged/Knocked Down/Rusted","2014-10-25T20:24:59.000","2014-10-28T20:24:59.000","OTTERBEIN","CLOSED","14-00804185","MD","CLOSED","2014-12-31T17:48:47.000","2015-01-09T18:38:31.000","21201",NA,NA
"Cityworks SR Comments","5703  AINSLEY GRTH","BALTIMORE CITY","STREETL2","TRM-StLight Damaged/Knocked Down/Rusted","2014-10-24T15:49:20.000","2014-10-27T15:49:20.000","BELLONA-GITTINGS","UPDATED","14-00801985","MD","CLOSED","2014-11-07T15:37:42.000","2014-11-07T16:29:52.000","21212",NA,NA
"Cityworks SR Comments","774 N EDGEWOOD ST","BALTIMORE CITY","STREETL2","TRM-StLight Damaged/Knocked Down/Rusted","2014-10-24T14:11:29.000","2014-10-27T14:11:29.000","EDMONDSON VILLAGE","UPDATED","14-00801622","MD","CLOSED","2014-10-27T16:33:26.000","2014-10-27T17:40:33.000","21229",NA,NA
"Cityworks SR Comments","4813  BELAIR RD","BALTIMORE CITY","STREETL2","TRM-StLight Damaged/Knocked Down/Rusted","2014-10-23T15:24:31.000","2014-10-26T15:24:31.000","FRANKFORD","UPDATED","14-00798827","MD","CLOSED","2014-10-24T18:21:36.000","2014-10-24T18:29:43.000","21206",NA,NA
"WO - Install New Pole","502 S SHARP ST","BALTIMORE CITY","STREETL2","TRM-StLight Damaged/Knocked Down/Rusted","2014-10-22T18:00:35.000","2014-10-25T18:00:35.000","OTTERBEIN","CLOSED","14-00796384","MD","CLOSED","2014-10-24T18:18:33.000","2014-10-24T18:18:09.000","21201",NA,NA
"Cityworks SR Comments","3018 E BALTIMORE ST","BALTIMORE CITY","STREETL2","TRM-StLight Damaged/Knocked Down/Rusted","2014-10-21T15:08:37.000","2014-10-24T15:08:37.000","BALTIMORE-LINWOOD","UPDATED","14-00792375","MD","CLOSED","2014-10-22T14:53:46.000","2014-10-22T15:15:24.000","21224",NA,NA
"Cityworks SR Comments","1700  THAMES ST","BALTIMORE CITY","STREETL2","TRM-StLight Damaged/Knocked Down/Rusted","2014-10-21T11:13:48.000","2014-10-24T11:13:48.000","FELLS POINT","UPDATED","14-00791172","MD","CLOSED","2014-10-21T18:53:18.000","2014-10-21T18:57:34.000","21231",NA,NA
"WO - Install New Pole","199 W 39TH ST","BALTIMORE CITY","STREETL2","TRM-StLight Damaged/Knocked Down/Rusted","2014-10-20T20:31:02.000","2014-10-23T20:31:02.000","TUSCANY-CANTERBURY","CLOSED","14-00790459","MD","CLOSED","2014-10-22T18:09:03.000","2014-10-22T18:07:48.000","21210",NA,NA
"Cityworks SR Comments","656  PARKWYRTH AVE","BALTIMORE CITY","STREETL2","TRM-StLight Damaged/Knocked Down/Rusted","2014-10-20T20:02:28.000","2014-10-23T20:02:28.000","WAVERLY","UPDATED","14-00790329","MD","CLOSED","2014-10-21T18:11:51.000","2014-10-21T18:57:34.000","21218",NA,NA
"Cityworks SR Comments","5609  FORCE RD","BALTIMORE CITY","STREETL2","TRM-StLight Damaged/Knocked Down/Rusted","2014-10-20T13:32:29.000","2014-10-23T13:32:29.000","FRANKFORD","UPDATED","14-00788528","MD","CLOSED","2014-10-21T18:12:38.000","2014-10-21T18:57:34.000","21206",NA,NA
"Cityworks SR Comments","HOLLINS ST &S CARROLLTON AVE","BALTIMORE CITY","STREETL2","TRM-StLight Damaged/Knocked Down/Rusted","2014-10-17T17:39:55.000","2014-10-20T17:39:55.000","HOLLINS MARKET","UPDATED","14-00783745","MD","CLOSED","2014-10-20T18:12:03.000","2014-10-20T19:04:02.000","21223",NA,NA
"Cityworks SR Comments","EDISON HWY &E FEDERAL ST","BALTIMORE CITY","STREETL2","TRM-StLight Damaged/Knocked Down/Rusted","2014-10-15T14:39:33.000","2014-10-18T14:39:33.000","ORANGEVILLE INDUSTRIAL AREA","UPDATED","14-00776646","MD","CLOSED","2014-10-21T10:47:29.000","2014-10-21T11:37:50.000","21213",NA,NA
"Cityworks SR Comments","900  POPLAR GROVE ST","BALTIMORE CITY","STREETL2","TRM-StLight Damaged/Knocked Down/Rusted","2014-10-14T19:47:14.000","2014-10-17T19:47:14.000","MOSHER","UPDATED","14-00774764","MD","CLOSED","2014-10-16T18:28:47.000","2014-10-16T18:49:55.000","21216",NA,NA
"Cityworks SR Comments","1 E PRATT ST","BALTIMORE CITY","STREETL2","TRM-StLight Damaged/Knocked Down/Rusted","2014-10-14T14:05:34.000","2014-10-17T14:05:34.000","INNER HARBOR","UPDATED","14-00773330","MD","CLOSED","2014-10-16T13:59:56.000","2014-10-16T14:12:44.000","21202",NA,NA
"Cityworks SR Comments","5101  ERDMAN AVE","BALTIMORE CITY","STREETL2","TRM-StLight Damaged/Knocked Down/Rusted","2014-10-14T10:19:12.000","2014-10-17T10:19:12.000","ARMISTEAD GARDENS","UPDATED","14-00772108","MD","CLOSED","2014-10-14T18:42:05.000","2014-10-14T19:02:44.000","21205",NA,NA
"Cityworks SR Comments","1800  EDISON HWY","BALTIMORE CITY","STREETL2","TRM-StLight Damaged/Knocked Down/Rusted","2014-10-13T08:40:01.000","2014-10-16T08:40:01.000","ORANGEVILLE INDUSTRIAL AREA","UPDATED","14-00770369","MD","CLOSED","2014-10-14T18:43:40.000","2014-10-14T19:02:44.000","21213",NA,NA
"Cityworks SR Comments","KOLB AVE & BELAIR RD","BALTIMORE COUNTY","STREETL2","TRM-StLight Damaged/Knocked Down/Rusted","2014-10-10T22:19:45.000","2014-10-13T22:19:45.000","ROSEMONT EAST","UPDATED","14-00767272","MD","CLOSED","2014-10-14T18:41:17.000","2014-10-14T19:02:44.000","21206",NA,NA
"Cityworks SR Comments","3608 E NORTHERN PKWY","BALTIMORE CITY","STREETL2","TRM-StLight Damaged/Knocked Down/Rusted","2014-10-09T12:42:40.000","2014-10-12T12:42:40.000","ROSEMONT EAST","UPDATED","14-00761915","MD","CLOSED","2014-10-10T18:10:36.000","2014-10-10T18:21:22.000","21206",NA,NA
"Cityworks SR Comments","RAMP","BALTIMORE CITY","STREETL2","TRM-StLight Damaged/Knocked Down/Rusted","2014-10-08T12:25:16.000","2014-10-11T12:25:16.000","DRUID HILL PARK","UPDATED","14-00758131","MD","CLOSED","2014-10-10T11:44:39.000","2014-10-10T12:49:00.000","21217",NA,NA
"Cityworks SR Comments","W 29TH ST & SISSON ST","BALTIMORE CITY","STREETL2","TRM-StLight Damaged/Knocked Down/Rusted","2014-10-08T12:07:39.000","2014-10-11T12:07:39.000","REMINGTON","UPDATED","14-00757986","MD","CLOSED","2014-10-10T11:45:22.000","2014-10-10T12:49:00.000","21211",NA,NA
"Cityworks SR Comments","1025 N WOLFE ST","BALTIMORE CITY","STREETL2","TRM-StLight Damaged/Knocked Down/Rusted","2014-10-07T15:26:10.000","2014-10-10T15:26:10.000","MIDDLE EAST","UPDATED","14-00755649","MD","CLOSED","2014-10-08T18:12:48.000","2014-10-08T19:11:52.000","21205",NA,NA
NA,"ELLIOTT ST &S HIGHLAND AVE","BALTIMORE CITY","STREETL2","TRM-StLight Damaged/Knocked Down/Rusted","2014-10-06T23:51:19.000","2014-10-09T23:51:19.000","CANTON",NA,"14-00753890","MD","CLOSED","2014-10-06T23:52:38.000",NA,"21224",NA,NA
NA,"1125 S HIGHLAND AVE","BALTIMORE CITY","STREETL2","TRM-StLight Damaged/Knocked Down/Rusted","2014-10-06T23:41:12.000","2014-10-09T23:41:12.000","CANTON",NA,"14-00753874","MD","CLOSED","2014-10-07T00:39:16.000",NA,"21224",NA,NA
"Cityworks SR Comments","1130 S HIGHLAND AVE","BALTIMORE CITY","STREETL2","TRM-StLight Damaged/Knocked Down/Rusted","2014-10-06T23:40:58.000","2014-10-09T23:40:58.000","CANTON","UPDATED","14-00753872","MD","CLOSED","2014-10-07T17:58:19.000","2014-10-07T18:26:40.000","21224",NA,NA
"Cityworks SR Comments","1100 S HIGHLAND AVE","BALTIMORE CITY","STREETL2","TRM-StLight Damaged/Knocked Down/Rusted","2014-10-06T20:55:40.000","2014-10-09T20:55:40.000","CANTON","UPDATED","14-00753609","MD","CLOSED","2014-10-07T18:00:29.000","2014-10-07T18:26:40.000","21224",NA,NA
"Cityworks SR Comments","ELLIOTT ST &S HIGHLAND AVE","BALTIMORE CITY","STREETL2","TRM-StLight Damaged/Knocked Down/Rusted","2014-10-06T20:34:30.000","2014-10-09T20:34:30.000","CANTON","UPDATED","14-00753544","MD","CLOSED","2014-10-07T17:59:58.000","2014-10-07T18:26:40.000","21224",NA,NA
"Cityworks SR Comments","5801  YORK RD","BALTIMORE CITY","STREETL2","TRM-StLight Damaged/Knocked Down/Rusted","2014-10-03T22:03:35.000","2014-10-06T22:03:35.000","MID-GOVANS","UPDATED","14-00748648","MD","CLOSED","2014-10-06T18:23:57.000","2014-10-06T19:08:17.000","21212",NA,NA
"WO - Install New Pole","W LAFAYETTE AVE & MYRTLE AVE","BALTIMORE CITY","STREETL2","TRM-StLight Damaged/Knocked Down/Rusted","2014-09-29T23:28:04.000","2014-10-02T23:28:04.000","UPTON","CLOSED","14-00734983","MD","CLOSED","2014-09-30T18:41:43.000","2014-10-01T18:26:31.000","21217",NA,NA
"Cityworks SR Comments","3600  TIVOLY AVE","BALTIMORE CITY","STREETL2","TRM-StLight Damaged/Knocked Down/Rusted","2014-09-29T20:28:51.000","2014-10-02T20:28:51.000","EDNOR GARDENS-LAKESIDE","UPDATED","14-00734708","MD","CLOSED","2014-09-30T18:01:52.000","2014-09-30T18:06:56.000","21218",NA,NA
"Cityworks SR Comments","3111  INDEPENDENCE ST","BALTIMORE CITY","STREETL2","TRM-StLight Damaged/Knocked Down/Rusted","2014-09-29T19:07:40.000","2014-10-02T19:07:40.000","BETTER WAVERLY","UPDATED","14-00734324","MD","CLOSED","2014-11-13T17:06:23.000","2014-11-13T17:56:34.000","21218",NA,NA
"Cityworks SR Comments","400 E BALTIMORE ST","BALTIMORE CITY","STREETL2","TRM-StLight Damaged/Knocked Down/Rusted","2014-09-29T14:47:13.000","2014-10-02T14:47:13.000","DOWNTOWN","UPDATED","14-00732993","MD","CLOSED","2014-09-30T18:43:25.000","2014-09-30T19:08:20.000","21202",NA,NA
"WO - Install New Pole","700 S BROADWAY","BALTIMORE CITY","STREETL2","TRM-StLight Damaged/Knocked Down/Rusted","2014-09-27T06:10:42.000","2014-09-30T06:10:42.000","FELLS POINT","CLOSED","14-00729295","MD","CLOSED","2014-10-20T18:16:44.000","2014-10-20T18:16:05.000","21231",NA,NA
"Cityworks SR Comments","719 S BROADWAY","BALTIMORE CITY","STREETL2","TRM-StLight Damaged/Knocked Down/Rusted","2014-09-27T04:54:48.000","2014-09-30T04:54:48.000","FELLS POINT","UPDATED","14-00729289","MD","CLOSED","2014-09-29T18:19:05.000","2014-09-29T19:10:04.000","21231",NA,NA
"Cityworks SR Comments","S BROADWAY & FLEET ST","BALTIMORE CITY","STREETL2","TRM-StLight Damaged/Knocked Down/Rusted","2014-09-24T21:12:37.000","2014-09-27T21:12:37.000","FELLS POINT","UPDATED","14-00722848","MD","CLOSED","2014-09-26T11:45:36.000","2014-09-26T12:09:14.000","21231",NA,NA
"Cityworks SR Comments","MENLO DR & REISTERSTOWN RD","BALTIMORE CITY","STREETL2","TRM-StLight Damaged/Knocked Down/Rusted","2014-09-23T19:52:19.000","2014-09-26T19:52:19.000","GLEN","UPDATED","14-00719060","MD","CLOSED","2014-09-25T11:01:05.000","2014-09-25T11:58:31.000","21215",NA,NA
"Cityworks SR Comments","1013  CHURCH ST","BALTIMORE CITY","STREETL2","TRM-StLight Damaged/Knocked Down/Rusted","2014-09-23T16:16:34.000","2014-09-26T16:16:34.000","CURTIS BAY","UPDATED","14-00718166","MD","CLOSED","2014-09-24T16:49:00.000","2014-09-24T16:52:41.000","21225",NA,NA
"Cityworks SR Comments","606 S BROADWAY","BALTIMORE CITY","STREETL2","TRM-StLight Damaged/Knocked Down/Rusted","2014-09-23T11:06:19.000","2014-09-26T11:06:19.000","FELLS POINT","UPDATED","14-00716812","MD","CLOSED","2014-09-23T18:21:50.000","2014-09-23T18:58:00.000","21231",NA,NA
"Cityworks SR Comments","2100 W FRANKLIN ST","BALTIMORE CITY","STREETL2","TRM-StLight Damaged/Knocked Down/Rusted","2014-09-22T01:19:58.000","2014-09-25T01:19:58.000","MIDTOWN-EDMONDSON","UPDATED","14-00713235","MD","CLOSED","2014-09-22T18:52:01.000","2014-09-22T19:26:58.000","21223",NA,NA
"Cityworks SR Comments","2609  HALCYON AVE","BALTIMORE CITY","STREETL2","TRM-StLight Damaged/Knocked Down/Rusted","2014-09-21T19:10:50.000","2014-09-24T19:10:50.000","LAURAVILLE","UPDATED","14-00712917","MD","CLOSED","2014-09-23T18:31:08.000","2014-09-23T18:58:00.000","21214",NA,NA
"Cityworks SR Comments","2600  HALCYON AVE","BALTIMORE CITY","STREETL2","TRM-StLight Damaged/Knocked Down/Rusted","2014-09-21T19:08:54.000","2014-09-24T19:08:54.000","LAURAVILLE","UPDATED","14-00712911","MD","CLOSED","2014-09-23T18:30:35.000","2014-09-23T18:58:00.000","21214",NA,NA
"Cityworks SR Comments","2506  HALCYON AVE","BALTIMORE CITY","STREETL2","TRM-StLight Damaged/Knocked Down/Rusted","2014-09-21T19:08:50.000","2014-09-24T19:08:50.000","LAURAVILLE","UPDATED","14-00712910","MD","CLOSED","2014-09-23T18:32:28.000","2014-09-23T18:58:00.000","21214",NA,NA
"Cityworks SR Comments","STAMFORD RD & BROOK GREEN RD","BALTIMORE CITY","STREETL2","TRM-StLight Damaged/Knocked Down/Rusted","2014-09-20T10:55:56.000","2014-09-23T10:55:56.000","TEN HILLS","UPDATED","14-00711069","MD","CLOSED","2014-09-22T18:45:32.000","2014-09-22T19:26:58.000","21229",NA,NA
"Cityworks SR Comments","600  HILTON PKWY","BALTIMORE CITY","STREETL2","TRM-StLight Damaged/Knocked Down/Rusted","2014-09-20T07:24:00.000","2014-09-23T07:24:00.000","GWYNNS FALLS/LEAKIN PARK","UPDATED","14-00710802","MD","HOLDLOCK","2014-09-22T11:49:59.000","2014-09-22T19:26:58.000","21229",NA,NA
"Cityworks SR Comments","W NORTHERN PKWY & PIMLICO RD","BALTIMORE CITY","STREETL2","TRM-StLight Damaged/Knocked Down/Rusted","2014-09-19T19:01:43.000","2014-09-22T19:01:43.000","MOUNT WASHINGTON","UPDATED","14-00710118","MD","CLOSED","2014-09-22T18:44:11.000","2014-09-22T19:26:58.000","21209",NA,NA
NA,"1718  THAMES ST","BALTIMORE CITY","STREETL2","TRM-StLight Damaged/Knocked Down/Rusted","2014-09-19T13:10:45.000","2014-09-22T13:10:45.000","FELLS POINT",NA,"14-00708387","MD","DUPCLOSD","2014-10-22T13:10:05.000",NA,"21231",NA,NA
"Cityworks SR Comments","3039  JANICE AVE","BALTIMORE CITY","STREETL2","TRM-StLight Damaged/Knocked Down/Rusted","2014-09-19T12:04:47.000","2014-09-22T12:04:47.000","LAKELAND","UPDATED","14-00708096","MD","CLOSED","2014-09-22T18:32:49.000","2014-09-22T19:26:58.000","21230",NA,NA
"Cityworks SR Comments","S CATON AVE & KINGSLEY ST","BALTIMORE CITY","STREETL2","TRM-StLight Damaged/Knocked Down/Rusted","2014-09-18T00:39:49.000","2014-09-21T00:39:49.000","GWYNNS FALLS","UPDATED","14-00704000","MD","CLOSED","2014-09-18T18:22:41.000","2014-09-18T19:05:15.000","21229",NA,NA
"Cityworks SR Comments","E CROSS ST &S CHARLES ST","BALTIMORE CITY","STREETL2","TRM-StLight Damaged/Knocked Down/Rusted","2014-09-17T14:12:44.000","2014-09-20T14:12:44.000","FEDERAL HILL","UPDATED","14-00701960","MD","CLOSED","2014-09-18T18:25:22.000","2014-09-18T19:05:15.000","21230",NA,NA
"WO - Repair Damaged Pole","600 S BROADWAY","BALTIMORE CITY","STREETL2","TRM-StLight Damaged/Knocked Down/Rusted","2014-09-16T14:07:10.000","2014-09-19T14:07:10.000","FELLS POINT","CLOSED","14-00698389","MD","CLOSED","2014-10-15T17:02:22.000","2014-10-14T17:01:56.000","21231",NA,NA
"Cityworks SR Comments","2908  HALCYON AVE","BALTIMORE CITY","STREETL2","TRM-StLight Damaged/Knocked Down/Rusted","2014-09-14T16:00:50.000","2014-09-17T16:00:50.000","LAURAVILLE","UPDATED","14-00693286","MD","CLOSED","2014-09-16T18:26:36.000","2014-09-16T19:12:26.000","21214",NA,NA
"WO - Install New Pole","E PRATT ST & PRESIDENT ST","BALTIMORE CITY","STREETL2","TRM-StLight Damaged/Knocked Down/Rusted","2014-09-14T09:42:32.000","2014-09-17T09:42:32.000","INNER HARBOR","CLOSED","14-00692951","MD","CLOSED","2014-09-15T18:37:58.000","2014-09-17T18:11:31.000","21202",NA,NA
"Cityworks SR Comments","PASCAL AVE & INNER PASCAL","BALTIMORE CITY","STREETL2","TRM-StLight Damaged/Knocked Down/Rusted","2014-09-13T19:32:47.000","2014-09-16T19:32:47.000","CURTIS BAY","UPDATED","14-00692588","MD","CLOSED","2014-09-18T12:55:01.000","2014-09-18T13:32:32.000","21225",NA,NA
"Cityworks SR Comments","1500 N FULTON AVE","BALTIMORE CITY","STREETL2","TRM-StLight Damaged/Knocked Down/Rusted","2014-09-12T19:25:19.000","2014-09-15T19:25:19.000","SANDTOWN-WINCHESTER","UPDATED","14-00690872","MD","CLOSED","2014-09-15T18:35:43.000","2014-09-15T19:18:07.000","21217",NA,NA
"Cityworks SR Comments","SAINT MARTINS RD & SAINT PAUL ST","BALTIMORE","STREETL2","TRM-StLight Damaged/Knocked Down/Rusted","2014-09-11T00:37:47.000","2014-09-14T00:37:47.000","GUILFORD","UPDATED","14-00684597","MD","CLOSED","2014-09-11T18:13:26.000","2014-09-11T18:39:29.000",NA,NA,NA
"Cityworks SR Comments","4600  LIBERTY HEIGHTS AVE","BALTIMORE","STREETL2","TRM-StLight Damaged/Knocked Down/Rusted","2014-09-09T12:48:38.000","2014-09-12T12:48:38.000","HOWARD PARK","UPDATED","14-00678247","MD","CLOSED","2014-09-18T12:56:27.000","2014-09-18T13:32:32.000","21207",NA,NA
"Cityworks SR Comments","500  LIGHT ST","BALTIMORE","STREETL2","TRM-StLight Damaged/Knocked Down/Rusted","2014-09-08T10:37:23.000","2014-09-11T10:37:23.000","OTTERBEIN","UPDATED","14-00673954","MD","CLOSED","2014-09-08T18:41:48.000","2014-09-08T19:10:34.000",NA,NA,NA
"Cityworks SR Comments","MCHENRY ST &W BARRE ST","BALTIMORE CITY","STREETL2","TRM-StLight Damaged/Knocked Down/Rusted","2014-09-06T23:57:45.000","2014-09-09T23:57:45.000","BARRE CIRCLE","UPDATED","14-00672755","MD","CLOSED","2014-09-08T18:15:41.000","2014-09-08T18:20:34.000","21230",NA,NA
"Cityworks SR Comments","1953  CHELSEA RD","BALTIMORE CITY","STREETL2","TRM-StLight Damaged/Knocked Down/Rusted","2014-09-04T14:56:10.000","2014-09-07T14:56:10.000","FAIRMONT","UPDATED","14-00666678","MD","CLOSED","2014-09-05T18:10:10.000","2014-09-05T18:28:02.000","21216",NA,NA
"Cityworks SR Comments","N MARTIN LUTHER KING JR BLVD & PENNSYLVA","BALTIMORE CITY","STREETL2","TRM-StLight Damaged/Knocked Down/Rusted","2014-09-04T11:48:26.000","2014-09-07T11:48:26.000","HERITAGE CROSSING","UPDATED","14-00665406","MD","CLOSED","2014-09-04T18:49:47.000","2014-09-04T18:45:15.000","21201",NA,NA
"Cityworks SR Comments","N MARTIN LUTHER KING JR BLVD &W FRANKLIN","BALTIMORE CITY","STREETL2","TRM-StLight Damaged/Knocked Down/Rusted","2014-09-04T10:13:10.000","2014-09-07T10:13:10.000","HERITAGE CROSSING","UPDATED","14-00665113","MD","CLOSED","2014-09-04T18:53:27.000","2014-09-04T19:34:13.000","21201",NA,NA
"Cityworks SR Comments","1900 N BENTALOU ST","BALTIMORE CITY","STREETL2","TRM-StLight Damaged/Knocked Down/Rusted","2014-09-03T14:54:05.000","2014-09-06T14:54:05.000","MONDAWMIN","UPDATED","14-00662602","MD","CLOSED","2014-09-25T14:36:00.000","2014-09-25T14:53:12.000","21216",NA,NA
"Cityworks SR Comments","W COLD SPRING LN & PIMLICO RD","BALTIMORE CITY","STREETL2","TRM-StLight Damaged/Knocked Down/Rusted","2014-09-02T21:25:15.000","2014-09-05T21:25:15.000","GREENSPRING","UPDATED","14-00660580","MD","CLOSED","2014-09-03T18:14:20.000","2014-09-03T18:48:03.000","21215",NA,NA
"Cityworks SR Comments","2803  HALCYON AVE","BALTIMORE CITY","STREETL2","TRM-StLight Damaged/Knocked Down/Rusted","2014-08-31T14:50:51.000","2014-09-03T14:50:51.000","LAURAVILLE","UPDATED","14-00656068","MD","CLOSED","2014-09-03T18:35:24.000","2014-09-03T18:48:03.000","21214",NA,NA
"Cityworks SR Comments","1843 E 30TH ST","BALTIMORE CITY","STREETL2","TRM-StLight Damaged/Knocked Down/Rusted","2014-08-28T23:09:22.000","2014-08-31T23:09:22.000","COLDSTREAM HOMESTEAD MONTEBELLO","UPDATED","14-00651407","MD","CLOSED","2014-08-29T17:45:10.000","2014-08-29T18:17:42.000","21218",NA,NA
"Cityworks SR Comments","600  BROOKWOOD RD","BALTIMORE CITY","STREETL2","TRM-StLight Damaged/Knocked Down/Rusted","2014-08-28T19:12:54.000","2014-08-31T19:12:54.000","HUNTING RIDGE","UPDATED","14-00650814","MD","CLOSED","2014-08-29T17:51:11.000","2014-08-29T18:17:42.000","21229",NA,NA
"Cityworks SR Comments","15 E EAGER ST","BALTIMORE CITY","STREETL2","TRM-StLight Damaged/Knocked Down/Rusted","2014-08-28T14:57:25.000","2014-08-31T14:57:25.000","MOUNT VERNON","UPDATED","14-00649761","MD","CLOSED","2014-08-29T17:48:45.000","2014-08-29T18:17:42.000","21202",NA,NA
"Cityworks SR Comments","N CHARLES ST &E 29TH ST","BALTIMORE CITY","STREETL2","TRM-StLight Damaged/Knocked Down/Rusted","2014-08-27T22:15:01.000","2014-08-30T22:15:01.000","CHARLES VILLAGE","UPDATED","14-00647888","MD","CLOSED","2014-08-28T18:27:31.000","2014-08-28T18:50:15.000","21218",NA,NA
"Cityworks SR Comments","CEDARCROFT RD & SYCAMORE RD","BALTIMORE CITY","STREETL2","TRM-StLight Damaged/Knocked Down/Rusted","2014-08-27T18:22:39.000","2014-08-30T18:22:39.000","CEDARCROFT","UPDATED","14-00647116","MD","CLOSED","2014-08-28T18:30:56.000","2014-08-28T18:50:15.000","21212",NA,NA
"Cityworks SR Comments","2401  LIBERTY HEIGHTS AVE","BALTIMORE CITY","STREETL2","TRM-StLight Damaged/Knocked Down/Rusted","2014-08-25T18:01:28.000","2014-08-28T18:01:28.000","MONDAWMIN","UPDATED","14-00640256","MD","CLOSED","2014-09-02T14:32:20.000","2014-09-02T15:17:22.000","21215",NA,NA
"Cityworks SR Comments","2401  GWYNNS FALLS PKWY","BALTIMORE CITY","STREETL2","TRM-StLight Damaged/Knocked Down/Rusted","2014-08-25T17:59:09.000","2014-08-28T17:59:09.000","MONDAWMIN","UPDATED","14-00640240","MD","CLOSED","2014-08-27T18:25:20.000","2014-08-27T18:53:24.000","21217",NA,NA
NA,"BOSTON ST","BALTIMORE CITY","STREETL2","TRM-StLight Damaged/Knocked Down/Rusted","2014-08-22T23:43:36.000","2014-08-25T23:43:36.000","GRACELAND PARK",NA,"14-00634979","MD","CLOSED","2014-08-25T14:49:48.000",NA,"21224",NA,NA
"Cityworks SR Comments","KEY HWY & COVINGTON ST","BALTIMORE CITY","STREETL2","TRM-StLight Damaged/Knocked Down/Rusted","2014-08-21T17:28:00.000","2014-08-24T17:28:00.000","FEDERAL HILL","UPDATED","14-00630689","MD","CLOSED","2014-08-29T12:14:52.000","2014-08-29T12:57:10.000","21202",NA,NA
"Cityworks SR Comments","ELMLEY AVE & EDISON HWY","BALTIMORE CITY","STREETL2","TRM-StLight Damaged/Knocked Down/Rusted","2014-08-20T17:38:48.000","2014-08-23T17:38:48.000","BELAIR-EDISON","UPDATED","14-00627276","MD","CLOSED","2014-08-21T17:49:52.000","2014-08-21T17:56:24.000","21213",NA,NA
"Cityworks SR Comments","3209 N HILTON ST","BALTIMORE CITY","STREETL2","TRM-StLight Damaged/Knocked Down/Rusted","2014-08-20T12:50:45.000","2014-08-23T12:50:45.000","FOREST PARK","UPDATED","14-00625957","MD","CLOSED","2014-08-21T17:49:07.000","2014-08-21T17:56:24.000","21216",NA,NA
"Cityworks SR Comments","5700  ENDERLY RD","BALTIMORE CITY","STREETL2","TRM-StLight Damaged/Knocked Down/Rusted","2014-08-19T18:01:29.000","2014-08-22T18:01:29.000","BELLONA-GITTINGS","UPDATED","14-00623836","MD","CLOSED","2014-08-22T11:00:51.000","2014-08-22T11:38:57.000","21212",NA,NA
"Cityworks SR Comments","344 S CLINTON ST","BALTIMORE CITY","STREETL2","TRM-StLight Damaged/Knocked Down/Rusted","2014-08-18T17:16:27.000","2014-08-21T17:16:27.000","HIGHLANDTOWN","UPDATED","14-00620149","MD","CLOSED","2014-08-20T20:16:11.000","2014-08-20T20:53:47.000","21224",NA,NA
"Cityworks SR Comments","1030  VALLEY ST","BALTIMORE CITY","STREETL2","TRM-StLight Damaged/Knocked Down/Rusted","2014-08-18T16:04:24.000","2014-08-21T16:04:24.000","JOHNSTON SQUARE","UPDATED","14-00619728","MD","CLOSED","2014-08-25T15:42:07.000","2014-08-25T16:16:21.000","21202",NA,NA
"Cityworks SR Comments","4427  LAPLATA AVE","BALTIMORE CITY","STREETL2","TRM-StLight Damaged/Knocked Down/Rusted","2014-08-18T14:32:40.000","2014-08-21T14:32:40.000","MEDFIELD","UPDATED","14-00619270","MD","CLOSED","2014-08-21T11:40:51.000","2014-08-21T12:13:14.000","21211",NA,NA
"Cityworks SR Comments","S CLINTON ST & BANK ST","BALTIMORE CITY","STREETL2","TRM-StLight Damaged/Knocked Down/Rusted","2014-08-17T14:31:23.000","2014-08-20T14:31:23.000","HIGHLANDTOWN","UPDATED","14-00616946","MD","CLOSED","2014-08-19T18:41:08.000","2014-08-19T19:22:46.000","21224",NA,NA
"Cityworks SR Comments","202 W PRATT ST","BALTIMORE CITY","STREETL2","TRM-StLight Damaged/Knocked Down/Rusted","2014-08-15T20:27:39.000","2014-08-18T20:27:39.000","INNER HARBOR","UPDATED","14-00614929","MD","CLOSED","2014-08-18T18:31:40.000","2014-08-18T18:42:32.000","21201",NA,NA
"Cityworks SR Comments","ELMLEY AVE & EDISON HWY","BALTIMORE CITY","STREETL2","TRM-StLight Damaged/Knocked Down/Rusted","2014-08-15T16:58:34.000","2014-08-18T16:58:34.000","BELAIR-EDISON","UPDATED","14-00614077","MD","CLOSED","2014-08-18T18:54:13.000","2014-08-18T19:24:02.000","21213",NA,NA
NA,"1111  HOLLINS ST","BALTIMORE CITY","STREETL2","TRM-StLight Damaged/Knocked Down/Rusted","2014-08-14T17:22:17.000","2014-08-17T17:22:17.000","HOLLINS MARKET",NA,"14-00610684","MD","DUPCLOSD","2014-08-14T17:22:17.000",NA,"21223",NA,NA
"Cityworks SR Comments","1117  HOLLINS ST","BALTIMORE CITY","STREETL2","TRM-StLight Damaged/Knocked Down/Rusted","2014-08-14T17:18:15.000","2014-08-17T17:18:15.000","HOLLINS MARKET","UPDATED","14-00610638","MD","CLOSED","2014-08-15T18:04:23.000","2014-08-15T18:25:56.000","21223",NA,NA
"Cityworks SR Comments","5408  SPRINGLAKE WAY","BALTIMORE CITY","STREETL2","TRM-StLight Damaged/Knocked Down/Rusted","2014-08-12T18:38:15.000","2014-08-15T18:38:15.000","HOMELAND","UPDATED","14-00603686","MD","CLOSED","2014-08-13T18:38:11.000","2014-08-13T19:20:07.000","21212",NA,NA
"Cityworks SR Comments","760  MCHENRY ST","BALTIMORE CITY","STREETL2","TRM-StLight Damaged/Knocked Down/Rusted","2014-08-12T12:14:45.000","2014-08-15T12:14:45.000","BARRE CIRCLE","UPDATED","14-00601621","MD","CLOSED","2014-08-19T12:21:03.000","2014-08-19T12:24:00.000","21230",NA,NA
"Cityworks SR Comments","838 N FULTON AVE","BALTIMORE CITY","STREETL2","TRM-StLight Damaged/Knocked Down/Rusted","2014-08-12T10:53:27.000","2014-08-15T10:53:27.000","HARLEM PARK","UPDATED","14-00601356","MD","CLOSED","2014-08-12T17:52:33.000","2014-08-12T18:03:53.000","21217",NA,NA
"Cityworks SR Comments","700  WICKLOW RD","BALTIMORE CITY","STREETL2","TRM-StLight Damaged/Knocked Down/Rusted","2014-08-11T13:31:45.000","2014-08-14T13:31:45.000","ROGNEL HEIGHTS","UPDATED","14-00598467","MD","CLOSED","2014-08-13T16:50:29.000","2014-08-13T17:15:12.000","21229",NA,NA
"Cityworks SR Comments","COPLEY RD & DORCHESTER RD","BALTIMORE CITY","STREETL2","TRM-StLight Damaged/Knocked Down/Rusted","2014-08-08T23:50:33.000","2014-08-11T23:50:33.000","ASHBURTON","UPDATED","14-00595192","MD","CLOSED","2014-08-12T11:00:50.000","2014-08-12T11:36:41.000","21215",NA,NA
NA,"6300  FAIRDEL AVE","BALTIMORE CITY","STREETL2","TRM-StLight Damaged/Knocked Down/Rusted","2014-08-06T18:08:30.000","2014-08-09T18:08:30.000","ROSEMONT EAST",NA,"14-00586793","MD","DUPCLOSD","2014-08-11T19:00:31.000",NA,"21206",NA,NA
"Cityworks SR Comments","6503  FAIRDEL AVE","BALTIMORE CITY","STREETL2","TRM-StLight Damaged/Knocked Down/Rusted","2014-08-06T17:57:28.000","2014-08-09T17:57:28.000","ROSEMONT EAST","UPDATED","14-00586728","MD","CLOSED","2014-08-08T18:23:05.000","2014-08-08T18:57:08.000","21206",NA,NA
NA,"6409  FAIRDEL AVE","BALTIMORE CITY","STREETL2","TRM-StLight Damaged/Knocked Down/Rusted","2014-08-06T17:55:11.000","2014-08-09T17:55:11.000","ROSEMONT EAST",NA,"14-00586718","MD","DUPCLOSD","2014-08-06T17:55:11.000",NA,"21206",NA,NA
NA,"6406  FAIRDEL AVE","BALTIMORE CITY","STREETL2","TRM-StLight Damaged/Knocked Down/Rusted","2014-08-06T17:49:58.000","2014-08-09T17:49:58.000","ROSEMONT EAST",NA,"14-00586699","MD","DUPCLOSD","2014-08-06T17:49:58.000",NA,"21206",NA,NA
NA,"6307  FAIRDEL AVE","BALTIMORE CITY","STREETL2","TRM-StLight Damaged/Knocked Down/Rusted","2014-08-06T17:27:11.000","2014-08-09T17:27:11.000","ROSEMONT EAST",NA,"14-00586589","MD","DUPCLOSD","2014-08-06T17:27:11.000",NA,"21206",NA,NA
"Cityworks SR Comments","6311  FAIRDEL AVE","BALTIMORE CITY","STREETL2","TRM-StLight Damaged/Knocked Down/Rusted","2014-08-06T17:15:22.000","2014-08-09T17:15:22.000","ROSEMONT EAST","UPDATED","14-00586524","MD","CLOSED","2014-08-08T18:27:12.000","2014-08-08T18:57:08.000","21206",NA,NA
"Cityworks SR Comments","4007  PRIMROSE AVE","BALTIMORE CITY","STREETL2","TRM-StLight Damaged/Knocked Down/Rusted","2014-08-06T11:28:09.000","2014-08-09T11:28:09.000","GLEN","UPDATED","14-00584867","MD","CLOSED","2014-08-07T18:50:36.000","2014-08-07T18:54:11.000","21215",NA,NA
"Cityworks SR Comments","1875  MANSION HOUSE DR","BALTIMORE CITY","STREETL2","TRM-StLight Damaged/Knocked Down/Rusted","2014-08-03T19:32:09.000","2014-08-06T19:32:09.000","DRUID HILL PARK","UPDATED","14-00576489","MD","CLOSED","2014-08-04T19:21:16.000","2014-08-04T19:48:52.000","21217",NA,NA
"Cityworks SR Comments","2400 N HILTON ST","BALTIMORE CITY","STREETL2","TRM-StLight Damaged/Knocked Down/Rusted","2014-08-02T06:21:05.000","2014-08-05T06:21:05.000","HANLON-LONGWOOD","UPDATED","14-00574487","MD","CLOSED","2014-08-04T17:52:50.000","2014-08-04T18:00:53.000","21216",NA,NA
"Cityworks SR Comments","760  MCHENRY ST","BALTIMORE CITY","STREETL2","TRM-StLight Damaged/Knocked Down/Rusted","2014-08-01T11:23:10.000","2014-08-04T11:23:10.000","BARRE CIRCLE","UPDATED","14-00571759","MD","CLOSED","2014-08-01T18:07:09.000","2014-08-01T18:16:28.000","21230",NA,NA
"Cityworks SR Comments","500  STAMFORD RD","BALTIMORE","STREETL2","TRM-StLight Damaged/Knocked Down/Rusted","2015-07-13T15:12:04.000","2015-07-16T15:12:04.000","TEN HILLS","UPDATED","15-00549407","MD","CLOSED","2015-07-14T18:09:59.000","2015-07-14T18:14:45.000","21229",NA,NA
"Cityworks SR Comments","HILLSDALE RD & OAKFORD AVE, BALTIMORE, M",NA,"STREETL2","TRM-StLight Damaged/Knocked Down/Rusted","2015-06-11T14:31:40.000","2015-06-14T14:31:40.000","WEST ARLINGTON","UPDATED","15-00454919","MD","CLOSED","2015-06-12T18:39:39.000","2015-06-12T18:46:22.000",NA,NA,NA
"Cityworks SR Comments","636  ARCHER ST","BALTIMORE","STREETL2","TRM-StLight Damaged/Knocked Down/Rusted","2015-06-12T00:22:25.000","2015-06-15T00:22:25.000","WASHINGTON VILLAGE","UPDATED","15-00456913","MD","CLOSED","2015-06-12T18:32:54.000","2015-06-12T18:36:21.000","21230",NA,NA
"Cityworks SR Comments","5108  ARDMORE WAY","BALTIMORE","STREETL2","TRM-StLight Damaged/Knocked Down/Rusted","2015-06-07T19:29:16.000","2015-06-10T19:29:16.000","WALTHERSON","UPDATED","15-00443936","MD","CLOSED","2015-06-08T19:20:24.000","2015-06-08T19:24:37.000","21206",NA,NA
"Cityworks SR Comments","523 S WOLFE ST","BALTIMORE","STREETL2","TRM-StLight Damaged/Knocked Down/Rusted","2015-07-29T15:40:18.000","2015-08-01T15:40:18.000","FELLS POINT","UPDATED","15-00600432","MD","CLOSED","2015-07-30T18:44:47.000","2015-07-30T18:51:27.000","21231",NA,NA
"Cityworks SR Comments","147 S LINWOOD AVE","BALTIMORE","STREETL2","TRM-StLight Damaged/Knocked Down/Rusted","2015-05-25T18:36:53.000","2015-05-28T18:36:53.000","BALTIMORE-LINWOOD","UPDATED","15-00406271","MD","CLOSED","2015-05-26T20:57:04.000","2015-05-26T21:02:56.000","21224",NA,NA
"Cityworks SR Comments","N CHESTER ST &E FEDERAL ST","BALTIMORE","STREETL2","TRM-StLight Damaged/Knocked Down/Rusted","2015-05-08T13:51:40.000","2015-05-11T13:51:40.000","BROADWAY EAST","UPDATED","15-00360327","MD","CLOSED","2015-05-12T12:46:47.000","2015-05-12T12:51:15.000","21213",NA,NA
"Cityworks SR Comments","2333  EASTERN AVE","BALTIMORE","STREETL2","TRM-StLight Damaged/Knocked Down/Rusted","2015-06-12T19:33:20.000","2015-06-15T19:33:20.000","CANTON","UPDATED","15-00459620","MD","CLOSED","2015-06-25T17:08:02.000","2015-06-25T17:12:01.000","21224",NA,NA
"Cityworks SR Comments","925 W 33RD ST","BALTIMORE","STREETL2","TRM-StLight Damaged/Knocked Down/Rusted","2015-05-08T16:42:15.000","2015-05-11T16:42:15.000","HAMPDEN","UPDATED","15-00361086","MD","CLOSED","2015-05-14T14:10:34.000","2015-05-14T14:22:42.000","21211",NA,NA
"Cityworks SR Comments","1200  SEMINOLE AVE","BALTIMORE","STREETL2","TRM-StLight Damaged/Knocked Down/Rusted","2015-06-25T12:37:56.000","2015-06-28T12:37:56.000","ROGNEL HEIGHTS","UPDATED","15-00497576","MD","CLOSED","2015-06-26T18:24:53.000","2015-06-26T18:32:18.000","21229",NA,NA
"Cityworks SR Comments","1000 S STREEPER ST","BALTIMORE","STREETL2","TRM-StLight Damaged/Knocked Down/Rusted","2015-06-01T16:36:01.000","2015-06-04T16:36:01.000","CANTON","UPDATED","15-00426929","MD","CLOSED","2015-06-03T14:09:32.000","2015-06-03T12:39:18.000","21224",NA,NA
"Cityworks SR Comments","5515  BOWLEYS LN","BALTIMORE","STREETL2","TRM-StLight Damaged/Knocked Down/Rusted","2015-07-31T11:51:37.000","2015-08-03T11:51:37.000","FRANKFORD","UPDATED","15-00605801","MD","CLOSED","2015-08-03T18:44:54.000","2015-08-03T18:54:13.000","21206",NA,NA
"Cityworks SR Comments","4125  KINSWAY","BALTIMORE","STREETL2","TRM-StLight Damaged/Knocked Down/Rusted","2015-08-04T19:29:36.000","2015-08-07T19:29:36.000","GLENHAM-BELFORD","UPDATED","15-00618486","MD","HOLDLOCK","2015-08-04T20:04:21.000","2015-08-04T19:45:03.000","21206",NA,NA
"Cityworks SR Comments","801 S BROADWAY","BALTIMORE","STREETL2","TRM-StLight Damaged/Knocked Down/Rusted","2015-05-19T14:13:45.000","2015-05-22T14:13:45.000","FELLS POINT","UPDATED","15-00392180","MD","CLOSED","2015-05-23T10:09:13.000","2015-05-23T10:20:45.000","21231",NA,NA
NA,"PARK AVE &W LEXINGTON ST","BALTIMORE","STREETL2","TRM-StLight Damaged/Knocked Down/Rusted","2015-05-23T12:08:49.000","2015-05-26T12:08:49.000","DOWNTOWN",NA,"15-00403098","MD","DUPCLOSD","2015-06-30T12:22:49.000",NA,"21201",NA,NA
"Cityworks SR Comments","1400  COOKSIE ST","BALTIMORE","STREETL2","TRM-StLight Damaged/Knocked Down/Rusted","2015-05-16T10:54:34.000","2015-05-19T10:54:34.000","LOCUST POINT","UPDATED","15-00384585","MD","CLOSED","2015-05-23T10:18:48.000","2015-05-23T10:30:16.000","21230",NA,NA
"Cityworks SR Comments","GREENMOUNT AVE & E 25TH ST, BALTIMORE, M",NA,"STREETL2","TRM-StLight Damaged/Knocked Down/Rusted","2015-06-09T17:43:30.000","2015-06-12T17:43:30.000","BETTER WAVERLY","UPDATED","15-00449283","MD","CLOSED","2015-06-10T19:04:16.000","2015-06-10T19:10:30.000",NA,NA,NA
"Cityworks SR Comments","7126  PARK HEIGHTS AVE","BALTIMORE","STREETL2","TRM-StLight Damaged/Knocked Down/Rusted","2015-06-26T14:26:50.000","2015-06-29T14:26:50.000","FALLSTAFF","UPDATED","15-00501577","MD","CLOSED","2015-06-30T10:44:04.000","2015-06-30T10:54:47.000","21215",NA,NA
"Cityworks SR Comments","S HILTON ST & W BALTIMORE ST, BALTIMORE,",NA,"STREETL2","TRM-StLight Damaged/Knocked Down/Rusted","2015-06-23T13:51:56.000","2015-06-26T13:51:56.000","CARROLL-SOUTH HILTON","UPDATED","15-00488820","MD","CLOSED","2015-06-25T17:09:17.000","2015-06-25T17:22:09.000",NA,NA,NA
"Cityworks SR Comments","HARFORD RD & HILLEN RD","BALTIMORE","STREETL2","TRM-StLight Damaged/Knocked Down/Rusted","2015-05-16T09:23:26.000","2015-05-19T09:23:26.000","COLDSTREAM HOMESTEAD MONTEBELLO","UPDATED","15-00384437","MD","CLOSED","2015-05-20T12:44:19.000","2015-05-20T12:47:50.000","21218",NA,NA
"Cityworks SR Comments","N HOWARD ST & W 21ST ST, BALTIMORE, MD,",NA,"STREETL2","TRM-StLight Damaged/Knocked Down/Rusted","2015-06-09T22:55:40.000","2015-06-12T22:55:40.000","CHARLES NORTH","UPDATED","15-00450165","MD","CLOSED","2015-06-10T19:02:49.000","2015-06-10T19:10:30.000",NA,NA,NA
"Cityworks SR Comments","ORLEANS ST &N BROADWAY","BALTIMORE","STREETL2","TRM-StLight Damaged/Knocked Down/Rusted","2015-05-21T18:56:20.000","2015-05-24T18:56:20.000","DUNBAR-BROADWAY","UPDATED","15-00399745","MD","CLOSED","2015-05-26T21:03:54.000","2015-05-26T21:12:38.000","21287",NA,NA
"Cityworks SR Comments","LUCIA AVE & YALE AVE, BALTIMORE, MD, 212",NA,"STREETL2","TRM-StLight Damaged/Knocked Down/Rusted","2015-08-03T20:10:57.000","2015-08-06T20:10:57.000","YALE HEIGHTS","UPDATED","15-00614561","MD","CLOSED","2015-08-04T18:46:25.000","2015-08-04T18:55:20.000",NA,NA,NA
"Cityworks SR Comments","502 S SHARP ST","BALTIMORE","STREETL2","TRM-StLight Damaged/Knocked Down/Rusted","2015-08-03T10:07:39.000","2015-08-06T10:07:39.000","OTTERBEIN","UPDATED","15-00610472","MD","CLOSED","2015-08-03T18:39:01.000","2015-08-03T18:44:19.000","21201",NA,NA
"Cityworks SR Comments","BOSTON ST & BROENING HWY, BALTIMORE, MD,",NA,"STREETL2","TRM-StLight Damaged/Knocked Down/Rusted","2015-07-08T19:27:03.000","2015-07-11T19:27:03.000","MEDFORD","UPDATED","15-00536724","MD","CLOSED","2015-07-09T17:46:06.000","2015-07-09T17:51:13.000",NA,NA,NA
"Cityworks SR Comments","349 N CALVERT ST","BALTIMORE","STREETL2","TRM-StLight Damaged/Knocked Down/Rusted","2015-06-13T13:05:51.000","2015-06-16T13:05:51.000","DOWNTOWN","UPDATED","15-00460427","MD","CLOSED","2015-06-16T18:28:32.000","2015-06-16T18:35:24.000","21202",NA,NA
"Cityworks SR Comments","LIBERTY HEIGHTS AVE & GWYNN OAK AVE, BAL",NA,"STREETL2","TRM-StLight Damaged/Knocked Down/Rusted","2015-07-24T20:12:57.000","2015-07-27T20:12:57.000","HOWARD PARK","UPDATED","15-00587458","MD","CLOSED","2015-07-28T13:48:24.000","2015-07-28T13:59:49.000",NA,NA,NA
"Cityworks SR Comments","N PULASKI ST & W FRANKLIN ST, BALTIMORE,",NA,"STREETL2","TRM-StLight Damaged/Knocked Down/Rusted","2015-06-17T20:10:38.000","2015-06-20T20:10:38.000","MIDTOWN-EDMONDSON","UPDATED","15-00474060","MD","CLOSED","2015-06-19T19:19:37.000","2015-06-19T19:27:28.000",NA,NA,NA
"Cityworks SR Comments","2400  WESTPORT ST","BALTIMORE","STREETL2","TRM-StLight Damaged/Knocked Down/Rusted","2015-06-20T01:05:24.000","2015-06-23T01:05:24.000","WESTPORT","UPDATED","15-00481178","MD","CLOSED","2015-06-23T20:23:30.000","2015-06-23T20:30:23.000","21230",NA,NA
"Cityworks SR Comments","ALHAMBRA AVE & RADNOR AVE, BALTIMORE, MD","BALTIMORE","STREETL2","TRM-StLight Damaged/Knocked Down/Rusted","2015-06-11T19:39:52.000","2015-06-14T19:39:52.000","RICHNOR SPRINGS","UPDATED","15-00456373","MD","CLOSED","2015-06-30T18:46:19.000","2015-06-30T18:55:18.000","21212",NA,NA
"Cityworks SR Comments","109 W LEE ST","BALTIMORE","STREETL2","TRM-StLight Damaged/Knocked Down/Rusted","2015-07-02T21:35:45.000","2015-07-05T21:35:45.000","OTTERBEIN","UPDATED","15-00521996","MD","CLOSED","2015-07-06T18:24:24.000","2015-07-06T18:29:21.000","21201",NA,NA
NA,"WENDOVER RD & GREENWAY","BALTIMORE","STREETL2","TRM-StLight Damaged/Knocked Down/Rusted","2015-04-15T11:07:44.000","2015-04-18T11:07:44.000","GUILFORD",NA,"15-00293314","MD","DUPCLOSD","2015-05-26T11:44:48.000",NA,"21218",NA,NA
"Cityworks SR Comments","6  SAINT PAUL ST","BALTIMORE","STREETL2","TRM-StLight Damaged/Knocked Down/Rusted","2015-07-06T11:57:24.000","2015-07-09T11:57:24.000","DOWNTOWN","UPDATED","15-00526429","MD","CLOSED","2015-07-07T18:48:39.000","2015-07-07T19:00:01.000","21202",NA,NA
"WO - Install New Pole","W 39TH ST & CANTERBURY RD","BALTIMORE","STREETL2","TRM-StLight Damaged/Knocked Down/Rusted","2015-05-19T13:31:58.000","2015-05-22T13:31:58.000","TUSCANY-CANTERBURY","CLOSED","15-00391852","MD","CLOSED","2015-05-23T10:21:07.000","2015-05-26T20:53:25.000","21210",NA,NA
"WO - Install New Pole","LIGHT ST &E PRATT ST","BALTIMORE","STREETL2","TRM-StLight Damaged/Knocked Down/Rusted","2015-05-20T11:01:23.000","2015-05-23T11:01:23.000","BALTIMORE HIGHLANDS","CLOSED","15-00394534","MD","CLOSED","2015-05-23T10:27:14.000","2015-05-26T20:28:57.000","21202",NA,NA
"Cityworks SR Comments","3100 N CHARLES ST","BALTIMORE","STREETL2","TRM-StLight Damaged/Knocked Down/Rusted","2015-06-07T18:41:05.000","2015-06-10T18:41:05.000","REMINGTON","UPDATED","15-00443606","MD","CLOSED","2015-06-10T18:42:28.000","2015-06-08T18:34:53.000","21211",NA,NA
"Cityworks SR Comments","HUDSON ST & S LUZERNE AVE, BALTIMORE, MD","baltimore","STREETL2","TRM-StLight Damaged/Knocked Down/Rusted","2015-07-10T06:55:02.000","2015-07-13T06:55:02.000","CANTON","UPDATED","15-00541356","MD","CLOSED","2015-07-11T10:20:57.000","2015-07-11T10:22:24.000","21224",NA,NA
"Cityworks SR Comments","5427  PEMBROKE AVE","BALTIMORE","STREETL2","TRM-StLight Damaged/Knocked Down/Rusted","2015-05-18T19:00:26.000","2015-05-21T19:00:26.000","WALTHERSON","UPDATED","15-00389924","MD","CLOSED","2015-05-20T12:42:19.000","2015-05-20T12:47:50.000","21206",NA,NA
"Cityworks SR Comments","100  LIGHT ST","BALTIMORE","STREETL2","TRM-StLight Damaged/Knocked Down/Rusted","2015-07-24T13:41:18.000","2015-07-27T13:41:18.000","INNER HARBOR","UPDATED","15-00585809","MD","CLOSED","2015-07-30T10:58:33.000","2015-07-30T11:01:17.000","21202",NA,NA
"Cityworks SR Comments","1518  HOLLINS ST","BALTIMORE","STREETL2","TRM-StLight Damaged/Knocked Down/Rusted","2015-06-11T22:00:58.000","2015-06-14T22:00:58.000","UNION SQUARE","UPDATED","15-00456733","MD","CLOSED","2015-06-12T18:26:44.000","2015-06-12T18:36:21.000","21223",NA,NA
"Cityworks SR Comments","3339 N CHARLES ST","BALTIMORE","STREETL2","TRM-StLight Damaged/Knocked Down/Rusted","2015-05-27T16:02:20.000","2015-05-30T16:02:20.000","CHARLES VILLAGE","UPDATED","15-00412738","MD","CLOSED","2015-05-28T19:26:22.000","2015-05-28T19:34:18.000","21218",NA,NA
"Cityworks SR Comments","MCCULLOH ST & W NORTH AVE, BALTIMORE, MD",NA,"STREETL2","TRM-StLight Damaged/Knocked Down/Rusted","2015-06-14T10:09:57.000","2015-06-17T10:09:57.000","DRUID HEIGHTS","UPDATED","15-00461389","MD","CLOSED","2015-06-16T18:41:13.000","2015-06-16T18:45:22.000",NA,NA,NA
"Cityworks SR Comments","THAMES ST & S BROADWAY, BALTIMORE, MD, 2","BALTIMORE","STREETL2","TRM-StLight Damaged/Knocked Down/Rusted","2015-06-24T12:33:20.000","2015-06-27T12:33:20.000","FELLS POINT","UPDATED","15-00492045","MD","CLOSED","2015-06-26T10:41:58.000","2015-06-26T10:51:56.000","21231",NA,NA
"Cityworks SR Comments","653 W PRATT ST","BALTIMORE","STREETL2","TRM-StLight Damaged/Knocked Down/Rusted","2015-07-14T17:38:11.000","2015-07-17T17:38:11.000","RIDGELY'S DELIGHT","UPDATED","15-00554176","MD","CLOSED","2015-07-15T18:23:27.000","2015-07-15T18:35:28.000","21230",NA,NA
"Cityworks SR Comments","WATERVIEW AVE & WESTPORT ST, BALTIMORE,",NA,"STREETL2","TRM-StLight Damaged/Knocked Down/Rusted","2015-07-31T21:19:48.000","2015-08-03T21:19:48.000","WESTPORT","UPDATED","15-00608137","MD","CLOSED","2015-08-03T18:46:07.000","2015-08-03T18:54:13.000",NA,NA,NA
"Cityworks SR Comments","E FEDERAL ST & EDISON HWY","BALTIMORE","STREETL2","TRM-StLight Damaged/Knocked Down/Rusted","2015-05-14T12:18:51.000","2015-05-17T12:18:51.000","ORANGEVILLE INDUSTRIAL AREA","UPDATED","15-00377869","MD","CLOSED","2015-05-29T13:11:31.000","2015-05-29T13:14:38.000","21213",NA,NA
"Cityworks SR Comments","100 E 31ST ST","BALTIMORE","STREETL2","TRM-StLight Damaged/Knocked Down/Rusted","2015-05-16T20:43:39.000","2015-05-19T20:43:39.000","CHARLES VILLAGE","UPDATED","15-00385450","MD","CLOSED","2015-05-19T19:26:40.000","2015-05-19T19:37:07.000","21218",NA,NA
"Cityworks SR Comments","654 W PRATT ST","BALTIMORE","STREETL2","TRM-StLight Damaged/Knocked Down/Rusted","2015-08-04T14:57:45.000","2015-08-07T14:57:45.000","UNIVERSITY OF MARYLAND","UPDATED","15-00617249","MD","CLOSED","2015-08-04T18:03:19.000","2015-08-04T18:15:15.000","21201",NA,NA
"WO - Install New Pole","425  YALE AVE","BALTIMORE","STREETL2","TRM-StLight Damaged/Knocked Down/Rusted","2015-07-06T10:25:21.000","2015-07-09T10:25:21.000","IRVINGTON","CLOSED","15-00525925","MD","CLOSED","2015-07-06T18:16:30.000","2015-07-22T19:30:55.000","21229",NA,NA
"Cityworks SR Comments","2001  MADISON AVE","BALTIMORE","STREETL2","TRM-StLight Damaged/Knocked Down/Rusted","2015-05-29T12:21:52.000","2015-06-01T12:21:52.000","MADISON PARK","UPDATED","15-00419447","MD","CLOSED","2015-06-03T13:41:58.000","2015-06-03T12:29:45.000","21217",NA,NA
"Cityworks SR Comments","LIBERTY HEIGHTS AVE & W NORTHERN PKWY, B",NA,"STREETL2","TRM-StLight Damaged/Knocked Down/Rusted","2015-06-18T11:54:00.000","2015-06-21T11:54:00.000","GROVE PARK","UPDATED","15-00474984","MD","CLOSED","2015-06-24T12:25:32.000","2015-06-24T12:30:47.000",NA,NA,NA
"Cityworks SR Comments","4500  SCARLET OAK LN","BALTIMORE","STREETL2","TRM-StLight Damaged/Knocked Down/Rusted","2015-05-26T16:54:31.000","2015-05-29T16:54:31.000","UPLANDS","UPDATED","15-00408862","MD","CLOSED","2015-05-27T20:31:12.000","2015-05-27T20:43:29.000","21229",NA,NA
"Cityworks SR Comments","100 N CALVERT ST","BALTIMORE","STREETL2","TRM-StLight Damaged/Knocked Down/Rusted","2015-05-27T14:25:25.000","2015-05-30T14:25:25.000","DOWNTOWN","UPDATED","15-00412190","MD","CLOSED","2015-05-28T19:29:26.000","2015-05-28T19:34:18.000","21202",NA,NA
"WO - Install New Pole","4900  SPRINGARDEN DR","BALTIMORE","STREETL2","TRM-StLight Damaged/Knocked Down/Rusted","2015-02-15T10:22:45.000","2015-02-18T10:22:45.000","COLDSPRING","CLOSED","15-00107539","MD","CLOSED","2015-02-18T20:45:00.000","2015-07-08T19:21:14.000","21209",NA,NA
"Cityworks SR Comments","2800  ORLEANS ST","BALTIMORE","STREETL2","TRM-StLight Damaged/Knocked Down/Rusted","2015-07-17T20:38:41.000","2015-07-20T20:38:41.000","MCELDERRY PARK","UPDATED","15-00565925","MD","CLOSED","2015-07-21T18:16:53.000","2015-07-21T18:24:52.000","21224",NA,NA
"Cityworks SR Comments","904 N CAREY ST","BALTIMORE","STREETL2","TRM-StLight Damaged/Knocked Down/Rusted","2015-05-17T03:21:07.000","2015-05-20T03:21:07.000","SANDTOWN-WINCHESTER","UPDATED","15-00385747","MD","CLOSED","2015-05-26T21:02:03.000","2015-05-26T21:12:38.000","21217",NA,NA
"Cityworks SR Comments","PARK HEIGHTS-PIMLICO & W COLD SPRING LN,",NA,"STREETL2","TRM-StLight Damaged/Knocked Down/Rusted","2015-08-01T05:52:22.000","2015-08-04T05:52:22.000","CENTRAL PARK HEIGHTS","UPDATED","15-00608592","MD","CLOSED","2015-08-03T18:42:39.000","2015-08-03T18:54:13.000",NA,NA,NA
"Cityworks SR Comments","PARKSIDE DR & BREHMS LN, BALTIMORE, MD,",NA,"STREETL2","TRM-StLight Damaged/Knocked Down/Rusted","2015-06-22T20:42:26.000","2015-06-25T20:42:26.000","PARKSIDE","UPDATED","15-00486908","MD","CLOSED","2015-06-24T19:10:23.000","2015-06-24T19:20:49.000",NA,NA,NA
"WO - Repair Streetlight Cable Fault","1900  THAMES ST","BALTIMORE","STREETL2","TRM-StLight Damaged/Knocked Down/Rusted","2015-06-17T18:00:20.000","2015-06-20T18:00:20.000","FELLS POINT","CLOSED","15-00473284","MD","CLOSED","2015-07-01T10:55:32.000","2015-07-01T18:57:59.000","21231",NA,NA
"Cityworks SR Comments","W NORTH AVE & MOUNT ROYAL TERR, BALTIMOR",NA,"STREETL2","TRM-StLight Damaged/Knocked Down/Rusted","2015-06-29T14:03:48.000","2015-07-02T14:03:48.000","BOLTON HILL","UPDATED","15-00507432","MD","CLOSED","2015-06-30T13:01:41.000","2015-06-30T13:05:09.000",NA,NA,NA
"Cityworks SR Comments","41 E CROSS ST","BALTIMORE","STREETL2","TRM-StLight Damaged/Knocked Down/Rusted","2015-06-09T11:02:24.000","2015-06-12T11:02:24.000","FEDERAL HILL","UPDATED","15-00447030","MD","CLOSED","2015-06-10T18:29:57.000","2015-06-10T18:40:25.000","21230",NA,NA
"Cityworks SR Comments","3420  MAYFIELD AVE","BALTIMORE","STREETL2","TRM-StLight Damaged/Knocked Down/Rusted","2015-05-28T15:13:03.000","2015-05-31T15:13:03.000","BELAIR-EDISON","UPDATED","15-00416594","MD","CLOSED","2015-06-03T14:27:38.000","2015-06-03T14:39:59.000","21213",NA,NA
"Cityworks SR Comments","FLEET ST & PRESIDENT ST, BALTIMORE, MD,",NA,"STREETL2","TRM-StLight Damaged/Knocked Down/Rusted","2015-06-16T14:04:18.000","2015-06-19T14:04:18.000","INNER HARBOR","UPDATED","15-00467774","MD","CLOSED","2015-07-01T11:47:11.000","2015-07-01T11:55:52.000",NA,NA,NA
"Cityworks SR Comments","1209 E NORTHERN PKWY","BALTIMORE","STREETL2","TRM-StLight Damaged/Knocked Down/Rusted","2015-07-11T07:16:53.000","2015-07-14T07:16:53.000","RAMBLEWOOD","UPDATED","15-00544774","MD","CLOSED","2015-07-13T18:17:55.000","2015-07-13T18:24:18.000","21239",NA,NA
"Cityworks SR Comments","E LOMBARD ST & LIGHT ST, BALTIMORE, MD,",NA,"STREETL2","TRM-StLight Damaged/Knocked Down/Rusted","2015-08-04T15:30:14.000","2015-08-07T15:30:14.000","INNER HARBOR","UPDATED","15-00617438","MD","HOLDLOCK","2015-08-04T20:04:21.000","2015-08-04T15:45:08.000",NA,NA,NA
"Cityworks SR Comments","E 22ND ST & HUNTER ST, BALTIMORE, MD, 21",NA,"STREETL2","TRM-StLight Damaged/Knocked Down/Rusted","2015-08-04T22:55:45.000","2015-08-07T22:55:45.000","BARCLAY","UPDATED","15-00618908","MD","LOCKED","2015-08-04T23:01:10.000","2015-08-04T23:05:13.000",NA,NA,NA
"Cityworks SR Comments","BANK ST & S CLINTON ST, BALTIMORE, MD, 2",NA,"STREETL2","TRM-StLight Damaged/Knocked Down/Rusted","2015-07-28T20:49:26.000","2015-07-31T20:49:26.000","HIGHLANDTOWN","UPDATED","15-00598057","MD","CLOSED","2015-08-03T18:31:15.000","2015-08-03T18:34:15.000",NA,NA,NA
"Cityworks SR Comments","3720  GREENSPRING AVE","BALTIMORE","STREETL2","TRM-StLight Damaged/Knocked Down/Rusted","2015-07-14T07:19:50.000","2015-07-17T07:19:50.000","PARK CIRCLE","UPDATED","15-00551616","MD","CLOSED","2015-07-14T18:11:31.000","2015-07-14T18:14:45.000","21211",NA,NA
"Cityworks SR Comments","1000 N MOUNT ST","BALTIMORE","STREETL2","TRM-StLight Damaged/Knocked Down/Rusted","2015-05-14T16:56:04.000","2015-05-17T16:56:04.000","SANDTOWN-WINCHESTER","UPDATED","15-00379278","MD","CLOSED","2015-05-18T16:58:23.000","2015-05-18T17:06:23.000","21217",NA,NA
"Cityworks SR Comments","PRESIDENT ST & E PRATT ST, BALTIMORE, MD",NA,"STREETL2","TRM-StLight Damaged/Knocked Down/Rusted","2015-07-27T05:33:05.000","2015-07-30T05:33:05.000","LITTLE ITALY","UPDATED","15-00591702","MD","CLOSED","2015-07-28T13:49:41.000","2015-07-28T13:59:49.000",NA,NA,NA
"Cityworks SR Comments","3229  GWYNNS FALLS PKWY","BALTIMORE","STREETL2","TRM-StLight Damaged/Knocked Down/Rusted","2015-07-14T20:12:33.000","2015-07-17T20:12:33.000","WALBROOK","UPDATED","15-00554757","MD","CLOSED","2015-07-20T15:09:13.000","2015-07-20T15:13:43.000","21216",NA,NA
"Cityworks SR Comments","300 S BROADWAY","BALTIMORE","STREETL2","TRM-StLight Damaged/Knocked Down/Rusted","2015-07-10T05:23:08.000","2015-07-13T05:23:08.000","FELLS POINT","UPDATED","15-00541341","MD","CLOSED","2015-07-11T10:22:17.000","2015-07-11T10:32:20.000","21231",NA,NA
NA,"1800  WALBROOK AVE","BALTIMORE","STREETL2","TRM-StLight Damaged/Knocked Down/Rusted","2015-03-16T16:53:26.000","2015-03-19T16:53:26.000","MONDAWMIN",NA,"15-00207309","MD","DUPCLOSD","2015-05-13T12:15:06.000",NA,"21217",NA,NA
"Cityworks SR Comments","COLVIN ST & ENSOR ST","BALTIMORE","STREETL2","TRM-StLight Damaged/Knocked Down/Rusted","2015-05-17T23:10:23.000","2015-05-20T23:10:23.000","OLDTOWN","UPDATED","15-00386769","MD","CLOSED","2015-05-19T11:00:51.000","2015-05-19T11:07:03.000","21202",NA,NA
"Cityworks SR Comments","700 N PACA ST","BALTIMORE","STREETL2","TRM-StLight Damaged/Knocked Down/Rusted","2015-07-13T19:35:50.000","2015-07-16T19:35:50.000","SETON HILL","UPDATED","15-00550705","MD","CLOSED","2015-07-14T18:52:42.000","2015-07-14T19:04:47.000",NA,NA,NA
"Cityworks SR Comments","400  YALE AVE","BALTIMORE","STREETL2","TRM-StLight Damaged/Knocked Down/Rusted","2015-06-08T16:20:29.000","2015-06-11T16:20:29.000","IRVINGTON","UPDATED","15-00444736","MD","CLOSED","2015-06-10T18:59:44.000","2015-06-10T19:10:30.000","21229",NA,NA
"Cityworks SR Comments","FREDHILTON PASS & FREDERICK AVE, BALTIMO",NA,"STREETL2","TRM-StLight Damaged/Knocked Down/Rusted","2015-06-09T05:47:13.000","2015-06-12T05:47:13.000","IRVINGTON","UPDATED","15-00446810","MD","CLOSED","2015-06-10T19:00:51.000","2015-06-10T19:10:30.000",NA,NA,NA
"WO - Install New Pole","4900 N CHARLES ST","BALTIMORE","STREETL2","TRM-StLight Damaged/Knocked Down/Rusted","2015-05-11T11:55:37.000","2015-05-14T11:55:37.000","BLYTHEWOOD","CLOSED","15-00366411","MD","CLOSED","2015-05-12T12:48:23.000","2015-06-02T09:46:55.000","21210",NA,NA
"Cityworks SR Comments","S HIGHLAND AVE & ELLIOTT ST, BALTIMORE,",NA,"STREETL2","TRM-StLight Damaged/Knocked Down/Rusted","2015-08-03T23:31:00.000","2015-08-06T23:31:00.000","CANTON","UPDATED","15-00615461","MD","HOLDLOCK","2015-08-04T11:02:39.000","2015-08-03T23:44:23.000",NA,NA,NA
"Cityworks SR Comments","101 W FAYETTE ST","BALTIMORE","STREETL2","TRM-StLight Damaged/Knocked Down/Rusted","2015-07-14T22:17:47.000","2015-07-17T22:17:47.000","DOWNTOWN","UPDATED","15-00555087","MD","CLOSED","2015-07-15T18:24:28.000","2015-07-15T18:35:28.000","21201",NA,NA
"Cityworks SR Comments","1415 E CLEMENT ST","BALTIMORE","STREETL2","TRM-StLight Damaged/Knocked Down/Rusted","2015-06-15T21:56:12.000","2015-06-18T21:56:12.000","LOCUST POINT","UPDATED","15-00466047","MD","CLOSED","2015-06-16T18:38:07.000","2015-06-16T18:45:22.000","21230",NA,NA
"WO - Install New Pole","101 W HILL ST","BALTIMORE","STREETL2","TRM-StLight Damaged/Knocked Down/Rusted","2015-05-15T23:57:47.000","2015-05-18T23:57:47.000","OTTERBEIN",NA,"15-00384078","MD","CLOSED","2015-05-19T10:58:14.000","2015-06-29T13:02:16.000","21230",NA,NA
"Cityworks SR Comments","S EXETER ST & LANCASTER ST, BALTIMORE, M",NA,"STREETL2","TRM-StLight Damaged/Knocked Down/Rusted","2015-06-10T21:43:41.000","2015-06-13T21:43:41.000","INNER HARBOR","UPDATED","15-00453383","MD","CLOSED","2015-06-11T18:52:46.000","2015-06-11T19:01:27.000",NA,NA,NA
"Cityworks SR Comments","400 E 26TH ST","BALTIMORE","STREETL2","TRM-StLight Damaged/Knocked Down/Rusted","2015-07-16T15:28:09.000","2015-07-19T15:28:09.000","HARWOOD","UPDATED","15-00561269","MD","CLOSED","2015-07-21T18:19:34.000","2015-07-21T18:24:52.000","21218",NA,NA
"WO - Install New Pole","400 W PRATT ST","BALTIMORE","STREETL2","TRM-StLight Damaged/Knocked Down/Rusted","2015-02-15T02:38:36.000","2015-02-18T02:38:36.000","INNER HARBOR","CLOSED","15-00107392","MD","CLOSED","2015-02-19T13:50:20.000","2015-07-08T19:22:16.000","21201",NA,NA
"Cityworks SR Comments","4009  SOUTHERN AVE","BALTIMORE","STREETL2","TRM-StLight Damaged/Knocked Down/Rusted","2015-07-22T13:22:50.000","2015-07-25T13:22:50.000","WILSON HEIGHTS","UPDATED","15-00577569","MD","CLOSED","2015-07-29T13:29:24.000","2015-07-29T13:40:57.000","21206",NA,NA
"Cityworks SR Comments","900 N CALVERT ST","BALTIMORE","STREETL2","TRM-StLight Damaged/Knocked Down/Rusted","2015-07-06T00:18:01.000","2015-07-09T00:18:01.000","MOUNT VERNON","UPDATED","15-00525780","MD","CLOSED","2015-07-06T18:04:26.000","2015-07-06T18:09:14.000","21202",NA,NA
"Cityworks SR Comments","WILLISTON ST & HAZLETT AVE, BALTIMORE, M",NA,"STREETL2","TRM-StLight Damaged/Knocked Down/Rusted","2015-06-24T12:30:23.000","2015-06-27T12:30:23.000","BEECHFIELD","UPDATED","15-00492014","MD","CLOSED","2015-07-01T16:04:38.000","2015-07-01T16:15:42.000",NA,NA,NA
"Cityworks SR Comments","606  SOMERSET RD","BALTIMORE","STREETL2","TRM-StLight Damaged/Knocked Down/Rusted","2015-06-08T00:53:08.000","2015-06-11T00:53:08.000","KESWICK","UPDATED","15-00444442","MD","CLOSED","2015-06-08T18:31:35.000","2015-06-08T18:34:53.000","21210",NA,NA
"Cityworks SR Comments","10  HOPKINS PL","BALTIMORE","STREETL2","TRM-StLight Damaged/Knocked Down/Rusted","2015-06-15T17:52:38.000","2015-06-18T17:52:38.000","DOWNTOWN","UPDATED","15-00465111","MD","CLOSED","2015-06-16T18:26:53.000","2015-06-16T18:35:24.000","21201",NA,NA
"Cityworks SR Comments","4800 W NORTHERN PKWY","BALTIMORE","STREETL2","TRM-StLight Damaged/Knocked Down/Rusted","2015-06-04T16:49:38.000","2015-06-07T16:49:38.000","SETON BUSINESS PARK","UPDATED","15-00437097","MD","CLOSED","2015-06-05T18:05:40.000","2015-06-05T18:11:12.000","21215",NA,NA
"Cityworks SR Comments","3339 N CHARLES ST","BALTIMORE","STREETL2","TRM-StLight Damaged/Knocked Down/Rusted","2015-08-03T17:37:47.000","2015-08-06T17:37:47.000","CHARLES VILLAGE","UPDATED","15-00613755","MD","CLOSED","2015-08-04T18:47:54.000","2015-08-04T18:55:20.000","21218",NA,NA
"Cityworks SR Comments","W MOUNT ROYAL AVE & W LANVALE ST, BALTIM",NA,"STREETL2","TRM-StLight Damaged/Knocked Down/Rusted","2015-06-07T19:23:59.000","2015-06-10T19:23:59.000","BOLTON HILL","UPDATED","15-00443923","MD","CLOSED","2015-06-08T18:32:40.000","2015-06-08T18:44:46.000",NA,NA,NA
"Cityworks SR Comments","6000  HIGHGATE DR","BALTIMORE","STREETL2","TRM-StLight Damaged/Knocked Down/Rusted","2015-06-20T15:02:09.000","2015-06-23T15:02:09.000","GLEN","UPDATED","15-00482240","MD","CLOSED","2015-06-24T18:42:44.000","2015-06-24T18:50:53.000","21215",NA,NA
"Cityworks SR Comments","2641  BERYL AVE","BALTIMORE","STREETL2","TRM-StLight Damaged/Knocked Down/Rusted","2015-07-22T18:29:15.000","2015-07-25T18:29:15.000","BIDDLE STREET","UPDATED","15-00579157","MD","CLOSED","2015-07-29T13:28:46.000","2015-07-29T13:40:57.000","21205",NA,NA
"Cityworks SR Comments","100 S LINWOOD AVE","BALTIMORE","STREETL2","TRM-StLight Damaged/Knocked Down/Rusted","2015-07-01T11:34:32.000","2015-07-04T11:34:32.000","PATTERSON PARK","UPDATED","15-00515396","MD","CLOSED","2015-07-06T18:03:29.000","2015-07-06T18:09:14.000","21224",NA,NA
"Cityworks SR Comments","N KOSSUTH ST & N HILTON ST, BALTIMORE, M",NA,"STREETL2","TRM-StLight Damaged/Knocked Down/Rusted","2015-06-23T13:52:20.000","2015-06-26T13:52:20.000","CARROLL-SOUTH HILTON","UPDATED","15-00488823","MD","CLOSED","2015-06-25T17:08:54.000","2015-06-25T17:12:01.000",NA,NA,NA
"Cityworks SR Comments","2000  PENNSYLVANIA AVE","BALTIMORE","STREETL2","TRM-StLight Damaged/Knocked Down/Rusted","2015-06-28T17:33:37.000","2015-07-01T17:33:37.000","UPTON","UPDATED","15-00505375","MD","CLOSED","2015-06-30T17:40:41.000","2015-06-30T17:45:21.000","21217",NA,NA
"Cityworks SR Comments","WINDEMERE AVE & THE ALAMEDA, BALTIMORE,",NA,"STREETL2","TRM-StLight Damaged/Knocked Down/Rusted","2015-06-28T16:01:41.000","2015-07-01T16:01:41.000","EDNOR GARDENS-LAKESIDE","UPDATED","15-00505248","MD","CLOSED","2015-06-30T10:48:50.000","2015-06-30T10:54:47.000",NA,NA,NA
"Cityworks SR Comments","11 E SARATOGA ST","BALTIMORE","STREETL2","TRM-StLight Damaged/Knocked Down/Rusted","2015-06-08T22:22:22.000","2015-06-11T22:22:22.000","DOWNTOWN","UPDATED","15-00446527","MD","CLOSED","2015-06-10T18:31:32.000","2015-06-10T18:40:25.000","21202",NA,NA
"WO - Install New Pole","S BROADWAY & LANCASTER ST, BALTIMORE, MD",NA,"STREETL2","TRM-StLight Damaged/Knocked Down/Rusted","2015-07-01T14:29:52.000","2015-07-04T14:29:52.000","FELLS POINT","CLOSED","15-00516482","MD","CLOSED","2015-07-02T11:24:35.000","2015-07-09T17:44:49.000",NA,NA,NA
"Cityworks SR Comments","HILLEN RD & E NORTHERN PKWY, BALTIMORE,","BALTIMORE","STREETL2","TRM-StLight Damaged/Knocked Down/Rusted","2015-06-13T09:17:25.000","2015-06-16T09:17:25.000","MT PLEASANT PARK","UPDATED","15-00460194","MD","CLOSED","2015-06-16T18:35:56.000","2015-06-16T18:45:22.000",NA,NA,NA
"Cityworks SR Comments","2801  ANNAPOLIS RD","BALTIMORE","STREETL2","TRM-StLight Damaged/Knocked Down/Rusted","2015-07-16T18:22:31.000","2015-07-19T18:22:31.000","LAKELAND","UPDATED","15-00562036","MD","CLOSED","2015-07-21T18:18:15.000","2015-07-21T18:24:52.000","21230",NA,NA
"Cityworks SR Comments","FRANKFORD AVE & BELAIR RD, BALTIMORE, MD","baltimore","STREETL2","TRM-StLight Damaged/Knocked Down/Rusted","2015-08-04T07:58:59.000","2015-08-07T07:58:59.000","WALTHERSON","UPDATED","15-00615699","MD","HOLDLOCK","2015-08-04T11:02:40.000","2015-08-04T08:14:36.000","21206",NA,NA
"Cityworks SR Comments","LEIGHTON AVE & W FOREST PARK AVE, BALTIM",NA,"STREETL2","TRM-StLight Damaged/Knocked Down/Rusted","2015-06-16T11:26:19.000","2015-06-19T11:26:19.000","BURLEITH-LEIGHTON","UPDATED","15-00466691","MD","CLOSED","2015-06-19T19:22:10.000","2015-06-19T19:27:28.000",NA,NA,NA
"WO - Install New Pole","1 N CHARLES ST","BALTIMORE","STREETL2","TRM-StLight Damaged/Knocked Down/Rusted","2015-07-28T20:11:50.000","2015-07-31T20:11:50.000","DOWNTOWN","CLOSED","15-00597992","MD","CLOSED","2015-07-30T10:57:08.000","2015-08-04T18:08:49.000","21201",NA,NA
"Cityworks SR Comments","5000 W FOREST PARK AVE","BALTIMORE","STREETL2","TRM-StLight Damaged/Knocked Down/Rusted","2015-07-29T19:41:48.000","2015-08-01T19:41:48.000","PURNELL","UPDATED","15-00601536","MD","CLOSED","2015-07-30T18:48:23.000","2015-07-30T18:51:27.000","21207",NA,NA
"Cityworks SR Comments","W BALTIMORE ST &N FULTON AVE","BALTIMORE","STREETL2","TRM-StLight Damaged/Knocked Down/Rusted","2015-05-17T06:42:58.000","2015-05-20T06:42:58.000","FRANKLIN SQUARE","UPDATED","15-00385757","MD","CLOSED","2015-05-19T10:55:32.000","2015-05-19T11:07:03.000","21223",NA,NA
"Cityworks SR Comments","S CHARLES ST &W LOMBARD ST","BALTIMORE","STREETL2","TRM-StLight Damaged/Knocked Down/Rusted","2015-05-12T16:04:59.000","2015-05-15T16:04:59.000","DOWNTOWN","UPDATED","15-00371115","MD","CLOSED","2015-05-14T14:09:28.000","2015-05-12T16:21:38.000","21201",NA,NA
