"activity","address","city","code","codedescription","createddate","duedate","neighborhood","servicerequestnum","state","status","statusdate","updateddate","zip","outcome","lon","lat"
"Dispatch lighting Inspector","2500  PARK HEIGHTS TER","BALTIMORE","STREETL6","TRM-StLighting Inadequate/too bright","2015-04-24T18:15:49.000","2015-06-03T18:15:49.000","GREENSPRING","15-00323107","MD","CLOSED","2015-04-29T12:03:44.000","2015-04-24T18:16:00.000","21215",NA,NA,NA
"Dispatch lighting Inspector","N CHARLES ST &E 33RD ST","BALTIMORE","STREETL6","TRM-StLighting Inadequate/too bright","2015-04-21T18:51:18.000","2015-05-31T18:51:18.000","CHARLES VILLAGE","15-00312253","MD","CLOSED","2015-04-23T18:10:21.000","2015-04-22T18:00:00.000","21218",NA,NA,NA
"Dispatch lighting Inspector","3926  ELM AVE","BALTIMORE","STREETL6","TRM-StLighting Inadequate/too bright","2015-04-16T16:57:24.000","2015-05-26T16:57:24.000","HAMPDEN","15-00299184","MD","CLOSED","2015-04-20T12:56:03.000","2015-04-20T12:55:00.000","21211",NA,NA,NA
NA,"3818  FOSTER AVE","BALTIMORE","STREETL6","TRM-StLighting Inadequate/too bright","2015-04-13T22:16:34.000","2015-05-23T22:16:34.000","BREWERS HILL","15-00289391","MD","CLOSED","2015-04-16T12:57:30.000",NA,"21224",NA,NA,NA
"Dispatch lighting Inspector","1800  DRUID HILL AVE","BALTIMORE","STREETL6","TRM-StLighting Inadequate/too bright","2015-04-13T18:14:01.000","2015-05-23T18:14:01.000","DRUID HEIGHTS","15-00288252","MD","CLOSED","2015-04-20T18:25:24.000","2015-04-20T18:25:00.000","21217",NA,NA,NA
NA,"3405  LAKE MONTEBELLO DR","BALTIMORE","STREETL6","TRM-StLighting Inadequate/too bright","2015-04-06T19:09:37.000","2015-05-16T19:09:37.000","MAYFIELD","15-00268607","MD","CLOSED","2015-04-07T11:45:05.000",NA,"21218",NA,NA,NA
"Dispatch lighting Inspector","3701 W FOREST PARK AVE","BALTIMORE","STREETL6","TRM-StLighting Inadequate/too bright","2015-04-05T13:12:46.000","2015-05-15T13:12:46.000","FOREST PARK","15-00265112","MD","CLOSED","2015-04-22T12:33:47.000","2015-04-22T12:33:00.000","21216",NA,NA,NA
NA,"2101  DOBLER AVE","BALTIMORE","STREETL6","TRM-StLighting Inadequate/too bright","2015-04-03T13:33:24.000","2015-05-13T13:33:24.000","MAYFIELD","15-00262486","MD","CLOSED","2015-04-23T18:24:40.000",NA,"21218",NA,NA,NA
NA,"3400  LAKE MONTEBELLO DR","BALTIMORE","STREETL6","TRM-StLighting Inadequate/too bright","2015-04-03T12:28:10.000","2015-05-13T12:28:10.000","MONTEBELLO","15-00262289","MD","CLOSED","2015-04-23T18:22:45.000",NA,"21218",NA,NA,NA
NA,"3516 N CALVERT ST","BALTIMORE","STREETL6","TRM-StLighting Inadequate/too bright","2015-04-02T16:03:47.000","2015-05-12T16:03:47.000","OAKENSHAWE","15-00259848","MD","CLOSED","2015-04-29T12:11:27.000",NA,"21218",NA,NA,NA
"Dispatch lighting Inspector","1105  COOKS LN","BALTIMORE","STREETL6","TRM-StLighting Inadequate/too bright","2015-03-29T15:27:16.000","2015-05-08T15:27:16.000","WEST HILLS","15-00247060","MD","CLOSED","2015-04-02T13:04:58.000","2015-03-31T13:06:00.000","21229",NA,NA,NA
"Dispatch lighting Inspector","N BEND RD & FREDERICK AVE","BALTIMORE","STREETL6","TRM-StLighting Inadequate/too bright","2015-03-27T13:23:55.000","2015-05-06T13:23:55.000","WESTGATE","15-00243099","MD","CLOSED","2015-04-06T12:46:25.000","2015-04-06T12:46:00.000","21229",NA,NA,NA
NA,"610 N CHESTER ST","BALTIMORE","STREETL6","TRM-StLighting Inadequate/too bright","2015-03-26T19:10:49.000","2015-05-05T19:10:49.000","MIDDLE EAST","15-00241051","MD","CLOSED","2015-03-31T18:43:51.000",NA,"21205",NA,NA,NA
NA,"3733  10TH ST","BALTIMORE","STREETL6","TRM-StLighting Inadequate/too bright","2015-03-25T20:01:58.000","2015-05-04T20:01:58.000","BROOKLYN","15-00237409","MD","CLOSED","2015-03-27T12:41:37.000",NA,"21225",NA,NA,NA
NA,"1700  DUNDALK AVE","BALTIMORE","STREETL6","TRM-StLighting Inadequate/too bright","2015-03-23T13:46:29.000","2015-05-02T13:46:29.000","BROENING MANOR","15-00228230","MD","CLOSED","2015-03-24T12:49:18.000",NA,"21222",NA,NA,NA
NA,"1900  BANK ST","BALTIMORE","STREETL6","TRM-StLighting Inadequate/too bright","2015-03-19T01:26:34.000","2015-04-28T01:26:34.000","UPPER FELLS POINT","15-00217547","MD","CLOSED","2015-03-25T13:05:37.000",NA,"21231",NA,NA,NA
"Dispatch lighting Inspector","3200  LEIGHTON AVE","BALTIMORE","STREETL6","TRM-StLighting Inadequate/too bright","2015-03-19T01:17:35.000","2015-04-28T01:17:35.000","BURLEITH-LEIGHTON","15-00217539","MD","CLOSED","2015-03-24T12:51:56.000","2015-03-23T11:11:00.000","21215",NA,NA,NA
"Dispatch lighting Inspector","5100  PARK HEIGHTS AVE","BALTIMORE","STREETL6","TRM-StLighting Inadequate/too bright","2015-03-12T13:28:56.000","2015-04-21T13:28:56.000","CENTRAL PARK HEIGHTS","15-00194424","MD","CLOSED","2015-03-13T12:28:21.000","2015-03-12T13:29:00.000","21215",NA,NA,NA
NA,"2516  HARFORD RD","BALTIMORE","STREETL6","TRM-StLighting Inadequate/too bright","2015-03-12T12:50:16.000","2015-04-21T12:50:16.000","COLDSTREAM HOMESTEAD MONTEBELLO","15-00194047","MD","CLOSED","2015-03-13T13:45:08.000",NA,"21218",NA,NA,NA
NA,"234 S CONKLING ST","BALTIMORE","STREETL6","TRM-StLighting Inadequate/too bright","2015-03-12T01:57:23.000","2015-04-21T01:57:23.000","HIGHLANDTOWN","15-00193299","MD","CLOSED","2015-03-12T13:58:18.000",NA,"21224",NA,NA,NA
NA,"801  PONTIAC AVE","BALTIMORE","STREETL6","TRM-StLighting Inadequate/too bright","2015-03-05T13:05:21.000","2015-04-14T13:05:21.000","BROOKLYN","15-00169675","MD","CLOSED","2015-03-13T12:22:09.000",NA,"21225",NA,NA,NA
NA,"4 N PRESIDENT ST","BALTIMORE","STREETL6","TRM-StLighting Inadequate/too bright","2015-02-26T04:49:59.000","2015-04-07T04:49:59.000","DOWNTOWN","15-00148135","MD","OPEN","2015-02-26T16:54:30.000",NA,"21202",NA,NA,NA
"Dispatch lighting Inspector","100 W OSTEND ST","BALTIMORE","STREETL6","TRM-StLighting Inadequate/too bright","2015-02-24T12:34:47.000","2015-04-05T12:34:47.000","SHARP-LEADENHALL","15-00141017","MD","CLOSED","2015-03-04T18:47:38.000","2015-03-04T18:47:00.000","21230",NA,NA,NA
"Dispatch lighting Inspector","1100  LEADENHALL ST","BALTIMORE","STREETL6","TRM-StLighting Inadequate/too bright","2015-02-24T12:34:02.000","2015-04-05T12:34:02.000","SHARP-LEADENHALL","15-00141011","MD","CLOSED","2015-03-11T12:15:14.000","2015-03-11T12:14:00.000","21230",NA,NA,NA
"Dispatch lighting Inspector","1100  RACE ST","BALTIMORE","STREETL6","TRM-StLighting Inadequate/too bright","2015-02-24T12:33:38.000","2015-04-05T12:33:38.000","SHARP-LEADENHALL","15-00141008","MD","CLOSED","2015-03-04T18:42:54.000","2015-03-04T18:42:00.000","21230",NA,NA,NA
"Dispatch lighting Inspector","4500  MAPLE WOOD DR","BALTIMORE","STREETL6","TRM-StLighting Inadequate/too bright","2015-02-21T08:37:30.000","2015-04-02T08:37:30.000","UPLANDS","15-00129421","MD","CLOSED","2015-02-23T17:27:23.000","2015-02-23T12:00:00.000","21229",NA,NA,NA
NA,"5500  BELLE AVE","BALTIMORE","STREETL6","TRM-StLighting Inadequate/too bright","2015-02-12T13:16:21.000","2015-03-24T13:16:21.000","GROVE PARK","15-00101331","MD","CLOSED","2015-02-13T14:03:55.000",NA,"21207",NA,NA,NA
"Dispatch lighting Inspector","3800  GELSTON DR","BALTIMORE","STREETL6","TRM-StLighting Inadequate/too bright","2015-02-11T21:10:03.000","2015-03-23T21:10:03.000","EDMONDSON VILLAGE","15-00100118","MD","CLOSED","2015-02-20T11:40:57.000","2015-02-20T11:40:00.000","21229",NA,NA,NA
"Dispatch lighting Inspector","1210  HOLLINS ST","BALTIMORE","STREETL6","TRM-StLighting Inadequate/too bright","2015-02-02T15:00:22.000","2015-03-14T15:00:22.000","HOLLINS MARKET","15-00074268","MD","CLOSED","2015-02-05T12:20:25.000","2015-02-05T12:19:00.000","21223",NA,NA,NA
NA,"1317  WEBSTER ST","BALTIMORE","STREETL6","TRM-StLighting Inadequate/too bright","2015-01-29T12:09:45.000","2015-03-10T12:09:45.000","RIVERSIDE","15-00065588","MD","CLOSED","2015-02-03T12:20:29.000",NA,"21230",NA,NA,NA
"Dispatch lighting Inspector","1141 E NORTHERN PKWY","BALTIMORE","STREETL6","TRM-StLighting Inadequate/too bright","2015-01-27T18:33:33.000","2015-03-08T18:33:33.000","GLEN OAKS","15-00061917","MD","CLOSED","2015-04-29T12:33:50.000","2015-01-29T12:35:00.000","21239",NA,NA,NA
NA,"505 N FREMONT AVE","BALTIMORE","STREETL6","TRM-StLighting Inadequate/too bright","2015-01-23T17:57:00.000","2015-03-04T17:57:00.000","HERITAGE CROSSING","15-00053524","MD","CLOSED","2015-01-28T12:05:21.000",NA,"21201",NA,NA,NA
"Dispatch lighting Inspector","1400  EUTAW PL","BALTIMORE","STREETL6","TRM-StLighting Inadequate/too bright","2015-01-22T12:06:30.000","2015-03-03T12:06:30.000","MADISON PARK","15-00048635","MD","CLOSED","2015-01-23T12:28:14.000","2015-01-22T12:07:00.000","21217",NA,NA,NA
NA,"1450  COOKSIE ST","BALTIMORE","STREETL6","TRM-StLighting Inadequate/too bright","2015-01-21T12:30:06.000","2015-03-02T12:30:06.000","LOCUST POINT","15-00046002","MD","CLOSED","2015-04-29T12:20:46.000",NA,"21230",NA,NA,NA
"Dispatch lighting Inspector","W 40TH ST & ROLAND AVE","BALTIMORE","STREETL6","TRM-StLighting Inadequate/too bright","2015-01-20T18:12:06.000","2015-03-01T18:12:06.000","ROLAND PARK","15-00044503","MD","CLOSED","2015-01-29T19:06:11.000","2015-01-22T11:59:00.000","21211",NA,NA,NA
"Dispatch lighting Inspector","MILFORD AVE & LIBERTY HEIGHTS AVE","BALTIMORE","STREETL6","TRM-StLighting Inadequate/too bright","2015-01-20T15:42:49.000","2015-03-01T15:42:49.000","HOWARD PARK","15-00043836","MD","CLOSED","2015-02-11T12:15:47.000","2015-01-29T18:57:00.000","21207",NA,NA,NA
"Dispatch lighting Inspector","6500  ARMSTRONG AVE","BALTIMORE","STREETL6","TRM-StLighting Inadequate/too bright","2015-01-20T15:25:05.000","2015-03-01T15:25:05.000","REISTERSTOWN STATION","15-00043743","MD","CLOSED","2015-04-29T12:17:30.000","2015-01-22T12:03:00.000","21215",NA,NA,NA
NA,"1700  ABBOTSTON ST","BALTIMORE","STREETL6","TRM-StLighting Inadequate/too bright","2015-01-20T13:06:32.000","2015-03-01T13:06:32.000","COLDSTREAM HOMESTEAD MONTEBELLO","15-00042666","MD","DUPCLOSD","2015-01-20T13:11:37.000",NA,"21218",NA,NA,NA
"Dispatch lighting Inspector","3324  BURLEITH AVE","BALTIMORE","STREETL6","TRM-StLighting Inadequate/too bright","2015-01-20T12:22:37.000","2015-03-01T12:22:37.000","BURLEITH-LEIGHTON","15-00042094","MD","CLOSED","2015-01-29T18:51:05.000","2015-01-29T18:50:00.000","21215",NA,NA,NA
"Dispatch lighting Inspector","CARLEVIEW RD &W FOREST PARK AVE","BALTIMORE","STREETL6","TRM-StLighting Inadequate/too bright","2015-01-19T11:15:17.000","2015-02-28T11:15:17.000","WEST FOREST PARK","15-00040018","MD","CLOSED","2015-01-20T12:07:52.000","2015-01-20T12:07:00.000","21207",NA,NA,NA
NA,"1700  ABBOTSTON ST","BALTIMORE","STREETL6","TRM-StLighting Inadequate/too bright","2015-01-15T16:14:47.000","2015-02-24T16:14:47.000","COLDSTREAM HOMESTEAD MONTEBELLO","15-00034139","MD","CLOSED","2015-01-20T13:11:37.000",NA,"21218",NA,NA,NA
"Dispatch lighting Inspector","251 S MORLEY ST","BALTIMORE","STREETL6","TRM-StLighting Inadequate/too bright","2015-01-15T15:59:23.000","2015-02-24T15:59:23.000","IRVINGTON","15-00034097","MD","CLOSED","2015-04-29T12:26:55.000","2015-01-16T11:25:00.000","21229",NA,NA,NA
NA,"234 S CONKLING ST","BALTIMORE","STREETL6","TRM-StLighting Inadequate/too bright","2015-01-15T12:36:55.000","2015-02-24T12:36:55.000","HIGHLANDTOWN","15-00032917","MD","CLOSED","2015-04-07T11:46:58.000",NA,"21224",NA,NA,NA
"Dispatch lighting Inspector","301  FONTHILL AVE","BALTIMORE","STREETL6","TRM-StLighting Inadequate/too bright","2015-01-12T15:14:05.000","2015-02-21T15:14:05.000","CARROLL-SOUTH HILTON","15-00025242","MD","CLOSED","2015-01-15T12:47:05.000","2015-01-15T12:45:00.000","21223",NA,NA,NA
"Dispatch lighting Inspector","623  JASPER ST","BALTIMORE","STREETL6","TRM-StLighting Inadequate/too bright","2015-01-12T13:46:09.000","2015-02-21T13:46:09.000","SETON HILL","15-00024912","MD","CLOSED","2015-02-24T19:02:55.000","2015-02-24T19:02:00.000","21201",NA,NA,NA
NA,"206 W COLD SPRING LN","BALTIMORE","STREETL6","TRM-StLighting Inadequate/too bright","2015-01-06T15:00:45.000","2015-02-15T15:00:45.000","EVERGREEN","15-00010768","MD","CLOSED","2015-01-07T14:02:55.000",NA,"21210",NA,NA,NA
NA,"206 W COLD SPRING LN","BALTIMORE","STREETL6","TRM-StLighting Inadequate/too bright","2015-01-06T13:55:28.000","2015-02-15T13:55:28.000","EVERGREEN","15-00010428","MD","CLOSED","2015-01-07T14:45:24.000",NA,"21210",NA,NA,NA
NA,"206 W COLD SPRING LN","BALTIMORE","STREETL6","TRM-StLighting Inadequate/too bright","2015-01-05T21:55:14.000","2015-02-14T21:55:14.000","EVERGREEN","15-00008929","MD","CLOSED","2015-01-07T14:06:24.000",NA,"21210",NA,NA,NA
NA,"216  KENDALL RD","BALTIMORE","STREETL6","TRM-StLighting Inadequate/too bright","2015-01-05T18:30:49.000","2015-02-14T18:30:49.000","EVERGREEN","15-00008271","MD","CLOSED","2015-01-07T13:48:08.000",NA,"21210",NA,NA,NA
"Dispatch lighting Inspector","206 W COLD SPRING LN","BALTIMORE","STREETL6","TRM-StLighting Inadequate/too bright","2015-01-05T14:40:24.000","2015-02-14T14:40:24.000","EVERGREEN","15-00007158","MD","CLOSED","2015-01-07T13:54:03.000","2015-01-07T11:58:00.000","21210",NA,NA,NA
NA,"200  HOMEWOOD TER","BALTIMORE","STREETL6","TRM-StLighting Inadequate/too bright","2014-12-30T11:14:47.000","2015-02-08T11:14:47.000","OAKENSHAWE","14-00964774","MD","CLOSED","2015-04-16T13:01:45.000",NA,"21218",NA,NA,NA
"Dispatch lighting Inspector","700 W 40TH ST","BALTIMORE","STREETL6","TRM-StLighting Inadequate/too bright","2014-12-29T17:14:02.000","2015-02-07T17:14:02.000","ROLAND PARK","14-00963762","MD","CLOSED","2015-01-21T12:54:59.000","2015-01-21T12:54:00.000","21211",NA,NA,NA
NA,"1728  DARLEY AVE","BALTIMORE","STREETL6","TRM-StLighting Inadequate/too bright","2014-12-29T14:40:24.000","2015-02-07T14:40:24.000","DARLEY PARK","14-00963262","MD","CLOSED","2014-12-30T11:43:30.000",NA,"21213",NA,NA,NA
NA,"MORELLO RD","BALTIMORE","STREETL6","TRM-StLighting Inadequate/too bright","2014-12-28T19:33:33.000","2015-02-06T19:33:33.000","LAURAVILLE","14-00961532","MD","CLOSED","2015-01-07T13:34:03.000",NA,"21214",NA,NA,NA
"Dispatch lighting Inspector","505 N FREMONT AVE","BALTIMORE","STREETL6","TRM-StLighting Inadequate/too bright","2014-12-12T22:28:54.000","2015-01-21T22:28:54.000","HERITAGE CROSSING","14-00930390","MD","CLOSED","2015-04-07T18:38:52.000","2015-04-07T18:38:00.000","21223",NA,NA,NA
NA,"5300  MAYVIEW AVE","BALTIMORE","STREETL6","TRM-StLighting Inadequate/too bright","2014-12-11T18:11:36.000","2015-01-20T18:11:36.000","FRANKFORD","14-00927257","MD","CLOSED","2014-12-12T19:11:53.000",NA,"21206",NA,NA,NA
NA,"5504  CRAIG AVE","BALTIMORE","STREETL6","TRM-StLighting Inadequate/too bright","2014-12-08T13:54:24.000","2015-01-17T13:54:24.000","MID-GOVANS","14-00916980","MD","CLOSED","2015-01-14T12:07:55.000",NA,"21212",NA,NA,NA
"Dispatch lighting Inspector","2533  SALEM ST","BALTIMORE","STREETL6","TRM-StLighting Inadequate/too bright","2014-12-04T19:51:19.000","2015-01-13T19:51:19.000","PENN NORTH","14-00910720","MD","CLOSED","2014-12-09T13:25:59.000","2014-12-09T13:25:00.000","21217",NA,NA,NA
"Dispatch lighting Inspector","4101  SUNNYSIDE AVE","BALTIMORE","STREETL6","TRM-StLighting Inadequate/too bright","2014-12-02T12:06:41.000","2015-01-11T12:06:41.000","REISTERSTOWN STATION","14-00902208","MD","CLOSED","2014-12-05T12:11:53.000","2014-12-03T12:00:00.000","21215",NA,NA,NA
NA,"540 S LEHIGH ST","BALTIMORE","STREETL6","TRM-StLighting Inadequate/too bright","2014-12-02T02:06:36.000","2015-01-11T02:06:36.000","GREEKTOWN","14-00901690","MD","CLOSED","2014-12-03T13:33:02.000",NA,"21224",NA,NA,NA
NA,"1745  CLIFTVIEW AVE","BALTIMORE","STREETL6","TRM-StLighting Inadequate/too bright","2014-11-27T11:34:25.000","2015-01-06T11:34:25.000","DARLEY PARK","14-00891775","MD","CLOSED","2015-03-04T12:29:04.000",NA,"21213",NA,NA,NA
"Dispatch lighting Inspector","2504  HURON ST","BALTIMORE","STREETL6","TRM-StLighting Inadequate/too bright","2014-11-21T14:21:33.000","2014-12-31T14:21:33.000","MOUNT WINANS","14-00878675","MD","CLOSED","2015-01-14T12:36:42.000","2014-11-24T11:52:00.000","21230",NA,NA,NA
NA,"1516  KINGSWAY RD","BALTIMORE","STREETL6","TRM-StLighting Inadequate/too bright","2014-11-20T17:05:20.000","2014-12-30T17:05:20.000","HILLEN","14-00876333","MD","CLOSED","2015-03-04T11:59:37.000",NA,"21218",NA,NA,NA
"Dispatch lighting Inspector","639 N EUTAW ST","BALTIMORE","STREETL6","TRM-StLighting Inadequate/too bright","2014-11-18T20:21:07.000","2014-12-28T20:21:07.000","MOUNT VERNON","14-00870425","MD","CLOSED","2014-11-24T13:02:49.000","2014-11-19T12:31:00.000","21201",NA,NA,NA
"Dispatch lighting Inspector","3608  BUENA VISTA AVE","BALTIMORE","STREETL6","TRM-StLighting Inadequate/too bright","2014-11-17T02:08:03.000","2014-12-27T02:08:03.000","HAMPDEN","14-00864272","MD","CLOSED","2015-01-14T13:52:36.000","2014-11-19T12:12:00.000","21211",NA,NA,NA
"Dispatch lighting Inspector","1708 W ROGERS AVE","BALTIMORE CITY","STREETL6","TRM-StLighting Inadequate/too bright","2014-11-14T18:57:10.000","2014-12-24T18:57:10.000","MOUNT WASHINGTON","14-00861354","MD","CLOSED","2015-01-28T18:13:44.000","2015-01-28T18:13:00.000","21209",NA,NA,NA
NA,"500  MCMECHEN ST","BALTIMORE CITY","STREETL6","TRM-StLighting Inadequate/too bright","2014-11-14T14:29:16.000","2014-12-24T14:29:16.000","UPTON","14-00860273","MD","CLOSED","2014-11-14T15:48:58.000",NA,"21217",NA,NA,NA
NA,"225  HOLLIDAY ST","BALTIMORE CITY","STREETL6","TRM-StLighting Inadequate/too bright","2014-11-14T12:42:12.000","2014-12-24T12:42:12.000","DOWNTOWN","14-00859784","MD","CLOSED","2015-01-14T17:58:46.000",NA,"21202",NA,NA,NA
NA,"1400  CARSWELL ST","BALTIMORE CITY","STREETL6","TRM-StLighting Inadequate/too bright","2014-11-13T12:55:11.000","2014-12-23T12:55:11.000","COLDSTREAM HOMESTEAD MONTEBELLO","14-00856844","MD","CLOSED","2014-11-17T12:43:11.000",NA,"21218",NA,NA,NA
NA,"1317  WEBSTER ST","BALTIMORE CITY","STREETL6","TRM-StLighting Inadequate/too bright","2014-11-11T20:21:47.000","2014-12-21T20:21:47.000","RIVERSIDE","14-00852010","MD","O-PENDNG","2015-01-05T16:33:01.000",NA,"21230",NA,NA,NA
NA,"831  GLENWOOD AVE","BALTIMORE CITY","STREETL6","TRM-StLighting Inadequate/too bright","2014-11-10T15:04:41.000","2014-12-20T15:04:41.000","WOODBOURNE-MCCABE","14-00848039","MD","CLOSED","2015-03-16T12:21:02.000",NA,"21212",NA,NA,NA
"Dispatch lighting Inspector","3641  ELM AVE","BALTIMORE CITY","STREETL6","TRM-StLighting Inadequate/too bright","2014-11-09T21:13:20.000","2014-12-19T21:13:20.000","HAMPDEN","14-00846349","MD","CLOSED","2015-03-09T11:56:26.000","2015-03-09T11:56:00.000","21211",NA,NA,NA
"Dispatch lighting Inspector","1112  CEDARCROFT RD","BALTIMORE CITY","STREETL6","TRM-StLighting Inadequate/too bright","2014-11-06T18:55:40.000","2014-12-16T18:55:40.000","GLEN OAKS","14-00839077","MD","CLOSED","2015-02-03T13:13:15.000","2015-02-02T12:24:00.000","21239",NA,NA,NA
NA,"1112  CEDARCROFT RD","BALTIMORE CITY","STREETL6","TRM-StLighting Inadequate/too bright","2014-11-06T18:53:33.000","2014-12-16T18:53:33.000","GLEN OAKS","14-00839060","MD","CLOSED","2014-11-12T18:46:17.000",NA,"21239",NA,NA,NA
NA,"3310  HARFORD RD","BALTIMORE CITY","STREETL6","TRM-StLighting Inadequate/too bright","2014-11-05T17:39:15.000","2014-12-15T17:39:15.000","MAYFIELD","14-00835198","MD","CLOSED","2015-01-14T12:44:48.000",NA,"21218",NA,NA,NA
NA,"521 S KENWOOD AVE","BALTIMORE CITY","STREETL6","TRM-StLighting Inadequate/too bright","2014-11-01T22:02:33.000","2014-12-11T22:02:33.000","CANTON","14-00823341","MD","CLOSED","2014-11-03T12:18:31.000",NA,"21224",NA,NA,NA
"Dispatch lighting Inspector","2105  DOBLER AVE","BALTIMORE CITY","STREETL6","TRM-StLighting Inadequate/too bright","2014-11-01T14:43:37.000","2014-12-11T14:43:37.000","MAYFIELD","14-00822292","MD","CLOSED","2015-01-13T12:26:08.000","2014-11-03T12:13:00.000","21218",NA,NA,NA
NA,"5300  WILLOWTON AVE","BALTIMORE CITY","STREETL6","TRM-StLighting Inadequate/too bright","2014-10-31T15:46:00.000","2014-12-10T15:46:00.000","PERRING LOCH","14-00820108","MD","CLOSED","2014-11-10T13:49:18.000",NA,"21239",NA,NA,NA
NA,"2300 W LEXINGTON ST","BALTIMORE CITY","STREETL6","TRM-StLighting Inadequate/too bright","2014-10-30T18:45:37.000","2014-12-09T18:45:37.000","PENROSE/FAYETTE STREET OUTREACH","14-00817389","MD","CLOSED","2014-10-31T13:04:54.000",NA,"21223",NA,NA,NA
"Dispatch lighting Inspector","1400 W BALTIMORE ST","BALTIMORE CITY","STREETL6","TRM-StLighting Inadequate/too bright","2014-10-29T18:36:13.000","2014-12-08T18:36:13.000","FRANKLIN SQUARE","14-00814309","MD","CLOSED","2014-12-04T12:42:37.000","2014-10-30T11:31:00.000","21223",NA,NA,NA
NA,"602 E 37TH ST","BALTIMORE CITY","STREETL6","TRM-StLighting Inadequate/too bright","2014-10-29T15:10:03.000","2014-12-08T15:10:03.000","WAVERLY","14-00813319","MD","CLOSED","2014-11-10T13:45:56.000",NA,"21218",NA,NA,NA
"Dispatch Work Crew","EASTERN AVE &S LEHIGH ST","BALTIMORE CITY","STREETL6","TRM-StLighting Inadequate/too bright","2014-10-28T16:32:37.000","2014-12-07T16:32:37.000","GREEKTOWN","14-00810569","MD","CLOSED","2015-04-29T12:07:35.000","2014-10-29T18:41:00.000","21224",NA,NA,NA
"Dispatch lighting Inspector","3329  CHESTNUT AVE","BALTIMORE CITY","STREETL6","TRM-StLighting Inadequate/too bright","2014-10-24T19:34:47.000","2014-12-03T19:34:47.000","HAMPDEN","14-00802706","MD","CLOSED","2014-11-18T13:56:02.000","2014-10-27T11:56:00.000","21211",NA,NA,NA
NA,"909  DARTMOUTHGLEN WAY","BALTIMORE CITY","STREETL6","TRM-StLighting Inadequate/too bright","2014-10-24T15:37:23.000","2014-12-03T15:37:23.000","CHINQUAPIN PARK-BELVEDERE","14-00801955","MD","CLOSED","2014-12-08T18:27:06.000",NA,"21212",NA,NA,NA
"Dispatch lighting Inspector","4200  ROLAND VIEW AVE","BALTIMORE CITY","STREETL6","TRM-StLighting Inadequate/too bright","2014-10-24T14:02:53.000","2014-12-03T14:02:53.000","GREENSPRING","14-00801589","MD","CLOSED","2014-10-30T18:59:46.000","2014-10-30T18:59:00.000","21215",NA,NA,NA
"Dispatch lighting Inspector","TANEY RD & GREENSPRING AVE","BALTIMORE CITY","STREETL6","TRM-StLighting Inadequate/too bright","2014-10-23T11:32:09.000","2014-12-02T11:32:09.000","CHESWOLDE","14-00797710","MD","CLOSED","2015-01-13T12:08:19.000","2014-10-23T19:00:00.000","21209",NA,NA,NA
NA,"3414  GUNTHER WAY","BALTIMORE CITY","STREETL6","TRM-StLighting Inadequate/too bright","2014-10-21T13:00:18.000","2014-11-30T13:00:18.000","CANTON","14-00791631","MD","CLOSED","2015-01-13T12:06:22.000",NA,"21224",NA,NA,NA
"Dispatch lighting Inspector","2010 W SARATOGA ST","BALTIMORE CITY","STREETL6","TRM-StLighting Inadequate/too bright","2014-10-21T08:22:05.000","2014-11-30T08:22:05.000","PENROSE/FAYETTE STREET OUTREACH","14-00791010","MD","CLOSED","2014-10-23T12:12:04.000","2014-10-23T12:11:00.000","21223",NA,NA,NA
NA,"3417 E PRATT ST","BALTIMORE CITY","STREETL6","TRM-StLighting Inadequate/too bright","2014-10-20T23:07:47.000","2014-11-29T23:07:47.000","BALTIMORE HIGHLANDS","14-00790860","MD","CLOSED","2015-01-13T12:17:01.000",NA,"21224",NA,NA,NA
"Dispatch lighting Inspector","2609  HUNTINGDON AVE","BALTIMORE CITY","STREETL6","TRM-StLighting Inadequate/too bright","2014-10-19T12:33:07.000","2014-11-28T12:33:07.000","REMINGTON","14-00786819","MD","CLOSED","2014-10-20T18:27:56.000","2014-10-20T18:27:00.000","21211",NA,NA,NA
NA,"18 N HIGH ST","BALTIMORE CITY","STREETL6","TRM-StLighting Inadequate/too bright","2014-10-17T11:21:07.000","2014-11-26T11:21:07.000","JONESTOWN","14-00782168","MD","CLOSED","2014-10-29T18:58:19.000",NA,"21202",NA,NA,NA
"Dispatch lighting Inspector","3410  PIEDMONT AVE","BALTIMORE CITY","STREETL6","TRM-StLighting Inadequate/too bright","2014-10-15T17:52:43.000","2014-11-24T17:52:43.000","HANLON-LONGWOOD","14-00777532","MD","CLOSED","2015-01-13T12:28:16.000","2015-01-13T12:28:00.000","21216",NA,NA,NA
"Dispatch lighting Inspector","2306  OSWEGO AVE","BALTIMORE CITY","STREETL6","TRM-StLighting Inadequate/too bright","2014-10-15T16:45:57.000","2014-11-24T16:45:57.000","GREENSPRING","14-00777281","MD","CLOSED","2014-12-23T12:24:09.000","2014-12-23T12:23:00.000","21215",NA,NA,NA
"Dispatch lighting Inspector","3600  ROLAND AVE","BALTIMORE CITY","STREETL6","TRM-StLighting Inadequate/too bright","2014-10-15T15:31:54.000","2014-11-24T15:31:54.000","HAMPDEN","14-00776931","MD","CLOSED","2015-01-12T12:22:50.000","2015-01-12T12:22:00.000","21211",NA,NA,NA
NA,"535 N CURLEY ST","BALTIMORE CITY","STREETL6","TRM-StLighting Inadequate/too bright","2014-10-15T13:33:09.000","2014-11-24T13:33:09.000","ELLWOOD PARK/MONUMENT","14-00776320","MD","CLOSED","2014-10-17T12:10:13.000",NA,"21205",NA,NA,NA
NA,"1 E MELROSE AVE","BALTIMORE CITY","STREETL6","TRM-StLighting Inadequate/too bright","2014-10-14T19:01:55.000","2014-11-23T19:01:55.000","HOMELAND","14-00774610","MD","CLOSED","2015-01-12T12:08:17.000",NA,"21212",NA,NA,NA
"Dispatch lighting Inspector","2705  GARRISON BLVD","BALTIMORE CITY","STREETL6","TRM-StLighting Inadequate/too bright","2014-10-14T13:33:35.000","2014-11-23T13:33:35.000","GARWYN OAKS","14-00773114","MD","CLOSED","2014-10-15T11:40:09.000","2014-10-15T11:39:00.000","21216",NA,NA,NA
"Dispatch lighting Inspector","1516  DRUID HILL AVE","BALTIMORE CITY","STREETL6","TRM-StLighting Inadequate/too bright","2014-10-10T18:17:04.000","2014-11-19T18:17:04.000","UPTON","14-00766780","MD","CLOSED","2015-04-07T11:44:08.000","2014-10-15T11:07:00.000","21217",NA,NA,NA
NA,"CLEARSPRING RD","BALTIMORE CITY","STREETL6","TRM-StLighting Inadequate/too bright","2014-10-09T18:41:13.000","2014-11-18T18:41:13.000","CHINQUAPIN PARK-BELVEDERE","14-00763608","MD","CLOSED","2015-01-23T13:39:58.000",NA,"21212",NA,NA,NA
NA,"1331 N ELLWOOD AVE","BALTIMORE CITY","STREETL6","TRM-StLighting Inadequate/too bright","2014-10-07T19:54:47.000","2014-11-16T19:54:47.000","BEREA","14-00756911","MD","CLOSED","2014-10-14T14:34:52.000",NA,"21213",NA,NA,NA
NA,"917  MONTPELIER ST","BALTIMORE CITY","STREETL6","TRM-StLighting Inadequate/too bright","2014-10-01T13:52:15.000","2014-11-10T13:52:15.000","BETTER WAVERLY","14-00739719","MD","CLOSED","2014-11-18T13:17:15.000",NA,"21218",NA,NA,NA
NA,"324  BROXTON RD","BALTIMORE CITY","STREETL6","TRM-StLighting Inadequate/too bright","2014-10-01T12:30:41.000","2014-11-10T12:30:41.000","HOMELAND","14-00739219","MD","CLOSED","2014-12-15T12:14:40.000",NA,"21212",NA,NA,NA
NA,"106  SAINT MARTINS RD","BALTIMORE CITY","STREETL6","TRM-StLighting Inadequate/too bright","2014-10-01T11:24:36.000","2014-11-10T11:24:36.000","GUILFORD","14-00738897","MD","CLOSED","2014-10-01T11:56:26.000",NA,"21218",NA,NA,NA
"Dispatch lighting Inspector","2920  SOUTHLAND AVE","BALTIMORE CITY","STREETL6","TRM-StLighting Inadequate/too bright","2014-09-30T19:56:32.000","2014-11-09T19:56:32.000","CHERRY HILL","14-00737818","MD","CLOSED","2014-12-23T12:19:49.000","2014-10-02T18:40:00.000","21225",NA,NA,NA
NA,"5600  READY AVE","BALTIMORE CITY","STREETL6","TRM-StLighting Inadequate/too bright","2014-09-30T18:22:07.000","2014-11-09T18:22:07.000","MID-GOVANS","14-00737410","MD","CLOSED","2014-12-23T12:10:50.000",NA,"21212",NA,NA,NA
NA,"BRENDAN AVE","BALTIMORE CITY","STREETL6","TRM-StLighting Inadequate/too bright","2014-09-30T17:06:55.000","2014-11-09T17:06:55.000","BELAIR-EDISON","14-00736975","MD","CLOSED","2015-01-12T12:05:38.000",NA,"21213",NA,NA,NA
NA,"GUILFORD AVE &E FEDERAL ST","BALTIMORE CITY","STREETL6","TRM-StLighting Inadequate/too bright","2014-09-30T16:53:33.000","2014-11-09T16:53:33.000","GREENMOUNT WEST","14-00736920","MD","CLOSED","2014-10-01T17:29:36.000",NA,"21202",NA,NA,NA
"Dispatch lighting Inspector","2013  GRIFFIS AVE","BALTIMORE CITY","STREETL6","TRM-StLighting Inadequate/too bright","2014-09-25T14:57:09.000","2014-11-04T14:57:09.000","MORRELL PARK","14-00724707","MD","CLOSED","2014-10-24T18:26:47.000","2014-09-26T11:37:00.000","21230",NA,NA,NA
"Dispatch lighting Inspector","700 N LONGWOOD ST","BALTIMORE CITY","STREETL6","TRM-StLighting Inadequate/too bright","2014-09-24T19:00:12.000","2014-11-03T19:00:12.000","FRANKLINTOWN ROAD","14-00722475","MD","CLOSED","2014-09-26T12:34:52.000","2014-09-26T12:34:00.000","21216",NA,NA,NA
NA,"4806  PILGRIM RD","BALTIMORE CITY","STREETL6","TRM-StLighting Inadequate/too bright","2014-09-24T18:03:33.000","2014-11-03T18:03:33.000","LAURAVILLE","14-00722199","MD","CLOSED","2014-10-17T11:57:53.000",NA,"21214",NA,NA,NA
NA,"6000  MORAVIA PARK DR","BALTIMORE CITY","STREETL6","TRM-StLighting Inadequate/too bright","2014-09-24T15:20:06.000","2014-11-03T15:20:06.000","FRANKFORD","14-00721468","MD","CLOSED","2014-09-26T18:53:45.000",NA,"21206",NA,NA,NA
"Dispatch lighting Inspector","853 N FRANKLINTOWN RD","BALTIMORE CITY","STREETL6","TRM-StLighting Inadequate/too bright","2014-09-23T21:21:42.000","2014-11-02T21:21:42.000","FRANKLINTOWN ROAD","14-00719241","MD","CLOSED","2014-09-25T12:00:55.000","2014-09-25T12:00:00.000","21216",NA,NA,NA
"Dispatch lighting Inspector","3012 W LANVALE ST","BALTIMORE CITY","STREETL6","TRM-StLighting Inadequate/too bright","2014-09-23T21:08:23.000","2014-11-02T21:08:23.000","FRANKLINTOWN ROAD","14-00719208","MD","CLOSED","2014-09-24T13:32:52.000","2014-09-24T13:32:00.000","21216",NA,NA,NA
"Dispatch lighting Inspector","3133  TILDEN DR","BALTIMORE CITY","STREETL6","TRM-StLighting Inadequate/too bright","2014-09-19T18:30:22.000","2014-10-29T18:30:22.000","HAMPDEN","14-00710021","MD","CLOSED","2015-01-09T11:37:24.000","2014-09-23T11:48:00.000","21211",NA,NA,NA
NA,"4000  LYNDALE AVE","BALTIMORE CITY","STREETL6","TRM-StLighting Inadequate/too bright","2014-09-18T19:23:54.000","2014-10-28T19:23:54.000","BELAIR-EDISON","14-00707015","MD","CLOSED","2014-11-18T13:49:37.000",NA,"21213",NA,NA,NA
"Dispatch lighting Inspector","3623  MILFORD AVE","BALTIMORE CITY","STREETL6","TRM-StLighting Inadequate/too bright","2014-09-18T16:38:42.000","2014-10-28T16:38:42.000","HOWARD PARK","14-00706212","MD","CLOSED","2014-09-24T18:25:14.000","2014-09-19T18:30:00.000","21207",NA,NA,NA
NA,"1322  HOMESTEAD ST","BALTIMORE CITY","STREETL6","TRM-StLighting Inadequate/too bright","2014-09-18T11:13:16.000","2014-10-28T11:13:16.000","COLDSTREAM HOMESTEAD MONTEBELLO","14-00704391","MD","CLOSED","2015-01-12T13:14:20.000",NA,"21218",NA,NA,NA
NA,"400 S EAST AVE","BALTIMORE CITY","STREETL6","TRM-StLighting Inadequate/too bright","2014-09-17T18:50:15.000","2014-10-27T18:50:15.000","HIGHLANDTOWN","14-00703307","MD","CLOSED","2014-09-25T13:52:26.000",NA,"21224",NA,NA,NA
"Dispatch lighting Inspector","S MARTIN LUTHER KING JR BLVD","BALTIMORE CITY","STREETL6","TRM-StLighting Inadequate/too bright","2014-09-17T10:11:56.000","2014-10-27T10:11:56.000","RIDGELY'S DELIGHT","14-00700944","MD","CLOSED","2014-09-25T18:49:39.000","2014-09-25T18:49:00.000","21201",NA,NA,NA
NA,"N BENTALOU ST &W LAFAYETTE AVE","BALTIMORE CITY","STREETL6","TRM-StLighting Inadequate/too bright","2014-09-15T16:50:16.000","2014-10-25T16:50:16.000","BRIDGEVIEW/GREENLAWN","14-00695758","MD","CLOSED","2014-09-16T12:30:08.000",NA,"21216",NA,NA,NA
NA,"1946  HOLLINS FERRY RD","BALTIMORE CITY","STREETL6","TRM-StLighting Inadequate/too bright","2014-09-15T16:02:11.000","2014-10-25T16:02:11.000","SAINT PAUL","14-00695484","MD","CLOSED","2015-02-24T18:56:28.000",NA,"21230",NA,NA,NA
NA,"3411  LAKE MONTEBELLO DR","BALTIMORE CITY","STREETL6","TRM-StLighting Inadequate/too bright","2014-09-15T00:31:37.000","2014-10-25T00:31:37.000","MAYFIELD","14-00693799","MD","CLOSED","2014-11-18T13:40:50.000",NA,"21218",NA,NA,NA
"Dispatch lighting Inspector","300 S LOUDON AVE","BALTIMORE CITY","STREETL6","TRM-StLighting Inadequate/too bright","2014-09-14T01:37:12.000","2014-10-24T01:37:12.000","IRVINGTON","14-00692911","MD","CLOSED","2014-09-16T12:53:01.000","2014-09-15T13:01:00.000","21229",NA,NA,NA
"Dispatch lighting Inspector","1434  MEDFIELD AVE","BALTIMORE","STREETL6","TRM-StLighting Inadequate/too bright","2014-09-11T01:08:39.000","2014-10-21T01:08:39.000","MEDFIELD","14-00684614","MD","CLOSED","2014-09-15T12:10:18.000","2014-09-11T12:02:00.000",NA,NA,NA,NA
"Dispatch lighting Inspector","W MULBERRY ST &N GREENE ST","BALTIMORE CITY","STREETL6","TRM-StLighting Inadequate/too bright","2014-09-04T14:44:39.000","2014-10-14T14:44:39.000","SETON HILL","14-00666643","MD","CLOSED","2014-09-05T12:23:36.000","2014-09-05T11:30:00.000","21201",NA,NA,NA
"Dispatch lighting Inspector","2501  TERRA FIRMA RD","BALTIMORE CITY","STREETL6","TRM-StLighting Inadequate/too bright","2014-09-03T15:28:10.000","2014-10-13T15:28:10.000","CHERRY HILL","14-00662821","MD","CLOSED","2015-04-06T18:28:51.000","2014-09-11T18:45:00.000","21225",NA,NA,NA
"Dispatch lighting Inspector","2401  TERRA FIRMA RD","BALTIMORE CITY","STREETL6","TRM-StLighting Inadequate/too bright","2014-09-03T15:26:56.000","2014-10-13T15:26:56.000","CHERRY HILL","14-00662817","MD","CLOSED","2014-11-14T12:11:16.000","2014-09-04T11:22:00.000","21225",NA,NA,NA
"Dispatch lighting Inspector","3000 W LANVALE ST","BALTIMORE CITY","STREETL6","TRM-StLighting Inadequate/too bright","2014-08-28T12:38:46.000","2014-10-07T12:38:46.000","FRANKLINTOWN ROAD","14-00648949","MD","CLOSED","2014-09-03T12:53:39.000","2014-09-03T12:53:00.000","21216",NA,NA,NA
"Dispatch lighting Inspector","3733  BEECH AVE","BALTIMORE CITY","STREETL6","TRM-StLighting Inadequate/too bright","2014-08-25T15:49:54.000","2014-10-04T15:49:54.000","WYMAN PARK","14-00639608","MD","CLOSED","2015-01-30T16:29:01.000","2015-01-30T16:23:00.000","21211",NA,NA,NA
NA,"1732 E CHASE ST","BALTIMORE CITY","STREETL6","TRM-StLighting Inadequate/too bright","2014-08-25T14:15:11.000","2014-10-04T14:15:11.000","MIDDLE EAST","14-00639021","MD","CLOSED","2014-11-06T12:52:31.000",NA,"21205",NA,NA,NA
NA,"1480  BOYLE ST","BALTIMORE CITY","STREETL6","TRM-StLighting Inadequate/too bright","2014-08-22T02:30:41.000","2014-10-01T02:30:41.000","RIVERSIDE","14-00631789","MD","CLOSED","2014-11-12T18:57:55.000",NA,"21230",NA,NA,NA
NA,"2406  MAYFIELD AVE","BALTIMORE CITY","STREETL6","TRM-StLighting Inadequate/too bright","2014-08-14T12:06:20.000","2014-09-23T12:06:20.000","MAYFIELD","14-00609069","MD","CLOSED","2014-08-15T11:44:03.000",NA,"21213",NA,NA,NA
NA,"5300  WILLOWTON AVE","BALTIMORE CITY","STREETL6","TRM-StLighting Inadequate/too bright","2014-08-14T11:52:46.000","2014-09-23T11:52:46.000","PERRING LOCH","14-00608998","MD","CLOSED","2014-08-25T12:42:57.000",NA,"21239",NA,NA,NA
"Dispatch lighting Inspector","1405  EUTAW PL","BALTIMORE CITY","STREETL6","TRM-StLighting Inadequate/too bright","2014-08-12T13:38:52.000","2014-09-21T13:38:52.000","BOLTON HILL","14-00602118","MD","CLOSED","2014-09-17T19:04:14.000","2014-09-17T19:03:00.000","21217",NA,NA,NA
"Dispatch lighting Inspector","WINTERBOURNE RD & NORTONIA RD","BALTIMORE CITY","STREETL6","TRM-StLighting Inadequate/too bright","2014-08-10T10:23:18.000","2014-09-19T10:23:18.000","FAIRMONT","14-00596672","MD","CLOSED","2014-12-22T12:23:06.000","2014-08-11T12:35:00.000","21216",NA,NA,NA
NA,"3700  PARKMONT AVE","BALTIMORE CITY","STREETL6","TRM-StLighting Inadequate/too bright","2014-08-09T13:02:58.000","2014-09-18T13:02:58.000","GLENHAM-BELFORD","14-00595843","MD","CLOSED","2014-08-25T12:40:40.000",NA,"21206",NA,NA,NA
"Dispatch lighting Inspector","CALLENDAR ST &W LOMBARD ST","BALTIMORE CITY","STREETL6","TRM-StLighting Inadequate/too bright","2014-08-07T19:03:14.000","2014-09-16T19:03:14.000","HOLLINS MARKET","14-00590978","MD","CLOSED","2014-09-09T11:34:36.000","2014-09-09T11:34:00.000","21201",NA,NA,NA
NA,"E PONTIAC AVE & 5TH ST","BALTIMORE CITY","STREETL6","TRM-StLighting Inadequate/too bright","2014-08-07T12:35:44.000","2014-09-16T12:35:44.000","BROOKLYN","14-00588821","MD","CLOSED","2014-08-08T18:27:38.000",NA,"21225",NA,NA,NA
"Dispatch lighting Inspector","4136  WELDON PL W","BALTIMORE CITY","STREETL6","TRM-StLighting Inadequate/too bright","2014-08-05T17:46:43.000","2014-09-14T17:46:43.000","MEDFIELD","14-00583042","MD","CLOSED","2014-08-22T12:43:49.000","2014-08-22T12:43:00.000","21211",NA,NA,NA
NA,"GUILFORD AVE &E 25TH ST","BALTIMORE CITY","STREETL6","TRM-StLighting Inadequate/too bright","2014-08-05T13:22:24.000","2014-09-14T13:22:24.000","HARWOOD","14-00581472","MD","CLOSED","2014-10-03T18:00:10.000",NA,"21218",NA,NA,NA
NA,"1107  MCDONOGH ST","BALTIMORE CITY","STREETL6","TRM-StLighting Inadequate/too bright","2014-08-05T12:13:07.000","2014-09-14T12:13:07.000","MIDDLE EAST","14-00580985","MD","CLOSED","2014-09-23T11:46:48.000",NA,"21213",NA,NA,NA
"Dispatch lighting Inspector","4838  PARK HEIGHTS AVE","BALTIMORE CITY","STREETL6","TRM-StLighting Inadequate/too bright","2014-08-04T15:15:03.000","2014-09-13T15:15:03.000","CENTRAL PARK HEIGHTS","14-00578661","MD","CLOSED","2014-08-06T19:06:39.000","2014-08-06T19:06:00.000","21215",NA,NA,NA
NA,"900  SAINT PAUL ST","BALTIMORE","STREETL6","TRM-StLighting Inadequate/too bright","2015-07-15T19:29:34.000","2015-08-24T19:29:34.000","MOUNT VERNON","15-00558262","MD","CLOSED","2015-07-17T13:03:40.000",NA,"21202",NA,NA,NA
NA,"4201  POWELL AVE","BALTIMORE","STREETL6","TRM-StLighting Inadequate/too bright","2015-06-12T01:11:57.000","2015-07-22T01:11:57.000","CEDMONT","15-00456960","MD","CLOSED","2015-06-22T14:36:59.000",NA,"21206",NA,NA,NA
NA,"1908  HARMAN AVE","BALTIMORE","STREETL6","TRM-StLighting Inadequate/too bright","2015-06-23T17:12:49.000","2015-08-02T17:12:49.000","MORRELL PARK","15-00489823","MD","CLOSED","2015-06-23T18:52:21.000",NA,NA,NA,NA,NA
"Cityworks SR Comments","3929  DUDLEY AVE","BALTIMORE","STREETL6","TRM-StLighting Inadequate/too bright","2015-07-21T20:05:13.000","2015-08-30T20:05:13.000","BELAIR-EDISON","15-00575773","MD","O-PENDNG","2015-07-29T12:23:26.000","2015-07-23T11:25:45.000","21213","UPDATED",NA,NA
NA,"1208 N CURLEY ST","BALTIMORE","STREETL6","TRM-StLighting Inadequate/too bright","2015-06-16T19:43:08.000","2015-07-26T19:43:08.000","BEREA","15-00469443","MD","CLOSED","2015-07-30T13:04:25.000",NA,"21213",NA,NA,NA
NA,"801  CHAUNCEY AVE","BALTIMORE","STREETL6","TRM-StLighting Inadequate/too bright","2015-04-02T13:37:31.000","2015-05-12T13:37:31.000","RESERVOIR HILL","15-00259205","MD","CLOSED","2015-07-01T13:03:16.000",NA,"21217",NA,NA,NA
NA,"100  LIGHT ST","BALTIMORE","STREETL6","TRM-StLighting Inadequate/too bright","2015-07-28T14:02:21.000","2015-09-06T14:02:21.000","INNER HARBOR","15-00596099","MD","CLOSED","2015-07-28T18:04:07.000",NA,"21202",NA,NA,NA
NA,"2522 E FAYETTE ST","BALTIMORE","STREETL6","TRM-StLighting Inadequate/too bright","2015-05-21T14:05:29.000","2015-06-30T14:05:29.000","MCELDERRY PARK","15-00398703","MD","CLOSED","2015-05-27T12:40:14.000",NA,"21224",NA,NA,NA
"Dispatch lighting Inspector","115 E NORTHERN PKWY","BALTIMORE","STREETL6","TRM-StLighting Inadequate/too bright","2015-06-11T17:42:47.000","2015-07-21T17:42:47.000","HOMELAND","15-00455737","MD","CLOSED","2015-06-22T14:32:20.000","2015-06-15T11:59:00.000","21212",NA,NA,NA
NA,"1908  HARMAN AVE","BALTIMORE","STREETL6","TRM-StLighting Inadequate/too bright","2015-06-24T16:03:36.000","2015-08-03T16:03:36.000","MORRELL PARK","15-00493491","MD","CLOSED","2015-06-24T17:37:51.000",NA,NA,NA,NA,NA
NA,"900 N KENWOOD AVE","BALTIMORE","STREETL6","TRM-StLighting Inadequate/too bright","2015-07-25T00:14:04.000","2015-09-03T00:14:04.000","MADISON-EASTEND","15-00587810","MD","O-PENDNG","2015-07-30T13:29:05.000",NA,"21205",NA,NA,NA
NA,"4420  YORK RD","BALTIMORE","STREETL6","TRM-StLighting Inadequate/too bright","2015-05-11T13:19:00.000","2015-06-20T13:19:00.000","GUILFORD","15-00366895","MD","CLOSED","2015-07-29T12:39:23.000",NA,"21212",NA,NA,NA
"Dispatch lighting Inspector","ANNELLEN RD & DOLFIELD AVE, BALTIMORE, M",NA,"STREETL6","TRM-StLighting Inadequate/too bright","2015-08-03T12:40:02.000","2015-09-12T12:40:02.000","ASHBURTON","15-00611298","MD","OPEN","2015-08-04T11:31:31.000","2015-08-04T11:31:00.000",NA,NA,NA,NA
NA,"1908  HARMAN AVE","BALTIMORE","STREETL6","TRM-StLighting Inadequate/too bright","2015-06-26T17:42:15.000","2015-08-05T17:42:15.000","MORRELL PARK","15-00502311","MD","CLOSED","2015-06-29T11:29:43.000",NA,NA,NA,NA,NA
NA,"1908  HARMAN AVE","BALTIMORE","STREETL6","TRM-StLighting Inadequate/too bright","2015-07-30T21:23:36.000","2015-09-08T21:23:36.000","MORRELL PARK","15-00605077","MD","CLOSED","2015-07-31T12:05:57.000",NA,NA,NA,NA,NA
NA,"501 N HIGHLAND AVE","BALTIMORE","STREETL6","TRM-StLighting Inadequate/too bright","2015-05-31T12:56:26.000","2015-07-10T12:56:26.000","ELLWOOD PARK/MONUMENT","15-00423987","MD","CLOSED","2015-06-02T12:29:56.000",NA,"21205",NA,NA,NA
NA,"1908  HARMAN AVE","BALTIMORE","STREETL6","TRM-StLighting Inadequate/too bright","2015-06-29T14:47:38.000","2015-08-08T14:47:38.000","MORRELL PARK","15-00507853","MD","CLOSED","2015-06-30T12:45:37.000",NA,NA,NA,NA,NA
NA,"3731  REISTERSTOWN RD","BALTIMORE","STREETL6","TRM-StLighting Inadequate/too bright","2015-07-24T16:54:18.000","2015-09-02T16:54:18.000","PARK CIRCLE","15-00586786","MD","CLOSED","2015-07-27T12:04:37.000",NA,"21215",NA,NA,NA
NA,"500  RAPPOLLA ST","BALTIMORE","STREETL6","TRM-StLighting Inadequate/too bright","2015-06-01T16:18:16.000","2015-07-11T16:18:16.000","GREEKTOWN","15-00426855","MD","CLOSED","2015-07-08T18:03:03.000",NA,"21224",NA,NA,NA
NA,"1908  HARMAN AVE","BALTIMORE","STREETL6","TRM-StLighting Inadequate/too bright","2015-08-02T14:56:52.000","2015-09-11T14:56:52.000","MORRELL PARK","15-00609944","MD","CLOSED","2015-08-03T12:23:07.000",NA,NA,NA,NA,NA
NA,"227 S BETHEL ST","BALTIMORE","STREETL6","TRM-StLighting Inadequate/too bright","2015-06-24T13:19:38.000","2015-08-03T13:19:38.000","FELLS POINT","15-00492370","MD","CLOSED","2015-06-26T18:03:02.000",NA,"21231",NA,NA,NA
NA,"1908  HARMAN AVE","BALTIMORE","STREETL6","TRM-StLighting Inadequate/too bright","2015-07-11T11:48:59.000","2015-08-20T11:48:59.000","MORRELL PARK","15-00545319","MD","CLOSED","2015-07-13T12:08:08.000",NA,NA,NA,NA,NA
"Dispatch lighting Inspector","N FULTON AVE & BAKER ST, BALTIMORE, MD,","baltimore","STREETL6","TRM-StLighting Inadequate/too bright","2015-06-24T22:08:44.000","2015-08-03T22:08:44.000","SANDTOWN-WINCHESTER","15-00495596","MD","CLOSED","2015-06-25T17:38:12.000","2015-06-25T17:37:00.000","21217",NA,NA,NA
NA,"BYRD ST &E RANDALL ST","BALTIMORE","STREETL6","TRM-StLighting Inadequate/too bright","2015-05-22T23:58:00.000","2015-07-01T23:58:00.000","RIVERSIDE","15-00402834","MD","CLOSED","2015-06-25T12:26:14.000",NA,"21230",NA,NA,NA
"Dispatch lighting Inspector","1000 N BRUCE ST","BALTIMORE","STREETL6","TRM-StLighting Inadequate/too bright","2015-07-17T12:36:44.000","2015-08-26T12:36:44.000","SANDTOWN-WINCHESTER","15-00563966","MD","O-PENDNG","2015-07-21T14:00:02.000","2015-07-17T12:42:00.000","21217",NA,NA,NA
NA,"1908  HARMAN AVE","BALTIMORE","STREETL6","TRM-StLighting Inadequate/too bright","2015-06-26T23:29:50.000","2015-08-05T23:29:50.000","MORRELL PARK","15-00503086","MD","CLOSED","2015-06-29T11:33:19.000",NA,NA,NA,NA,NA
NA,"1908  HARMAN AVE","BALTIMORE","STREETL6","TRM-StLighting Inadequate/too bright","2015-07-07T01:05:48.000","2015-08-16T01:05:48.000","MORRELL PARK","15-00529842","MD","CLOSED","2015-07-07T12:01:56.000",NA,NA,NA,NA,NA
NA,"1908  HARMAN AVE","BALTIMORE","STREETL6","TRM-StLighting Inadequate/too bright","2015-07-11T09:06:11.000","2015-08-20T09:06:11.000","MORRELL PARK","15-00544887","MD","CLOSED","2015-07-13T12:07:01.000",NA,NA,NA,NA,NA
NA,"1317  PONTIAC AVE","BALTIMORE","STREETL6","TRM-StLighting Inadequate/too bright","2015-07-17T14:30:55.000","2015-08-26T14:30:55.000","CURTIS BAY","15-00564573","MD","O-PENDNG","2015-07-21T12:25:52.000",NA,"21225",NA,NA,NA
"Dispatch lighting Inspector","1908  HARMAN AVE","BALTIMORE","STREETL6","TRM-StLighting Inadequate/too bright","2015-06-23T03:59:20.000","2015-08-02T03:59:20.000","MORRELL PARK","15-00487396","MD","O-PENDNG","2015-06-29T11:40:28.000","2015-06-23T12:53:00.000",NA,NA,NA,NA
NA,"3700  SAINT PAUL ST","BALTIMORE","STREETL6","TRM-StLighting Inadequate/too bright","2015-05-05T15:11:57.000","2015-06-14T15:11:57.000","GUILFORD","15-00350098","MD","CLOSED","2015-05-12T12:54:00.000",NA,"21218",NA,NA,NA
NA,"803  SHOWELL CT","BALTIMORE","STREETL6","TRM-StLighting Inadequate/too bright","2015-05-26T18:05:04.000","2015-07-05T18:05:04.000","JOHNSTON SQUARE","15-00409247","MD","CLOSED","2015-06-01T12:29:03.000",NA,"21202",NA,NA,NA
NA,"1908  HARMAN AVE","BALTIMORE","STREETL6","TRM-StLighting Inadequate/too bright","2015-07-13T16:54:07.000","2015-08-22T16:54:07.000","MORRELL PARK","15-00549966","MD","CLOSED","2015-07-14T12:36:06.000",NA,NA,NA,NA,NA
"Dispatch lighting Inspector","3727  REISTERSTOWN RD","BALTIMORE","STREETL6","TRM-StLighting Inadequate/too bright","2015-07-24T12:25:59.000","2015-09-02T12:25:59.000","PARK CIRCLE","15-00585239","MD","O-PENDNG","2015-07-30T12:51:40.000","2015-07-28T11:17:00.000","21215",NA,NA,NA
"Dispatch lighting Inspector","808 N HILTON ST","BALTIMORE","STREETL6","TRM-StLighting Inadequate/too bright","2015-06-25T13:55:36.000","2015-08-04T13:55:36.000","EDMONDSON VILLAGE","15-00498021","MD","O-PENDNG","2015-07-02T15:59:13.000","2015-06-26T12:02:00.000","21229",NA,NA,NA
NA,"1908  HARMAN AVE","BALTIMORE","STREETL6","TRM-StLighting Inadequate/too bright","2015-07-18T10:42:35.000","2015-08-27T10:42:35.000","MORRELL PARK","15-00566605","MD","CLOSED","2015-07-20T12:43:41.000",NA,NA,NA,NA,NA
"Dispatch lighting Inspector","2344  REISTERSTOWN RD","BALTIMORE","STREETL6","TRM-StLighting Inadequate/too bright","2015-05-11T23:39:07.000","2015-06-20T23:39:07.000","MONDAWMIN","15-00369275","MD","CLOSED","2015-06-02T14:05:43.000","2015-05-15T12:05:00.000","21217",NA,NA,NA
"Dispatch lighting Inspector","1908  HARMAN AVE","BALTIMORE","STREETL6","TRM-StLighting Inadequate/too bright","2015-06-24T19:19:27.000","2015-08-03T19:19:27.000","MORRELL PARK","15-00494807","MD","CLOSED","2015-06-25T11:55:40.000","2015-06-25T11:55:00.000",NA,NA,NA,NA
NA,"1908  HARMAN AVE","BALTIMORE","STREETL6","TRM-StLighting Inadequate/too bright","2015-07-27T14:34:02.000","2015-09-05T14:34:02.000","MORRELL PARK","15-00593070","MD","CLOSED","2015-07-27T17:18:05.000",NA,NA,NA,NA,NA
"Dispatch lighting Inspector","7 W MELROSE AVE","BALTIMORE","STREETL6","TRM-StLighting Inadequate/too bright","2015-06-18T13:31:09.000","2015-07-28T13:31:09.000","THE ORCHARDS","15-00475455","MD","O-PENDNG","2015-06-24T18:23:24.000","2015-06-19T18:04:00.000","21210",NA,NA,NA
"Dispatch lighting Inspector","606 N LOUDON AVE","BALTIMORE","STREETL6","TRM-StLighting Inadequate/too bright","2015-02-18T12:15:34.000","2015-03-30T12:15:34.000","EDMONDSON VILLAGE","15-00117382","MD","CLOSED","2015-07-01T13:04:59.000","2015-02-18T13:21:00.000","21229",NA,NA,NA
NA,"1025 N MOUNT ST","BALTIMORE","STREETL6","TRM-StLighting Inadequate/too bright","2015-07-23T18:33:18.000","2015-09-01T18:33:18.000","SANDTOWN-WINCHESTER","15-00583093","MD","O-PENDNG","2015-07-27T12:02:33.000",NA,"21217",NA,NA,NA
NA,"1908  HARMAN AVE","BALTIMORE","STREETL6","TRM-StLighting Inadequate/too bright","2015-06-29T02:11:59.000","2015-08-08T02:11:59.000","MORRELL PARK","15-00505880","MD","CLOSED","2015-06-29T11:36:07.000",NA,NA,NA,NA,NA
NA,"1908  HARMAN AVE","BALTIMORE","STREETL6","TRM-StLighting Inadequate/too bright","2015-07-26T14:14:19.000","2015-09-04T14:14:19.000","MORRELL PARK","15-00591032","MD","CLOSED","2015-07-27T11:53:32.000",NA,NA,NA,NA,NA
NA,"2457  WASHINGTON BLVD","BALTIMORE","STREETL6","TRM-StLighting Inadequate/too bright","2015-08-05T00:32:12.000","2015-09-14T00:32:12.000","MORRELL PARK","15-00619006","MD","DUPOPEN","2015-08-05T00:32:12.000",NA,NA,NA,NA,NA
"Dispatch lighting Inspector","5201  WILTON HEIGHTS AVE","BALTIMORE","STREETL6","TRM-StLighting Inadequate/too bright","2015-08-03T16:59:24.000","2015-09-12T16:59:24.000","ARLINGTON","15-00613565","MD","OPEN","2015-08-04T11:29:47.000","2015-08-04T19:35:00.000","21215",NA,NA,NA
NA,"1908  HARMAN AVE","BALTIMORE","STREETL6","TRM-StLighting Inadequate/too bright","2015-08-03T09:35:26.000","2015-09-12T09:35:26.000","MORRELL PARK","15-00610441","MD","CLOSED","2015-08-03T11:20:07.000",NA,NA,NA,NA,NA
NA,"1908  HARMAN AVE","BALTIMORE","STREETL6","TRM-StLighting Inadequate/too bright","2015-07-17T01:07:32.000","2015-08-26T01:07:32.000","MORRELL PARK","15-00562875","MD","CLOSED","2015-07-17T11:57:37.000",NA,NA,NA,NA,NA
NA,"FRANKFORD AVE & SCHAUB AVE","BALTIMORE","STREETL6","TRM-StLighting Inadequate/too bright","2015-06-05T12:13:35.000","2015-07-15T12:13:35.000","FRANKFORD","15-00440215","MD","CLOSED","2015-06-22T14:23:06.000",NA,"21206",NA,NA,NA
NA,"1908  HARMAN AVE","BALTIMORE","STREETL6","TRM-StLighting Inadequate/too bright","2015-07-08T09:04:56.000","2015-08-17T09:04:56.000","MORRELL PARK","15-00533545","MD","CLOSED","2015-07-08T11:43:09.000",NA,NA,NA,NA,NA
NA,"1908  HARMAN AVE","BALTIMORE","STREETL6","TRM-StLighting Inadequate/too bright","2015-07-05T09:09:02.000","2015-08-14T09:09:02.000","MORRELL PARK","15-00525014","MD","CLOSED","2015-07-06T12:13:06.000",NA,NA,NA,NA,NA
NA,"1700  RIGGS AVE","BALTIMORE","STREETL6","TRM-StLighting Inadequate/too bright","2015-07-17T12:17:15.000","2015-08-26T12:17:15.000","SANDTOWN-WINCHESTER","15-00563868","MD","CLOSED","2015-07-17T13:26:57.000",NA,"21217",NA,NA,NA
"Dispatch lighting Inspector","4201  LINKWOOD RD","BALTIMORE","STREETL6","TRM-StLighting Inadequate/too bright","2015-06-08T16:55:28.000","2015-07-18T16:55:28.000","TUSCANY-CANTERBURY","15-00444912","MD","OPEN","2015-07-31T11:27:26.000","2015-06-09T11:44:00.000","21210",NA,NA,NA
NA,"220 E 23RD ST","BALTIMORE","STREETL6","TRM-StLighting Inadequate/too bright","2015-05-23T02:12:24.000","2015-07-02T02:12:24.000","BARCLAY","15-00402970","MD","CLOSED","2015-05-27T12:17:10.000",NA,"21218",NA,NA,NA
NA,"617  LENNOX ST","BALTIMORE","STREETL6","TRM-StLighting Inadequate/too bright","2015-07-01T03:43:13.000","2015-08-10T03:43:13.000","RESERVOIR HILL","15-00514641","MD","CLOSED","2015-07-27T12:05:40.000",NA,"21217",NA,NA,NA
NA,"17 N LINWOOD AVE","BALTIMORE","STREETL6","TRM-StLighting Inadequate/too bright","2015-06-18T13:38:50.000","2015-07-28T13:38:50.000","BALTIMORE-LINWOOD","15-00475505","MD","O-PENDNG","2015-06-24T18:20:10.000",NA,"21224",NA,NA,NA
NA,"1908  HARMAN AVE","BALTIMORE","STREETL6","TRM-StLighting Inadequate/too bright","2015-06-30T01:21:14.000","2015-08-09T01:21:14.000","MORRELL PARK","15-00510920","MD","CLOSED","2015-06-30T12:46:41.000",NA,NA,NA,NA,NA
NA,"1908  HARMAN AVE","BALTIMORE","STREETL6","TRM-StLighting Inadequate/too bright","2015-07-05T23:53:44.000","2015-08-14T23:53:44.000","MORRELL PARK","15-00525759","MD","CLOSED","2015-07-06T12:14:14.000",NA,NA,NA,NA,NA
NA,"200  HOMEWOOD TER","BALTIMORE","STREETL6","TRM-StLighting Inadequate/too bright","2015-06-15T15:51:26.000","2015-07-25T15:51:26.000","OAKENSHAWE","15-00464356","MD","O-PENDNG","2015-07-29T11:59:32.000",NA,"21218",NA,NA,NA
"Dispatch lighting Inspector","3025  WINDSOR AVE","BALTIMORE","STREETL6","TRM-StLighting Inadequate/too bright","2015-07-14T16:51:16.000","2015-08-23T16:51:16.000","WALBROOK","15-00554006","MD","CLOSED","2015-07-28T18:38:13.000","2015-07-28T18:37:00.000","21216",NA,NA,NA
NA,"1908  HARMAN AVE","BALTIMORE","STREETL6","TRM-StLighting Inadequate/too bright","2015-07-13T00:13:29.000","2015-08-22T00:13:29.000","MORRELL PARK","15-00547193","MD","CLOSED","2015-07-13T12:10:39.000",NA,NA,NA,NA,NA
"Dispatch lighting Inspector","300 S GILMOR ST","BALTIMORE","STREETL6","TRM-StLighting Inadequate/too bright","2015-07-10T18:02:25.000","2015-08-19T18:02:25.000","NEW SOUTHWEST/MOUNT CLARE","15-00543824","MD","CLOSED","2015-07-15T12:32:05.000","2015-07-15T12:31:00.000","21223",NA,NA,NA
NA,"16 N CURLEY ST","BALTIMORE","STREETL6","TRM-StLighting Inadequate/too bright","2015-06-18T13:23:11.000","2015-07-28T13:23:11.000","BALTIMORE-LINWOOD","15-00475420","MD","CLOSED","2015-06-19T17:15:09.000",NA,"21224",NA,NA,NA
NA,"3703  SAINT PAUL ST","BALTIMORE","STREETL6","TRM-StLighting Inadequate/too bright","2015-07-20T11:19:27.000","2015-08-29T11:19:27.000","GUILFORD","15-00569134","MD","CLOSED","2015-07-22T14:29:48.000",NA,"21218",NA,NA,NA
"Dispatch lighting Inspector","5411  LOTHIAN RD","BALTIMORE","STREETL6","TRM-StLighting Inadequate/too bright","2015-05-18T14:46:09.000","2015-06-27T14:46:09.000","CAMERON VILLAGE","15-00388726","MD","CLOSED","2015-07-28T11:15:20.000","2015-07-28T11:13:00.000","21212","Closed",NA,NA
NA,"1908  HARMAN AVE","BALTIMORE","STREETL6","TRM-StLighting Inadequate/too bright","2015-07-25T11:42:52.000","2015-09-03T11:42:52.000","MORRELL PARK","15-00588623","MD","CLOSED","2015-07-27T11:54:53.000",NA,NA,NA,NA,NA
NA,"1908  HARMAN AVE","BALTIMORE","STREETL6","TRM-StLighting Inadequate/too bright","2015-07-30T16:00:21.000","2015-09-08T16:00:21.000","MORRELL PARK","15-00603965","MD","CLOSED","2015-07-31T12:07:16.000",NA,NA,NA,NA,NA
NA,"500 S CURLEY ST","BALTIMORE","STREETL6","TRM-StLighting Inadequate/too bright","2015-06-30T17:10:26.000","2015-08-09T17:10:26.000","CANTON","15-00513355","MD","CLOSED","2015-07-07T17:09:16.000",NA,"21224",NA,NA,NA
"Dispatch lighting Inspector","1900  HOLLINS ST","BALTIMORE","STREETL6","TRM-StLighting Inadequate/too bright","2015-06-25T13:35:43.000","2015-08-04T13:35:43.000","BOOTH-BOYD","15-00497912","MD","O-PENDNG","2015-07-06T12:16:16.000","2015-06-26T12:06:00.000","21223",NA,NA,NA
"Dispatch lighting Inspector","4200  ROLAND VIEW AVE","BALTIMORE","STREETL6","TRM-StLighting Inadequate/too bright","2015-07-13T13:13:59.000","2015-08-22T13:13:59.000","GREENSPRING","15-00548543","MD","CLOSED","2015-07-17T12:59:21.000","2015-07-17T12:15:00.000","21215",NA,NA,NA
NA,"1908  HARMAN AVE","BALTIMORE","STREETL6","TRM-StLighting Inadequate/too bright","2015-07-29T20:22:50.000","2015-09-07T20:22:50.000","MORRELL PARK","15-00601643","MD","CLOSED","2015-07-30T13:12:33.000",NA,NA,NA,NA,NA
"Dispatch lighting Inspector","1000 N BRUCE-MOUNT","BALTIMORE","STREETL6","TRM-StLighting Inadequate/too bright","2015-07-17T12:03:21.000","2015-08-26T12:03:21.000","SANDTOWN-WINCHESTER","15-00563813","MD","CLOSED","2015-07-17T12:32:13.000","2015-07-17T12:12:00.000","21217",NA,NA,NA
"Dispatch lighting Inspector","4100  GREENSPRING AVE","BALTIMORE","STREETL6","TRM-StLighting Inadequate/too bright","2015-07-30T14:18:26.000","2015-09-08T14:18:26.000","GREENSPRING","15-00603210","MD","O-WIP","2015-08-04T13:40:04.000","2015-08-03T19:05:00.000","21209",NA,NA,NA
NA,"5929  GLENOAK AVE","BALTIMORE","STREETL6","TRM-StLighting Inadequate/too bright","2015-06-25T01:07:32.000","2015-08-04T01:07:32.000","GLENHAM-BELFORD","15-00496163","MD","O-PENDNG","2015-06-25T11:39:44.000",NA,"21214",NA,NA,NA
NA,"1908  HARMAN AVE","BALTIMORE","STREETL6","TRM-StLighting Inadequate/too bright","2015-07-30T00:31:55.000","2015-09-08T00:31:55.000","MORRELL PARK","15-00602007","MD","CLOSED","2015-07-30T13:11:29.000",NA,NA,NA,NA,NA
NA,"4416  IVANHOE AVE","BALTIMORE","STREETL6","TRM-StLighting Inadequate/too bright","2015-07-26T00:21:04.000","2015-09-04T00:21:04.000","WILSON PARK","15-00590780","MD","O-PENDNG","2015-07-27T16:46:56.000",NA,NA,NA,NA,NA
NA,"4900  SCHAUB AVE","BALTIMORE","STREETL6","TRM-StLighting Inadequate/too bright","2015-06-11T14:36:54.000","2015-07-21T14:36:54.000","FRANKFORD","15-00454938","MD","O-PENDNG","2015-06-16T13:23:12.000",NA,"21206",NA,NA,NA
"Dispatch lighting Inspector","1500  NORMAL-CLIFTVIEW 2","BALTIMORE","STREETL6","TRM-StLighting Inadequate/too bright","2015-07-29T20:07:34.000","2015-09-07T20:07:34.000","DARLEY PARK","15-00601582","MD","CLOSED","2015-08-04T11:34:12.000","2015-07-31T12:01:00.000","21213",NA,NA,NA
NA,"11 E HAMBURG ST","BALTIMORE","STREETL6","TRM-StLighting Inadequate/too bright","2015-06-18T16:08:08.000","2015-07-28T16:08:08.000","FEDERAL HILL","15-00476181","MD","CLOSED","2015-07-30T12:56:58.000",NA,"21230",NA,NA,NA
NA,"402 S DALLAS ST","BALTIMORE","STREETL6","TRM-StLighting Inadequate/too bright","2015-08-02T01:46:53.000","2015-09-11T01:46:53.000","FELLS POINT","15-00609711","MD","OPEN","2015-08-04T11:40:13.000",NA,NA,NA,NA,NA
NA,"1908  HARMAN AVE","BALTIMORE","STREETL6","TRM-StLighting Inadequate/too bright","2015-07-29T11:29:09.000","2015-09-07T11:29:09.000","MORRELL PARK","15-00598815","MD","CLOSED","2015-07-29T12:15:38.000",NA,NA,NA,NA,NA
"Dispatch lighting Inspector","5104  LAUREL AVE","BALTIMORE","STREETL6","TRM-StLighting Inadequate/too bright","2015-07-24T14:49:27.000","2015-09-02T14:49:27.000","LEVINDALE","15-00586175","md","O-WIP","2015-08-04T11:31:29.000","2015-07-29T11:32:00.000","21215",NA,NA,NA
NA,"1500 E 33RD ST","BALTIMORE","STREETL6","TRM-StLighting Inadequate/too bright","2015-05-11T11:31:46.000","2015-06-20T11:31:46.000","EDNOR GARDENS-LAKESIDE","15-00366276","MD","CLOSED","2015-05-22T12:45:14.000",NA,"21218",NA,NA,NA
NA,"1908  HARMAN AVE","BALTIMORE","STREETL6","TRM-StLighting Inadequate/too bright","2015-07-12T09:32:39.000","2015-08-21T09:32:39.000","MORRELL PARK","15-00546486","MD","CLOSED","2015-07-13T12:09:13.000",NA,NA,NA,NA,NA
NA,"201  KEY HWY","BALTIMORE","STREETL6","TRM-StLighting Inadequate/too bright","2015-07-01T00:06:19.000","2015-08-10T00:06:19.000","FEDERAL HILL","15-00514520","MD","CLOSED","2015-07-06T12:22:28.000",NA,"21230",NA,NA,NA
NA,"1908  HARMAN AVE","BALTIMORE","STREETL6","TRM-StLighting Inadequate/too bright","2015-07-28T12:22:55.000","2015-09-06T12:22:55.000","MORRELL PARK","15-00595558","MD","CLOSED","2015-07-28T13:13:48.000",NA,NA,NA,NA,NA
NA,"1908  HARMAN AVE","BALTIMORE","STREETL6","TRM-StLighting Inadequate/too bright","2015-06-27T09:07:20.000","2015-08-06T09:07:20.000","MORRELL PARK","15-00503277","MD","CLOSED","2015-06-29T11:34:42.000",NA,NA,NA,NA,NA
NA,"1908  HARMAN AVE","BALTIMORE","STREETL6","TRM-StLighting Inadequate/too bright","2015-06-25T23:11:54.000","2015-08-04T23:11:54.000","MORRELL PARK","15-00500179","MD","CLOSED","2015-06-26T11:25:56.000",NA,NA,NA,NA,NA
"Dispatch lighting Inspector","3215  BRIGHTON ST","BALTIMORE","STREETL6","TRM-StLighting Inadequate/too bright","2015-06-19T13:44:10.000","2015-07-29T13:44:10.000","ROSEMONT","15-00478865","MD","CLOSED","2015-06-23T12:25:19.000","2015-06-22T11:32:00.000","21216",NA,NA,NA
"Dispatch lighting Inspector","1000 N MOUNT ST","BALTIMORE","STREETL6","TRM-StLighting Inadequate/too bright","2015-07-16T16:50:41.000","2015-08-25T16:50:41.000","SANDTOWN-WINCHESTER","15-00561582","MD","O-PENDNG","2015-07-21T13:59:42.000","2015-07-17T11:38:00.000","21217",NA,NA,NA
NA,"2300  GARRISON BLVD","BALTIMORE","STREETL6","TRM-StLighting Inadequate/too bright","2015-08-04T17:18:31.000","2015-09-13T17:18:31.000","GARWYN OAKS","15-00617923","MD","NEW","2015-08-04T17:18:31.000",NA,"21216",NA,NA,NA
"Dispatch lighting Inspector","500  DENISON ST","BALTIMORE","STREETL6","TRM-StLighting Inadequate/too bright","2015-07-21T20:31:05.000","2015-08-30T20:31:05.000","ALLENDALE","15-00575853","MD","CLOSED","2015-07-31T17:13:19.000","2015-07-22T12:01:00.000","21229",NA,NA,NA
NA,"1908  HARMAN AVE","BALTIMORE","STREETL6","TRM-StLighting Inadequate/too bright","2015-07-03T16:44:34.000","2015-08-12T16:44:34.000","MORRELL PARK","15-00523625","MD","CLOSED","2015-07-06T12:11:58.000",NA,NA,NA,NA,NA
"Dispatch lighting Inspector","1700  MOSHER ST","BALTIMORE","STREETL6","TRM-StLighting Inadequate/too bright","2015-07-17T12:26:19.000","2015-08-26T12:26:19.000","SANDTOWN-WINCHESTER","15-00563920","MD","CLOSED","2015-07-17T13:24:26.000","2015-07-17T12:29:00.000","21217",NA,NA,NA
"Dispatch lighting Inspector","4219  ROLAND VIEW AVE","BALTIMORE","STREETL6","TRM-StLighting Inadequate/too bright","2015-04-23T15:54:16.000","2015-06-02T15:54:16.000","GREENSPRING","15-00319551","MD","CLOSED","2015-05-14T12:16:42.000","2015-04-24T19:49:00.000","21215",NA,NA,NA
NA,"1908  HARMAN AVE","BALTIMORE","STREETL6","TRM-StLighting Inadequate/too bright","2015-07-07T15:47:32.000","2015-08-16T15:47:32.000","MORRELL PARK","15-00531568","MD","CLOSED","2015-07-07T17:08:09.000",NA,NA,NA,NA,NA
"Dispatch lighting Inspector","2505  WILLOW GLEN DR","BALTIMORE","STREETL6","TRM-StLighting Inadequate/too bright","2015-06-01T12:15:05.000","2015-07-11T12:15:05.000","CHESWOLDE","15-00425300","MD","CLOSED","2015-07-28T12:57:10.000","2015-07-28T12:56:00.000","21209",NA,NA,NA
NA,"1908  HARMAN AVE","BALTIMORE","STREETL6","TRM-StLighting Inadequate/too bright","2015-07-22T14:11:34.000","2015-08-31T14:11:34.000","MORRELL PARK","15-00577865","MD","CLOSED","2015-07-23T12:23:41.000",NA,NA,NA,NA,NA
