"activity","address","city","code","codedescription","createddate","duedate","neighborhood","outcome","servicerequestnum","state","status","statusdate","updateddate","zip","lon","lat"
"Cityworks SR Comments","HARVIEW AVE & HARFORD RD","BALTIMORE","WWHYDRAN","WW Hydrant Leaking","2015-05-05T23:57:16.000","2015-05-10T23:57:16.000","NORTH HARFORD ROAD","UPDATED","15-00352074","MD","LOCKED","2015-05-06T00:05:04.000","2015-05-06T00:15:19.000","21234",NA,NA
"WO - Repair Hydrant","1710  LETITIA AVE","BALTIMORE","WWHYDRAN","WW Hydrant Leaking","2015-05-04T18:14:43.000","2015-05-09T18:14:43.000","MORRELL PARK","CLOSED","15-00347697","MD","CLOSED","2015-05-11T14:27:02.000","2015-05-08T14:24:24.000","21230",NA,NA
"Cityworks SR Comments","FENWICK AVE &E NORTHERN PKWY","BALTIMORE","WWHYDRAN","WW Hydrant Leaking","2015-04-26T11:36:41.000","2015-05-01T11:36:41.000","LOCH RAVEN","UPDATED","15-00325268","MD","LOCKED","2015-04-26T11:43:33.000","2015-04-26T11:53:25.000","21239",NA,NA
"Cityworks SR Comments","3200  GIBBONS AVE","BALTIMORE","WWHYDRAN","WW Hydrant Leaking","2015-04-26T02:26:27.000","2015-05-01T02:26:27.000","WALTHERSON","UPDATED","15-00325167","MD","LOCKED","2015-04-26T02:34:21.000","2015-04-26T02:43:01.000","21214",NA,NA
"Cityworks SR Comments","1107  BRYN MAWR RD","BALTIMORE","WWHYDRAN","WW Hydrant Leaking","2015-04-23T13:10:00.000","2015-04-28T13:10:00.000","NORTH ROLAND PARK/POPLAR HILL","UPDATED","15-00317989","MD","LOCKED","2015-04-23T13:16:28.000","2015-04-23T13:22:00.000","21210",NA,NA
"Cityworks SR Comments","2 W MELROSE AVE","BALTIMORE","WWHYDRAN","WW Hydrant Leaking","2015-04-21T18:24:41.000","2015-04-26T18:24:41.000","THE ORCHARDS","UPDATED","15-00312134","MD","LOCKED","2015-04-21T18:31:54.000","2015-04-21T18:39:52.000","21210",NA,NA
"Cityworks SR Comments","3611  LEO ST","BALTIMORE","WWHYDRAN","WW Hydrant Leaking","2015-04-21T12:29:20.000","2015-04-26T12:29:20.000","FAIRFIELD AREA","UPDATED","15-00310147","MD","LOCKED","2015-04-21T12:34:47.000","2015-04-21T12:39:25.000","21226",NA,NA
"WO - Repair Hydrant","639 E 37TH ST","BALTIMORE","WWHYDRAN","WW Hydrant Leaking","2015-04-16T13:38:27.000","2015-04-21T13:38:27.000","WAVERLY","CLOSED","15-00298260","MD","CLOSED","2015-04-23T18:07:22.000","2015-04-17T18:01:41.000","21218",NA,NA
"Cityworks SR Comments","HILLEN RD &E COLD SPRING LN","BALTIMORE","WWHYDRAN","WW Hydrant Leaking","2015-04-16T00:44:22.000","2015-04-21T00:44:22.000","MORGAN STATE UNIVERSITY","UPDATED","15-00297019","MD","HOLDLOCK","2015-04-21T14:12:47.000","2015-04-29T12:57:00.000","21218",NA,NA
"Cityworks SR Comments","1801  EUTAW PL","BALTIMORE","WWHYDRAN","WW Hydrant Leaking","2015-04-15T21:11:33.000","2015-04-20T21:11:33.000","BOLTON HILL","UPDATED","15-00296702","MD","LOCKED","2015-04-15T21:19:52.000","2015-04-15T21:25:12.000","21217",NA,NA
"WO - Repair Hydrant","109 E 32ND ST","BALTIMORE","WWHYDRAN","WW Hydrant Leaking","2015-04-15T16:37:21.000","2015-04-20T16:37:21.000","CHARLES VILLAGE","CLOSED","15-00295396","MD","CLOSED","2015-04-21T14:10:35.000","2015-04-17T14:09:52.000","21218",NA,NA
"Cityworks SR Comments","1712  WAVERLY WAY","BALTIMORE","WWHYDRAN","WW Hydrant Leaking","2015-04-12T17:12:21.000","2015-04-17T17:12:21.000","LOCH RAVEN","UPDATED","15-00285024","MD","HOLDLOCK","2015-04-17T14:03:36.000","2015-04-17T14:06:34.000","21239",NA,NA
"Cityworks SR Comments","N BELNORD AVE & JEFFERSON ST","BALTIMORE","WWHYDRAN","WW Hydrant Leaking","2015-04-10T12:18:58.000","2015-04-15T12:18:58.000","MCELDERRY PARK","UPDATED","15-00280290","MD","CLOSED","2015-05-11T18:03:46.000","2015-05-11T18:10:42.000","21205",NA,NA
"Cityworks SR Comments","1648  WAVERLY WAY","BALTIMORE","WWHYDRAN","WW Hydrant Leaking","2015-04-07T17:17:13.000","2015-04-12T17:17:13.000","LOCH RAVEN","UPDATED","15-00271295","MD","HOLDLOCK","2015-04-10T17:20:41.000","2015-04-10T17:31:34.000","21239",NA,NA
"WO - Repair Hydrant","CHRISTOPHER AVE & EDNA AVE","BALTIMORE","WWHYDRAN","WW Hydrant Leaking","2015-04-06T21:56:03.000","2015-04-11T21:56:03.000","WESTFIELD","CLOSED","15-00269102","MD","CLOSED","2015-04-09T18:21:15.000","2015-04-08T18:06:15.000","21214",NA,NA
"Cityworks SR Comments","2701 E STRATHMORE AVE","BALTIMORE","WWHYDRAN","WW Hydrant Leaking","2015-04-02T22:06:17.000","2015-04-07T22:06:17.000","LAURAVILLE","UPDATED","15-00261463","MD","CLOSED","2015-04-16T15:56:21.000","2015-04-16T16:05:26.000","21214",NA,NA
"Cityworks SR Comments","GWYNNS FALLS PKWY & POPLAR GROVE ST","BALTIMORE","WWHYDRAN","WW Hydrant Leaking","2015-04-02T15:54:31.000","2015-04-07T15:54:31.000","HANLON-LONGWOOD","UPDATED","15-00259809","MD","CLOSED","2015-04-09T18:21:46.000","2015-04-09T18:31:03.000","21216",NA,NA
"Cityworks SR Comments","THE ALAMEDA & GITTINGS AVE","BALTIMORE","WWHYDRAN","WW Hydrant Leaking","2015-03-30T17:19:16.000","2015-04-04T17:19:16.000","GLEN OAKS","UPDATED","15-00249992","MD","CLOSED","2015-04-07T18:12:30.000","2015-04-07T20:02:32.000","21239",NA,NA
"Cityworks SR Comments","LEITH WALK & GITTINGS AVE","BALTIMORE","WWHYDRAN","WW Hydrant Leaking","2015-03-30T17:17:26.000","2015-04-04T17:17:26.000","IDLEWOOD","UPDATED","15-00249974","MD","CLOSED","2015-04-15T17:47:47.000","2015-04-10T17:21:18.000","21239",NA,NA
"Cityworks SR Comments","1000  MARLAU DR","BALTIMORE","WWHYDRAN","WW Hydrant Leaking","2015-03-29T22:00:56.000","2015-04-03T22:00:56.000","CHINQUAPIN PARK-BELVEDERE","UPDATED","15-00247510","MD","CLOSED","2015-04-07T18:34:25.000","2015-04-07T20:02:32.000","21212",NA,NA
NA,"1023 W FAYETTE ST","BALTIMORE","WWHYDRAN","WW Hydrant Leaking","2015-03-24T17:18:37.000","2015-03-29T17:18:37.000","POPPLETON",NA,"15-00233028","MD","DUPCLOSD","2015-03-24T17:18:37.000",NA,"21223",NA,NA
"WO - Repair Hydrant","1033 W FAYETTE ST","BALTIMORE","WWHYDRAN","WW Hydrant Leaking","2015-03-24T17:13:25.000","2015-03-29T17:13:25.000","POPPLETON","CLOSED","15-00233001","MD","CLOSED","2015-03-26T13:43:04.000","2015-03-25T13:37:17.000","21223",NA,NA
"Cityworks SR Comments","AMOS AVE & OAKLEAF AVE","BALTIMORE","WWHYDRAN","WW Hydrant Leaking","2015-03-23T13:34:37.000","2015-03-28T13:34:37.000","REISTERSTOWN STATION","UPDATED","15-00228172","MD","CLOSED","2015-04-22T17:54:19.000","2015-03-27T20:27:15.000","21215",NA,NA
"Cityworks SR Comments","E 28TH ST & GUILFORD AVE","BALTIMORE","WWHYDRAN","WW Hydrant Leaking","2015-03-22T15:04:20.000","2015-03-27T15:04:20.000","CHARLES VILLAGE","UPDATED","15-00226693","MD","CLOSED","2015-04-07T16:14:50.000","2015-04-07T20:02:32.000","21218",NA,NA
"Cityworks SR Comments","2500  LOCH RAVEN RD","BALTIMORE","WWHYDRAN","WW Hydrant Leaking","2015-03-19T11:19:58.000","2015-03-24T11:19:58.000","BETTER WAVERLY","UPDATED","15-00217765","MD","CLOSED","2015-03-25T16:55:00.000","2015-03-25T17:56:38.000","21218",NA,NA
"Cityworks SR Comments","HARWOOD AVE & CHINQUAPIN PKWY","BALTIMORE","WWHYDRAN","WW Hydrant Leaking","2015-03-17T14:01:03.000","2015-03-22T14:01:03.000","WOODBOURNE HEIGHTS","UPDATED","15-00211137","MD","CLOSED","2015-04-07T17:50:01.000","2015-04-07T20:02:32.000","21239",NA,NA
"WO - Repair Hydrant","2300 W FAYETTE ST","BALTIMORE","WWHYDRAN","WW Hydrant Leaking","2015-03-17T13:51:55.000","2015-03-22T13:51:55.000","PENROSE/FAYETTE STREET OUTREACH","CLOSED","15-00211045","MD","CLOSED","2015-03-23T16:15:55.000","2015-03-22T16:10:57.000","21223",NA,NA
"WO - Repair Hydrant","3101 E BALTIMORE ST","BALTIMORE","WWHYDRAN","WW Hydrant Leaking","2015-03-16T22:18:23.000","2015-03-21T22:18:23.000","BALTIMORE-LINWOOD","CLOSED","15-00209137","MD","CLOSED","2015-03-24T18:03:24.000","2015-03-23T18:00:13.000","21224",NA,NA
"Cityworks SR Comments","244 S PATTERSON PARK AVE","BALTIMORE","WWHYDRAN","WW Hydrant Leaking","2015-03-16T18:44:22.000","2015-03-21T18:44:22.000","UPPER FELLS POINT","UPDATED","15-00208124","MD","CLOSED","2015-04-09T18:39:55.000","2015-04-09T18:51:05.000","21231",NA,NA
"Cityworks SR Comments","4515  FRANKFORD AVE","BALTIMORE","WWHYDRAN","WW Hydrant Leaking","2015-03-13T20:12:56.000","2015-03-18T20:12:56.000","FRANKFORD","UPDATED","15-00201819","MD","CLOSED","2015-03-15T16:49:30.000","2015-03-15T19:59:18.000","21206",NA,NA
"WO - Repair Hydrant","3909  JUNIPER RD","BALTIMORE","WWHYDRAN","WW Hydrant Leaking","2015-03-13T13:53:17.000","2015-03-18T13:53:17.000","GUILFORD","CLOSED","15-00199596","MD","CLOSED","2015-03-16T15:55:28.000","2015-03-15T15:51:34.000","21218",NA,NA
"Cityworks SR Comments","2609  GAGE CT","BALTIMORE","WWHYDRAN","WW Hydrant Leaking","2015-03-12T18:09:46.000","2015-03-17T18:09:46.000","CHESWOLDE","UPDATED","15-00196353","MD","CLOSED","2015-04-23T18:50:31.000","2015-04-23T19:01:11.000","21209",NA,NA
"Cityworks SR Comments","400 E PRATT ST","BALTIMORE","WWHYDRAN","WW Hydrant Leaking","2015-03-11T15:25:04.000","2015-03-16T15:25:04.000","INNER HARBOR","UPDATED","15-00190920","MD","HOLDLOCK","2015-04-15T11:52:51.000","2015-04-07T15:31:00.000","21202",NA,NA
"WO - Repair Hydrant","335 S EAST AVE","BALTIMORE","WWHYDRAN","WW Hydrant Leaking","2015-03-09T17:04:02.000","2015-03-14T17:04:02.000","HIGHLANDTOWN","CLOSED","15-00183110","MD","CLOSED","2015-03-24T18:58:54.000","2015-03-23T18:55:09.000","21224",NA,NA
"WO - Repair Hydrant","2200 N CALVERT ST","BALTIMORE","WWHYDRAN","WW Hydrant Leaking","2015-03-08T04:58:42.000","2015-03-13T03:58:42.000","BARCLAY","CLOSED","15-00178551","MD","CLOSED","2015-03-13T17:59:15.000","2015-03-12T17:55:07.000","21218",NA,NA
"Cityworks SR Comments","701 W UNIVERSITY PKWY","BALTIMORE","WWHYDRAN","WW Hydrant Leaking","2015-03-04T17:34:26.000","2015-03-09T17:34:26.000","ROLAND PARK","UPDATED","15-00167326","MD","CLOSED","2015-04-23T18:54:52.000","2015-04-23T19:01:11.000","21210",NA,NA
"WO - Repair Hydrant","S CALVERTON RD & HOLLINS ST","BALTIMORE","WWHYDRAN","WW Hydrant Leaking","2015-03-03T11:04:09.000","2015-03-08T11:04:09.000","BOOTH-BOYD","CLOSED","15-00162069","MD","CLOSED","2015-03-21T13:38:15.000","2015-03-20T13:34:48.000","21223",NA,NA
"Cityworks SR Comments","DUPONT AVE","BALTIMORE","WWHYDRAN","WW Hydrant Leaking","2015-03-03T09:59:11.000","2015-03-08T09:59:11.000","CYLBURN","UPDATED","15-00161889","MD","CLOSED","2015-03-10T19:59:19.000","2015-03-10T23:15:53.000","21215",NA,NA
"Cityworks SR Comments","2603  PUGET ST","BALTIMORE","WWHYDRAN","WW Hydrant Leaking","2015-03-02T17:05:33.000","2015-03-07T17:05:33.000","MOUNT WINANS","UPDATED","15-00160293","MD","CLOSED","2015-03-21T13:02:55.000","2015-03-21T14:21:53.000","21230",NA,NA
"Cityworks SR Comments","SOUTHERN AVE & HARFORD RD","BALTIMORE","WWHYDRAN","WW Hydrant Leaking","2015-02-28T16:54:02.000","2015-03-05T16:54:02.000","LAURAVILLE","UPDATED","15-00155570","MD","CLOSED","2015-03-24T19:42:44.000","2015-03-24T21:06:10.000","21214",NA,NA
"WO - Repair Hydrant","3011  EVERGREEN AVE","BALTIMORE","WWHYDRAN","WW Hydrant Leaking","2015-02-28T16:23:02.000","2015-03-05T16:23:02.000","GLENHAM-BELFORD","CLOSED","15-00155454","MD","CLOSED","2015-03-13T17:40:50.000","2015-03-12T17:37:41.000","21214",NA,NA
"WO - Repair Hydrant","2300 E BALTIMORE ST","BALTIMORE","WWHYDRAN","WW Hydrant Leaking","2015-02-27T20:19:09.000","2015-03-04T20:19:09.000","PATTERSON PLACE","CLOSED","15-00154644","MD","CLOSED","2015-03-14T17:26:25.000","2015-03-13T17:22:17.000","21224",NA,NA
"WO - Repair Hydrant","WINDSOR AVE &N LONGWOOD ST","BALTIMORE","WWHYDRAN","WW Hydrant Leaking","2015-02-27T11:13:56.000","2015-03-04T11:13:56.000","WALBROOK","CLOSED","15-00152201","MD","CLOSED","2015-03-11T16:25:33.000","2015-03-09T19:47:47.000","21216",NA,NA
NA,"4302  EVANS CHAPEL RD","BALTIMORE","WWHYDRAN","WW Hydrant Leaking","2015-02-24T21:30:52.000","2015-03-01T21:30:52.000","HOES HEIGHTS",NA,"15-00143963","MD","DUPCLOSD","2015-02-24T21:30:52.000",NA,"21211",NA,NA
NA,"4300  EVANS CHAPEL RD","BALTIMORE","WWHYDRAN","WW Hydrant Leaking","2015-02-24T21:20:04.000","2015-03-01T21:20:04.000","HOES HEIGHTS",NA,"15-00143918","MD","DUPCLOSD","2015-02-24T21:20:04.000",NA,"21211",NA,NA
"Cityworks SR Comments","1429  ALICEANNA ST","BALTIMORE","WWHYDRAN","WW Hydrant Leaking","2015-02-24T11:40:26.000","2015-03-01T11:40:26.000","FELLS POINT","UPDATED","15-00140694","MD","HOLDLOCK","2015-03-14T17:49:04.000","2015-03-14T20:15:09.000","21231",NA,NA
"WO - Repair Hydrant","EVANS CHAPEL RD & PROVIDENCE ST","BALTIMORE","WWHYDRAN","WW Hydrant Leaking","2015-02-24T11:27:08.000","2015-03-01T11:27:08.000","ROLAND PARK","CLOSED","15-00140608","MD","CLOSED","2015-03-25T13:12:26.000","2015-03-24T13:09:06.000","21211",NA,NA
"Cityworks SR Comments","ARGONNE DR","BALTIMORE","WWHYDRAN","WW Hydrant Leaking","2015-02-23T11:48:07.000","2015-02-28T11:48:07.000","HILLEN","UPDATED","15-00135448","MD","CLOSED","2015-02-24T13:38:44.000","2015-02-24T15:09:22.000","21218",NA,NA
"Cityworks SR Comments","4300  LIBERTY HEIGHTS AVE","BALTIMORE","WWHYDRAN","WW Hydrant Leaking","2015-02-20T16:42:23.000","2015-02-25T16:42:23.000","DORCHESTER","UPDATED","15-00127500","MD","LOCKED","2015-02-20T16:50:11.000","2015-03-07T22:19:18.000","21207",NA,NA
"Cityworks SR Comments","OGDEN ST & O'DONNELL ST","BALTIMORE","WWHYDRAN","WW Hydrant Leaking","2015-02-20T01:25:47.000","2015-02-25T01:25:47.000","GRACELAND PARK","UPDATED","15-00124813","MD","CLOSED","2015-03-24T19:12:17.000","2015-03-24T21:06:10.000","21224",NA,NA
"Cityworks SR Comments","BELAIR RD & CHESTERFIELD AVE","BALTIMORE","WWHYDRAN","WW Hydrant Leaking","2015-02-19T00:36:11.000","2015-02-24T00:36:11.000","BELAIR-EDISON","UPDATED","15-00120808","MD","CLOSED","2015-02-24T18:25:56.000","2015-02-24T21:08:33.000","21213",NA,NA
"Cityworks SR Comments","ELM AVE &W 36TH ST","BALTIMORE","WWHYDRAN","WW Hydrant Leaking","2015-02-18T11:29:03.000","2015-02-23T11:29:03.000","HAMPDEN","UPDATED","15-00117085","MD","CLOSED","2015-04-23T18:42:47.000","2015-04-23T18:51:28.000","21211",NA,NA
NA,"2801  CLEARVIEW AVE","BALTIMORE","WWHYDRAN","WW Hydrant Leaking","2015-02-18T02:46:00.000","2015-02-23T02:46:00.000","NORTH HARFORD ROAD",NA,"15-00116535","MD","DUPCLOSD","2015-02-18T02:46:00.000",NA,"21234",NA,NA
"Cityworks SR Comments","501 W UNIVERSITY PKWY","BALTIMORE","WWHYDRAN","WW Hydrant Leaking","2015-02-17T19:52:33.000","2015-02-22T19:52:33.000","ROLAND PARK","UPDATED","15-00115867","MD","CLOSED","2015-03-26T14:07:05.000","2015-03-26T14:53:41.000","21210",NA,NA
"WO - Repair Hydrant","HILLEN RD & 33RD CHILTON","BALTIMORE","WWHYDRAN","WW Hydrant Leaking","2015-02-15T11:39:43.000","2015-02-20T11:39:43.000","COLDSTREAM HOMESTEAD MONTEBELLO","CLOSED","15-00107692","MD","CLOSED","2015-02-26T17:34:49.000","2015-02-26T17:26:50.000","21218",NA,NA
"WO - Repair Hydrant","2000 W BALTIMORE ST","BALTIMORE","WWHYDRAN","WW Hydrant Leaking","2015-02-14T12:57:33.000","2015-02-19T12:57:33.000","PENROSE/FAYETTE STREET OUTREACH","CLOSED","15-00106512","MD","CLOSED","2015-03-10T20:14:22.000","2015-03-09T20:02:45.000","21223",NA,NA
"Cityworks SR Comments","KESWICK RD &W 34TH ST","BALTIMORE","WWHYDRAN","WW Hydrant Leaking","2015-02-13T14:43:04.000","2015-02-18T14:43:04.000","WYMAN PARK","UPDATED","15-00104864","MD","CLOSED","2015-04-23T18:36:59.000","2015-04-23T18:41:12.000","21211",NA,NA
NA,"OLD HARFORD RD & CLEARVIEW AVE","BALTIMORE","WWHYDRAN","WW Hydrant Leaking","2015-02-13T11:57:44.000","2015-02-18T11:57:44.000","HARFORD-ECHODALE/PERRING PARKWAY",NA,"15-00103914","MD","DUPCLOSD","2015-02-13T11:57:44.000",NA,"21234",NA,NA
"WO - Repair Hydrant","2524  LOCH RAVEN RD","BALTIMORE","WWHYDRAN","WW Hydrant Leaking","2015-02-13T11:25:54.000","2015-02-18T11:25:54.000","BETTER WAVERLY","CLOSED","15-00103758","MD","CLOSED","2015-04-17T17:05:45.000","2015-03-26T17:00:29.000","21218",NA,NA
"Cityworks SR Comments","W 28TH ST & REMINGTON AVE","BALTIMORE","WWHYDRAN","WW Hydrant Leaking","2015-02-12T12:42:02.000","2015-02-17T12:42:02.000","REMINGTON","UPDATED","15-00101074","MD","CLOSED","2015-02-26T17:10:09.000","2015-02-26T18:13:57.000","21211",NA,NA
"Cityworks SR Comments","802 S CAROLINE ST","BALTIMORE","WWHYDRAN","WW Hydrant Leaking","2015-02-11T15:40:09.000","2015-02-16T15:40:09.000","FELLS POINT","UPDATED","15-00099057","MD","CLOSED","2015-03-14T17:19:42.000","2015-03-14T20:15:09.000","21231",NA,NA
"Cityworks SR Comments","5547  LOTHIAN RD","BALTIMORE","WWHYDRAN","WW Hydrant Leaking","2015-02-10T17:58:00.000","2015-02-15T17:58:00.000","CAMERON VILLAGE","UPDATED","15-00095991","MD","CLOSED","2015-03-15T17:09:20.000","2015-03-15T19:59:18.000","21212",NA,NA
"Cityworks SR Comments","3633  YOLANDO RD","BALTIMORE","WWHYDRAN","WW Hydrant Leaking","2015-02-07T17:09:07.000","2015-02-12T17:09:07.000","EDNOR GARDENS-LAKESIDE","UPDATED","15-00089253","MD","HOLDLOCK","2015-03-13T17:29:23.000","2015-03-13T20:55:03.000","21218",NA,NA
NA,"3811  JUNIPER RD","BALTIMORE","WWHYDRAN","WW Hydrant Leaking","2015-02-07T16:34:47.000","2015-02-12T16:34:47.000","GUILFORD",NA,"15-00089207","MD","DUPCLOSD","2015-02-07T16:34:47.000",NA,"21218",NA,NA
"WO - Water Valve Maintenance","3811  JUNIPER RD","BALTIMORE","WWHYDRAN","WW Hydrant Leaking","2015-02-06T19:52:05.000","2015-02-11T19:52:05.000","GUILFORD","CLOSED","15-00088292","MD","CLOSED","2015-03-24T22:22:56.000","2015-03-24T14:20:43.000","21218",NA,NA
"Cityworks SR Comments","2601  GOODWOOD RD","BALTIMORE","WWHYDRAN","WW Hydrant Leaking","2015-02-06T12:09:44.000","2015-02-11T12:09:44.000","LAURAVILLE","UPDATED","15-00086368","MD","CLOSED","2015-03-13T17:32:55.000","2015-03-13T20:55:03.000","21214",NA,NA
"WO - Repair Hydrant","3000  JENIFER AVE","BALTIMORE","WWHYDRAN","WW Hydrant Leaking","2015-02-06T11:36:02.000","2015-02-11T11:36:02.000","COLDSTREAM HOMESTEAD MONTEBELLO","CLOSED","15-00086170","MD","CLOSED","2015-03-13T17:19:52.000","2015-03-12T17:16:26.000","21218",NA,NA
"WO - Repair Hydrant","222 N CALVERTON RD","BALTIMORE","WWHYDRAN","WW Hydrant Leaking","2015-02-04T11:28:53.000","2015-02-09T11:28:53.000","PENROSE/FAYETTE STREET OUTREACH","CLOSED","15-00079602","MD","CLOSED","2015-03-23T16:08:53.000","2015-03-22T16:01:46.000","21223",NA,NA
"Cityworks SR Comments","539  OLDTOWN MALL","BALTIMORE","WWHYDRAN","WW Hydrant Leaking","2015-02-02T18:17:24.000","2015-02-07T18:17:24.000","OLDTOWN","UPDATED","15-00075050","MD","CLOSED","2015-03-08T14:40:15.000","2015-03-08T17:54:26.000","21202",NA,NA
"Cityworks SR Comments","2248  DRUID PARK DR","BALTIMORE","WWHYDRAN","WW Hydrant Leaking","2015-02-02T13:12:37.000","2015-02-07T13:12:37.000","WOODBERRY","UPDATED","15-00073746","MD","CLOSED","2015-05-04T17:22:38.000","2015-05-04T17:33:52.000","21211",NA,NA
"WO - Repair Hydrant","200 S ATHOL AVE","BALTIMORE","WWHYDRAN","WW Hydrant Leaking","2015-02-01T12:20:21.000","2015-02-06T12:20:21.000","IRVINGTON","CLOSED","15-00072183","MD","CLOSED","2015-03-11T15:26:50.000","2015-03-10T15:24:44.000","21229",NA,NA
"WO - Repair Hydrant","MOUNT HOLLY ST & WOODRIDGE RD","BALTIMORE","WWHYDRAN","WW Hydrant Leaking","2015-01-31T11:07:14.000","2015-02-05T11:07:14.000","EDMONDSON VILLAGE","CLOSED","15-00071143","MD","CLOSED","2015-02-07T12:09:51.000","2015-02-05T12:02:54.000","21229",NA,NA
"Cityworks SR Comments","3812  CALLAWAY AVE","BALTIMORE","WWHYDRAN","WW Hydrant Leaking","2015-01-29T14:45:06.000","2015-02-03T14:45:06.000","CALLAWAY-GARRISON","UPDATED","15-00066389","MD","CLOSED","2015-03-10T20:01:14.000","2015-03-10T23:15:53.000","21215",NA,NA
"WO - Repair Hydrant","500 E MADISON ST","BALTIMORE","WWHYDRAN","WW Hydrant Leaking","2015-01-28T11:35:13.000","2015-02-02T11:35:13.000","PENN-FALLSWAY","CLOSED","15-00062729","MD","CLOSED","2015-03-08T15:17:43.000","2015-03-07T15:09:36.000","21202",NA,NA
"Cityworks SR Comments","500 W UNIVERSITY PKWY","BALTIMORE","WWHYDRAN","WW Hydrant Leaking","2015-01-28T11:00:21.000","2015-02-02T11:00:21.000","ROLAND PARK","UPDATED","15-00062627","MD","CLOSED","2015-02-03T12:50:15.000","2015-02-03T14:35:46.000","21210",NA,NA
"WO - Repair Hydrant","600  SCOTT ST","BALTIMORE","WWHYDRAN","WW Hydrant Leaking","2015-01-26T16:21:28.000","2015-01-31T16:21:28.000","WASHINGTON VILLAGE","CLOSED","15-00058490","MD","CLOSED","2015-03-14T17:39:12.000","2015-03-13T17:35:08.000","21230",NA,NA
"WO - Repair Hydrant","ROBERT ST & DRUID HILL AVE","BALTIMORE","WWHYDRAN","WW Hydrant Leaking","2015-01-25T17:19:22.000","2015-01-30T17:19:22.000","DRUID HEIGHTS","CLOSED","15-00055752","MD","CLOSED","2015-01-27T13:44:20.000","2015-01-27T13:40:47.000","21217",NA,NA
"Cityworks SR Comments","2122  MARYLAND AVE","BALTIMORE","WWHYDRAN","WW Hydrant Leaking","2015-01-24T03:10:27.000","2015-01-29T03:10:27.000","CHARLES NORTH","UPDATED","15-00054253","MD","CLOSED","2015-01-27T17:25:02.000","2015-01-27T17:28:51.000","21218",NA,NA
"WO - Repair Hydrant","INGLEWOOD AVE & OLD HARFORD RD","BALTIMORE","WWHYDRAN","WW Hydrant Leaking","2015-01-21T14:23:47.000","2015-01-26T14:23:47.000","NORTH HARFORD ROAD","CLOSED","15-00046570","MD","CLOSED","2015-02-05T17:33:27.000","2015-02-04T17:31:22.000","21234",NA,NA
"Cityworks SR Comments","W 29TH ST & HUNTINGDON AVE","BALTIMORE","WWHYDRAN","WW Hydrant Leaking","2015-01-21T02:33:20.000","2015-01-26T02:33:20.000","REMINGTON","UPDATED","15-00045409","MD","CLOSED","2015-01-27T19:44:28.000","2015-01-27T21:55:59.000","21211",NA,NA
NA,"528  SCOTT ST","BALTIMORE","WWHYDRAN","WW Hydrant Leaking","2015-01-20T18:07:18.000","2015-01-25T18:07:18.000","WASHINGTON VILLAGE",NA,"15-00044490","MD","DUPCLOSD","2015-01-20T18:07:18.000",NA,"21230",NA,NA
"Cityworks SR Comments","528  SCOTT ST","BALTIMORE","WWHYDRAN","WW Hydrant Leaking","2015-01-19T14:54:36.000","2015-01-24T14:54:36.000","WASHINGTON VILLAGE","UPDATED","15-00040582","MD","CLOSED","2015-03-14T14:54:12.000","2015-03-14T16:21:45.000","21230",NA,NA
NA,"528  SCOTT ST","BALTIMORE","WWHYDRAN","WW Hydrant Leaking","2015-01-18T12:55:01.000","2015-01-23T12:55:01.000","WASHINGTON VILLAGE",NA,"15-00039265","MD","DUPCLOSD","2015-01-18T12:55:01.000",NA,"21230",NA,NA
"WO - Repair Hydrant","2721 W BALTIMORE ST","BALTIMORE","WWHYDRAN","WW Hydrant Leaking","2015-01-16T14:17:06.000","2015-01-21T14:17:06.000","SHIPLEY HILL","CLOSED","15-00036502","MD","CLOSED","2015-03-08T15:37:03.000","2015-03-07T15:34:31.000","21223",NA,NA
"WO - Repair Hydrant","ERDMAN AVE & HARFORD RD","BALTIMORE","WWHYDRAN","WW Hydrant Leaking","2015-01-16T11:37:26.000","2015-01-21T11:37:26.000","MONTEBELLO","CLOSED","15-00035658","MD","CLOSED","2015-02-03T13:01:43.000","2015-02-02T12:58:45.000","21218",NA,NA
"Cityworks SR Comments","918 W UNIVERSITY PKWY","BALTIMORE","WWHYDRAN","WW Hydrant Leaking","2015-01-15T01:36:05.000","2015-01-20T01:36:05.000","ROLAND PARK","UPDATED","15-00032282","MD","CLOSED","2015-01-29T18:07:02.000","2015-01-29T18:26:30.000","21210",NA,NA
"WO - Repair Hydrant","500  SCOTT ST","BALTIMORE","WWHYDRAN","WW Hydrant Leaking","2015-01-14T09:18:10.000","2015-01-19T09:18:10.000","WASHINGTON VILLAGE","OPEN","15-00029407","MD","CLOSED","2015-01-29T18:30:33.000","2015-01-28T18:25:54.000","21230",NA,NA
"WO - Repair Hydrant","708  MURPHY LN","BALTIMORE","WWHYDRAN","WW Hydrant Leaking","2015-01-13T12:46:02.000","2015-01-18T12:46:02.000","HERITAGE CROSSING","CLOSED","15-00027211","MD","CLOSED","2015-02-03T12:56:04.000","2015-02-02T12:53:43.000","21201",NA,NA
"Cityworks SR Comments","W 28TH ST & REMINGTON AVE","BALTIMORE","WWHYDRAN","WW Hydrant Leaking","2015-01-10T16:29:13.000","2015-01-15T16:29:13.000","REMINGTON","UPDATED","15-00022799","MD","CLOSED","2015-02-26T17:08:59.000","2015-02-26T18:13:57.000","21211",NA,NA
NA,"3700  YOSEMITE AVE","BALTIMORE","WWHYDRAN","WW Hydrant Leaking","2015-01-09T20:32:51.000","2015-01-14T20:32:51.000","CALLAWAY-GARRISON",NA,"15-00021946","MD","DUPCLOSD","2015-01-09T20:32:51.000",NA,"21215",NA,NA
"Cityworks SR Comments","3700  YOSEMITE AVE","BALTIMORE","WWHYDRAN","WW Hydrant Leaking","2015-01-09T20:21:19.000","2015-01-14T20:21:19.000","CALLAWAY-GARRISON","UPDATED","15-00021923","MD","CLOSED","2015-03-12T19:00:26.000","2015-03-12T21:39:13.000","21215",NA,NA
"WO - Repair Hydrant","2001  GOUGH ST","BALTIMORE","WWHYDRAN","WW Hydrant Leaking","2015-01-01T17:39:43.000","2015-01-06T17:39:43.000","UPPER FELLS POINT","CLOSED","15-00000484","MD","CLOSED","2015-03-14T17:31:44.000","2015-03-13T17:29:23.000","21231",NA,NA
"WO - Repair Hydrant","POPLAR GROVE ST & WINDSOR AVE","BALTIMORE","WWHYDRAN","WW Hydrant Leaking","2014-12-30T13:19:31.000","2015-01-04T13:19:31.000","PANWAY/BRADDISH AVENUE","CLOSED","14-00965373","MD","CLOSED","2015-03-24T19:22:04.000","2015-03-22T19:15:08.000","21216",NA,NA
"WO - Repair Hydrant","3701  YOSEMITE AVE","BALTIMORE","WWHYDRAN","WW Hydrant Leaking","2014-12-28T23:20:38.000","2015-01-02T23:20:38.000","CALLAWAY-GARRISON","CLOSED","14-00961695","MD","CLOSED","2015-03-25T17:26:41.000","2015-03-23T17:22:20.000","21215",NA,NA
"Cityworks SR Comments","410 E LAKE AVE","BALTIMORE","WWHYDRAN","WW Hydrant Leaking","2014-12-26T11:51:03.000","2014-12-31T11:51:03.000","CEDARCROFT","UPDATED","14-00957930","MD","CLOSED","2015-03-15T16:52:44.000","2015-03-15T19:59:18.000","21212",NA,NA
"Cityworks SR Comments","3900  LOCH RAVEN BLVD","BALTIMORE","WWHYDRAN","WW Hydrant Leaking","2014-12-21T13:59:00.000","2014-12-26T13:59:00.000","ORIGINAL NORTHWOOD","UPDATED","14-00947474","MD","CLOSED","2015-04-21T18:42:12.000","2015-02-04T18:07:25.000","21218",NA,NA
"WO - Repair Hydrant","2575  KEN OAK RD","BALTIMORE","WWHYDRAN","WW Hydrant Leaking","2014-12-19T17:22:44.000","2014-12-24T17:22:44.000","MOUNT WASHINGTON","CLOSED","14-00945623","MD","CLOSED","2015-03-08T15:28:24.000","2015-03-07T15:26:28.000","21209",NA,NA
NA,"1731 N CHARLES ST","BALTIMORE","WWHYDRAN","WW Hydrant Leaking","2014-12-14T20:45:12.000","2014-12-19T20:45:12.000","CHARLES NORTH",NA,"14-00931874","MD","DUPCLOSD","2014-12-14T20:45:12.000",NA,"21201",NA,NA
"Cityworks SR Comments","1 W FAYETTE ST","BALTIMORE","WWHYDRAN","WW Hydrant Leaking","2014-12-13T21:26:15.000","2014-12-18T21:26:15.000","DOWNTOWN","UPDATED","14-00931164","MD","CLOSED","2014-12-19T14:57:59.000","2014-12-17T17:44:25.000","21201",NA,NA
"Cityworks SR Comments","1731 N CHARLES ST","BALTIMORE","WWHYDRAN","WW Hydrant Leaking","2014-12-13T19:17:00.000","2014-12-18T19:17:00.000","CHARLES NORTH","UPDATED","14-00931048","MD","CLOSED","2015-01-02T17:50:38.000","2014-12-17T17:44:25.000","21201",NA,NA
"WO - Repair Hydrant","MILLER ST &N BOND ST","BALTIMORE","WWHYDRAN","WW Hydrant Leaking","2014-12-07T12:12:12.000","2014-12-12T12:12:12.000","GAY STREET","CLOSED","14-00915089","MD","CLOSED","2014-12-22T15:52:43.000","2014-12-16T15:15:36.000","21205",NA,NA
"WO - Repair Hydrant","GUILFORD AVE &E 23RD ST","BALTIMORE","WWHYDRAN","WW Hydrant Leaking","2014-12-05T22:59:26.000","2014-12-10T22:59:26.000","BARCLAY","CLOSED","14-00914030","MD","CLOSED","2014-12-08T13:45:54.000","2014-12-06T13:41:49.000","21218",NA,NA
"WO - Repair Hydrant","3501  ASIATIC AVE","BALTIMORE","WWHYDRAN","WW Hydrant Leaking","2014-12-05T15:21:53.000","2014-12-10T15:21:53.000","FAIRFIELD AREA","CLOSED","14-00912625","MD","HOLDLOCK","2015-02-11T17:49:55.000","2015-01-27T13:49:17.000","21226",NA,NA
"WO - Repair Hydrant","YOSEMITE AVE & CALLAWAY AVE","BALTIMORE","WWHYDRAN","WW Hydrant Leaking","2014-12-01T15:38:39.000","2014-12-06T15:38:39.000","CALLAWAY-GARRISON","CLOSED","14-00900255","MD","CLOSED","2015-01-05T18:13:59.000","2014-12-31T18:09:27.000","21215",NA,NA
"Cityworks SR Comments","3900  FRANKFORD AVE","BALTIMORE","WWHYDRAN","WW Hydrant Leaking","2014-12-01T12:57:33.000","2014-12-06T12:57:33.000","WALTHERSON","UPDATED","14-00899108","MD","CLOSED","2014-12-08T12:24:21.000","2014-12-08T12:35:13.000","21206",NA,NA
"Cityworks SR Comments","E LAKE AVE & BELLONA AVE","BALTIMORE","WWHYDRAN","WW Hydrant Leaking","2014-11-28T20:40:17.000","2014-12-03T20:40:17.000","LAKE EVESHAM","UPDATED","14-00895783","MD","CLOSED","2014-12-22T15:31:27.000","2014-12-22T15:45:18.000","21212",NA,NA
"WO - Repair Asphalt Surface","801 S MONTFORD AVE","BALTIMORE","WWHYDRAN","WW Hydrant Leaking","2014-11-28T18:03:58.000","2014-12-03T18:03:58.000","CANTON","CLOSED","14-00895363","MD","CLOSED","2014-12-02T12:06:52.000","2014-12-03T10:24:40.000","21224",NA,NA
"Cityworks SR Comments","E 33RD ST & ELLERSLIE AVE","BALTIMORE","WWHYDRAN","WW Hydrant Leaking","2014-11-23T16:12:19.000","2014-11-28T16:12:19.000","WAVERLY","UPDATED","14-00881850","MD","CLOSED","2015-03-02T14:00:18.000","2015-03-02T15:12:32.000","21218",NA,NA
NA,"2507  ALBION AVE","BALTIMORE","WWHYDRAN","WW Hydrant Leaking","2014-11-22T10:20:38.000","2014-11-27T10:20:38.000","LAURAVILLE",NA,"14-00880595","MD","DUPCLOSD","2014-11-22T10:20:38.000",NA,"21214",NA,NA
"Cityworks SR Comments","5816  CLOVER RD","BALTIMORE","WWHYDRAN","WW Hydrant Leaking","2014-11-21T16:22:46.000","2014-11-26T16:22:46.000","GLEN","UPDATED","14-00879198","MD","HOLDLOCK","2014-12-08T13:56:31.000","2015-01-05T17:45:23.000","21215",NA,NA
"WO - Repair Hydrant","3400  TANEY RD","BALTIMORE","WWHYDRAN","WW Hydrant Leaking","2014-11-20T12:11:03.000","2014-11-25T12:11:03.000","CROSS COUNTRY","CLOSED","14-00874642","MD","CLOSED","2014-12-08T16:57:29.000","2014-12-06T16:46:56.000","21215",NA,NA
"WO - Repair Sidewalk Surface","CATALPHA RD & ALBION AVE","BALTIMORE","WWHYDRAN","WW Hydrant Leaking","2014-11-19T17:35:32.000","2014-11-24T17:35:32.000","LAURAVILLE","CLOSED","14-00873237","MD","CLOSED","2015-03-02T13:39:18.000","2015-02-11T03:00:00.000","21214",NA,NA
"Cityworks SR Comments","2500  ALBION AVE","BALTIMORE","WWHYDRAN","WW Hydrant Leaking","2014-11-19T17:24:53.000","2014-11-24T17:24:53.000","LAURAVILLE","UPDATED","14-00873176","MD","HOLDLOCK","2014-12-03T15:03:12.000","2014-12-03T16:31:17.000","21214",NA,NA
"Cityworks SR Comments","14 W TALBOTT ST","BALTIMORE","WWHYDRAN","WW Hydrant Leaking","2014-11-19T15:47:48.000","2014-11-24T15:47:48.000","BROOKLYN","UPDATED","14-00872695","MD","CLOSED","2014-12-22T15:38:49.000","2014-12-22T15:45:18.000","21225",NA,NA
"WO - Repair Hydrant","3900  BARTWOOD RD","BALTIMORE","WWHYDRAN","WW Hydrant Leaking","2014-11-18T10:27:03.000","2014-11-23T10:27:03.000","GLEN","CLOSED","14-00867806","MD","CLOSED","2014-12-08T17:19:16.000","2014-12-06T17:14:57.000","21215",NA,NA
"WO - Repair Hydrant","2420  ASHLAND AVE","BALTIMORE","WWHYDRAN","WW Hydrant Leaking","2014-11-17T19:14:29.000","2014-11-22T19:14:29.000","MILTON-MONTFORD","COMPLETE","14-00867206","MD","CLOSED","2014-12-08T16:39:04.000","2014-12-06T14:33:08.000","21205",NA,NA
"Cityworks SR Comments","1200  LIMIT AVE","BALTIMORE CITY","WWHYDRAN","WW Hydrant Leaking","2014-11-15T17:40:21.000","2014-11-20T17:40:21.000","IDLEWOOD","UPDATED","14-00862951","MD","HOLDLOCK","2014-12-08T16:41:09.000","2014-12-08T17:13:39.000","21239",NA,NA
"Cityworks SR Comments","WINCHESTER ST &N GILMOR ST","BALTIMORE CITY","WWHYDRAN","WW Hydrant Leaking","2014-11-12T02:22:36.000","2014-11-17T02:22:36.000","SANDTOWN-WINCHESTER","UPDATED","14-00852354","MD","CLOSED","2014-11-24T13:43:46.000","2014-11-24T14:25:35.000","21217",NA,NA
"WO - Repair Hydrant","200  FONTHILL AVE","BALTIMORE CITY","WWHYDRAN","WW Hydrant Leaking","2014-11-10T19:37:52.000","2014-11-15T19:37:52.000","CARROLL-SOUTH HILTON","CLOSED","14-00849335","MD","CLOSED","2015-03-03T17:06:09.000","2014-11-18T13:39:14.000","21223",NA,NA
"WO - Repair Hydrant","1210  EDISON HWY","BALTIMORE CITY","WWHYDRAN","WW Hydrant Leaking","2014-11-10T19:28:07.000","2014-11-15T19:28:07.000","ORANGEVILLE INDUSTRIAL AREA","CLOSED","14-00849284","MD","CLOSED","2014-12-30T14:34:40.000","2014-12-24T14:28:11.000","21213",NA,NA
"Cityworks SR Comments","719  PRESIDENT ST","BALTIMORE CITY","WWHYDRAN","WW Hydrant Leaking","2014-11-10T13:19:46.000","2014-11-15T13:19:46.000","INNER HARBOR","UPDATED","14-00847341","MD","CLOSED","2014-12-12T13:54:47.000","2014-12-12T15:32:55.000","21202",NA,NA
"Cityworks SR Comments","1300  BAYARD ST","BALTIMORE CITY","WWHYDRAN","WW Hydrant Leaking","2014-11-10T10:57:42.000","2014-11-15T10:57:42.000","WASHINGTON VILLAGE","UPDATED","14-00846610","MD","CLOSED","2014-12-04T14:24:11.000","2014-12-04T14:57:24.000","21230",NA,NA
"WO - Repair Hydrant","3902  FRANKFORD AVE","BALTIMORE CITY","WWHYDRAN","WW Hydrant Leaking","2014-11-09T16:28:19.000","2014-11-14T16:28:19.000","WALTHERSON","CLOSED","14-00846083","MD","CLOSED","2014-12-09T13:47:34.000","2014-12-08T13:41:08.000","21206",NA,NA
"Cityworks SR Comments","BAYARD ST & JAMES ST","BALTIMORE CITY","WWHYDRAN","WW Hydrant Leaking","2014-11-08T10:45:21.000","2014-11-13T10:45:21.000","CARROLL PARK","UPDATED","14-00843756","MD","CLOSED","2014-12-04T14:33:04.000","2014-12-04T14:57:24.000","21230",NA,NA
"Cityworks SR Comments","4900  CATALPHA RD","BALTIMORE CITY","WWHYDRAN","WW Hydrant Leaking","2014-11-07T18:34:29.000","2014-11-12T18:34:29.000","LAURAVILLE","UPDATED","14-00842644","MD","CLOSED","2014-12-03T15:05:54.000","2014-12-03T16:31:17.000","21214",NA,NA
"WO - Repair Sidewalk Surface","W OSTEND ST & GLYNDON AVE","BALTIMORE CITY","WWHYDRAN","WW Hydrant Leaking","2014-11-06T19:53:56.000","2014-11-11T19:53:56.000","WASHINGTON VILLAGE","CLOSED","14-00839274","MD","CLOSED","2015-04-23T15:37:19.000","2015-04-23T15:33:19.000","21223",NA,NA
"Cityworks SR Comments","AUGUSTA ALLEY WILDWOOD & WOODRIDGE RD","BALTIMORE CITY","WWHYDRAN","WW Hydrant Leaking","2014-11-03T20:14:34.000","2014-11-08T20:14:34.000","EDMONDSON VILLAGE","UPDATED","14-00828543","MD","CLOSED","2014-11-13T18:09:51.000","2014-11-13T19:18:23.000","21229",NA,NA
"WO - Repair Hydrant","EDISON HWY &E BIDDLE ST","BALTIMORE CITY","WWHYDRAN","WW Hydrant Leaking","2014-11-01T17:37:24.000","2014-11-06T17:37:24.000","ORANGEVILLE INDUSTRIAL AREA","CLOSED","14-00822973","MD","CLOSED","2015-01-15T14:08:45.000","2015-01-14T15:24:26.000","21213",NA,NA
"Cityworks SR Comments","1600 E BELVEDERE AVE","BALTIMORE CITY","WWHYDRAN","WW Hydrant Leaking","2014-10-30T19:11:23.000","2014-11-04T19:11:23.000","LOCH RAVEN","UPDATED","14-00817497","MD","CLOSED","2014-12-10T13:06:22.000","2014-12-10T14:15:57.000","21239",NA,NA
"Cityworks SR Comments","6607  LAURELTON AVE","BALTIMORE CITY","WWHYDRAN","WW Hydrant Leaking","2014-10-30T19:09:39.000","2014-11-04T19:09:39.000","HARFORD-ECHODALE/PERRING PARKWAY","UPDATED","14-00817490","MD","CLOSED","2014-12-10T12:56:39.000","2014-12-10T14:15:57.000","21214",NA,NA
"Cityworks SR Comments","ADRIAN AVE & SPRINGFIELD AVE","BALTIMORE CITY","WWHYDRAN","WW Hydrant Leaking","2014-10-30T13:54:00.000","2014-11-04T13:54:00.000","ORIGINAL NORTHWOOD","UPDATED","14-00815870","MD","HOLDLOCK","2015-01-02T17:38:56.000","2015-01-02T19:19:29.000","21239",NA,NA
"Cityworks SR Comments","W COLD SPRING LN & FALLS RD","BALTIMORE CITY","WWHYDRAN","WW Hydrant Leaking","2014-10-30T10:50:49.000","2014-11-04T10:50:49.000","CROSS KEYS","UPDATED","14-00815076","MD","CLOSED","2014-12-08T17:21:22.000","2014-12-08T18:46:05.000","21209",NA,NA
"Cityworks SR Comments","5100  FALLS RD","BALTIMORE CITY","WWHYDRAN","WW Hydrant Leaking","2014-10-30T03:08:26.000","2014-11-04T03:08:26.000","CROSS KEYS","UPDATED","14-00814931","MD","CLOSED","2014-12-02T14:24:07.000","2014-12-02T15:13:55.000","21210",NA,NA
"WO - Repair Hydrant","4200  AMOS AVE","BALTIMORE CITY","WWHYDRAN","WW Hydrant Leaking","2014-10-28T13:36:06.000","2014-11-02T13:36:06.000","REISTERSTOWN STATION","CLOSED","14-00809531","MD","CLOSED","2014-10-30T14:27:42.000","2014-10-29T14:21:53.000","21215",NA,NA
"WO - Repair Sidewalk Surface","1700  DARLEY AVE","BALTIMORE CITY","WWHYDRAN","WW Hydrant Leaking","2014-10-27T18:50:59.000","2014-11-01T18:50:59.000","DARLEY PARK","CLOSED","14-00807942","MD","CLOSED","2015-03-23T14:12:00.000","2015-03-17T14:08:41.000","21213",NA,NA
"Cityworks SR Comments","AMOS AVE & OAKLEAF AVE","BALTIMORE CITY","WWHYDRAN","WW Hydrant Leaking","2014-10-27T15:14:25.000","2014-11-01T15:14:25.000","REISTERSTOWN STATION","UPDATED","14-00806896","MD","HOLDLOCK","2014-10-29T14:19:02.000","2014-10-29T14:42:47.000","21215",NA,NA
"Cityworks SR Comments","1201 W BALTIMORE ST","BALTIMORE CITY","WWHYDRAN","WW Hydrant Leaking","2014-10-26T23:01:58.000","2014-10-31T23:01:58.000","POPPLETON","UPDATED","14-00805111","MD","CLOSED","2014-11-17T15:24:20.000","2014-11-17T15:35:36.000","21223",NA,NA
"WO - Repair Hydrant","2600  MCELDERRY ST","BALTIMORE CITY","WWHYDRAN","WW Hydrant Leaking","2014-10-23T15:49:52.000","2014-10-28T15:49:52.000","MCELDERRY PARK","CLOSED","14-00798954","MD","CLOSED","2014-11-05T13:56:32.000","2014-11-03T13:53:42.000","21205",NA,NA
"Cityworks SR Comments","DUMBARTON AVE & WILSBY AVE","BALTIMORE CITY","WWHYDRAN","WW Hydrant Leaking","2014-10-21T20:37:01.000","2014-10-26T20:37:01.000","PEN LUCY","UPDATED","14-00794048","MD","CLOSED","2014-12-09T16:32:47.000","2014-12-09T17:50:23.000","21218",NA,NA
"Cityworks SR Comments","ADRIAN AVE & SPRINGFIELD AVE","BALTIMORE CITY","WWHYDRAN","WW Hydrant Leaking","2014-10-20T13:08:03.000","2014-10-25T13:08:03.000","ORIGINAL NORTHWOOD","UPDATED","14-00788390","MD","CLOSED","2014-12-02T17:10:48.000","2014-12-02T18:13:09.000","21239",NA,NA
"Cityworks SR Comments","5001  GREENSPRING AVE","BALTIMORE CITY","WWHYDRAN","WW Hydrant Leaking","2014-10-18T21:15:36.000","2014-10-23T21:15:36.000","LEVINDALE","UPDATED","14-00786494","MD","CLOSED","2014-11-05T13:20:26.000","2014-11-05T14:31:44.000","21215",NA,NA
"Cityworks SR Comments","3631  CHESTNUT AVE","BALTIMORE CITY","WWHYDRAN","WW Hydrant Leaking","2014-10-13T23:09:35.000","2014-10-18T23:09:35.000","HAMPDEN","UPDATED","14-00771938","MD","CLOSED","2014-11-05T13:24:20.000","2014-11-05T14:31:44.000","21211",NA,NA
"Cityworks SR Comments","HOMEWOOD TER & OAKENSHAW PL","BALTIMORE CITY","WWHYDRAN","WW Hydrant Leaking","2014-10-12T19:52:54.000","2014-10-17T19:52:54.000","OAKENSHAWE","UPDATED","14-00770091","MD","CLOSED","2015-01-02T18:58:03.000","2014-10-29T18:31:08.000","21218",NA,NA
"WO - Repair Hydrant","5201  SPRINGLAKE WAY","BALTIMORE CITY","WWHYDRAN","WW Hydrant Leaking","2014-10-10T10:48:49.000","2014-10-15T10:48:49.000","HOMELAND","CLOSED","14-00764857","MD","CLOSED","2014-10-21T12:24:35.000","2014-10-20T12:20:02.000","21212",NA,NA
"WO - Repair Hydrant","211  TUNBRIDGE RD","BALTIMORE CITY","WWHYDRAN","WW Hydrant Leaking","2014-10-09T02:20:54.000","2014-10-14T02:20:54.000","HOMELAND","CLOSED","14-00761132","MD","CLOSED","2014-10-21T12:08:53.000","2014-10-20T12:05:53.000","21212",NA,NA
"Cityworks SR Comments","ADRIAN AVE & SPRINGFIELD AVE","BALTIMORE CITY","WWHYDRAN","WW Hydrant Leaking","2014-10-08T12:39:09.000","2014-10-13T12:39:09.000","ORIGINAL NORTHWOOD","UPDATED","14-00758211","MD","CLOSED","2014-12-02T17:11:17.000","2014-12-02T18:13:09.000","21239",NA,NA
"Cityworks SR Comments","CYLBURN AVE & GREENSPRING AVE","BALTIMORE CITY","WWHYDRAN","WW Hydrant Leaking","2014-10-06T19:53:43.000","2014-10-11T19:53:43.000","LEVINDALE","UPDATED","14-00753361","MD","CLOSED","2014-10-16T16:30:24.000","2014-10-16T17:40:04.000","21215",NA,NA
"Cityworks SR Comments","1530 W PRATT ST","BALTIMORE CITY","WWHYDRAN","WW Hydrant Leaking","2014-10-05T20:21:53.000","2014-10-10T20:21:53.000","NEW SOUTHWEST/MOUNT CLARE","UPDATED","14-00750513","MD","CLOSED","2014-10-07T11:56:40.000","2014-10-07T12:01:29.000","21223",NA,NA
"Cityworks SR Comments","2300  CYLBURN AVE","BALTIMORE CITY","WWHYDRAN","WW Hydrant Leaking","2014-10-02T17:42:28.000","2014-10-07T17:42:28.000","COLDSPRING","UPDATED","14-00744255","MD","CLOSED","2014-10-16T16:29:09.000","2014-10-16T17:40:04.000","21209",NA,NA
"Cityworks SR Comments","501 E 41ST ST","BALTIMORE CITY","WWHYDRAN","WW Hydrant Leaking","2014-09-30T19:34:52.000","2014-10-05T19:34:52.000","PEN LUCY","UPDATED","14-00737758","MD","CLOSED","2014-10-06T17:23:41.000","2014-10-06T18:03:15.000","21218",NA,NA
"WO - Repair Hydrant","1101  EDISON HWY","BALTIMORE CITY","WWHYDRAN","WW Hydrant Leaking","2014-09-29T17:29:33.000","2014-10-04T17:29:33.000","ORANGEVILLE INDUSTRIAL AREA","CLOSED","14-00733842","MD","CLOSED","2015-03-03T17:42:24.000","2015-03-03T17:39:05.000","21213",NA,NA
"WO - Repair Hydrant","SINCLAIR LN & BOWLEYS LN","BALTIMORE CITY","WWHYDRAN","WW Hydrant Leaking","2014-09-28T14:33:10.000","2014-10-03T14:33:10.000","PARKSIDE","CLOSED","14-00730946","MD","CLOSED","2014-12-30T18:18:02.000","2014-12-22T18:13:30.000","21206",NA,NA
"Cityworks SR Comments","5001  GREENSPRING AVE","BALTIMORE CITY","WWHYDRAN","WW Hydrant Leaking","2014-09-27T21:46:56.000","2014-10-02T21:46:56.000","LEVINDALE","UPDATED","14-00730498","MD","CLOSED","2014-09-29T16:45:14.000","2014-09-29T17:08:29.000","21215",NA,NA
"WO - Repair Hydrant","708 E 25TH ST","BALTIMORE CITY","WWHYDRAN","WW Hydrant Leaking","2014-09-26T11:05:19.000","2014-10-01T11:05:19.000","COLDSTREAM HOMESTEAD MONTEBELLO","CLOSED","14-00726725","MD","CLOSED","2014-10-08T12:16:53.000","2014-10-07T12:15:07.000","21218",NA,NA
"WO - Repair Hydrant","881 N HOWARD ST","BALTIMORE CITY","WWHYDRAN","WW Hydrant Leaking","2014-09-24T10:05:07.000","2014-09-29T10:05:07.000","MOUNT VERNON","CLOSED","14-00719887","MD","CLOSED","2014-11-24T14:10:21.000","2014-11-22T14:09:00.000","21201",NA,NA
"WO - Repair Hydrant","LAKESIDE AVE & THE ALAMEDA","BALTIMORE CITY","WWHYDRAN","WW Hydrant Leaking","2014-09-22T13:31:40.000","2014-09-27T13:31:40.000","EDNOR GARDENS-LAKESIDE","CLOSED","14-00714213","MD","CLOSED","2014-09-30T15:34:29.000","2014-09-22T15:36:32.000","21218",NA,NA
"WO - Repair Hydrant","FRISBY ST & HOMESTEAD ST","BALTIMORE CITY","WWHYDRAN","WW Hydrant Leaking","2014-09-21T20:43:35.000","2014-09-26T20:43:35.000","BETTER WAVERLY","CLOSED","14-00713056","MD","CLOSED","2014-09-25T13:19:14.000","2014-09-24T12:43:10.000","21218",NA,NA
NA,"3414  OAKENSHAW PL","BALTIMORE CITY","WWHYDRAN","WW Hydrant Leaking","2014-09-21T14:26:58.000","2014-09-26T14:26:58.000","OAKENSHAWE",NA,"14-00712535","MD","DUPCLOSD","2014-09-21T14:26:58.000",NA,"21218",NA,NA
"Cityworks SR Comments","3412  OAKENSHAW PL","BALTIMORE CITY","WWHYDRAN","WW Hydrant Leaking","2014-09-21T12:30:49.000","2014-09-26T12:30:49.000","OAKENSHAWE","UPDATED","14-00712272","MD","CLOSED","2015-01-14T12:39:32.000","2014-09-24T11:59:59.000","21218",NA,NA
"Cityworks SR Comments","E BALTIMORE ST &N GAY ST","BALTIMORE CITY","WWHYDRAN","WW Hydrant Leaking","2014-09-19T15:23:29.000","2014-09-24T15:23:29.000","DOWNTOWN","UPDATED","14-00709184","MD","CLOSED","2014-11-05T13:26:16.000","2014-11-05T14:31:44.000","21202",NA,NA
"WO - Repair Hydrant","LOCH RAVEN BLVD & GREENDALE RD","BALTIMORE CITY","WWHYDRAN","WW Hydrant Leaking","2014-09-18T19:38:16.000","2014-09-23T19:38:16.000","ORIGINAL NORTHWOOD","CLOSED","14-00707053","MD","CLOSED","2014-09-25T13:13:47.000","2014-09-24T13:11:38.000","21218",NA,NA
"WO - Repair Hydrant","2210 W COLD SPRING LN","BALTIMORE CITY","WWHYDRAN","WW Hydrant Leaking","2014-09-18T10:43:34.000","2014-09-23T10:43:34.000","COLDSPRING","CLOSED","14-00704338","MD","CLOSED","2014-12-08T13:24:27.000","2014-12-06T13:21:48.000","21209",NA,NA
"Cityworks SR Comments","800 N HILTON ST","BALTIMORE CITY","WWHYDRAN","WW Hydrant Leaking","2014-09-17T21:29:04.000","2014-09-22T21:29:04.000","EDMONDSON VILLAGE","UPDATED","14-00703712","MD","CLOSED","2014-09-17T23:46:57.000","2014-09-18T00:03:14.000","21229",NA,NA
"Cityworks SR Comments","2516  CYLBURN AVE","BALTIMORE","WWHYDRAN","WW Hydrant Leaking","2014-09-09T20:01:03.000","2014-09-14T20:01:03.000","LEVINDALE","UPDATED","14-00680463","MD","CLOSED","2014-09-10T06:54:23.000","2014-09-10T06:58:14.000",NA,NA,NA
"WO - Repair Hydrant","N POPPLETON ST &W FAYETTE ST","BALTIMORE","WWHYDRAN","WW Hydrant Leaking","2014-09-09T18:52:36.000","2014-09-14T18:52:36.000","POPPLETON","CLOSED","14-00680183","MD","CLOSED","2014-10-10T18:48:40.000","2014-09-15T16:12:52.000",NA,NA,NA
"Cityworks SR Comments","5600  PENNINGTON AVE","BALTIMORE","WWHYDRAN","WW Hydrant Leaking","2014-09-09T14:17:46.000","2014-09-14T14:17:46.000","CURTIS BAY","UPDATED","14-00678743","MD","CLOSED","2014-09-15T19:06:38.000","2014-09-15T19:18:07.000","21226",NA,NA
"Cityworks SR Comments","2803  SAINT LO DR","BALTIMORE","WWHYDRAN","WW Hydrant Leaking","2014-09-08T20:29:04.000","2014-09-13T20:29:04.000","CLIFTON PARK","UPDATED","14-00677154","MD","CLOSED","2014-10-08T12:14:01.000","2014-10-08T12:40:11.000","21213",NA,NA
"Cityworks SR Comments","CYLBURN AVE &W NORTHERN PKWY","BALTIMORE","WWHYDRAN","WW Hydrant Leaking","2014-09-07T20:39:17.000","2014-09-12T20:39:17.000","COLDSPRING","UPDATED","14-00673539","MD","CLOSED","2014-10-16T16:28:03.000","2014-10-16T16:31:27.000","21209",NA,NA
"WO - Repair Hydrant","5001  GREENSPRING AVE","BALTIMORE CITY","WWHYDRAN","WW Hydrant Leaking","2014-09-05T12:24:55.000","2014-09-10T12:24:55.000","LEVINDALE","CLOSED","14-00669270","MD","CLOSED","2014-10-10T18:49:21.000","2014-09-12T19:09:21.000","21215",NA,NA
"Cityworks SR Comments","200  TAPLOW RD","BALTIMORE CITY","WWHYDRAN","WW Hydrant Leaking","2014-09-05T10:49:35.000","2014-09-10T10:49:35.000","HOMELAND","UPDATED","14-00668928","MD","CLOSED","2014-11-05T12:33:40.000","2014-11-05T13:12:53.000","21212",NA,NA
"WO - Repair Water Valves","WICOMICO ST &W OSTEND ST","BALTIMORE CITY","WWHYDRAN","WW Hydrant Leaking","2014-09-04T20:03:44.000","2014-09-09T20:03:44.000","CARROLL - CAMDEN INDUSTRIAL AREA","CLOSED","14-00668042","MD","CLOSED","2014-09-23T15:16:27.000","2014-09-08T15:16:18.000","21230",NA,NA
"Cityworks SR Comments","ELSRODE AVE &E NORTHERN PKWY","BALTIMORE CITY","WWHYDRAN","WW Hydrant Leaking","2014-09-03T19:54:01.000","2014-09-08T19:54:01.000","WESTFIELD","UPDATED","14-00664216","MD","CLOSED","2014-09-17T16:18:44.000","2014-09-17T16:47:51.000","21214",NA,NA
"Cityworks SR Comments","827  LINDEN AVE","BALTIMORE CITY","WWHYDRAN","WW Hydrant Leaking","2014-09-01T11:59:27.000","2014-09-06T11:59:27.000","MOUNT VERNON","UPDATED","14-00656715","MD","CLOSED","2014-09-05T17:42:16.000","2014-09-05T18:28:02.000","21201",NA,NA
"WO - Repair Hydrant","220 W 29TH ST","BALTIMORE CITY","WWHYDRAN","WW Hydrant Leaking","2014-08-22T12:24:35.000","2014-08-27T12:24:35.000","REMINGTON","CLOSED","14-00632565","MD","CLOSED","2014-08-28T18:51:39.000","2014-08-25T18:49:44.000","21211",NA,NA
"WO - Repair Hydrant","2210 W COLD SPRING LN","BALTIMORE CITY","WWHYDRAN","WW Hydrant Leaking","2014-08-20T10:11:15.000","2014-08-25T10:11:15.000","WOODBERRY","CLOSED","14-00625296","MD","CLOSED","2014-09-02T18:35:28.000","2014-08-21T18:25:07.000","21209",NA,NA
"WO - Repair Asphalt Surface","2300  CYLBURN AVE","BALTIMORE CITY","WWHYDRAN","WW Hydrant Leaking","2014-08-19T11:42:38.000","2014-08-24T11:42:38.000","COLDSPRING","CLOSED","14-00621840","MD","CLOSED","2014-12-18T20:11:14.000","2014-10-29T10:45:05.000","21209",NA,NA
"WO - Repair Water Valves","1700  AIKEN ST","BALTIMORE CITY","WWHYDRAN","WW Hydrant Leaking","2014-08-19T11:20:48.000","2014-08-24T11:20:48.000","OLIVER","CLOSED","14-00621697","MD","CLOSED","2014-09-25T11:56:28.000","2014-09-24T11:55:54.000","21213",NA,NA
"Cityworks SR Comments","GOODWOOD RD & LATONA RD","BALTIMORE CITY","WWHYDRAN","WW Hydrant Leaking","2014-08-15T21:24:24.000","2014-08-20T21:24:24.000","LAURAVILLE","UPDATED","14-00615025","MD","CLOSED","2014-09-04T12:54:50.000","2014-09-04T13:07:03.000","21214",NA,NA
"WO - Repair Hydrant","CHRISTIAN ST & MILLINGTON AVE","BALTIMORE CITY","WWHYDRAN","WW Hydrant Leaking","2014-08-14T17:31:48.000","2014-08-19T17:31:48.000","MILLHILL","CLOSED","14-00610747","MD","CLOSED","2014-08-18T17:16:57.000","2014-08-18T17:15:11.000","21223",NA,NA
"WO - Repair Hydrant","2801  EASTERN AVE","BALTIMORE CITY","WWHYDRAN","WW Hydrant Leaking","2014-08-13T01:42:52.000","2014-08-18T01:42:52.000","CANTON","CLOSED","14-00604648","MD","CLOSED","2014-08-21T12:24:34.000","2014-08-20T12:18:34.000","21224",NA,NA
"Cityworks SR Comments","12 E MOUNT VERNON PL","BALTIMORE CITY","WWHYDRAN","WW Hydrant Leaking","2014-08-12T16:33:47.000","2014-08-17T16:33:47.000","MOUNT VERNON","UPDATED","14-00602921","MD","CLOSED","2014-08-15T12:39:00.000","2014-08-15T13:04:21.000","21202",NA,NA
NA,"718  WASHINGTON PL","BALTIMORE CITY","WWHYDRAN","WW Hydrant Leaking","2014-08-12T15:40:59.000","2014-08-17T15:40:59.000","MOUNT VERNON",NA,"14-00602691","MD","CLOSED","2014-08-12T15:42:58.000",NA,"21201",NA,NA
"WO - Repair Hydrant","5000  GREENSPRING AVE","BALTIMORE CITY","WWHYDRAN","WW Hydrant Leaking","2014-08-08T13:42:07.000","2014-08-13T13:42:07.000","LEVINDALE","CLOSED","14-00593107","MD","CLOSED","2014-08-20T12:41:05.000","2014-08-20T16:33:07.000","21215",NA,NA
"Cityworks SR Comments","E 29TH ST & SAINT PAUL ST","BALTIMORE CITY","WWHYDRAN","WW Hydrant Leaking","2014-08-08T10:33:29.000","2014-08-13T10:33:29.000","CHARLES VILLAGE","UPDATED","14-00592139","MD","CLOSED","2014-08-14T17:47:40.000","2014-08-14T18:01:36.000","21218",NA,NA
"WO - Repair Hydrant","E PRATT ST & SOUTH ST","BALTIMORE CITY","WWHYDRAN","WW Hydrant Leaking","2014-08-08T08:13:10.000","2014-08-13T08:13:10.000","INNER HARBOR","CLOSED","14-00591803","MD","CLOSED","2014-08-18T13:09:05.000","2014-08-15T13:08:02.000","21202",NA,NA
"Cityworks SR Comments","WILKENS AVE & HURLEY AVE","BALTIMORE CITY","WWHYDRAN","WW Hydrant Leaking","2014-08-01T18:39:51.000","2014-08-06T18:39:51.000","GWYNNS FALLS","UPDATED","14-00573746","MD","CLOSED","2014-08-06T14:47:18.000","2014-08-06T15:03:43.000","21223",NA,NA
"WO - Repair Hydrant","N LUZERNE AVE &E CHASE ST","BALTIMORE","WWHYDRAN","WW Hydrant Leaking","2015-05-17T19:54:36.000","2015-05-22T19:54:36.000","BIDDLE STREET","CLOSED","15-00386594","MD","CLOSED","2015-06-24T13:16:39.000","2015-06-23T13:12:49.000","21213",NA,NA
"Cityworks SR Comments","2322  BOSTON ST","BALTIMORE","WWHYDRAN","WW Hydrant Leaking","2015-06-29T21:30:31.000","2015-07-04T21:30:31.000","CANTON","UPDATED","15-00510248","MD","LOCKED","2015-06-29T21:37:21.000","2015-06-29T21:44:25.000","21224",NA,NA
"WO - Repair Hydrant","1300 N CALVERT ST","BALTIMORE","WWHYDRAN","WW Hydrant Leaking","2015-02-28T15:57:44.000","2015-03-05T15:57:44.000","MID-TOWN BELVEDERE","CLOSED","15-00155390","MD","CLOSED","2015-05-27T17:12:02.000","2015-05-27T17:11:38.000","21202",NA,NA
"Cityworks SR Comments","900  BEAUMONT AVE","BALTIMORE","WWHYDRAN","WW Hydrant Leaking","2015-05-13T11:04:05.000","2015-05-18T11:04:05.000","KENILWORTH PARK","UPDATED","15-00373542","MD","LOCKED","2015-05-13T11:10:19.000","2015-05-21T15:48:52.000","21212",NA,NA
"Cityworks SR Comments","35 S LINWOOD AVE","BALTIMORE","WWHYDRAN","WW Hydrant Leaking","2015-07-14T20:29:08.000","2015-07-19T20:29:08.000","BALTIMORE-LINWOOD","UPDATED","15-00554800","MD","LOCKED","2015-07-14T20:34:15.000","2015-07-14T20:44:47.000","21224",NA,NA
"Cityworks SR Comments","3200  ELMORA AVE","BALTIMORE","WWHYDRAN","WW Hydrant Leaking","2015-07-11T13:25:19.000","2015-07-16T13:25:19.000","FOUR BY FOUR","UPDATED","15-00545469","MD","LOCKED","2015-07-11T13:31:13.000","2015-07-11T13:42:31.000","21213",NA,NA
NA,"2322  BOSTON ST","BALTIMORE","WWHYDRAN","WW Hydrant Leaking","2015-06-30T14:28:13.000","2015-07-05T14:28:13.000","CANTON",NA,"15-00512597","MD","DUPOPEN","2015-06-30T14:28:13.000",NA,"21224",NA,NA
"WO - Repair Water Valves","3208  GIBBONS AVE","BALTIMORE","WWHYDRAN","WW Hydrant Leaking","2015-04-16T10:51:47.000","2015-04-21T10:51:47.000","WALTHERSON","CLOSED","15-00297251","MD","CLOSED","2015-06-15T21:49:37.000","2015-06-12T21:48:30.000","21214",NA,NA
"Cityworks SR Comments","531  LUCIA AVE","BALTIMORE","WWHYDRAN","WW Hydrant Leaking","2015-07-14T20:36:57.000","2015-07-19T20:36:57.000","YALE HEIGHTS","UPDATED","15-00554826","MD","LOCKED","2015-07-14T20:43:13.000","2015-07-14T20:54:44.000","21229",NA,NA
"Cityworks SR Comments","2946  WYMAN PKWY","BALTIMORE","WWHYDRAN","WW Hydrant Leaking","2015-08-03T14:10:21.000","2015-08-08T14:10:21.000","REMINGTON","UPDATED","15-00611936","MD","LOCKED","2015-08-03T14:16:17.000","2015-08-03T14:24:10.000","21211",NA,NA
NA,"101 S LINWOOD AVE","BALTIMORE","WWHYDRAN","WW Hydrant Leaking","2015-07-16T19:35:05.000","2015-07-21T19:35:05.000","BALTIMORE-LINWOOD",NA,"15-00562320","MD","DUPOPEN","2015-07-16T19:35:05.000",NA,"21224",NA,NA
"Cityworks SR Comments","W COLD SPRING LN & BRAND AVE, BALTIMORE,",NA,"WWHYDRAN","WW Hydrant Leaking","2015-07-09T18:22:32.000","2015-07-14T18:22:32.000","COLDSPRING","UPDATED","15-00540413","MD","LOCKED","2015-07-09T18:28:17.000","2015-07-09T18:41:18.000",NA,NA,NA
"Cityworks SR Comments","800  CARROLL ST","BALTIMORE","WWHYDRAN","WW Hydrant Leaking","2015-05-15T13:14:42.000","2015-05-20T13:14:42.000","WASHINGTON VILLAGE","UPDATED","15-00382041","MD","LOCKED","2015-05-15T13:20:59.000","2015-05-15T13:24:05.000","21230",NA,NA
"Cityworks SR Comments","MOUNT HOLLY ST & HARLEM AVE, BALTIMORE,","   Baltimore","WWHYDRAN","WW Hydrant Leaking","2015-06-28T20:57:40.000","2015-07-03T20:57:40.000","EDMONDSON VILLAGE","UPDATED","15-00505616","MD","LOCKED","2015-06-28T21:04:15.000","2015-06-28T21:13:48.000","21229",NA,NA
NA,"1800  EUTAW PL","BALTIMORE","WWHYDRAN","WW Hydrant Leaking","2015-04-09T16:45:40.000","2015-04-14T16:45:40.000","MADISON PARK",NA,"15-00278267","MD","DUPCLOSD","2015-04-09T16:45:40.000",NA,"21217",NA,NA
"Cityworks SR Comments","E LOMBARD ST & S KRESSON ST, BALTIMORE,",NA,"WWHYDRAN","WW Hydrant Leaking","2015-07-29T00:13:03.000","2015-08-03T00:13:03.000","CANTON INDUSTRIAL AREA","UPDATED","15-00598365","MD","LOCKED","2015-07-29T00:19:11.000","2015-07-29T00:29:54.000",NA,NA,NA
"Cityworks SR Comments","ARGONNE DR & WESTVIEW RD, BALTIMORE, MD,",NA,"WWHYDRAN","WW Hydrant Leaking","2015-07-28T23:22:15.000","2015-08-02T23:22:15.000","ORIGINAL NORTHWOOD","UPDATED","15-00598312","MD","LOCKED","2015-07-28T23:28:18.000","2015-07-28T23:40:06.000",NA,NA,NA
"Cityworks SR Comments","BEAUMONT AVE & MIDWOOD AVE","BALTIMORE","WWHYDRAN","WW Hydrant Leaking","2015-05-22T23:57:31.000","2015-05-27T23:57:31.000","WINSTON-GOVANS","UPDATED","15-00402833","MD","LOCKED","2015-05-23T00:04:48.000","2015-05-23T00:10:05.000","21212",NA,NA
"Cityworks SR Comments","3641  LEO ST","BALTIMORE","WWHYDRAN","WW Hydrant Leaking","2015-05-21T11:16:10.000","2015-05-26T11:16:10.000","FAIRFIELD AREA","UPDATED","15-00397922","MD","CLOSED","2015-07-13T12:26:39.000","2015-06-27T14:52:43.000","21226",NA,NA
"Cityworks SR Comments","2609  GAGE CT","BALTIMORE","WWHYDRAN","WW Hydrant Leaking","2015-07-08T20:43:21.000","2015-07-13T20:43:21.000","CHESWOLDE","UPDATED","15-00537029","MD","LOCKED","2015-07-08T20:49:14.000","2015-07-08T21:00:36.000","21209",NA,NA
"Cityworks SR Comments","MIDWOOD AVE & BEAUMONT AVE, BALTIMORE, M",NA,"WWHYDRAN","WW Hydrant Leaking","2015-06-09T14:26:09.000","2015-06-14T14:26:09.000","WINSTON-GOVANS","UPDATED","15-00448244","MD","LOCKED","2015-06-09T14:31:19.000","2015-06-09T14:35:33.000",NA,NA,NA
"Cityworks SR Comments","1811  WINCHESTER ST","BALTIMORE","WWHYDRAN","WW Hydrant Leaking","2015-04-17T16:48:57.000","2015-04-22T16:48:57.000","SANDTOWN-WINCHESTER","UPDATED","15-00302925","MD","CLOSED","2015-06-20T16:19:03.000","2015-06-20T16:28:04.000","21217",NA,NA
"Cityworks SR Comments","201  SOUTHWAY","BALTIMORE","WWHYDRAN","WW Hydrant Leaking","2015-07-01T14:28:55.000","2015-07-06T14:28:55.000","OAKENSHAWE","UPDATED","15-00516474","MD","LOCKED","2015-07-01T14:34:16.000","2015-07-01T14:45:41.000","21218",NA,NA
"Cityworks SR Comments","4501 E LOMBARD ST","BALTIMORE","WWHYDRAN","WW Hydrant Leaking","2015-06-30T15:36:42.000","2015-07-05T15:36:42.000","CANTON INDUSTRIAL AREA","UPDATED","15-00512977","MD","LOCKED","2015-06-30T15:43:15.000","2015-06-30T15:55:03.000","21224",NA,NA
"Cityworks SR Comments","701 W 36TH ST","BALTIMORE","WWHYDRAN","WW Hydrant Leaking","2015-04-22T23:18:34.000","2015-04-27T23:18:34.000","HAMPDEN","UPDATED","15-00316929","MD","CLOSED","2015-05-14T18:05:55.000","2015-05-14T18:12:54.000","21211",NA,NA
"Cityworks SR Comments","101 S LINWOOD AVE","BALTIMORE","WWHYDRAN","WW Hydrant Leaking","2015-08-03T15:26:11.000","2015-08-08T15:26:11.000","BALTIMORE-LINWOOD","UPDATED","15-00612729","MD","LOCKED","2015-08-03T15:34:11.000","2015-08-03T15:44:09.000","21224",NA,NA
"Cityworks SR Comments","MARYLAND AVE & W 24TH ST, BALTIMORE, MD,","   Baltimore","WWHYDRAN","WW Hydrant Leaking","2015-08-03T14:14:12.000","2015-08-08T14:14:12.000","CHARLES VILLAGE","UPDATED","15-00611959","MD","LOCKED","2015-08-03T14:22:14.000","2015-08-03T14:34:15.000","21218",NA,NA
"WO - Repair Hydrant","W BIDDLE ST & MARYLAND AVE","BALTIMORE CITY","WWHYDRAN","WW Hydrant Leaking","2014-08-10T18:05:15.000","2014-08-15T18:05:15.000","MID-TOWN BELVEDERE","CLOSED","14-00597095","MD","HOLDLOCK","2014-08-20T12:42:48.000","2015-05-28T18:08:50.000","21201",NA,NA
"Cityworks SR Comments","N WOODINGTON RD & COLBORNE RD, BALTIMORE",NA,"WWHYDRAN","WW Hydrant Leaking","2015-07-07T20:20:38.000","2015-07-12T20:20:38.000","ROGNEL HEIGHTS","UPDATED","15-00532701","MD","LOCKED","2015-07-07T20:28:18.000","2015-07-07T20:40:06.000",NA,NA,NA
"Cityworks SR Comments","3509 N CHARLES ST","BALTIMORE","WWHYDRAN","WW Hydrant Leaking","2015-07-02T02:56:01.000","2015-07-07T02:56:01.000","CHARLES VILLAGE","UPDATED","15-00518502","MD","LOCKED","2015-07-02T03:01:14.000","2015-07-02T03:15:57.000","21218",NA,NA
"Cityworks SR Comments","3634  MANCHESTER AVE","BALTIMORE","WWHYDRAN","WW Hydrant Leaking","2015-05-03T20:38:40.000","2015-05-08T20:38:40.000","CENTRAL PARK HEIGHTS","UPDATED","15-00344709","MD","CLOSED","2015-05-20T17:58:46.000","2015-05-20T18:08:13.000","21215",NA,NA
"Cityworks SR Comments","2100 E FAYETTE ST","BALTIMORE","WWHYDRAN","WW Hydrant Leaking","2015-07-09T01:13:28.000","2015-07-14T01:13:28.000","MIDDLE EAST","UPDATED","15-00537609","MD","LOCKED","2015-07-09T01:19:14.000","2015-07-09T01:30:50.000","21231",NA,NA
NA,"2938  O'DONNELL ST","BALTIMORE","WWHYDRAN","WW Hydrant Leaking","2015-07-20T16:08:37.000","2015-07-25T16:08:37.000","CANTON",NA,"15-00570689","MD","DUPOPEN","2015-07-20T16:08:37.000",NA,"21224",NA,NA
"Cityworks SR Comments","E LOMBARD ST & S LINWOOD AVE, BALTIMORE,",NA,"WWHYDRAN","WW Hydrant Leaking","2015-07-21T15:01:22.000","2015-07-26T15:01:22.000","BALTIMORE-LINWOOD","See Duplicate SR in Details","15-00574173","MD","CLOSED","2015-07-21T17:33:17.000","2015-07-21T15:14:00.000",NA,NA,NA
"Cityworks SR Comments","3206  GIBBONS AVE","BALTIMORE","WWHYDRAN","WW Hydrant Leaking","2015-04-07T18:41:42.000","2015-04-12T18:41:42.000","WALTHERSON","UPDATED","15-00271750","MD","CLOSED","2015-05-20T14:02:43.000","2015-05-11T18:10:42.000","21214",NA,NA
"Cityworks SR Comments","2415 E FAYETTE ST","BALTIMORE","WWHYDRAN","WW Hydrant Leaking","2015-05-25T14:37:02.000","2015-05-30T14:37:02.000","PATTERSON PLACE","UPDATED","15-00405961","MD","LOCKED","2015-05-25T14:43:12.000","2015-05-25T14:51:41.000","21224",NA,NA
"Cityworks SR Comments","3535  NEWLAND RD","BALTIMORE","WWHYDRAN","WW Hydrant Leaking","2015-05-29T00:17:43.000","2015-06-03T00:17:43.000","GUILFORD","UPDATED","15-00418399","MD","CLOSED","2015-06-27T15:48:59.000","2015-06-27T15:52:53.000","21218",NA,NA
NA,"2345  EASTERN AVE","BALTIMORE","WWHYDRAN","WW Hydrant Leaking","2015-06-28T18:19:02.000","2015-07-03T18:19:02.000","CANTON",NA,"15-00505438","MD","DUPOPEN","2015-06-28T18:19:02.000",NA,"21224",NA,NA
"Cityworks SR Comments","1937  GOUGH ST","BALTIMORE","WWHYDRAN","WW Hydrant Leaking","2015-08-03T16:14:06.000","2015-08-08T16:14:06.000","UPPER FELLS POINT","UPDATED","15-00613307","MD","LOCKED","2015-08-03T16:19:11.000","2015-08-03T16:24:14.000","21231",NA,NA
"Cityworks SR Comments","ORLEANS ST &N LINWOOD AVE","BALTIMORE","WWHYDRAN","WW Hydrant Leaking","2015-05-12T18:59:23.000","2015-05-17T18:59:23.000","MCELDERRY PARK","UPDATED","15-00371916","MD","CLOSED","2015-06-20T17:22:54.000","2015-06-20T17:28:06.000","21224",NA,NA
"Cityworks SR Comments","1700 E COLD SPRING LN","BALTIMORE","WWHYDRAN","WW Hydrant Leaking","2015-06-23T22:42:55.000","2015-06-28T22:42:55.000","STONEWOOD-PENTWOOD-WINSTON","UPDATED","15-00490986","MD","LOCKED","2015-06-23T22:49:15.000","2015-06-23T23:00:24.000","21239",NA,NA
"Cityworks SR Comments","2946  WYMAN PKWY","BALTIMORE","WWHYDRAN","WW Hydrant Leaking","2015-07-14T23:40:35.000","2015-07-19T23:40:35.000","REMINGTON","UPDATED","15-00555227","MD","LOCKED","2015-07-14T23:46:13.000","2015-07-14T23:54:52.000","21211",NA,NA
"Cityworks SR Comments","3252  KESWICK RD","BALTIMORE","WWHYDRAN","WW Hydrant Leaking","2015-04-23T00:25:14.000","2015-04-28T00:25:14.000","HAMPDEN","UPDATED","15-00316976","MD","LOCKED","2015-04-23T00:31:15.000","2015-05-14T18:42:57.000","21211",NA,NA
"Cityworks SR Comments","5  GITTINGS AVE","BALTIMORE","WWHYDRAN","WW Hydrant Leaking","2015-04-15T22:58:37.000","2015-04-20T22:58:37.000","BELLONA-GITTINGS","UPDATED","15-00296911","MD","CLOSED","2015-05-20T15:44:52.000","2015-05-20T15:47:47.000","21212",NA,NA
"Cityworks SR Comments","201 S CENTRAL AVE","BALTIMORE","WWHYDRAN","WW Hydrant Leaking","2015-04-11T03:13:19.000","2015-04-16T03:13:19.000","WASHINGTON HILL","UPDATED","15-00283437","MD","CLOSED","2015-05-14T12:22:18.000","2015-05-14T12:33:03.000","21202",NA,NA
"Cityworks SR Comments","1201  GLYNDON AVE","BALTIMORE","WWHYDRAN","WW Hydrant Leaking","2015-06-23T15:40:19.000","2015-06-28T15:40:19.000","WASHINGTON VILLAGE","UPDATED","15-00489480","MD","LOCKED","2015-06-23T15:46:15.000","2015-06-23T16:00:06.000",NA,NA,NA
"Cityworks SR Comments","3 S LINWOOD AVE","BALTIMORE","WWHYDRAN","WW Hydrant Leaking","2015-07-22T22:50:29.000","2015-07-27T22:50:29.000","BALTIMORE-LINWOOD","UPDATED","15-00579865","MD","LOCKED","2015-07-22T22:58:12.000","2015-07-22T23:05:24.000","21224",NA,NA
NA,"100 S LINWOOD AVE","BALTIMORE","WWHYDRAN","WW Hydrant Leaking","2015-07-27T12:12:53.000","2015-08-01T12:12:53.000","PATTERSON PARK",NA,"15-00592243","MD","DUPOPEN","2015-07-27T12:12:53.000",NA,"21224",NA,NA
"WO - Repair Hydrant","3809  JUNIPER RD","BALTIMORE","WWHYDRAN","WW Hydrant Leaking","2015-03-23T13:35:44.000","2015-03-28T13:35:44.000","GUILFORD","CLOSED","15-00228177","MD","CLOSED","2015-06-30T15:28:56.000","2015-06-29T15:25:22.000","21218",NA,NA
"Cityworks SR Comments","SPRINGFIELD AVE & ADRIAN AVE, BALTIMORE,",NA,"WWHYDRAN","WW Hydrant Leaking","2015-06-11T16:28:48.000","2015-06-16T16:28:48.000","ORIGINAL NORTHWOOD","UPDATED","15-00455412","MD","CLOSED","2015-06-15T21:19:36.000","2015-06-15T21:24:39.000",NA,NA,NA
"Cityworks SR Comments","701  OLDHAM ST","BALTIMORE","WWHYDRAN","WW Hydrant Leaking","2015-07-07T22:50:15.000","2015-07-12T22:50:15.000","GREEKTOWN","UPDATED","15-00533164","MD","LOCKED","2015-07-07T22:58:15.000","2015-07-07T23:09:52.000","21224",NA,NA
"Cityworks SR Comments","HILLEN RD & E COLD SPRING LN, BALTIMORE,",NA,"WWHYDRAN","WW Hydrant Leaking","2015-06-14T21:37:53.000","2015-06-19T21:37:53.000","MORGAN STATE UNIVERSITY","UPDATED","15-00462069","MD","LOCKED","2015-06-14T21:43:13.000","2015-06-14T21:53:54.000",NA,NA,NA
"Cityworks SR Comments","1251  LIMIT AVE","BALTIMORE CITY","WWHYDRAN","WW Hydrant Leaking","2014-10-29T22:38:05.000","2014-11-03T22:38:05.000","IDLEWOOD","UPDATED","14-00814778","MD","CLOSED","2015-07-09T13:34:43.000","2014-12-10T14:15:57.000","21239",NA,NA
"Cityworks SR Comments","3100  FALLS RD","BALTIMORE","WWHYDRAN","WW Hydrant Leaking","2015-07-13T21:18:43.000","2015-07-18T21:18:43.000","JONES FALLS AREA","UPDATED","15-00551160","MD","LOCKED","2015-07-13T21:25:14.000","2015-07-13T21:34:02.000","21211",NA,NA
NA,"3208  GIBBONS AVE","BALTIMORE","WWHYDRAN","WW Hydrant Leaking","2015-04-18T18:18:24.000","2015-04-23T18:18:24.000","WALTHERSON",NA,"15-00305252","MD","DUPCLOSD","2015-04-18T18:18:24.000",NA,"21214",NA,NA
"Cityworks SR Comments","N MONASTERY AVE & W CATON AVE, BALTIMORE",NA,"WWHYDRAN","WW Hydrant Leaking","2015-08-02T17:51:26.000","2015-08-07T17:51:26.000","SAINT JOSEPHS","UPDATED","15-00610086","MD","LOCKED","2015-08-02T17:58:11.000","2015-08-02T18:03:37.000",NA,NA,NA
NA,"3535  NEWLAND RD","BALTIMORE","WWHYDRAN","WW Hydrant Leaking","2015-05-29T09:16:46.000","2015-06-03T09:16:46.000","GUILFORD",NA,"15-00418666","MD","DUPCLOSD","2015-05-29T09:16:46.000",NA,"21218",NA,NA
"Cityworks SR Comments","704  MURPHY LN","BALTIMORE","WWHYDRAN","WW Hydrant Leaking","2014-12-23T10:24:35.000","2014-12-28T10:24:35.000","HERITAGE CROSSING","UPDATED","14-00951241","MD","CLOSED","2015-06-18T21:31:30.000","2015-02-03T14:35:46.000","21201",NA,NA
"WO - Repair Hydrant","500 N EDGEWOOD ST","BALTIMORE","WWHYDRAN","WW Hydrant Leaking","2015-03-02T20:41:08.000","2015-03-07T20:41:08.000","ALLENDALE","CLOSED","15-00161157","MD","HOLDLOCK","2015-03-21T13:05:44.000","2015-05-28T15:45:52.000","21229",NA,NA
"Cityworks SR Comments","123 N BRADFORD ST","BALTIMORE","WWHYDRAN","WW Hydrant Leaking","2015-06-23T00:05:45.000","2015-06-28T00:05:45.000","PATTERSON PLACE","UPDATED","15-00487281","MD","LOCKED","2015-06-23T00:13:14.000","2015-06-23T00:19:40.000","21224",NA,NA
"Cityworks SR Comments","1800  EUTAW PL","BALTIMORE","WWHYDRAN","WW Hydrant Leaking","2015-04-07T00:59:28.000","2015-04-12T00:59:28.000","MADISON PARK","UPDATED","15-00269316","MD","CLOSED","2015-06-18T21:56:24.000","2015-04-20T14:39:05.000","21217",NA,NA
"Cityworks SR Comments","E NORTH AVE & GUILFORD AVE, BALTIMORE, M","Baltimore","WWHYDRAN","WW Hydrant Leaking","2015-07-21T12:07:58.000","2015-07-26T12:07:58.000","GREENMOUNT WEST","UPDATED","15-00572943","MD","LOCKED","2015-07-21T12:13:12.000","2015-07-21T12:24:21.000","21202",NA,NA
"Cityworks SR Comments","1600 S CATON AVE","BALTIMORE","WWHYDRAN","WW Hydrant Leaking","2015-07-02T12:49:59.000","2015-07-07T12:49:59.000","VIOLETVILLE","UPDATED","15-00519147","MD","LOCKED","2015-07-02T12:55:15.000","2015-07-02T13:06:49.000","21227",NA,NA
"WO - Repair Concrete Surface","PARKSIDE DR & WALTHER AVE","BALTIMORE","WWHYDRAN","WW Hydrant Leaking","2015-04-06T01:36:24.000","2015-04-11T01:36:24.000","HERRING RUN PARK","CLOSED","15-00265773","MD","CLOSED","2015-06-20T15:51:41.000","2015-04-22T12:39:51.000","21214",NA,NA
"WO - Repair Landscape Surface","4214  KOLB AVE","BALTIMORE","WWHYDRAN","WW Hydrant Leaking","2014-11-21T14:54:29.000","2014-11-26T14:54:29.000","CEDMONT","CLOSED","14-00878834","MD","HOLDLOCK","2014-12-08T12:19:31.000","2015-07-21T20:56:51.000","21206",NA,NA
"Cityworks SR Comments","5101  ERDMAN AVE","BALTIMORE","WWHYDRAN","WW Hydrant Leaking","2015-07-22T10:05:25.000","2015-07-27T10:05:25.000","ORANGEVILLE","UPDATED","15-00576587","MD","LOCKED","2015-07-22T10:13:11.000","2015-07-22T10:25:15.000","21205",NA,NA
"Cityworks SR Comments","1900 E EAGER ST","BALTIMORE","WWHYDRAN","WW Hydrant Leaking","2015-06-24T11:23:13.000","2015-06-29T11:23:13.000","MIDDLE EAST","UPDATED","15-00491527","MD","CLOSED","2015-06-29T13:36:53.000","2015-06-29T13:44:25.000","21205",NA,NA
"Cityworks SR Comments","3208  GIBBONS AVE","BALTIMORE","WWHYDRAN","WW Hydrant Leaking","2015-05-19T21:47:12.000","2015-05-24T21:47:12.000","WALTHERSON","UPDATED","15-00394008","MD","CLOSED","2015-07-09T16:24:32.000","2015-07-09T16:31:15.000","21214",NA,NA
"Cityworks SR Comments","3716  CRANSTON AVE","BALTIMORE","WWHYDRAN","WW Hydrant Leaking","2015-06-13T11:43:03.000","2015-06-18T11:43:03.000","EDMONDSON VILLAGE","UPDATED","15-00460306","MD","LOCKED","2015-06-13T11:49:14.000","2015-06-13T12:02:58.000","21229",NA,NA
"Cityworks SR Comments","1500  LAKESIDE AVE","BALTIMORE","WWHYDRAN","WW Hydrant Leaking","2015-07-01T19:59:41.000","2015-07-06T19:59:41.000","EDNOR GARDENS-LAKESIDE","UPDATED","15-00517857","MD","LOCKED","2015-07-01T20:07:14.000","2015-07-01T20:15:44.000","21218",NA,NA
"Cityworks SR Comments","S CATON AVE & JOH AVE, BALTIMORE, MD, 21",NA,"WWHYDRAN","WW Hydrant Leaking","2015-06-16T12:43:50.000","2015-06-21T12:43:50.000","MORRELL PARK","UPDATED","15-00467126","MD","LOCKED","2015-06-16T12:49:16.000","2015-06-16T12:55:15.000",NA,NA,NA
"WO - Repair Hydrant","4300 E LOMBARD ST","BALTIMORE","WWHYDRAN","WW Hydrant Leaking","2015-06-12T12:15:55.000","2015-06-17T12:15:55.000","KRESSON","CLOSED","15-00457520","MD","HOLDLOCK","2015-06-15T14:50:07.000","2015-06-16T13:28:06.000","21224",NA,NA
"Cityworks SR Comments","242 S PATTERSON PARK AVE","BALTIMORE","WWHYDRAN","WW Hydrant Leaking","2015-04-24T21:12:37.000","2015-04-29T21:12:37.000","UPPER FELLS POINT","UPDATED","15-00323635","MD","CLOSED","2015-07-09T13:44:06.000","2015-07-09T13:51:08.000","21231",NA,NA
"WO - Repair Hydrant","5  GITTINGS AVE","BALTIMORE","WWHYDRAN","WW Hydrant Leaking","2015-01-01T11:24:49.000","2015-01-06T11:24:49.000","BELLONA-GITTINGS","CLOSED","15-00000070","MD","CLOSED","2015-05-15T19:20:28.000","2015-05-14T19:17:10.000","21212",NA,NA
"Cityworks SR Comments","500  MCCABE AVE","BALTIMORE","WWHYDRAN","WW Hydrant Leaking","2015-06-30T18:56:22.000","2015-07-05T18:56:22.000","WOODBOURNE-MCCABE","UPDATED","15-00513809","MD","LOCKED","2015-06-30T19:04:15.000","2015-06-30T19:15:17.000","21212",NA,NA
"Cityworks SR Comments","2936  O'DONNELL ST","BALTIMORE","WWHYDRAN","WW Hydrant Leaking","2015-07-15T18:05:44.000","2015-07-20T18:05:44.000","CANTON","UPDATED","15-00557947","MD","LOCKED","2015-07-15T18:13:16.000","2015-07-15T18:25:26.000","21224",NA,NA
"Cityworks SR Comments","1107  BRYN MAWR RD","BALTIMORE","WWHYDRAN","WW Hydrant Leaking","2015-05-13T23:41:32.000","2015-05-18T23:41:32.000","NORTH ROLAND PARK/POPLAR HILL","UPDATED","15-00376814","MD","LOCKED","2015-05-13T23:49:13.000","2015-05-14T00:02:19.000","21210",NA,NA
NA,"35 S LINWOOD AVE","BALTIMORE","WWHYDRAN","WW Hydrant Leaking","2015-07-28T14:22:37.000","2015-08-02T14:22:37.000","BALTIMORE-LINWOOD",NA,"15-00596177","MD","DUPOPEN","2015-07-28T14:22:37.000",NA,"21224",NA,NA
"Cityworks SR Comments","301 S CLINTON ST","BALTIMORE","WWHYDRAN","WW Hydrant Leaking","2015-06-28T12:38:37.000","2015-07-03T12:38:37.000","HIGHLANDTOWN","UPDATED","15-00504917","MD","LOCKED","2015-06-28T12:46:16.000","2015-06-28T12:53:30.000","21224",NA,NA
NA,"900 N WOODINGTON RD","BALTIMORE","WWHYDRAN","WW Hydrant Leaking","2015-07-09T13:15:23.000","2015-07-14T13:15:23.000","ROGNEL HEIGHTS",NA,"15-00538654","MD","CLOSED","2015-07-13T14:44:54.000",NA,"21229",NA,NA
"Cityworks SR Comments","2609  GAGE CT","BALTIMORE","WWHYDRAN","WW Hydrant Leaking","2015-07-14T16:28:18.000","2015-07-19T16:28:18.000","CHESWOLDE","UPDATED","15-00553922","MD","LOCKED","2015-07-14T16:34:17.000","2015-07-14T16:44:40.000","21209",NA,NA
"WO - Repair Hydrant","N MONASTERY AVE &W LEXINGTON ST","BALTIMORE","WWHYDRAN","WW Hydrant Leaking","2015-05-06T23:47:22.000","2015-05-11T23:47:22.000","ALLENDALE","CLOSED","15-00355977","MD","CLOSED","2015-06-22T13:44:29.000","2015-06-17T13:41:49.000","21229",NA,NA
"Cityworks SR Comments","GREENMOUNT AVE & E NORTH AVE, BALTIMORE,",NA,"WWHYDRAN","WW Hydrant Leaking","2015-07-15T23:20:11.000","2015-07-20T23:20:11.000","BARCLAY","UPDATED","15-00559074","MD","LOCKED","2015-07-15T23:25:16.000","2015-07-15T23:35:30.000",NA,NA,NA
"WO - Repair Hydrant","3206  GIBBONS AVE","BALTIMORE","WWHYDRAN","WW Hydrant Leaking","2015-03-28T01:45:50.000","2015-04-02T01:45:50.000","WALTHERSON","CLOSED","15-00245461","MD","CLOSED","2015-05-20T16:20:56.000","2015-05-20T16:18:31.000","21214",NA,NA
"Cityworks SR Comments","100 S GAY ST","BALTIMORE","WWHYDRAN","WW Hydrant Leaking","2015-06-26T10:15:30.000","2015-07-01T10:15:30.000","INNER HARBOR","UPDATED","15-00500477","MD","LOCKED","2015-06-26T10:22:14.000","2015-06-26T10:31:55.000","21202",NA,NA
NA,"101 S LINWOOD AVE","BALTIMORE","WWHYDRAN","WW Hydrant Leaking","2015-07-23T22:10:18.000","2015-07-28T22:10:18.000","BALTIMORE-LINWOOD",NA,"15-00583666","MD","DUPOPEN","2015-07-23T22:10:18.000",NA,"21224",NA,NA
NA,"1100  SPRINGFIELD AVE","BALTIMORE","WWHYDRAN","WW Hydrant Leaking","2015-07-15T20:31:09.000","2015-07-20T20:31:09.000","NEW NORTHWOOD",NA,"15-00558542","MD","DUPOPEN","2015-07-15T20:31:09.000",NA,"21239",NA,NA
"Cityworks SR Comments","306  NORTHFIELD PL","BALTIMORE","WWHYDRAN","WW Hydrant Leaking","2015-05-26T20:14:29.000","2015-05-31T20:14:29.000","KESWICK","UPDATED","15-00409760","MD","LOCKED","2015-05-26T20:22:25.000","2015-05-26T20:32:39.000","21210",NA,NA
"WO - Repair Hydrant","800  ALLENDALE ST","BALTIMORE","WWHYDRAN","WW Hydrant Leaking","2015-05-18T22:27:08.000","2015-05-23T22:27:08.000","EDMONDSON VILLAGE","CLOSED","15-00390445","MD","CLOSED","2015-05-26T17:24:15.000","2015-05-26T17:20:54.000","21229",NA,NA
"WO - Repair Hydrant","1800 E OLIVER ST","BALTIMORE","WWHYDRAN","WW Hydrant Leaking","2015-06-05T14:16:13.000","2015-06-10T14:16:13.000","BROADWAY EAST","CLOSED","15-00440860","MD","CLOSED","2015-07-13T17:07:57.000","2015-06-23T12:46:59.000","21213",NA,NA
"Cityworks SR Comments","2974  FALLS RD","BALTIMORE","WWHYDRAN","WW Hydrant Leaking","2015-07-27T12:25:24.000","2015-08-01T12:25:24.000","JONES FALLS AREA","UPDATED","15-00592307","MD","LOCKED","2015-07-27T12:31:12.000","2015-07-27T12:38:54.000","21211",NA,NA
"Cityworks SR Comments","E EAGER ST & N WASHINGTON ST, BALTIMORE,",NA,"WWHYDRAN","WW Hydrant Leaking","2015-06-24T14:33:23.000","2015-06-29T14:33:23.000","MIDDLE EAST","UPDATED","15-00492815","MD","LOCKED","2015-06-24T14:40:15.000","2015-06-24T14:50:46.000",NA,NA,NA
"Cityworks SR Comments","3206  GIBBONS AVE","BALTIMORE","WWHYDRAN","WW Hydrant Leaking","2015-05-12T19:45:32.000","2015-05-17T19:45:32.000","WALTHERSON","UPDATED","15-00372169","MD","CLOSED","2015-06-23T17:41:03.000","2015-06-23T17:50:37.000","21214",NA,NA
"Cityworks SR Comments","EASTERN AVE & S MONTFORD AVE, BALTIMORE,","   Baltimore","WWHYDRAN","WW Hydrant Leaking","2015-06-28T14:01:44.000","2015-07-03T14:01:44.000","CANTON","UPDATED","15-00505049","MD","LOCKED","2015-06-28T14:07:15.000","2015-06-28T14:13:34.000","21224",NA,NA
NA,"900  BEAUMONT AVE","BALTIMORE","WWHYDRAN","WW Hydrant Leaking","2015-05-14T19:46:51.000","2015-05-19T19:46:51.000","KENILWORTH PARK",NA,"15-00380122","MD","DUPOPEN","2015-05-14T19:46:51.000",NA,"21212",NA,NA
NA,"3535  NEWLAND RD","BALTIMORE","WWHYDRAN","WW Hydrant Leaking","2015-06-25T16:09:02.000","2015-06-30T16:09:02.000","GUILFORD",NA,"15-00498575","MD","DUPCLOSD","2015-06-25T16:09:02.000",NA,"21212",NA,NA
"Cityworks SR Comments","200 S EAST AVE","BALTIMORE","WWHYDRAN","WW Hydrant Leaking","2015-06-02T20:58:24.000","2015-06-07T20:58:24.000","HIGHLANDTOWN","UPDATED","15-00431239","MD","LOCKED","2015-06-02T21:04:19.000","2015-06-02T21:08:52.000","21224",NA,NA
"Cityworks SR Comments","6201  FAIR OAKS AVE","BALTIMORE","WWHYDRAN","WW Hydrant Leaking","2015-05-19T10:37:22.000","2015-05-24T10:37:22.000","CHRISTOPHER","UPDATED","15-00390762","MD","LOCKED","2015-05-19T10:43:16.000","2015-05-19T10:46:59.000","21214",NA,NA
"Cityworks SR Comments","2301  SOUTHERN AVE","BALTIMORE","WWHYDRAN","WW Hydrant Leaking","2015-06-22T21:33:03.000","2015-06-27T21:33:03.000","LAURAVILLE","UPDATED","15-00487033","MD","LOCKED","2015-06-22T21:40:16.000","2015-06-22T21:49:36.000","21214",NA,NA
"Cityworks SR Comments","W PATAPSCO AVE & ROSALIE RD, BALTIMORE,",NA,"WWHYDRAN","WW Hydrant Leaking","2015-07-07T13:46:40.000","2015-07-12T13:46:40.000","MORRELL PARK","UPDATED","15-00530942","MD","LOCKED","2015-07-07T13:52:15.000","2015-07-07T13:59:45.000",NA,NA,NA
"Cityworks SR Comments","6405  DORAL DR","BALTIMORE","WWHYDRAN","WW Hydrant Leaking","2015-06-22T14:18:52.000","2015-06-27T14:18:52.000","CHESWOLDE","UPDATED","15-00485235","MD","LOCKED","2015-06-22T14:25:15.000","2015-06-22T14:29:47.000","21209",NA,NA
"Cityworks SR Comments","4401  REISTERSTOWN RD","BALTIMORE","WWHYDRAN","WW Hydrant Leaking","2015-05-20T00:57:59.000","2015-05-25T00:57:59.000","CENTRAL PARK HEIGHTS","UPDATED","15-00394285","MD","LOCKED","2015-05-20T01:04:28.000","2015-05-20T01:07:39.000","21215",NA,NA
"Cityworks SR Comments","COLBORNE RD & N WOODINGTON RD, BALTIMORE",NA,"WWHYDRAN","WW Hydrant Leaking","2015-07-14T21:56:42.000","2015-07-19T21:56:42.000","ROGNEL HEIGHTS","UPDATED","15-00555051","MD","LOCKED","2015-07-14T22:04:12.000","2015-07-14T22:14:50.000",NA,NA,NA
"Cityworks SR Comments","S PATTERSON PARK AVE & GOUGH ST","BALTIMORE","WWHYDRAN","WW Hydrant Leaking","2015-04-16T11:01:01.000","2015-04-21T11:01:01.000","PATTERSON PARK","UPDATED","15-00297279","MD","CLOSED","2015-07-09T13:45:17.000","2015-07-09T13:51:08.000","21224",NA,NA
"Cityworks SR Comments","1000  WOODSON RD","BALTIMORE","WWHYDRAN","WW Hydrant Leaking","2015-08-02T13:20:22.000","2015-08-07T13:20:22.000","LAKE WALKER","UPDATED","15-00609876","MD","LOCKED","2015-08-02T13:28:11.000","2015-08-02T13:33:21.000","21212",NA,NA
"Cityworks SR Comments","SPRINGFIELD AVE & ADRIAN AVE","BALTIMORE","WWHYDRAN","WW Hydrant Leaking","2015-05-20T11:23:37.000","2015-05-25T11:23:37.000","ORIGINAL NORTHWOOD","UPDATED","15-00394588","MD","LOCKED","2015-05-20T11:31:15.000","2015-05-20T11:37:38.000","21239",NA,NA
"WO - Repair Hydrant","906  PENNSYLVANIA AVE","BALTIMORE CITY","WWHYDRAN","WW Hydrant Leaking","2014-10-27T12:18:03.000","2014-11-01T12:18:03.000","HERITAGE CROSSING","CLOSED","14-00805626","MD","CLOSED","2015-06-22T13:35:54.000","2015-06-17T12:43:27.000","21201",NA,NA
"Cityworks SR Comments","1800 N MILTON AVE","BALTIMORE","WWHYDRAN","WW Hydrant Leaking","2015-05-04T16:38:21.000","2015-05-09T16:38:21.000","BROADWAY EAST","UPDATED","15-00347256","MD","CLOSED","2015-06-23T16:37:41.000","2015-06-23T16:40:17.000","21213",NA,NA
"Cityworks SR Comments","1251  FRAILEY WAY","BALTIMORE","WWHYDRAN","WW Hydrant Leaking","2015-04-10T13:07:33.000","2015-04-15T13:07:33.000","ARMISTEAD GARDENS","UPDATED","15-00280633","MD","CLOSED","2015-06-08T13:18:34.000","2015-04-10T13:20:30.000","21205",NA,NA
"Cityworks SR Comments","418 W BALTIMORE ST","BALTIMORE","WWHYDRAN","WW Hydrant Leaking","2015-05-26T17:12:06.000","2015-05-31T17:12:06.000","DOWNTOWN","UPDATED","15-00408977","MD","LOCKED","2015-05-26T17:19:37.000","2015-05-26T17:32:41.000","21201",NA,NA
"WO - Repair Hydrant","5314  CLIFTON AVE","BALTIMORE","WWHYDRAN","WW Hydrant Leaking","2015-02-08T19:07:00.000","2015-02-13T19:07:00.000","FRANKLINTOWN","CLOSED","15-00090315","MD","CLOSED","2015-07-20T16:23:22.000","2015-06-25T14:22:43.000","21207",NA,NA
"Cityworks SR Comments","2500 E CHASE ST","BALTIMORE","WWHYDRAN","WW Hydrant Leaking","2015-05-12T02:56:21.000","2015-05-17T02:56:21.000","BIDDLE STREET","UPDATED","15-00369404","MD","CLOSED","2015-06-20T17:12:38.000","2015-06-20T17:08:09.000","21213",NA,NA
NA,"301 S CLINTON ST","BALTIMORE","WWHYDRAN","WW Hydrant Leaking","2015-06-28T16:02:28.000","2015-07-03T16:02:28.000","HIGHLANDTOWN",NA,"15-00505251","MD","DUPOPEN","2015-06-28T16:02:28.000",NA,"21224",NA,NA
"Cityworks SR Comments","5019  FRANKFORD AVE","BALTIMORE","WWHYDRAN","WW Hydrant Leaking","2015-06-15T01:57:10.000","2015-06-20T01:57:10.000","FRANKFORD","UPDATED","15-00462274","MD","CLOSED","2015-06-23T17:45:30.000","2015-06-23T17:50:37.000","21206",NA,NA
"Cityworks SR Comments","4501 E LOMBARD ST","BALTIMORE","WWHYDRAN","WW Hydrant Leaking","2015-07-06T12:57:06.000","2015-07-11T12:57:06.000","CANTON INDUSTRIAL AREA","UPDATED","15-00527366","MD","HOLDLOCK","2015-07-08T23:14:38.000","2015-07-08T23:20:46.000","21224",NA,NA
"Cityworks SR Comments","100 S LINWOOD AVE","BALTIMORE","WWHYDRAN","WW Hydrant Leaking","2015-07-21T20:19:55.000","2015-07-26T20:19:55.000","PATTERSON PARK","UPDATED","15-00575820","MD","LOCKED","2015-07-21T20:25:12.000","2015-07-22T20:35:14.000","21224",NA,NA
"Cityworks SR Comments","2437  FOSTER AVE","BALTIMORE","WWHYDRAN","WW Hydrant Leaking","2015-05-26T23:02:24.000","2015-05-31T23:02:24.000","CANTON","UPDATED","15-00410186","MD","LOCKED","2015-05-26T23:10:19.000","2015-05-26T23:22:42.000","21224",NA,NA
"Cityworks SR Comments","1219  HARBOR ISLAND WALK","BALTIMORE","WWHYDRAN","WW Hydrant Leaking","2015-07-13T21:15:53.000","2015-07-18T21:15:53.000","INNER HARBOR","UPDATED","15-00551152","MD","LOCKED","2015-07-13T21:22:13.000","2015-07-13T21:34:02.000","21230",NA,NA
"Cityworks SR Comments","WILDWOOD LN & ROXBURY PL, BALTIMORE, MD,","   Baltimore","WWHYDRAN","WW Hydrant Leaking","2015-06-23T23:42:37.000","2015-06-28T23:42:37.000","MOUNT WASHINGTON","UPDATED","15-00491073","MD","CLOSED","2015-06-24T00:13:40.000","2015-06-24T00:20:25.000","21209",NA,NA
"Cityworks SR Comments","3032  HARFORD RD","BALTIMORE","WWHYDRAN","WW Hydrant Leaking","2015-05-24T00:26:55.000","2015-05-29T00:26:55.000","COLDSTREAM HOMESTEAD MONTEBELLO","UPDATED","15-00404307","MD","LOCKED","2015-05-24T00:34:10.000","2015-05-24T00:40:39.000","21218",NA,NA
"Cityworks SR Comments","SHELBURNE RD & HATTON RD, BALTIMORE, MD,",NA,"WWHYDRAN","WW Hydrant Leaking","2015-06-09T23:33:48.000","2015-06-14T23:33:48.000","CROSS COUNTRY","UPDATED","15-00450217","MD","LOCKED","2015-06-09T23:40:14.000","2015-06-09T23:45:44.000",NA,NA,NA
"Cityworks SR Comments","5713  BENTON HEIGHTS AVE","BALTIMORE","WWHYDRAN","WW Hydrant Leaking","2015-05-29T16:34:57.000","2015-06-03T16:34:57.000","GLENHAM-BELFORD","UPDATED","15-00420822","MD","HOLDLOCK","2015-06-23T14:48:08.000","2015-06-23T15:00:13.000","21206",NA,NA
"Cityworks SR Comments","2700  RAYNER AVE","BALTIMORE","WWHYDRAN","WW Hydrant Leaking","2015-05-27T11:53:52.000","2015-06-01T11:53:52.000","MOSHER","UPDATED","15-00411182","MD","LOCKED","2015-05-27T12:01:12.000","2015-05-27T12:13:21.000","21216",NA,NA
"WO - Repair Hydrant","3108  GIBBONS AVE","BALTIMORE","WWHYDRAN","WW Hydrant Leaking","2015-04-16T22:50:11.000","2015-04-21T22:50:11.000","WALTHERSON","CLOSED","15-00300308","MD","CLOSED","2015-05-18T14:14:24.000","2015-05-15T14:11:02.000","21214",NA,NA
"WO - Repair Hydrant","E 20TH ST & N CHESTER ST, BALTIMORE, MD,","BALTIMORE","WWHYDRAN","WW Hydrant Leaking","2015-06-12T10:51:32.000","2015-06-17T10:51:32.000","SOUTH CLIFTON PARK","CLOSED","15-00457031","MD","CLOSED","2015-06-23T17:55:38.000","2015-06-22T17:48:25.000","21213",NA,NA
"WO - Repair Hydrant","EDNA AVE & CHRISTOPHER AVE","BALTIMORE","WWHYDRAN","WW Hydrant Leaking","2015-05-22T21:07:06.000","2015-05-27T21:07:06.000","WESTFIELD","CLOSED","15-00402636","MD","CLOSED","2015-06-24T13:20:55.000","2015-06-23T13:18:18.000","21214",NA,NA
"Cityworks SR Comments","101 S LINWOOD AVE","BALTIMORE","WWHYDRAN","WW Hydrant Leaking","2015-07-23T19:12:23.000","2015-07-28T19:12:23.000","BALTIMORE-LINWOOD","UPDATED","15-00583215","MD","LOCKED","2015-07-23T19:19:11.000","2015-07-23T19:26:06.000","21224",NA,NA
"Cityworks SR Comments","3754  HICKORY AVE","BALTIMORE","WWHYDRAN","WW Hydrant Leaking","2015-05-07T23:10:48.000","2015-05-12T23:10:48.000","HAMPDEN","UPDATED","15-00359080","MD","CLOSED","2015-05-14T18:22:15.000","2015-05-14T18:32:58.000","21211",NA,NA
"Cityworks SR Comments","1219  HARBOR ISLAND WALK","BALTIMORE","WWHYDRAN","WW Hydrant Leaking","2015-03-29T20:04:20.000","2015-04-03T20:04:20.000","INNER HARBOR","UPDATED","15-00247355","MD","CLOSED","2015-05-18T17:21:02.000","2015-05-18T16:06:44.000","21230",NA,NA
"Cityworks SR Comments","619  MOUNT HOLLY ST","BALTIMORE","WWHYDRAN","WW Hydrant Leaking","2015-07-14T17:00:18.000","2015-07-19T17:00:18.000","EDMONDSON VILLAGE","UPDATED","15-00554036","MD","LOCKED","2015-07-14T17:07:15.000","2015-07-14T17:14:38.000","21229",NA,NA
"Cityworks SR Comments","E 43RD ST & KENILWORTH AVE, BALTIMORE, M",NA,"WWHYDRAN","WW Hydrant Leaking","2015-07-27T11:36:31.000","2015-08-01T11:36:31.000","WILSON PARK","UPDATED","15-00591996","MD","LOCKED","2015-07-27T11:43:17.000","2015-07-27T11:48:48.000",NA,NA,NA
