"activity","address","city","code","codedescription","createddate","duedate","neighborhood","outcome","servicerequestnum","state","status","statusdate","updateddate","zip","lon","lat"
"Dispatch Work Crew","3122  PRESBURY ST","BALTIMORE","ZTRMDEBR","TRM-Debris in Roadway","2015-05-11T18:01:16.000","2015-05-11T18:01:16.000","ROSEMONT","No Trouble Found (Closed)","15-00368271","MD","CLOSED","2015-05-11T22:23:49.000","2015-05-11T22:22:00.000","21216",NA,NA
"Dispatch Work Crew","E NORTH AVE & HARFORD RD","BALTIMORE","ZTRMDEBR","TRM-Debris in Roadway","2015-05-10T02:48:52.000","2015-05-10T02:48:52.000","OLIVER","No Trouble Found (Closed)","15-00365265","MD","CLOSED","2015-05-10T20:23:12.000","2015-05-10T20:23:00.000","21213",NA,NA
"Dispatch Work Crew","2307 N HILTON ST","BALTIMORE","ZTRMDEBR","TRM-Debris in Roadway","2015-05-09T16:25:53.000","2015-05-09T16:25:53.000","WALBROOK","Debris Removed (Closed)","15-00364547","MD","CLOSED","2015-05-09T21:22:14.000","2015-05-09T21:21:00.000","21216",NA,NA
"Dispatch Work Crew","2520  GUILFORD AVE","BALTIMORE","ZTRMDEBR","TRM-Debris in Roadway","2015-05-09T13:03:38.000","2015-05-09T13:03:38.000","CHARLES VILLAGE","No Trouble Found (Closed)","15-00363915","MD","CLOSED","2015-05-09T20:28:13.000","2015-05-09T20:27:00.000","21218",NA,NA
"Dispatch Work Crew","FALLS RD & I 83 S","BALTIMORE","ZTRMDEBR","TRM-Debris in Roadway","2015-05-08T22:21:02.000","2015-05-08T22:21:02.000","DRUID HILL PARK","No Trouble Found (Closed)","15-00362328","MD","CLOSED","2015-05-09T20:49:07.000","2015-05-09T20:48:00.000","21211",NA,NA
NA,"EDMONDSON AVE &N HILTON ST","BALTIMORE","ZTRMDEBR","TRM-Debris in Roadway","2015-05-08T22:20:35.000","2015-05-08T22:20:35.000","EDMONDSON VILLAGE",NA,"15-00362320","MD","DUPCLOSD","2015-05-08T23:04:54.000",NA,"21229",NA,NA
"Dispatch Work Crew","2400 S HANOVER ST","BALTIMORE","ZTRMDEBR","TRM-Debris in Roadway","2015-05-08T22:13:19.000","2015-05-08T22:13:19.000","SPRING GARDEN INDUSTRIAL AREA","No Trouble Found (Closed)","15-00362292","MD","CLOSED","2015-05-09T00:26:20.000","2015-05-09T00:26:00.000","21230",NA,NA
"Dispatch Work Crew","EDMONDSON AVE & HILTON PKWY","BALTIMORE","ZTRMDEBR","TRM-Debris in Roadway","2015-05-08T21:35:51.000","2015-05-08T21:35:51.000","CARROLL-SOUTH HILTON","Debris Removed (Closed)","15-00362231","MD","CLOSED","2015-05-08T23:04:55.000","2015-05-08T23:04:00.000","21229",NA,NA
"Dispatch Work Crew","PARK HEIGHTS AVE &W NORTHERN PKWY","BALTIMORE","ZTRMDEBR","TRM-Debris in Roadway","2015-05-08T19:33:31.000","2015-05-08T19:33:31.000","ARLINGTON","No Trouble Found (Closed)","15-00361928","MD","CLOSED","2015-05-08T20:32:13.000","2015-05-08T20:32:00.000","21215",NA,NA
"Dispatch Work Crew","6000  PERRING PKWY","BALTIMORE","ZTRMDEBR","TRM-Debris in Roadway","2015-05-08T17:41:36.000","2015-05-08T17:41:36.000","MT PLEASANT PARK",NA,"15-00361344","MD","CLOSED","2015-05-09T20:34:25.000","2015-05-09T20:31:00.000","21239",NA,NA
"Dispatch Work Crew","CYLBURN AVE &W NORTHERN PKWY","BALTIMORE","ZTRMDEBR","TRM-Debris in Roadway","2015-05-08T12:46:31.000","2015-05-08T12:46:31.000","COLDSPRING","No Trouble Found (Closed)","15-00359944","MD","CLOSED","2015-05-10T20:51:50.000","2015-05-10T20:51:00.000","21209",NA,NA
"Dispatch Work Crew","W COLD SPRING LN & TAMARIND RD","BALTIMORE","ZTRMDEBR","TRM-Debris in Roadway","2015-05-08T11:07:18.000","2015-05-08T11:07:18.000","COLDSPRING","Debris Removed (Closed)","15-00359504","MD","CLOSED","2015-05-08T12:43:55.000","2015-05-08T12:43:00.000","21209",NA,NA
"Dispatch Work Crew","E NORTHERN PKWY & PERRING PKWY","BALTIMORE","ZTRMDEBR","TRM-Debris in Roadway","2015-05-06T20:46:03.000","2015-05-06T20:46:03.000","HARFORD-ECHODALE/PERRING PARKWAY","No Trouble Found (Closed)","15-00355730","MD","CLOSED","2015-05-06T22:48:35.000","2015-05-06T22:47:00.000","21239",NA,NA
NA,"MAINE AVE & BERWYN AVE","BALTIMORE","ZTRMDEBR","TRM-Debris in Roadway","2015-05-06T18:26:46.000","2015-05-06T18:26:46.000","FOREST PARK",NA,"15-00355122","MD","CLOSED","2015-05-06T19:16:09.000",NA,"21207",NA,NA
"Dispatch Work Crew","SAINT PAUL PL &E FRANKLIN ST","BALTIMORE","ZTRMDEBR","TRM-Debris in Roadway","2015-05-06T05:38:49.000","2015-05-06T05:38:49.000","DOWNTOWN","Debris Removed (Closed)","15-00352370","MD","CLOSED","2015-05-06T13:19:00.000","2015-05-06T13:18:00.000","21202",NA,NA
"Dispatch Work Crew","CALLAWAY AVE & GARRISON BLVD","BALTIMORE","ZTRMDEBR","TRM-Debris in Roadway","2015-05-05T20:54:16.000","2015-05-05T20:54:16.000","CONCERNED CITIZENS OF FOREST PARK","Debris Removed (Closed)","15-00351541","MD","CLOSED","2015-05-05T21:26:56.000","2015-05-05T21:26:00.000","21216",NA,NA
"Dispatch Work Crew","1101 W 36TH ST","BALTIMORE","ZTRMDEBR","TRM-Debris in Roadway","2015-05-05T20:02:09.000","2015-05-05T20:02:09.000","HAMPDEN","No Trouble Found (Closed)","15-00351290","MD","CLOSED","2015-05-05T20:37:50.000","2015-05-05T20:37:00.000","21211",NA,NA
"Dispatch Work Crew","1440  83  S","BALTIMORE","ZTRMDEBR","TRM-Debris in Roadway","2015-05-04T23:54:50.000","2015-05-04T23:54:50.000","MID-TOWN BELVEDERE","Debris Removed (Closed)","15-00348587","MD","CLOSED","2015-05-05T00:39:44.000","2015-05-05T00:39:00.000","21201",NA,NA
"Dispatch Work Crew","1321 S HOWARD ST","BALTIMORE","ZTRMDEBR","TRM-Debris in Roadway","2015-05-04T23:50:37.000","2015-05-04T23:50:37.000","CARROLL - CAMDEN INDUSTRIAL AREA","No Trouble Found (Closed)","15-00348580","MD","CLOSED","2015-05-05T00:03:55.000","2015-05-05T00:03:00.000","21230",NA,NA
"Dispatch Work Crew","I 83 N &W NORTHERN PKWY","BALTIMORE","ZTRMDEBR","TRM-Debris in Roadway","2015-05-02T13:20:25.000","2015-05-02T13:20:25.000","CROSS KEYS","No Trouble Found (Closed)","15-00342915","MD","CLOSED","2015-05-06T00:21:35.000","2015-05-06T00:21:00.000","21210",NA,NA
"Dispatch Work Crew","ERDMAN AVE & I 895 S","BALTIMORE","ZTRMDEBR","TRM-Debris in Roadway","2015-04-30T17:26:30.000","2015-04-30T17:26:30.000","KRESSON","No Trouble Found (Closed)","15-00338681","MD","CLOSED","2015-04-30T18:34:33.000","2015-04-30T20:00:00.000","21205",NA,NA
NA,"I 83 S &W COLD SPRING LN","BALTIMORE","ZTRMDEBR","TRM-Debris in Roadway","2015-04-30T14:42:10.000","2015-04-30T14:42:10.000","WOODBERRY",NA,"15-00338044","MD","O-PENDNG","2015-05-02T11:54:54.000",NA,"21209",NA,NA
"Dispatch Work Crew","1600 W COLD SPRING LN","BALTIMORE","ZTRMDEBR","TRM-Debris in Roadway","2015-04-30T14:42:03.000","2015-04-30T14:42:03.000","CROSS KEYS","Debris Removed (Closed)","15-00338043","MD","CLOSED","2015-04-30T17:38:00.000","2015-04-30T17:37:00.000",NA,NA,NA
NA,"7 S CHAPEL ST","BALTIMORE","ZTRMDEBR","TRM-Debris in Roadway","2015-04-30T12:23:28.000","2015-04-30T12:23:28.000","WASHINGTON HILL",NA,"15-00337245","MD","CLOSED","2015-04-30T13:51:28.000",NA,"21231",NA,NA
"Dispatch Work Crew","I 83 N &W NORTHERN PKWY","BALTIMORE","ZTRMDEBR","TRM-Debris in Roadway","2015-04-29T15:00:30.000","2015-04-29T15:00:30.000","CROSS KEYS","Debris Removed (Closed)","15-00334548","MD","CLOSED","2015-04-29T15:41:11.000","2015-04-29T15:41:00.000","21210",NA,NA
"Dispatch Work Crew","I 83 S &W 29TH ST","BALTIMORE","ZTRMDEBR","TRM-Debris in Roadway","2015-04-29T14:44:49.000","2015-04-29T14:44:49.000","DRUID HILL PARK","Debris Removed (Closed)","15-00334490","MD","CLOSED","2015-04-29T16:19:19.000","2015-04-29T16:19:00.000","21211",NA,NA
"Dispatch Work Crew","199 S CALVERT ST","BALTIMORE","ZTRMDEBR","TRM-Debris in Roadway","2015-04-29T10:50:43.000","2015-04-29T10:50:43.000","INNER HARBOR","No Trouble Found (Closed)","15-00333487","MD","CLOSED","2015-04-29T14:45:42.000","2015-04-29T14:45:00.000","21202",NA,NA
"Dispatch Work Crew","5615  REISTERSTOWN RD","BALTIMORE","ZTRMDEBR","TRM-Debris in Roadway","2015-04-28T19:40:31.000","2015-04-28T19:40:31.000","GLEN","No Trouble Found (Closed)","15-00332382","MD","CLOSED","2015-04-28T21:08:41.000","2015-04-28T21:00:00.000","21215",NA,NA
"Dispatch Work Crew","5200  PERRING PKWY","BALTIMORE","ZTRMDEBR","TRM-Debris in Roadway","2015-04-28T10:39:01.000","2015-04-28T10:39:01.000","PERRING LOCH","Debris Removed (Closed)","15-00329929","MD","CLOSED","2015-04-28T13:55:44.000","2015-04-28T13:55:00.000","21239",NA,NA
"Dispatch Work Crew","751 W PATAPSCO AVE","BALTIMORE","ZTRMDEBR","TRM-Debris in Roadway","2015-04-27T12:26:11.000","2015-04-27T12:26:11.000","CHERRY HILL","Debris Removed (Closed)","15-00326682","MD","CLOSED","2015-04-27T16:43:42.000","2015-04-27T16:43:00.000","21230",NA,NA
"Dispatch Work Crew","1717  BYRD ST","BALTIMORE","ZTRMDEBR","TRM-Debris in Roadway","2015-04-26T22:46:56.000","2015-04-26T22:46:56.000","RIVERSIDE","No Trouble Found (Closed)","15-00326064","MD","CLOSED","2015-04-26T23:17:45.000","2015-04-26T23:17:00.000","21230",NA,NA
"Dispatch Work Crew","600  HILTON PKWY","BALTIMORE","ZTRMDEBR","TRM-Debris in Roadway","2015-04-25T18:13:13.000","2015-04-25T18:13:13.000","GWYNNS FALLS/LEAKIN PARK","No Trouble Found (Closed)","15-00324772","MD","CLOSED","2015-04-25T21:38:44.000","2015-04-25T21:38:00.000","21229",NA,NA
"Dispatch Work Crew","I 83 S & FALLS RD","BALTIMORE","ZTRMDEBR","TRM-Debris in Roadway","2015-04-25T18:08:10.000","2015-04-25T18:08:10.000","DRUID HILL PARK","No Trouble Found (Closed)","15-00324764","MD","CLOSED","2015-04-25T22:59:21.000","2015-04-25T22:59:00.000","21211",NA,NA
"Dispatch Work Crew","HILTON PKWY &N HILTON ST","BALTIMORE","ZTRMDEBR","TRM-Debris in Roadway","2015-04-25T16:40:07.000","2015-04-25T16:40:07.000","CARROLL-SOUTH HILTON","No Trouble Found (Closed)","15-00324614","MD","CLOSED","2015-04-26T20:40:25.000","2015-04-26T20:39:00.000","21229",NA,NA
"Dispatch Work Crew","I 83 N & I 83 N","BALTIMORE","ZTRMDEBR","TRM-Debris in Roadway","2015-04-25T09:59:07.000","2015-04-25T09:59:07.000","SABINA-MATTFELDT","No Trouble Found (Closed)","15-00323947","MD","CLOSED","2015-04-25T13:19:14.000","2015-04-25T13:18:00.000","21209",NA,NA
"Dispatch Work Crew","1400 W NORTHERN PKWY","BALTIMORE","ZTRMDEBR","TRM-Debris in Roadway","2015-04-23T22:40:29.000","2015-04-23T22:40:29.000","CROSS KEYS","Debris Removed (Closed)","15-00320761","MD","CLOSED","2015-04-24T01:43:33.000","2015-04-24T01:43:00.000","21209",NA,NA
"Dispatch Work Crew","600  TOLNA ST","BALTIMORE","ZTRMDEBR","TRM-Debris in Roadway","2015-04-22T22:09:29.000","2015-04-22T22:09:29.000","GREEKTOWN","Debris Removed (Closed)","15-00316844","MD","CLOSED","2015-04-23T01:56:16.000","2015-04-23T01:55:00.000","21224",NA,NA
"Dispatch Work Crew","3500  HICKORY AVE","BALTIMORE","ZTRMDEBR","TRM-Debris in Roadway","2015-04-22T20:21:42.000","2015-04-22T20:21:42.000","HAMPDEN","No Trouble Found (Closed)","15-00316648","MD","CLOSED","2015-04-25T00:28:54.000","2015-04-25T00:28:00.000","21211",NA,NA
"Dispatch Work Crew","5504  MATTFELDT AVE","BALTIMORE","ZTRMDEBR","TRM-Debris in Roadway","2015-04-22T20:18:17.000","2015-04-22T20:18:17.000","SABINA-MATTFELDT","Debris Removed (Closed)","15-00316644","MD","CLOSED","2015-04-23T00:15:30.000","2015-04-23T00:15:00.000","21209",NA,NA
"Dispatch Work Crew","E NORTHERN PKWY & YORK RD","BALTIMORE","ZTRMDEBR","TRM-Debris in Roadway","2015-04-22T17:02:47.000","2015-04-22T17:02:47.000","ROSEBANK","Debris Removed (Closed)","15-00315726","MD","CLOSED","2015-04-22T18:34:15.000","2015-04-22T18:34:00.000","21212",NA,NA
"Dispatch Work Crew","W COLD SPRING LN & I 83 S","BALTIMORE","ZTRMDEBR","TRM-Debris in Roadway","2015-04-22T16:01:12.000","2015-04-22T16:01:12.000","WOODBERRY","No Trouble Found (Closed)","15-00315393","MD","CLOSED","2015-04-23T01:53:04.000","2015-04-23T01:51:00.000","21209",NA,NA
"Dispatch Work Crew","305 W MONUMENT ST","BALTIMORE","ZTRMDEBR","TRM-Debris in Roadway","2015-04-20T11:38:20.000","2015-04-20T11:38:20.000","MOUNT VERNON","Debris Removed (Closed)","15-00306851","MD","CLOSED","2015-04-20T17:40:24.000","2015-04-20T17:40:00.000","21201",NA,NA
NA,"W 41ST ST & FALLS RD","BALTIMORE","ZTRMDEBR","TRM-Debris in Roadway","2015-04-19T15:24:22.000","2015-04-19T15:24:22.000","HAMPDEN",NA,"15-00305993","MD","CLOSED","2015-04-19T18:46:50.000",NA,"21211",NA,NA
"Dispatch Work Crew","FALLS RD &W 41ST ST","BALTIMORE","ZTRMDEBR","TRM-Debris in Roadway","2015-04-18T23:17:57.000","2015-04-18T23:17:57.000","HAMPDEN","No Trouble Found (Closed)","15-00305549","MD","CLOSED","2015-04-18T23:39:01.000","2015-04-18T23:38:00.000","21211",NA,NA
"Dispatch Work Crew","I 83 S &W NORTH AVE","BALTIMORE","ZTRMDEBR","TRM-Debris in Roadway","2015-04-18T19:01:44.000","2015-04-18T19:01:44.000","BOLTON HILL","Debris Removed (Closed)","15-00305315","MD","CLOSED","2015-04-21T17:27:48.000","2015-04-21T17:27:00.000","21217",NA,NA
"Dispatch Work Crew","PERRING MANOR RD & MCCLEAN BLVD","BALTIMORE","ZTRMDEBR","TRM-Debris in Roadway","2015-04-16T10:29:00.000","2015-04-16T10:29:00.000","HARFORD-ECHODALE/PERRING PARKWAY","No Trouble Found (Closed)","15-00297212","MD","CLOSED","2015-04-16T14:06:47.000","2015-04-16T14:06:00.000","21234",NA,NA
"Dispatch Work Crew","4400  83  N","BALTIMORE","ZTRMDEBR","TRM-Debris in Roadway","2015-04-14T16:30:41.000","2015-04-14T16:30:41.000","MEDFIELD","No Trouble Found (Closed)","15-00291514","MD","CLOSED","2015-04-14T21:35:24.000","2015-04-14T21:35:00.000","21209",NA,NA
NA,"1500  83  S","BALTIMORE","ZTRMDEBR","TRM-Debris in Roadway","2015-04-14T12:07:56.000","2015-04-14T12:07:56.000","MID-TOWN BELVEDERE",NA,"15-00290202","MD","DUPCLOSD","2015-04-15T16:48:32.000",NA,"21201",NA,NA
"Dispatch Work Crew","1500  83  S","BALTIMORE","ZTRMDEBR","TRM-Debris in Roadway","2015-04-14T10:38:51.000","2015-04-14T10:38:51.000","MID-TOWN BELVEDERE","Debris Removed (Closed)","15-00289739","MD","CLOSED","2015-04-15T16:48:33.000","2015-04-15T16:48:00.000","21201",NA,NA
"Dispatch Work Crew","E NORTHERN PKWY & CHINQUAPIN PKWY","BALTIMORE","ZTRMDEBR","TRM-Debris in Roadway","2015-04-14T10:32:09.000","2015-04-14T10:32:09.000","GLEN OAKS","Debris Removed (Closed)","15-00289723","MD","CLOSED","2015-04-14T14:23:01.000","2015-04-14T14:22:00.000","21239",NA,NA
"Dispatch Work Crew","5100  EDMONDSON AVE","BALTIMORE","ZTRMDEBR","TRM-Debris in Roadway","2015-04-13T15:16:56.000","2015-04-13T15:16:56.000","WESTGATE","Debris Removed (Closed)","15-00287247","MD","CLOSED","2015-04-13T21:38:50.000","2015-04-13T21:38:00.000","21229",NA,NA
"Dispatch Work Crew","1800 E COLD SPRING LN","BALTIMORE","ZTRMDEBR","TRM-Debris in Roadway","2015-04-12T20:40:50.000","2015-04-12T20:40:50.000","STONEWOOD-PENTWOOD-WINSTON","Debris Removed (Closed)","15-00285214","MD","CLOSED","2015-04-13T12:54:52.000","2015-04-13T12:54:00.000","21218",NA,NA
"Dispatch Work Crew","1500  83  S","BALTIMORE","ZTRMDEBR","TRM-Debris in Roadway","2015-04-12T14:58:23.000","2015-04-12T14:58:23.000","MID-TOWN BELVEDERE","No Trouble Found (Closed)","15-00284897","MD","CLOSED","2015-04-12T16:47:55.000","2015-04-12T16:47:00.000","21201",NA,NA
"Dispatch Work Crew","2439  REISTERSTOWN RD","BALTIMORE","ZTRMDEBR","TRM-Debris in Roadway","2015-04-11T21:11:06.000","2015-04-11T21:11:06.000","PARKVIEW/WOODBROOK","Debris Removed (Closed)","15-00284401","MD","CLOSED","2015-04-11T22:56:24.000","2015-04-11T22:56:00.000","21217",NA,NA
"Dispatch Work Crew","1600  CHERRY ST","BALTIMORE","ZTRMDEBR","TRM-Debris in Roadway","2015-04-11T18:46:31.000","2015-04-11T18:46:31.000","CURTIS BAY","No Trouble Found (Closed)","15-00284263","MD","CLOSED","2015-04-11T20:33:05.000","2015-04-11T20:33:00.000","21226",NA,NA
"Dispatch Work Crew","1800 W COLD SPRING LN","BALTIMORE","ZTRMDEBR","TRM-Debris in Roadway","2015-04-09T22:20:24.000","2015-04-09T22:20:24.000","COLDSPRING","Debris Removed (Closed)","15-00279511","MD","CLOSED","2015-04-09T22:24:55.000","2015-04-09T22:24:00.000",NA,NA,NA
"Dispatch Work Crew","S MARTIN LUTHER KING JR BLVD & RAMP","BALTIMORE","ZTRMDEBR","TRM-Debris in Roadway","2015-04-09T19:32:21.000","2015-04-09T19:32:21.000","STADIUM AREA","No Trouble Found (Closed)","15-00279151","MD","CLOSED","2015-04-09T20:29:28.000","2015-04-09T20:29:00.000","21230",NA,NA
"Dispatch Work Crew","W PATAPSCO AVE & WASHINGTON BLVD","BALTIMORE","ZTRMDEBR","TRM-Debris in Roadway","2015-04-09T19:20:03.000","2015-04-09T19:20:03.000","MORRELL PARK","No Trouble Found (Closed)","15-00278971","MD","CLOSED","2015-04-09T21:58:40.000","2015-04-09T21:57:00.000","21227",NA,NA
"Dispatch Work Crew","I 83 S &W COLD SPRING LN","BALTIMORE","ZTRMDEBR","TRM-Debris in Roadway","2015-04-09T12:22:25.000","2015-04-09T12:22:25.000","WOODBERRY","No Trouble Found (Closed)","15-00277105","MD","CLOSED","2015-04-21T19:18:01.000","2015-04-21T19:17:00.000","21209",NA,NA
"Dispatch Work Crew","5600  83  S","BALTIMORE","ZTRMDEBR","TRM-Debris in Roadway","2015-04-09T12:19:09.000","2015-04-09T12:19:09.000","MOUNT WASHINGTON","Debris Removed (Closed)","15-00277076","MD","CLOSED","2015-04-09T15:58:23.000","2015-04-09T15:57:00.000","21209",NA,NA
"Dispatch Work Crew","I 83 N & MARYLAND AVE","BALTIMORE","ZTRMDEBR","TRM-Debris in Roadway","2015-04-07T18:29:03.000","2015-04-07T18:29:03.000","CHARLES NORTH","Debris Removed (Closed)","15-00271693","MD","CLOSED","2015-04-08T01:18:29.000","2015-04-07T21:15:00.000","21201",NA,NA
"Dispatch Work Crew","2900","BALTIMORE","ZTRMDEBR","TRM-Debris in Roadway","2015-04-06T18:02:49.000","2015-04-06T18:02:49.000","JONES FALLS AREA","Debris Removed (Closed)","15-00268295","MD","CLOSED","2015-04-06T18:33:18.000","2015-04-06T18:33:00.000",NA,NA,NA
"Dispatch Work Crew","I 83 N & RAMP","BALTIMORE","ZTRMDEBR","TRM-Debris in Roadway","2015-04-06T17:50:12.000","2015-04-06T17:50:12.000","CROSS KEYS","Debris Removed (Closed)","15-00268244","MD","CLOSED","2015-04-06T18:16:45.000","2015-04-06T18:16:00.000","21210",NA,NA
"Dispatch Work Crew","I 83 N &W COLD SPRING LN","BALTIMORE","ZTRMDEBR","TRM-Debris in Roadway","2015-04-06T17:42:06.000","2015-04-06T17:42:06.000","MEDFIELD","No Trouble Found (Closed)","15-00268204","MD","CLOSED","2015-04-14T21:39:25.000","2015-04-14T21:39:00.000","21209",NA,NA
"Dispatch Work Crew","I 83 N &W 29TH ST","BALTIMORE","ZTRMDEBR","TRM-Debris in Roadway","2015-04-06T17:40:15.000","2015-04-06T17:40:15.000","DRUID HILL PARK","Debris Removed (Closed)","15-00268193","MD","CLOSED","2015-04-06T18:17:09.000","2015-04-06T18:17:00.000","21211",NA,NA
"Dispatch Work Crew","3000 E FEDERAL ST","BALTIMORE","ZTRMDEBR","TRM-Debris in Roadway","2015-04-06T14:34:21.000","2015-04-06T14:34:21.000","BEREA","Debris Removed (Closed)","15-00267113","MD","CLOSED","2015-04-06T17:33:37.000","2015-04-06T17:32:00.000","21213",NA,NA
"Dispatch Work Crew","1000  CURTAIN AVE","BALTIMORE","ZTRMDEBR","TRM-Debris in Roadway","2015-04-06T11:35:26.000","2015-04-06T11:35:26.000","EAST BALTIMORE MIDWAY","No Trouble Found (Closed)","15-00266103","MD","CLOSED","2015-04-06T14:52:25.000","2015-04-06T14:52:00.000","21218",NA,NA
"Dispatch Work Crew","1600 W NORTH AVE","BALTIMORE","ZTRMDEBR","TRM-Debris in Roadway","2015-04-05T14:51:45.000","2015-04-05T14:51:45.000","PENN NORTH","No Trouble Found (Closed)","15-00265198","MD","CLOSED","2015-04-05T15:34:59.000","2015-04-05T15:27:00.000","21217",NA,NA
"Dispatch Work Crew","I 83 N &W COLD SPRING LN","BALTIMORE","ZTRMDEBR","TRM-Debris in Roadway","2015-04-05T14:29:28.000","2015-04-05T14:29:28.000","MEDFIELD","No Trouble Found (Closed)","15-00265177","MD","CLOSED","2015-04-05T15:16:56.000","2015-04-05T15:16:00.000","21209",NA,NA
"Dispatch Work Crew","3000 S HANOVER ST","BALTIMORE","ZTRMDEBR","TRM-Debris in Roadway","2015-04-04T18:21:30.000","2015-04-04T18:21:30.000","MIDDLE BRANCH/REEDBIRD PARKS","Debris Removed (Closed)","15-00264618","MD","CLOSED","2015-04-04T19:45:42.000","2015-04-04T19:45:00.000","21225",NA,NA
"Dispatch Work Crew","224 E BIDDLE ST","BALTIMORE","ZTRMDEBR","TRM-Debris in Roadway","2015-04-04T18:00:20.000","2015-04-04T18:00:20.000","MID-TOWN BELVEDERE","Debris Removed (Closed)","15-00264583","MD","CLOSED","2015-04-04T19:33:41.000","2015-04-04T19:33:00.000","21202",NA,NA
"Dispatch Work Crew","1702 W COLD SPRING LN","BALTIMORE","ZTRMDEBR","TRM-Debris in Roadway","2015-04-04T13:36:02.000","2015-04-04T13:36:02.000","CROSS KEYS","Debris Removed (Closed)","15-00264148","MD","CLOSED","2015-04-04T14:26:25.000","2015-04-04T14:25:00.000","21209",NA,NA
NA,"2933  KESWICK RD","BALTIMORE","ZTRMDEBR","TRM-Debris in Roadway","2015-04-03T17:52:04.000","2015-04-03T17:52:04.000","HAMPDEN",NA,"15-00263125","MD","CLOSED","2015-04-03T18:02:19.000",NA,"21211",NA,NA
"Dispatch Work Crew","6400  FRANKFORD AVE","BALTIMORE","ZTRMDEBR","TRM-Debris in Roadway","2015-04-02T20:14:26.000","2015-04-02T20:14:26.000","FRANKFORD","No Trouble Found (Closed)","15-00261181","MD","CLOSED","2015-04-02T22:16:18.000","2015-04-02T22:16:00.000","21206",NA,NA
"Dispatch Work Crew","KEY HWY & MCHENRY ROW","BALTIMORE","ZTRMDEBR","TRM-Debris in Roadway","2015-04-02T19:57:08.000","2015-04-02T19:57:08.000","LOCUST POINT INDUSTRIAL AREA","No Trouble Found (Closed)","15-00261130","MD","CLOSED","2015-04-02T20:53:25.000","2015-04-02T20:53:00.000","21230",NA,NA
"Dispatch Work Crew","3900  SINCLAIR LN","BALTIMORE","ZTRMDEBR","TRM-Debris in Roadway","2015-04-02T19:56:41.000","2015-04-02T19:56:41.000","BELAIR-EDISON","Debris Removed (Closed)","15-00261128","MD","CLOSED","2015-04-02T22:15:32.000","2015-04-02T22:15:00.000","21213",NA,NA
"Dispatch Work Crew","I 83 S & SAINT PAUL ST","BALTIMORE","ZTRMDEBR","TRM-Debris in Roadway","2015-04-01T13:04:28.000","2015-04-01T13:04:28.000","MID-TOWN BELVEDERE","Debris Removed (Closed)","15-00255571","MD","CLOSED","2015-04-01T13:20:22.000","2015-04-01T13:19:00.000","21201",NA,NA
"Dispatch Work Crew","MONTEREY RD & LOCH RAVEN BLVD","BALTIMORE","ZTRMDEBR","TRM-Debris in Roadway","2015-04-01T06:36:04.000","2015-04-01T06:36:04.000","EDNOR GARDENS-LAKESIDE","Debris Removed (Closed)","15-00254683","MD","CLOSED","2015-04-01T07:11:36.000","2015-04-01T07:11:00.000","21218",NA,NA
"Dispatch Work Crew","1701 W COLD SPRING LN","BALTIMORE","ZTRMDEBR","TRM-Debris in Roadway","2015-03-31T16:49:58.000","2015-03-31T16:49:58.000","MEDFIELD","Debris Removed (Closed)","15-00253371","MD","CLOSED","2015-03-31T20:51:43.000","2015-03-31T20:51:00.000","21209",NA,NA
"Dispatch Work Crew","S 83","BALTIMORE","ZTRMDEBR","TRM-Debris in Roadway","2015-03-31T16:27:15.000","2015-03-31T16:27:15.000","COLDSPRING","Debris Removed (Closed)","15-00253291","MD","CLOSED","2015-03-31T17:05:15.000","2015-03-31T17:05:00.000","21209",NA,NA
"Dispatch Work Crew","I 83 S &W COLD SPRING LN","BALTIMORE","ZTRMDEBR","TRM-Debris in Roadway","2015-03-31T16:20:03.000","2015-03-31T16:20:03.000","WOODBERRY","Debris Removed (Closed)","15-00253252","MD","CLOSED","2015-03-31T16:58:36.000","2015-03-31T16:58:00.000","21209",NA,NA
NA,"3200  PRESBURY ST","BALTIMORE","ZTRMDEBR","TRM-Debris in Roadway","2015-03-30T18:40:07.000","2015-03-30T18:40:07.000","ROSEMONT",NA,"15-00250379","MD","CLOSED","2015-03-30T22:49:03.000",NA,"21216",NA,NA
"Dispatch Work Crew","3200  FAIT AVE","BALTIMORE","ZTRMDEBR","TRM-Debris in Roadway","2015-03-29T16:25:06.000","2015-03-29T16:25:06.000","CANTON","No Trouble Found (Closed)","15-00247131","MD","CLOSED","2015-03-29T18:38:51.000","2015-03-29T18:38:00.000","21224",NA,NA
NA,"2200  CHESTERFIELD AVE","BALTIMORE","ZTRMDEBR","TRM-Debris in Roadway","2015-03-29T04:43:09.000","2015-03-29T04:43:09.000","MAYFIELD",NA,"15-00246638","MD","CLOSED","2015-03-29T05:04:52.000",NA,"21213",NA,NA
"Dispatch Work Crew","I 83 N &W COLD SPRING LN","BALTIMORE","ZTRMDEBR","TRM-Debris in Roadway","2015-03-28T20:54:44.000","2015-03-28T20:54:44.000","MEDFIELD","Debris Removed (Closed)","15-00246426","MD","CLOSED","2015-03-28T21:47:31.000","2015-03-28T21:46:00.000","21209",NA,NA
"Dispatch Work Crew","1031 W 36TH ST","BALTIMORE","ZTRMDEBR","TRM-Debris in Roadway","2015-03-28T19:41:01.000","2015-03-28T19:41:01.000","HAMPDEN","Debris Removed (Closed)","15-00246371","MD","CLOSED","2015-03-28T22:12:45.000","2015-03-28T22:12:00.000","21211",NA,NA
"Dispatch Work Crew","N WASHINGTON ST &E NORTH AVE","BALTIMORE","ZTRMDEBR","TRM-Debris in Roadway","2015-03-28T18:40:23.000","2015-03-28T18:40:23.000","BROADWAY EAST","No Trouble Found (Closed)","15-00246313","MD","CLOSED","2015-03-29T00:29:46.000","2015-03-29T00:29:00.000","21213",NA,NA
"Dispatch Work Crew","3637 E FAYETTE ST","BALTIMORE","ZTRMDEBR","TRM-Debris in Roadway","2015-03-28T17:27:28.000","2015-03-28T17:27:28.000","BALTIMORE HIGHLANDS","Debris Removed (Closed)","15-00246224","MD","CLOSED","2015-03-28T20:32:27.000","2015-03-28T20:31:00.000","21224",NA,NA
"Dispatch Work Crew","3431  WABASH AVE","BALTIMORE","ZTRMDEBR","TRM-Debris in Roadway","2015-03-27T14:32:58.000","2015-03-27T14:32:58.000","ASHBURTON","Debris Removed (Closed)","15-00243494","MD","CLOSED","2015-03-27T17:30:20.000","2015-03-27T17:30:00.000","21215",NA,NA
"Dispatch Work Crew","E LOMBARD ST & MARKET PL","BALTIMORE","ZTRMDEBR","TRM-Debris in Roadway","2015-03-25T20:22:57.000","2015-03-25T20:22:57.000","INNER HARBOR","Debris Removed (Closed)","15-00237474","MD","CLOSED","2015-03-25T22:51:04.000","2015-03-25T22:51:00.000","21202",NA,NA
"Dispatch Work Crew","ENSLOW AVE & WEXFORD RD","BALTIMORE","ZTRMDEBR","TRM-Debris in Roadway","2015-03-25T20:12:52.000","2015-03-25T20:12:52.000","MOUNT WASHINGTON","Debris Removed (Closed)","15-00237431","MD","CLOSED","2015-03-25T22:19:05.000","2015-03-25T22:19:00.000","21209",NA,NA
"Dispatch Work Crew","I 83 S &W NORTH AVE","BALTIMORE","ZTRMDEBR","TRM-Debris in Roadway","2015-03-25T00:47:19.000","2015-03-25T00:47:19.000","BOLTON HILL","Debris Removed (Closed)","15-00234423","MD","CLOSED","2015-03-25T01:24:31.000","2015-03-25T01:24:00.000","21217",NA,NA
NA,"3638 E FAYETTE ST","BALTIMORE","ZTRMDEBR","TRM-Debris in Roadway","2015-03-24T23:47:13.000","2015-03-24T23:47:13.000","BALTIMORE HIGHLANDS",NA,"15-00234382","MD","CLOSED","2015-03-25T02:51:18.000",NA,"21224",NA,NA
"Dispatch Work Crew","REEDBIRD AVE &S HANOVER ST","BALTIMORE","ZTRMDEBR","TRM-Debris in Roadway","2015-03-24T21:19:50.000","2015-03-24T21:19:50.000","MIDDLE BRANCH/REEDBIRD PARKS","No Trouble Found (Closed)","15-00234145","MD","CLOSED","2015-03-24T23:04:20.000","2015-03-24T23:03:00.000","21225",NA,NA
"Dispatch Work Crew","4003  DORCHESTER RD","BALTIMORE","ZTRMDEBR","TRM-Debris in Roadway","2015-03-24T19:15:12.000","2015-03-24T19:15:12.000","DORCHESTER","No Trouble Found (Closed)","15-00233744","MD","CLOSED","2015-03-25T00:22:42.000","2015-03-25T00:22:00.000","21207",NA,NA
"Dispatch Work Crew","401 N WARWICK AVE","BALTIMORE","ZTRMDEBR","TRM-Debris in Roadway","2015-03-24T14:05:27.000","2015-03-24T14:05:27.000","PENROSE/FAYETTE STREET OUTREACH","No Trouble Found (Closed)","15-00231835","MD","CLOSED","2015-03-24T14:21:35.000","2015-03-24T14:21:00.000","21223",NA,NA
"Dispatch Work Crew","I 83 N & FALLS RD","BALTIMORE","ZTRMDEBR","TRM-Debris in Roadway","2015-03-24T12:53:55.000","2015-03-24T12:53:55.000","JONES FALLS AREA","Debris Removed (Closed)","15-00231301","MD","CLOSED","2015-03-24T13:17:39.000","2015-03-24T13:17:00.000","21211",NA,NA
"Dispatch Work Crew","1900  MOUNT ROYAL TER","BALTIMORE","ZTRMDEBR","TRM-Debris in Roadway","2015-03-24T12:21:13.000","2015-03-24T12:21:13.000","RESERVOIR HILL","No Trouble Found (Closed)","15-00231133","MD","CLOSED","2015-03-24T13:15:52.000","2015-03-24T13:15:00.000","21217",NA,NA
"Dispatch Work Crew","I 83 N &W 28TH ST","BALTIMORE","ZTRMDEBR","TRM-Debris in Roadway","2015-03-23T16:58:12.000","2015-03-23T16:58:12.000","DRUID HILL PARK","Debris Removed (Closed)","15-00229224","MD","CLOSED","2015-03-23T17:23:40.000","2015-03-23T17:23:00.000","21217",NA,NA
"Dispatch Work Crew","RUSSELL ST & I 295","BALTIMORE","ZTRMDEBR","TRM-Debris in Roadway","2015-03-23T11:24:26.000","2015-03-23T11:24:26.000","WESTPORT","Debris Removed (Closed)","15-00227529","MD","CLOSED","2015-03-23T13:38:09.000","2015-03-23T13:37:00.000","21230",NA,NA
"Dispatch Work Crew","LIBERTY HEIGHTS AVE & HILLSDALE RD","BALTIMORE","ZTRMDEBR","TRM-Debris in Roadway","2015-03-22T22:06:24.000","2015-03-22T22:06:24.000","HOWARD PARK","Debris Removed (Closed)","15-00227192","MD","CLOSED","2015-03-22T22:46:39.000","2015-03-22T22:46:00.000","21207",NA,NA
"Dispatch Work Crew","3100  CALLAWAY AVE","BALTIMORE","ZTRMDEBR","TRM-Debris in Roadway","2015-03-22T18:30:41.000","2015-03-22T18:30:41.000","FOREST PARK","Debris Removed (Closed)","15-00226964","MD","CLOSED","2015-03-22T21:12:33.000","2015-03-22T21:12:00.000","21216",NA,NA
"Dispatch Work Crew","1900  MOUNT ROYAL TER","BALTIMORE","ZTRMDEBR","TRM-Debris in Roadway","2015-03-21T01:49:35.000","2015-03-21T01:49:35.000","RESERVOIR HILL","Debris Removed (Closed)","15-00224216","MD","CLOSED","2015-03-21T16:50:59.000","2015-03-21T16:50:00.000","21217",NA,NA
"Dispatch Work Crew","2200  ERDMAN AVE","BALTIMORE","ZTRMDEBR","TRM-Debris in Roadway","2015-03-21T01:05:55.000","2015-03-21T01:05:55.000","MAYFIELD","No Trouble Found (Closed)","15-00224206","MD","CLOSED","2015-03-21T16:51:22.000","2015-03-21T16:51:00.000","21213",NA,NA
NA,"SINCLAIR LN &N ROSE ST","BALTIMORE","ZTRMDEBR","TRM-Debris in Roadway","2015-03-20T18:53:20.000","2015-03-20T18:53:20.000","CLIFTON PARK",NA,"15-00223598","MD","CLOSED","2015-03-21T16:00:06.000",NA,"21213",NA,NA
"Dispatch Work Crew","3544  HICKORY AVE","BALTIMORE","ZTRMDEBR","TRM-Debris in Roadway","2015-03-20T13:48:24.000","2015-03-20T13:48:24.000","HAMPDEN","Debris Removed (Closed)","15-00222317","MD","CLOSED","2015-05-07T21:57:23.000","2015-05-07T21:56:00.000","21211",NA,NA
NA,"I 83 N &W COLD SPRING LN","BALTIMORE","ZTRMDEBR","TRM-Debris in Roadway","2015-03-20T12:35:11.000","2015-03-20T12:35:11.000","MEDFIELD",NA,"15-00222014","MD","CLOSED","2015-03-21T16:54:05.000",NA,"21209",NA,NA
"Dispatch Work Crew","HILTON PKWY &W NORTH AVE","BALTIMORE","ZTRMDEBR","TRM-Debris in Roadway","2015-03-19T19:37:49.000","2015-03-19T19:37:49.000","WALBROOK","Debris Removed (Closed)","15-00220745","MD","CLOSED","2015-03-20T00:09:48.000","2015-03-20T00:00:00.000","21216",NA,NA
"Dispatch Work Crew","FALLS RD & I 83 N","BALTIMORE","ZTRMDEBR","TRM-Debris in Roadway","2015-03-18T22:11:19.000","2015-03-18T22:11:19.000","DRUID HILL PARK","Debris Removed (Closed)","15-00217356","MD","CLOSED","2015-03-19T00:31:52.000","2015-03-19T00:31:00.000","21211",NA,NA
"Dispatch Work Crew","SINCLAIR LN & BRENDAN AVE","BALTIMORE","ZTRMDEBR","TRM-Debris in Roadway","2015-03-17T20:26:54.000","2015-03-17T20:26:54.000","CLAREMONT-FREEDOM","No Trouble Found (Closed)","15-00213591","MD","CLOSED","2015-03-17T20:49:14.000","2015-03-17T20:49:00.000","21213",NA,NA
NA,"142 N EAST AVE","BALTIMORE","ZTRMDEBR","TRM-Debris in Roadway","2015-03-16T21:35:47.000","2015-03-16T21:35:47.000","BALTIMORE-LINWOOD",NA,"15-00209044","MD","CLOSED","2015-03-16T21:37:24.000",NA,"21224",NA,NA
NA,"4420 E EAGER ST","BALTIMORE","ZTRMDEBR","TRM-Debris in Roadway","2015-03-16T20:08:36.000","2015-03-16T20:08:36.000","ORANGEVILLE",NA,"15-00208599","MD","CLOSED","2015-03-16T21:24:12.000",NA,"21205",NA,NA
"Dispatch Work Crew","W LEXINGTON ST &N GREENE ST","BALTIMORE","ZTRMDEBR","TRM-Debris in Roadway","2015-03-16T19:21:40.000","2015-03-16T19:21:40.000","DOWNTOWN","Debris Removed (Closed)","15-00208418","MD","CLOSED","2015-03-16T21:22:52.000","2015-03-16T21:22:00.000","21201",NA,NA
"Dispatch Work Crew","POTEE ST &W PATAPSCO AVE","BALTIMORE","ZTRMDEBR","TRM-Debris in Roadway","2015-03-16T19:18:11.000","2015-03-16T19:18:11.000","BROOKLYN","No Trouble Found (Closed)","15-00208386","MD","CLOSED","2015-03-16T22:01:07.000","2015-03-16T22:01:00.000","21225",NA,NA
"Dispatch Work Crew","RUSSELL ST &W HAMBURG ST","BALTIMORE","ZTRMDEBR","TRM-Debris in Roadway","2015-03-16T19:11:58.000","2015-03-16T19:11:58.000","WASHINGTON VILLAGE","Debris Removed (Closed)","15-00208362","MD","CLOSED","2015-03-16T21:36:41.000","2015-03-16T21:36:00.000","21230",NA,NA
"Dispatch Work Crew","4000  GWYNN OAK AVE","BALTIMORE","ZTRMDEBR","TRM-Debris in Roadway","2015-03-16T14:43:11.000","2015-03-16T14:43:11.000","WEST ARLINGTON","No Trouble Found (Closed)","15-00206585","MD","CLOSED","2015-03-16T17:18:15.000","2015-03-16T17:18:00.000","21215",NA,NA
"Dispatch Work Crew","SINCLAIR LN & MORAVIA RD","BALTIMORE","ZTRMDEBR","TRM-Debris in Roadway","2015-03-15T21:35:40.000","2015-03-15T21:35:40.000","FRANKFORD","No Trouble Found (Closed)","15-00204606","MD","CLOSED","2015-03-15T21:49:47.000","2015-03-15T21:49:00.000","21206",NA,NA
"Dispatch Work Crew","MORAVIA RD & MORAVIA PARK DR","BALTIMORE","ZTRMDEBR","TRM-Debris in Roadway","2015-03-15T16:37:45.000","2015-03-15T16:37:45.000","FRANKFORD","No Trouble Found (Closed)","15-00204205","MD","CLOSED","2015-03-15T21:49:14.000","2015-03-15T21:49:00.000","21206",NA,NA
NA,"1600 E 31ST ST","BALTIMORE","ZTRMDEBR","TRM-Debris in Roadway","2015-03-14T16:56:22.000","2015-03-14T16:56:22.000","COLDSTREAM HOMESTEAD MONTEBELLO",NA,"15-00203097","MD","CLOSED","2015-03-14T18:51:13.000",NA,"21218",NA,NA
"Dispatch Work Crew","400 N HAVEN ST","BALTIMORE","ZTRMDEBR","TRM-Debris in Roadway","2015-03-14T12:16:37.000","2015-03-14T12:16:37.000","BALTIMORE HIGHLANDS","Debris Removed (Closed)","15-00202604","MD","CLOSED","2015-03-14T17:53:09.000","2015-03-14T17:52:00.000","21224",NA,NA
"Dispatch Work Crew","N HAVEN ST & PULASKI HWY","BALTIMORE","ZTRMDEBR","TRM-Debris in Roadway","2015-03-14T12:00:44.000","2015-03-14T12:00:44.000","KRESSON","Debris Removed (Closed)","15-00202577","MD","CLOSED","2015-03-16T17:18:44.000","2015-03-16T17:18:00.000","21205",NA,NA
"Dispatch Work Crew","FALLS RD &W COLD SPRING LN","BALTIMORE","ZTRMDEBR","TRM-Debris in Roadway","2015-03-14T05:50:42.000","2015-03-14T05:50:42.000","CROSS KEYS","Debris Removed (Closed)","15-00202432","MD","CLOSED","2015-03-14T15:01:52.000","2015-03-14T15:01:00.000","21209",NA,NA
"Dispatch Work Crew","PREAKNESS WAY &W NORTHERN PKWY","BALTIMORE","ZTRMDEBR","TRM-Debris in Roadway","2015-03-13T17:46:17.000","2015-03-13T17:46:17.000","LEVINDALE","Debris Removed (Closed)","15-00201002","MD","CLOSED","2015-03-14T00:42:31.000","2015-03-14T00:42:00.000","21209",NA,NA
"Dispatch Work Crew","I 295 & WATERVIEW AVE","BALTIMORE","ZTRMDEBR","TRM-Debris in Roadway","2015-03-12T09:13:44.000","2015-03-12T09:13:44.000","WESTPORT","Debris Removed (Closed)","15-00193381","MD","CLOSED","2015-03-12T13:13:15.000","2015-03-12T13:13:00.000","21230",NA,NA
"Dispatch Work Crew","900  SARAH ANN ST","BALTIMORE","ZTRMDEBR","TRM-Debris in Roadway","2015-03-11T12:07:26.000","2015-03-11T12:07:26.000","POPPLETON","No Trouble Found (Closed)","15-00189508","MD","CLOSED","2015-03-21T16:53:12.000","2015-03-21T16:53:00.000","21223",NA,NA
"Dispatch Work Crew","S HANOVER ST & POTEE ST","BALTIMORE","ZTRMDEBR","TRM-Debris in Roadway","2015-03-10T18:16:56.000","2015-03-10T18:16:56.000","MIDDLE BRANCH/REEDBIRD PARKS","Debris Removed (Closed)","15-00187582","MD","CLOSED","2015-03-10T20:25:14.000","2015-03-10T20:25:00.000","21230",NA,NA
"Dispatch Work Crew","3002  DRUID PARK DR","BALTIMORE","ZTRMDEBR","TRM-Debris in Roadway","2015-03-09T16:12:05.000","2015-03-09T16:12:05.000","PARK CIRCLE","No Trouble Found (Closed)","15-00182842","MD","CLOSED","2015-03-09T17:22:50.000","2015-03-09T17:22:00.000","21215",NA,NA
NA,"PULASKI HWY & MORAVIA RD","BALTIMORE","ZTRMDEBR","TRM-Debris in Roadway","2015-03-07T01:30:25.000","2015-03-07T01:30:25.000","PULASKI INDUSTRIAL AREA",NA,"15-00176182","MD","CLOSED","2015-03-07T04:20:15.000",NA,"21205",NA,NA
NA,"MORAVIA PARK DR & PULASKI HWY","BALTIMORE","ZTRMDEBR","TRM-Debris in Roadway","2015-03-07T01:08:20.000","2015-03-07T01:08:20.000","PULASKI INDUSTRIAL AREA",NA,"15-00176174","MD","CLOSED","2015-03-07T04:23:15.000",NA,"21237",NA,NA
"Dispatch Work Crew","600  TOLNA ST","BALTIMORE","ZTRMDEBR","TRM-Debris in Roadway","2015-03-04T16:25:17.000","2015-03-04T16:25:17.000","GREEKTOWN","Debris Removed (Closed)","15-00167046","MD","CLOSED","2015-03-04T18:09:07.000","2015-03-04T18:00:00.000","21224",NA,NA
"Dispatch Work Crew","3400  WOODSTOCK AVE","BALTIMORE","ZTRMDEBR","TRM-Debris in Roadway","2015-03-04T14:11:51.000","2015-03-04T14:11:51.000","BELAIR-EDISON","No Trouble Found (Closed)","15-00166451","MD","CLOSED","2015-03-04T17:25:51.000","2015-03-04T17:25:00.000","21213",NA,NA
NA,"I 83 S &E PLEASANT ST","BALTIMORE","ZTRMDEBR","TRM-Debris in Roadway","2015-03-03T19:00:48.000","2015-03-03T19:00:48.000","DOWNTOWN",NA,"15-00164074","MD","DUPCLOSD","2015-03-03T21:34:37.000",NA,"21202",NA,NA
"Dispatch Work Crew","BAREVA RD & DORITHAN RD","BALTIMORE","ZTRMDEBR","TRM-Debris in Roadway","2015-03-03T18:53:49.000","2015-03-03T18:53:49.000","EAST ARLINGTON","No Trouble Found (Closed)","15-00164041","MD","CLOSED","2015-03-03T21:56:54.000","2015-03-03T21:56:00.000","21215",NA,NA
"Dispatch Work Crew","I 83 S &E PLEASANT ST","BALTIMORE","ZTRMDEBR","TRM-Debris in Roadway","2015-03-03T17:59:48.000","2015-03-03T17:59:48.000","DOWNTOWN","No Trouble Found (Closed)","15-00163797","MD","CLOSED","2015-03-03T21:34:37.000","2015-03-03T21:34:00.000","21202",NA,NA
"Dispatch Work Crew","W COLD SPRING LN & I 83 S","BALTIMORE","ZTRMDEBR","TRM-Debris in Roadway","2015-03-03T10:54:38.000","2015-03-03T10:54:38.000","WOODBERRY","Debris Removed (Closed)","15-00162046","MD","CLOSED","2015-03-03T13:42:40.000","2015-03-03T13:42:00.000","21209",NA,NA
"Dispatch Work Crew","S GREENE ST &W PRATT ST","BALTIMORE","ZTRMDEBR","TRM-Debris in Roadway","2015-03-02T15:21:02.000","2015-03-02T15:21:02.000","UNIVERSITY OF MARYLAND","No Trouble Found (Closed)","15-00159792","MD","CLOSED","2015-03-03T00:56:11.000","2015-03-03T00:55:00.000","21201",NA,NA
"Dispatch Work Crew","I 95 N & WASHINGTON BLVD","BALTIMORE","ZTRMDEBR","TRM-Debris in Roadway","2015-03-02T13:04:31.000","2015-03-02T13:04:31.000","SAINT PAUL","No Trouble Found (Closed)","15-00159012","MD","CLOSED","2015-03-03T00:57:33.000","2015-03-03T00:57:00.000","21230",NA,NA
"Dispatch Work Crew","W NORTHERN PKWY & I 83 N","BALTIMORE","ZTRMDEBR","TRM-Debris in Roadway","2015-02-28T17:49:48.000","2015-02-28T17:49:48.000","CROSS KEYS","No Trouble Found (Closed)","15-00155727","MD","CLOSED","2015-03-02T10:45:23.000","2015-03-02T10:45:00.000","21209",NA,NA
"Dispatch Work Crew","I 83 S & SAINT PAUL ST","BALTIMORE","ZTRMDEBR","TRM-Debris in Roadway","2015-02-19T13:15:38.000","2015-02-19T13:15:38.000","MID-TOWN BELVEDERE","Debris Removed (Closed)","15-00122225","MD","CLOSED","2015-02-19T15:25:40.000","2015-02-19T15:25:00.000","21201",NA,NA
"Dispatch Work Crew","2400 S HANOVER ST","BALTIMORE","ZTRMDEBR","TRM-Debris in Roadway","2015-02-19T13:01:48.000","2015-02-19T13:01:48.000","SPRING GARDEN INDUSTRIAL AREA","Debris Removed (Closed)","15-00122096","MD","CLOSED","2015-02-19T14:24:15.000","2015-02-19T14:24:00.000","21230",NA,NA
"Dispatch Work Crew","N PULASKI ST & PENROSE AVE","BALTIMORE","ZTRMDEBR","TRM-Debris in Roadway","2015-02-18T10:09:06.000","2015-02-18T10:09:06.000","PENROSE/FAYETTE STREET OUTREACH","Debris Removed (Closed)","15-00116690","MD","CLOSED","2015-02-19T15:20:05.000","2015-02-19T15:20:00.000","21223",NA,NA
"Dispatch Work Crew","W NORTHERN PKWY & PARK HEIGHTS AVE","BALTIMORE","ZTRMDEBR","TRM-Debris in Roadway","2015-02-17T00:04:43.000","2015-02-17T00:04:43.000","ARLINGTON","No Trouble Found (Closed)","15-00112488","MD","CLOSED","2015-02-17T18:10:09.000","2015-02-17T18:10:00.000","21215",NA,NA
"Dispatch Work Crew","I 83 S & MARYLAND AVE","BALTIMORE","ZTRMDEBR","TRM-Debris in Roadway","2015-02-16T16:29:04.000","2015-02-16T16:29:04.000","MID-TOWN BELVEDERE","No Trouble Found (Closed)","15-00111137","MD","CLOSED","2015-02-17T14:40:25.000","2015-02-17T14:40:00.000","21201",NA,NA
"Dispatch Work Crew","WABASH AVE & ELDORADO AVE","BALTIMORE","ZTRMDEBR","TRM-Debris in Roadway","2015-02-16T16:11:48.000","2015-02-16T16:11:48.000","WOODMERE","No Trouble Found (Closed)","15-00111044","MD","CLOSED","2015-02-17T13:36:14.000","2015-02-17T13:36:00.000","21215",NA,NA
"Dispatch Work Crew","2200 W NORTH AVE","BALTIMORE","ZTRMDEBR","TRM-Debris in Roadway","2015-02-15T09:30:27.000","2015-02-15T09:30:27.000","MONDAWMIN","No Trouble Found (Closed)","15-00107491","MD","CLOSED","2015-02-17T13:38:05.000","2015-02-17T13:38:00.000","21216",NA,NA
"Dispatch Work Crew","6500 E LOMBARD ST","BALTIMORE","ZTRMDEBR","TRM-Debris in Roadway","2015-02-15T02:44:57.000","2015-02-15T02:44:57.000","PULASKI INDUSTRIAL AREA","No Trouble Found (Closed)","15-00107395","MD","CLOSED","2015-02-17T13:38:26.000","2015-02-17T13:38:00.000","21224",NA,NA
"Dispatch Work Crew","4500 E LOMBARD ST","BALTIMORE","ZTRMDEBR","TRM-Debris in Roadway","2015-02-13T13:43:58.000","2015-02-13T13:43:58.000","KRESSON","No Trouble Found (Closed)","15-00104548","MD","CLOSED","2015-02-13T17:41:02.000","2015-02-13T17:41:00.000","21224",NA,NA
"Dispatch Work Crew","83  N","BALTIMORE","ZTRMDEBR","TRM-Debris in Roadway","2015-02-13T12:39:22.000","2015-02-13T12:39:22.000","DOWNTOWN","Debris Removed (Closed)","15-00104167","MD","CLOSED","2015-02-13T13:52:33.000","2015-02-13T13:52:00.000","21202",NA,NA
"Dispatch Work Crew","PRESSTMAN ST &N FULTON AVE","BALTIMORE","ZTRMDEBR","TRM-Debris in Roadway","2015-02-13T12:09:55.000","2015-02-13T12:09:55.000","SANDTOWN-WINCHESTER","Debris Removed (Closed)","15-00103987","MD","CLOSED","2015-02-13T13:51:46.000","2015-02-13T13:51:00.000","21217",NA,NA
"Dispatch Work Crew","5102  ROLAND AVE","BALTIMORE","ZTRMDEBR","TRM-Debris in Roadway","2015-02-13T00:25:46.000","2015-02-13T00:25:46.000","ROLAND PARK","No Trouble Found (Closed)","15-00103424","MD","CLOSED","2015-02-13T12:44:11.000","2015-02-13T12:44:00.000","21210",NA,NA
NA,"2598 W FAYETTE ST","BALTIMORE","ZTRMDEBR","TRM-Debris in Roadway","2015-02-12T23:40:51.000","2015-02-12T23:40:51.000","SHIPLEY HILL",NA,"15-00103379","MD","CLOSED","2015-02-12T23:53:53.000",NA,"21223",NA,NA
"Dispatch Work Crew","3700  GARRISON BLVD","BALTIMORE","ZTRMDEBR","TRM-Debris in Roadway","2015-02-12T19:44:21.000","2015-02-12T19:44:21.000","DORCHESTER","No Trouble Found (Closed)","15-00103057","MD","CLOSED","2015-02-13T01:20:10.000","2015-02-13T01:20:00.000","21215",NA,NA
"Dispatch Work Crew","W MULBERRY ST &N EUTAW ST","BALTIMORE","ZTRMDEBR","TRM-Debris in Roadway","2015-02-12T14:01:05.000","2015-02-12T14:01:05.000","DOWNTOWN","Debris Removed (Closed)","15-00101586","MD","CLOSED","2015-02-12T16:38:19.000","2015-02-12T16:38:00.000","21201",NA,NA
"Dispatch Work Crew","S HANOVER ST","BALTIMORE","ZTRMDEBR","TRM-Debris in Roadway","2015-02-12T13:49:05.000","2015-02-12T13:49:05.000","BROOKLYN","Debris Removed (Closed)","15-00101524","MD","CLOSED","2015-02-12T14:07:59.000","2015-02-12T14:07:00.000","21225",NA,NA
"Dispatch Work Crew","SAINT PAUL ST & I 83 S","BALTIMORE","ZTRMDEBR","TRM-Debris in Roadway","2015-02-11T18:40:23.000","2015-02-11T18:40:23.000","MID-TOWN BELVEDERE","No Trouble Found (Closed)","15-00099758","MD","CLOSED","2015-02-12T00:56:14.000","2015-02-12T00:55:00.000","21201",NA,NA
"Dispatch Work Crew","301 W 28TH ST","BALTIMORE","ZTRMDEBR","TRM-Debris in Roadway","2015-02-11T11:01:45.000","2015-02-11T11:01:45.000","REMINGTON","Debris Removed (Closed)","15-00096938","MD","CLOSED","2015-02-11T12:11:44.000","2015-02-11T12:11:00.000","21211",NA,NA
"Dispatch Work Crew","I 83 N &N GAY ST","BALTIMORE","ZTRMDEBR","TRM-Debris in Roadway","2015-02-08T17:49:19.000","2015-02-08T17:49:19.000","DOWNTOWN","No Trouble Found (Closed)","15-00090236","MD","CLOSED","2015-02-08T19:52:33.000","2015-02-08T19:52:00.000","21202",NA,NA
"Dispatch Work Crew","I 295 & WATERVIEW AVE","BALTIMORE","ZTRMDEBR","TRM-Debris in Roadway","2015-02-06T23:08:18.000","2015-02-06T23:08:18.000","WESTPORT","No Trouble Found (Closed)","15-00088525","MD","CLOSED","2015-02-06T23:49:31.000","2015-02-06T23:49:00.000","21230",NA,NA
"Dispatch Work Crew","S MARTIN LUTHER KING JR BLVD & RAMP","BALTIMORE","ZTRMDEBR","TRM-Debris in Roadway","2015-02-06T18:26:56.000","2015-02-06T18:26:56.000","STADIUM AREA","No Trouble Found (Closed)","15-00087973","MD","CLOSED","2015-02-06T20:08:24.000","2015-02-06T20:00:00.000","21230",NA,NA
"Dispatch Work Crew","3000  WILKENS AVE","BALTIMORE","ZTRMDEBR","TRM-Debris in Roadway","2015-02-04T14:05:15.000","2015-02-04T14:05:15.000","GWYNNS FALLS","Debris Removed (Closed)","15-00080697","MD","CLOSED","2015-02-04T15:46:42.000","2015-02-04T15:46:00.000","21223",NA,NA
"Dispatch Work Crew","RUSSELL ST & ANNAPOLIS RD","BALTIMORE","ZTRMDEBR","TRM-Debris in Roadway","2015-02-03T19:41:03.000","2015-02-03T19:41:03.000","WESTPORT","Debris Removed (Closed)","15-00078841","MD","CLOSED","2015-02-03T23:38:52.000","2015-02-03T23:38:00.000","21230",NA,NA
"Dispatch Work Crew","W COLD SPRING LN & I 83 S","BALTIMORE","ZTRMDEBR","TRM-Debris in Roadway","2015-02-03T19:05:33.000","2015-02-03T19:05:33.000","WOODBERRY","No Trouble Found (Closed)","15-00078693","MD","CLOSED","2015-02-03T22:13:56.000","2015-02-03T22:13:00.000","21209",NA,NA
"Dispatch Work Crew","4100  SAINT GEORGES AVE","BALTIMORE","ZTRMDEBR","TRM-Debris in Roadway","2015-02-02T10:46:43.000","2015-02-02T10:46:43.000","PEN LUCY","Debris Removed (Closed)","15-00073030","MD","CLOSED","2015-02-02T16:06:21.000","2015-02-02T16:06:00.000","21218",NA,NA
"Dispatch Work Crew","83  N","BALTIMORE","ZTRMDEBR","TRM-Debris in Roadway","2015-02-01T21:03:29.000","2015-02-01T21:03:29.000","DOWNTOWN","No Trouble Found (Closed)","15-00072758","MD","CLOSED","2015-02-03T23:37:47.000","2015-02-03T23:37:00.000","21202",NA,NA
"Dispatch Work Crew","725  FALLSWAY","BALTIMORE","ZTRMDEBR","TRM-Debris in Roadway","2015-02-01T11:02:40.000","2015-02-01T11:02:40.000","PENN-FALLSWAY","No Trouble Found (Closed)","15-00072123","MD","CLOSED","2015-02-01T12:26:16.000","2015-02-01T12:26:00.000","21202",NA,NA
"Dispatch Work Crew","HUNTER ST &E 30TH ST","BALTIMORE","ZTRMDEBR","TRM-Debris in Roadway","2015-01-30T16:48:06.000","2015-01-30T16:48:06.000","CHARLES VILLAGE","Debris Removed (Closed)","15-00070006","MD","CLOSED","2015-01-30T17:29:28.000","2015-01-30T17:29:00.000","21218",NA,NA
"Dispatch Work Crew","S CENTRAL AVE &E LOMBARD ST","BALTIMORE","ZTRMDEBR","TRM-Debris in Roadway","2015-01-28T19:05:24.000","2015-01-28T19:05:24.000","JONESTOWN","Debris Removed (Closed)","15-00064488","MD","CLOSED","2015-01-29T11:55:45.000","2015-01-29T11:55:00.000","21202",NA,NA
"Dispatch Work Crew","421  FALLSWAY","BALTIMORE","ZTRMDEBR","TRM-Debris in Roadway","2015-01-28T14:58:00.000","2015-01-28T14:58:00.000","PENN-FALLSWAY","Debris Removed (Closed)","15-00063562","MD","CLOSED","2015-01-28T15:41:53.000","2015-01-28T15:41:00.000","21202",NA,NA
"Dispatch Work Crew","ECHODALE AVE & PERRING PKWY","BALTIMORE","ZTRMDEBR","TRM-Debris in Roadway","2015-01-27T17:06:23.000","2015-01-27T17:06:23.000","MORGAN STATE UNIVERSITY","No Trouble Found (Closed)","15-00061540","MD","CLOSED","2015-01-27T23:28:56.000","2015-01-27T23:28:00.000","21239",NA,NA
"Dispatch Work Crew","HILTON PKWY &N HILTON ST","BALTIMORE","ZTRMDEBR","TRM-Debris in Roadway","2015-01-27T10:42:40.000","2015-01-27T10:42:40.000","CARROLL-SOUTH HILTON","Debris Removed (Closed)","15-00059822","MD","CLOSED","2015-01-29T11:46:11.000","2015-01-29T11:45:00.000","21229",NA,NA
"Dispatch Work Crew","E NORTHERN PKWY & PERRING PKWY","BALTIMORE","ZTRMDEBR","TRM-Debris in Roadway","2015-01-25T18:23:53.000","2015-01-25T18:23:53.000","HARFORD-ECHODALE/PERRING PARKWAY","No Trouble Found (Closed)","15-00055813","MD","CLOSED","2015-01-25T20:41:40.000","2015-01-25T20:41:00.000","21239",NA,NA
"Dispatch Work Crew","83  N","BALTIMORE","ZTRMDEBR","TRM-Debris in Roadway","2015-01-25T14:33:11.000","2015-01-25T14:33:11.000","DRUID HILL PARK","No Trouble Found (Closed)","15-00055563","MD","CLOSED","2015-01-25T18:41:05.000","2015-01-25T18:41:00.000","21211",NA,NA
"Dispatch Work Crew","1702 W COLD SPRING LN","BALTIMORE","ZTRMDEBR","TRM-Debris in Roadway","2015-01-25T14:22:36.000","2015-01-25T14:22:36.000","CROSS KEYS","No Trouble Found (Closed)","15-00055555","MD","CLOSED","2015-01-25T22:13:30.000","2015-01-25T22:13:00.000","21209",NA,NA
"Dispatch Work Crew","SAINT PAUL ST &N CHARLES ST","BALTIMORE","ZTRMDEBR","TRM-Debris in Roadway","2015-01-23T19:48:06.000","2015-01-23T19:48:06.000","GUILFORD","No Trouble Found (Closed)","15-00053916","MD","CLOSED","2015-01-24T00:38:49.000","2015-01-24T00:38:00.000","21218",NA,NA
"Dispatch Work Crew","EUTAW PL &W NORTH AVE","BALTIMORE","ZTRMDEBR","TRM-Debris in Roadway","2015-01-22T22:12:46.000","2015-01-22T22:12:46.000","BOLTON HILL","No Trouble Found (Closed)","15-00051129","MD","CLOSED","2015-01-22T23:48:00.000","2015-01-22T23:47:00.000","21217",NA,NA
"Dispatch Work Crew","1400 W NORTHERN PKWY","BALTIMORE","ZTRMDEBR","TRM-Debris in Roadway","2015-01-22T18:09:28.000","2015-01-22T18:09:28.000","CROSS KEYS","No Trouble Found (Closed)","15-00050594","MD","CLOSED","2015-01-23T23:23:35.000","2015-01-23T23:22:00.000","21209",NA,NA
"Dispatch Work Crew","3500  GREENVALE RD","BALTIMORE","ZTRMDEBR","TRM-Debris in Roadway","2015-01-21T16:52:37.000","2015-01-21T16:52:37.000","VIOLETVILLE","Debris Removed (Closed)","15-00047133","MD","CLOSED","2015-01-21T17:22:32.000","2015-01-21T17:22:00.000","21229",NA,NA
"Dispatch Work Crew","I 83 N &W COLD SPRING LN","BALTIMORE","ZTRMDEBR","TRM-Debris in Roadway","2015-01-21T14:19:35.000","2015-01-21T14:19:35.000","MEDFIELD","No Trouble Found (Closed)","15-00046554","MD","CLOSED","2015-01-21T15:45:54.000","2015-01-21T15:45:00.000","21209",NA,NA
"Dispatch Work Crew","700 W FAYETTE ST","BALTIMORE","ZTRMDEBR","TRM-Debris in Roadway","2015-01-21T10:13:11.000","2015-01-21T10:13:11.000","POPPLETON","Debris Removed (Closed)","15-00045504","MD","CLOSED","2015-01-21T12:23:49.000","2015-01-21T12:23:00.000","21201",NA,NA
"Dispatch Work Crew","3001 S HANOVER ST","BALTIMORE","ZTRMDEBR","TRM-Debris in Roadway","2015-01-20T19:54:55.000","2015-01-20T19:54:55.000","MIDDLE BRANCH/REEDBIRD PARKS","Debris Removed (Closed)","15-00044957","MD","CLOSED","2015-01-20T23:47:02.000","2015-01-20T23:46:00.000","21225",NA,NA
"Dispatch Work Crew","1032 N EUTAW ST","BALTIMORE","ZTRMDEBR","TRM-Debris in Roadway","2015-01-19T15:28:21.000","2015-01-19T15:28:21.000","MADISON PARK","Debris Removed (Closed)","15-00040663","MD","CLOSED","2015-01-19T15:51:11.000","2015-01-19T15:50:00.000","21201",NA,NA
"Dispatch Work Crew","5400  PERRING PKWY","BALTIMORE","ZTRMDEBR","TRM-Debris in Roadway","2015-01-17T16:41:00.000","2015-01-17T16:41:00.000","LOCH RAVEN","Debris Removed (Closed)","15-00038553","MD","CLOSED","2015-01-17T18:48:44.000","2015-01-17T18:48:00.000","21239",NA,NA
"Dispatch Work Crew","1600 S HANOVER ST","BALTIMORE","ZTRMDEBR","TRM-Debris in Roadway","2015-01-17T16:27:00.000","2015-01-17T16:27:00.000","SBIC","Debris Removed (Closed)","15-00038532","MD","CLOSED","2015-01-17T17:01:42.000","2015-01-17T17:01:00.000","21230",NA,NA
"Dispatch Work Crew","I 83 N &W NORTHERN PKWY","BALTIMORE","ZTRMDEBR","TRM-Debris in Roadway","2015-01-16T15:59:27.000","2015-01-16T15:59:27.000","CROSS KEYS","Debris Removed (Closed)","15-00036842","MD","CLOSED","2015-01-16T16:39:03.000","2015-01-16T16:39:00.000","21210",NA,NA
"Dispatch Work Crew","I 83 N &E CHASE ST","BALTIMORE","ZTRMDEBR","TRM-Debris in Roadway","2015-01-16T15:57:11.000","2015-01-16T15:57:11.000","JOHNSTON SQUARE","Debris Removed (Closed)","15-00036834","MD","CLOSED","2015-01-16T17:10:34.000","2015-01-16T17:10:00.000","21202",NA,NA
"Dispatch Work Crew","295","BALTIMORE","ZTRMDEBR","TRM-Debris in Roadway","2015-01-12T17:58:02.000","2015-01-12T17:58:02.000","WESTPORT","Debris Removed (Closed)","15-00025896","MD","CLOSED","2015-01-13T13:09:22.000","2015-01-13T13:00:00.000","21230",NA,NA
"Dispatch Work Crew","4400 W NORTHERN PKWY","BALTIMORE","ZTRMDEBR","TRM-Debris in Roadway","2015-01-12T15:10:35.000","2015-01-12T15:10:35.000","SETON BUSINESS PARK","Debris Removed (Closed)","15-00025226","MD","CLOSED","2015-01-12T15:55:17.000","2015-01-12T15:55:00.000","21215",NA,NA
"Dispatch Work Crew","500 S ROBINSON ST","BALTIMORE","ZTRMDEBR","TRM-Debris in Roadway","2015-01-09T17:09:50.000","2015-01-09T17:09:50.000","CANTON","No Trouble Found (Closed)","15-00021148","MD","CLOSED","2015-01-09T20:30:59.000","2015-01-09T20:30:00.000","21224",NA,NA
"Dispatch Work Crew","1000 W FAYETTE ST","BALTIMORE","ZTRMDEBR","TRM-Debris in Roadway","2015-01-08T16:53:41.000","2015-01-08T16:53:41.000","POPPLETON","No Trouble Found (Closed)","15-00017661","MD","CLOSED","2015-01-08T22:51:07.000","2015-01-08T22:50:00.000","21223",NA,NA
"Dispatch Work Crew","200 W CONWAY ST","BALTIMORE","ZTRMDEBR","TRM-Debris in Roadway","2015-01-08T12:13:01.000","2015-01-08T12:13:01.000","INNER HARBOR","No Trouble Found (Closed)","15-00016313","MD","CLOSED","2015-01-08T22:51:31.000","2015-01-08T22:51:00.000","21201",NA,NA
"Dispatch Work Crew","119 N EUTAW ST","BALTIMORE","ZTRMDEBR","TRM-Debris in Roadway","2015-01-05T19:20:34.000","2015-01-05T19:20:34.000","DOWNTOWN","Debris Removed (Closed)","15-00008547","MD","CLOSED","2015-01-05T21:05:00.000","2015-01-05T21:04:00.000","21201",NA,NA
"Dispatch Work Crew","844  WOODWARD ST","BALTIMORE","ZTRMDEBR","TRM-Debris in Roadway","2015-01-05T19:13:26.000","2015-01-05T19:13:26.000","WASHINGTON VILLAGE","No Trouble Found (Closed)","15-00008493","MD","CLOSED","2015-01-05T21:16:03.000","2015-01-05T21:15:00.000","21230",NA,NA
"Dispatch Work Crew","RAMP","BALTIMORE","ZTRMDEBR","TRM-Debris in Roadway","2015-01-05T15:30:48.000","2015-01-05T15:30:48.000","JONES FALLS AREA","Debris Removed (Closed)","15-00007386","MD","CLOSED","2015-01-05T17:56:43.000","2015-01-05T17:56:00.000","21211",NA,NA
"Dispatch Work Crew","500 E NORTH AVE","BALTIMORE","ZTRMDEBR","TRM-Debris in Roadway","2015-01-05T13:57:10.000","2015-01-05T13:57:10.000","EAST BALTIMORE MIDWAY","Debris Removed (Closed)","15-00006849","MD","CLOSED","2015-01-05T16:01:32.000","2015-01-05T16:01:00.000","21202",NA,NA
"Dispatch Work Crew","1499 W NORTHERN PKWY","BALTIMORE","ZTRMDEBR","TRM-Debris in Roadway","2015-01-05T11:19:46.000","2015-01-05T11:19:46.000","COLDSPRING","Debris Removed (Closed)","15-00005401","MD","CLOSED","2015-01-05T12:39:24.000","2015-01-05T12:39:00.000","21209",NA,NA
"Dispatch Work Crew","W PRATT ST & HOPKINS PL","BALTIMORE","ZTRMDEBR","TRM-Debris in Roadway","2015-01-05T00:19:50.000","2015-01-05T00:19:50.000","INNER HARBOR","Debris Removed (Closed)","15-00005141","MD","CLOSED","2015-01-05T01:15:21.000","2015-01-05T01:14:00.000","21201",NA,NA
NA,"1702 W COLD SPRING LN","BALTIMORE","ZTRMDEBR","TRM-Debris in Roadway","2015-01-01T14:44:51.000","2015-01-01T14:44:51.000","CROSS KEYS",NA,"15-00000275","MD","CLOSED","2015-01-01T15:41:41.000",NA,"21209",NA,NA
"Dispatch Work Crew","N GREENE ST &W FRANKLIN ST","BALTIMORE","ZTRMDEBR","TRM-Debris in Roadway","2014-12-31T12:10:09.000","2014-12-31T12:10:09.000","SETON HILL","Debris Removed (Closed)","14-00967964","MD","CLOSED","2014-12-31T13:35:37.000","2014-12-31T13:35:00.000","21201",NA,NA
"Dispatch Work Crew","RAMP","BALTIMORE","ZTRMDEBR","TRM-Debris in Roadway","2014-12-30T13:55:50.000","2014-12-30T13:55:50.000","JONES FALLS AREA","Debris Removed (Closed)","14-00965750","MD","CLOSED","2014-12-30T14:29:28.000","2014-12-30T14:29:00.000","21211",NA,NA
"Dispatch Work Crew","2300  TACOMA ST","BALTIMORE","ZTRMDEBR","TRM-Debris in Roadway","2014-12-29T18:19:13.000","2014-12-29T18:19:13.000","WESTPORT","No Trouble Found (Closed)","14-00964039","MD","CLOSED","2014-12-29T21:18:08.000","2014-12-29T21:17:00.000","21230",NA,NA
"Dispatch Work Crew","130 N FREMONT AVE","BALTIMORE","ZTRMDEBR","TRM-Debris in Roadway","2014-12-28T23:53:25.000","2014-12-28T23:53:25.000","POPPLETON","No Trouble Found (Closed)","14-00961704","MD","CLOSED","2014-12-29T00:18:27.000","2014-12-29T00:17:00.000","21201",NA,NA
"Dispatch Work Crew","HERRING RUN DR & ECHODALE AVE","BALTIMORE","ZTRMDEBR","TRM-Debris in Roadway","2014-12-28T21:13:48.000","2014-12-28T21:13:48.000","LAURAVILLE","No Trouble Found (Closed)","14-00961631","MD","CLOSED","2014-12-28T22:07:51.000","2014-12-28T22:07:00.000","21214",NA,NA
"Dispatch Work Crew","2800  WEGWORTH LN","BALTIMORE","ZTRMDEBR","TRM-Debris in Roadway","2014-12-24T20:08:48.000","2014-12-24T20:08:48.000","LAKELAND","Debris Removed (Closed)","14-00956993","MD","CLOSED","2014-12-24T21:26:12.000","2014-12-24T21:25:00.000","21230",NA,NA
"Dispatch Work Crew","500  PRESSTMAN ST","BALTIMORE","ZTRMDEBR","TRM-Debris in Roadway","2014-12-22T13:45:17.000","2014-12-22T13:45:17.000","DRUID HEIGHTS","Debris Removed (Closed)","14-00949050","MD","CLOSED","2014-12-22T17:12:07.000","2014-12-22T17:12:00.000","21217",NA,NA
"Dispatch Work Crew","RUSSELL ST & MONROE","BALTIMORE","ZTRMDEBR","TRM-Debris in Roadway","2014-12-22T11:10:40.000","2014-12-22T11:10:40.000","CARROLL - CAMDEN INDUSTRIAL AREA","Debris Removed (Closed)","14-00948094","MD","CLOSED","2014-12-22T14:34:08.000","2014-12-22T14:34:00.000","21230",NA,NA
"Dispatch Work Crew","100  ORLEANS ST","BALTIMORE","ZTRMDEBR","TRM-Debris in Roadway","2014-12-20T07:40:50.000","2014-12-20T07:40:50.000","MOUNT VERNON","Debris Removed (Closed)","14-00946447","MD","CLOSED","2014-12-20T13:50:28.000","2014-12-20T13:50:00.000","21202",NA,NA
"Dispatch Work Crew","1200  BETHLEHEM AVE","BALTIMORE","ZTRMDEBR","TRM-Debris in Roadway","2014-12-19T18:53:58.000","2014-12-19T18:53:58.000","GRACELAND PARK","Debris Removed (Closed)","14-00945937","MD","CLOSED","2014-12-19T20:37:23.000","2014-12-19T20:37:00.000","21222",NA,NA
"Dispatch Work Crew","3500  SWEET AIR ST","BALTIMORE","ZTRMDEBR","TRM-Debris in Roadway","2014-12-19T16:02:57.000","2014-12-19T16:02:57.000","HAMPDEN","Debris Removed (Closed)","14-00945328","MD","CLOSED","2014-12-19T18:40:32.000","2014-12-19T18:40:00.000","21211",NA,NA
"Dispatch Work Crew","N CHARLES ST &E LAKE AVE","BALTIMORE","ZTRMDEBR","TRM-Debris in Roadway","2014-12-18T21:36:41.000","2014-12-18T21:36:41.000","BELLONA-GITTINGS","No Trouble Found (Closed)","14-00943729","MD","CLOSED","2014-12-19T00:38:20.000","2014-12-19T00:38:00.000","21210",NA,NA
"Dispatch Work Crew","1499 W NORTHERN PKWY","BALTIMORE","ZTRMDEBR","TRM-Debris in Roadway","2014-12-13T05:25:58.000","2014-12-13T05:25:58.000","COLDSPRING","No Trouble Found (Closed)","14-00930486","MD","CLOSED","2014-12-13T12:56:19.000","2014-12-13T12:56:00.000","21209",NA,NA
"Dispatch Work Crew","301 E NORTH AVE","BALTIMORE","ZTRMDEBR","TRM-Debris in Roadway","2014-12-12T13:31:23.000","2014-12-12T13:31:23.000","GREENMOUNT WEST","Debris Removed (Closed)","14-00928902","MD","CLOSED","2014-12-12T13:52:49.000","2014-12-12T13:52:00.000","21202",NA,NA
"Dispatch Work Crew","N WHEELER AVE & EDMONDSON AVE","BALTIMORE","ZTRMDEBR","TRM-Debris in Roadway","2014-12-12T11:01:00.000","2014-12-12T11:01:00.000","ROSEMONT HOMEOWNERS/TENANTS","Debris Removed (Closed)","14-00928021","MD","CLOSED","2014-12-12T14:03:46.000","2014-12-12T14:03:00.000","21223",NA,NA
"Dispatch Work Crew","5200  MORAVIA RD","BALTIMORE","ZTRMDEBR","TRM-Debris in Roadway","2014-12-12T02:32:42.000","2014-12-12T02:32:42.000","FRANKFORD","No Trouble Found (Closed)","14-00927897","MD","CLOSED","2014-12-12T03:43:09.000","2014-12-12T03:43:00.000","21206",NA,NA
"Dispatch Work Crew","1911 E COLD SPRING LN","BALTIMORE","ZTRMDEBR","TRM-Debris in Roadway","2014-12-10T18:49:24.000","2014-12-10T18:49:24.000","MORGAN STATE UNIVERSITY","No Trouble Found (Closed)","14-00924499","MD","CLOSED","2014-12-10T20:40:57.000","2014-12-10T20:40:00.000","21239",NA,NA
"Dispatch Work Crew","2804  GARRISON BLVD","BALTIMORE","ZTRMDEBR","TRM-Debris in Roadway","2014-12-10T12:19:43.000","2014-12-10T12:19:43.000","GARWYN OAKS","Debris Removed (Closed)","14-00922583","MD","CLOSED","2014-12-10T13:47:12.000","2014-12-10T13:47:00.000","21216",NA,NA
"Dispatch Work Crew","ORLEANS ST & SAINT PAUL PL","BALTIMORE","ZTRMDEBR","TRM-Debris in Roadway","2014-12-09T13:51:52.000","2014-12-09T13:51:52.000","DOWNTOWN","No Trouble Found (Closed)","14-00920445","MD","CLOSED","2014-12-09T15:08:14.000","2014-12-09T15:00:00.000","21202",NA,NA
"Dispatch Work Crew","2400 S HANOVER ST","BALTIMORE","ZTRMDEBR","TRM-Debris in Roadway","2014-12-08T17:46:17.000","2014-12-08T17:46:17.000","SPRING GARDEN INDUSTRIAL AREA","No Trouble Found (Closed)","14-00918683","MD","CLOSED","2014-12-08T22:52:59.000","2014-12-08T22:52:00.000","21230",NA,NA
"Dispatch Work Crew","565  PRESSTMAN ST","BALTIMORE","ZTRMDEBR","TRM-Debris in Roadway","2014-12-08T17:35:42.000","2014-12-08T17:35:42.000","UPTON","Debris Removed (Closed)","14-00918648","MD","CLOSED","2014-12-10T14:40:50.000","2014-12-10T14:40:00.000","21217",NA,NA
"Dispatch Work Crew","CLARKSON ST &W RANDALL ST","BALTIMORE","ZTRMDEBR","TRM-Debris in Roadway","2014-12-04T18:22:08.000","2014-12-04T18:22:08.000","SBIC","Debris Removed (Closed)","14-00910376","MD","CLOSED","2014-12-04T21:28:19.000","2014-12-04T21:27:00.000","21230",NA,NA
NA,"5500 N CHARLES ST","BALTIMORE","ZTRMDEBR","TRM-Debris in Roadway","2014-12-04T09:52:29.000","2014-12-04T09:52:29.000","THE ORCHARDS",NA,"14-00908122","MD","CLOSED","2014-12-04T12:37:26.000",NA,"21210",NA,NA
"Dispatch Work Crew","SAINT PAUL PL & ORLEANS ST","BALTIMORE","ZTRMDEBR","TRM-Debris in Roadway","2014-12-03T22:10:44.000","2014-12-03T22:10:44.000","DOWNTOWN","Debris Removed (Closed)","14-00907862","MD","CLOSED","2014-12-03T23:47:42.000","2014-12-03T23:47:00.000","21202",NA,NA
"Dispatch Work Crew","2708  ORLEANS ST","BALTIMORE","ZTRMDEBR","TRM-Debris in Roadway","2014-12-02T13:47:56.000","2014-12-02T13:47:56.000","MCELDERRY PARK","Debris Removed (Closed)","14-00902761","MD","CLOSED","2014-12-02T15:10:55.000","2014-12-02T15:10:00.000","21224",NA,NA
"Dispatch Work Crew","723 N ROSEDALE ST","BALTIMORE","ZTRMDEBR","TRM-Debris in Roadway","2014-12-01T17:15:48.000","2014-12-01T17:15:48.000","FRANKLINTOWN ROAD","No Trouble Found (Closed)","14-00900638","MD","CLOSED","2014-12-01T17:50:45.000","2014-12-01T17:50:00.000","21216",NA,NA
"Dispatch Work Crew","4496  83  N","BALTIMORE","ZTRMDEBR","TRM-Debris in Roadway","2014-11-29T10:59:29.000","2014-11-29T10:59:29.000","MEDFIELD","Debris Removed (Closed)","14-00896188","MD","CLOSED","2014-11-29T12:15:51.000","2014-11-29T12:15:00.000","21209",NA,NA
"Dispatch Work Crew","W COLD SPRING LN & RAMP","BALTIMORE","ZTRMDEBR","TRM-Debris in Roadway","2014-11-29T10:24:57.000","2014-11-29T10:24:57.000","WOODBERRY","Debris Removed (Closed)","14-00896137","MD","CLOSED","2014-11-29T12:16:22.000","2014-11-29T12:16:00.000","21209",NA,NA
"Dispatch Work Crew","BOSTON ST &S CLINTON ST","BALTIMORE","ZTRMDEBR","TRM-Debris in Roadway","2014-11-28T21:38:26.000","2014-11-28T21:38:26.000","CANTON","No Trouble Found (Closed)","14-00895829","MD","CLOSED","2014-11-28T22:31:36.000","2014-11-28T22:31:00.000","21224",NA,NA
"Dispatch Work Crew","4496  83  N","BALTIMORE","ZTRMDEBR","TRM-Debris in Roadway","2014-11-28T17:31:30.000","2014-11-28T17:31:30.000","MEDFIELD","Debris Removed (Closed)","14-00895247","MD","CLOSED","2014-11-28T18:29:48.000","2014-11-28T18:29:00.000","21209",NA,NA
"Dispatch Work Crew","1702 W COLD SPRING LN","BALTIMORE","ZTRMDEBR","TRM-Debris in Roadway","2014-11-28T12:33:05.000","2014-11-28T12:33:05.000","CROSS KEYS","Debris Removed (Closed)","14-00893438","MD","CLOSED","2014-11-28T18:32:14.000","2014-11-28T18:32:00.000","21209",NA,NA
"Dispatch Work Crew","4496  83  N","BALTIMORE","ZTRMDEBR","TRM-Debris in Roadway","2014-11-28T12:25:56.000","2014-11-28T12:25:56.000","MEDFIELD","Debris Removed (Closed)","14-00893363","MD","CLOSED","2014-11-28T12:47:34.000","2014-11-28T12:47:00.000","21209",NA,NA
"Dispatch Work Crew","1700  ARGONNE DR","BALTIMORE","ZTRMDEBR","TRM-Debris in Roadway","2014-11-26T19:43:38.000","2014-11-26T19:43:38.000","MORGAN STATE UNIVERSITY","Debris Removed (Closed)","14-00891320","MD","CLOSED","2014-11-26T21:28:02.000","2014-11-26T21:07:00.000","21251",NA,NA
"Dispatch Work Crew","W FRANKLIN ST &N MARTIN LUTHER KING JR B","BALTIMORE","ZTRMDEBR","TRM-Debris in Roadway","2014-11-25T20:06:31.000","2014-11-25T20:06:31.000","HERITAGE CROSSING","Debris Removed (Closed)","14-00888774","MD","CLOSED","2014-11-26T01:06:44.000","2014-11-26T01:06:00.000","21201",NA,NA
"Dispatch Work Crew","1701 W COLD SPRING LN","BALTIMORE","ZTRMDEBR","TRM-Debris in Roadway","2014-11-25T10:39:29.000","2014-11-25T10:39:29.000","MEDFIELD","Debris Removed (Closed)","14-00885395","MD","CLOSED","2014-11-25T14:40:59.000","2014-11-25T14:40:00.000","21209",NA,NA
"Dispatch Work Crew","421  FALLSWAY","BALTIMORE","ZTRMDEBR","TRM-Debris in Roadway","2014-11-25T10:25:38.000","2014-11-25T10:25:38.000","PENN-FALLSWAY","Debris Removed (Closed)","14-00885368","MD","CLOSED","2014-11-25T11:56:07.000","2014-11-25T11:56:00.000","21202",NA,NA
"Dispatch Work Crew","3041  SAINT PAUL ST","BALTIMORE","ZTRMDEBR","TRM-Debris in Roadway","2014-11-24T19:56:35.000","2014-11-24T19:56:35.000","CHARLES VILLAGE","No Trouble Found (Closed)","14-00884841","MD","CLOSED","2014-11-25T01:08:34.000","2014-11-25T01:00:00.000","21218",NA,NA
"Dispatch Work Crew","W 28TH ST & RAMP","BALTIMORE","ZTRMDEBR","TRM-Debris in Roadway","2014-11-21T20:37:48.000","2014-11-21T20:37:48.000","DRUID HILL PARK","No Trouble Found (Closed)","14-00880309","MD","CLOSED","2014-11-21T22:43:07.000","2014-11-21T22:42:00.000","21217",NA,NA
NA,"WILKENS AVE & BRUNSWICK ST","BALTIMORE","ZTRMDEBR","TRM-Debris in Roadway","2014-11-21T18:45:18.000","2014-11-21T18:45:18.000","MILLHILL",NA,"14-00879940","MD","CLOSED","2014-11-21T20:08:36.000",NA,"21223",NA,NA
"Dispatch Work Crew","DESOTO RD & WASHINGTON BLVD","BALTIMORE","ZTRMDEBR","TRM-Debris in Roadway","2014-11-21T13:00:48.000","2014-11-21T13:00:48.000","MORRELL PARK","Debris Removed (Closed)","14-00878238","MD","CLOSED","2014-11-21T13:35:32.000","2014-11-21T13:35:00.000","21230",NA,NA
"Dispatch Work Crew","N FOREST PARK AVE & WETHEREDSVILLE RD","BALTIMORE","ZTRMDEBR","TRM-Debris in Roadway","2014-11-20T21:11:36.000","2014-11-20T21:11:36.000","DICKEYVILLE","Debris Removed (Closed)","14-00877252","MD","CLOSED","2014-11-20T22:29:12.000","2014-11-20T22:29:00.000","21207",NA,NA
"Dispatch Work Crew","295","BALTIMORE","ZTRMDEBR","TRM-Debris in Roadway","2014-11-20T18:44:40.000","2014-11-20T18:44:40.000","WESTPORT","No Trouble Found (Closed)","14-00876866","MD","CLOSED","2014-11-20T21:42:42.000","2014-11-20T21:42:00.000","21230",NA,NA
"Dispatch Work Crew","2400 S HANOVER ST","BALTIMORE","ZTRMDEBR","TRM-Debris in Roadway","2014-11-20T18:30:58.000","2014-11-20T18:30:58.000","SPRING GARDEN INDUSTRIAL AREA","No Trouble Found (Closed)","14-00876799","MD","CLOSED","2014-11-21T00:33:45.000","2014-11-21T00:33:00.000","21230",NA,NA
"Dispatch Work Crew","2200  BANK ST","BALTIMORE","ZTRMDEBR","TRM-Debris in Roadway","2014-11-20T18:29:21.000","2014-11-20T18:29:21.000","UPPER FELLS POINT","No Trouble Found (Closed)","14-00876794","MD","CLOSED","2014-11-20T20:11:56.000","2014-11-20T20:11:00.000","21231",NA,NA
"Dispatch Work Crew","3700  PENNINGTON AVE","BALTIMORE","ZTRMDEBR","TRM-Debris in Roadway","2014-11-19T18:01:25.000","2014-11-19T18:01:25.000","CURTIS BAY","No Trouble Found (Closed)","14-00873442","MD","CLOSED","2014-11-19T20:50:12.000","2014-11-19T20:49:00.000","21226",NA,NA
NA,"5500  BUCKNELL RD","BALTIMORE","ZTRMDEBR","TRM-Debris in Roadway","2014-11-18T10:35:19.000","2014-11-18T10:35:19.000","CEDONIA",NA,"14-00867824","MD","CLOSED","2014-11-18T12:57:41.000",NA,"21206",NA,NA
NA,"1742  DRUID HILL AVE","BALTIMORE CITY","ZTRMDEBR","TRM-Debris in Roadway","2014-11-15T20:12:04.000","2014-11-15T20:12:04.000","UPTON",NA,"14-00863100","MD","CLOSED","2014-11-16T13:23:26.000",NA,"21217",NA,NA
"Dispatch Work Crew","LIBERTY HEIGHTS AVE &W NORTHERN PKWY","BALTIMORE COUNTY","ZTRMDEBR","TRM-Debris in Roadway","2014-11-15T19:45:21.000","2014-11-15T19:45:21.000","GROVE PARK","No Trouble Found (Closed)","14-00863079","MD","CLOSED","2014-11-15T20:11:43.000","2014-11-15T20:11:00.000","21207",NA,NA
"Dispatch Work Crew","1600  POPLAND ST","BALTIMORE CITY","ZTRMDEBR","TRM-Debris in Roadway","2014-11-13T19:21:19.000","2014-11-13T19:21:19.000","CURTIS BAY","No Trouble Found (Closed)","14-00858457","MD","CLOSED","2014-11-13T20:57:13.000","2014-11-13T20:56:00.000","21226",NA,NA
"Dispatch Work Crew","N PRESIDENT ST &E FAYETTE ST","BALTIMORE CITY","ZTRMDEBR","TRM-Debris in Roadway","2014-11-13T18:11:40.000","2014-11-13T18:11:40.000","DOWNTOWN","Debris Removed (Closed)","14-00858200","MD","CLOSED","2014-11-13T18:54:07.000","2014-11-13T18:53:00.000","21202",NA,NA
"Dispatch Work Crew","W FAYETTE ST &N MARTIN LUTHER KING JR BL","BALTIMORE CITY","ZTRMDEBR","TRM-Debris in Roadway","2014-11-13T15:39:39.000","2014-11-13T15:39:39.000","POPPLETON","Debris Removed (Closed)","14-00857575","MD","CLOSED","2014-11-13T20:17:04.000","2014-11-13T20:16:00.000","21201",NA,NA
"Dispatch Work Crew","5317  PLAINFIELD AVE","BALTIMORE CITY","ZTRMDEBR","TRM-Debris in Roadway","2014-11-11T13:20:42.000","2014-11-11T13:20:42.000","FRANKFORD","No Trouble Found (Closed)","14-00850674","MD","CLOSED","2014-11-11T13:50:23.000","2014-11-11T13:50:00.000","21206",NA,NA
"Dispatch Work Crew","WINDSOR MILL RD & GWYNNS FALLS PKWY","BALTIMORE CITY","ZTRMDEBR","TRM-Debris in Roadway","2014-11-08T22:31:45.000","2014-11-08T22:31:45.000","WINDSOR HILLS","No Trouble Found (Closed)","14-00845311","MD","CLOSED","2014-11-09T13:03:44.000","2014-11-09T13:03:00.000","21216",NA,NA
"Dispatch Work Crew","MORAVIA RD & RAMP","BALTIMORE CITY","ZTRMDEBR","TRM-Debris in Roadway","2014-11-07T17:38:30.000","2014-11-07T17:38:30.000","PULASKI INDUSTRIAL AREA","Debris Removed (Closed)","14-00842353","MD","CLOSED","2014-11-07T23:12:50.000","2014-11-07T23:12:00.000","21205",NA,NA
"Dispatch Work Crew","S CATON AVE &S HILTON ST","BALTIMORE CITY","ZTRMDEBR","TRM-Debris in Roadway","2014-11-07T16:24:52.000","2014-11-07T16:24:52.000","CARROLL-SOUTH HILTON","No Trouble Found (Closed)","14-00841974","MD","CLOSED","2014-11-07T16:48:48.000","2014-11-07T16:48:00.000","21229",NA,NA
"Dispatch Work Crew","RAMP","BALTIMORE CITY","ZTRMDEBR","TRM-Debris in Roadway","2014-11-06T19:36:51.000","2014-11-06T19:36:51.000","RESERVOIR HILL","Debris Removed (Closed)","14-00839242","MD","CLOSED","2014-11-07T12:30:23.000","2014-11-07T12:30:00.000","21217",NA,NA
"Dispatch Work Crew","S HANOVER ST &W MCCOMAS ST","BALTIMORE CITY","ZTRMDEBR","TRM-Debris in Roadway","2014-11-05T15:38:15.000","2014-11-05T15:38:15.000","PORT COVINGTON","Debris Removed (Closed)","14-00834511","MD","CLOSED","2014-11-05T18:14:42.000","2014-11-05T18:14:00.000","21230",NA,NA
"Dispatch Work Crew","152 N EAST AVE","BALTIMORE CITY","ZTRMDEBR","TRM-Debris in Roadway","2014-11-04T15:26:53.000","2014-11-04T15:26:53.000","BALTIMORE-LINWOOD","No Trouble Found (Closed)","14-00830331","MD","CLOSED","2014-11-04T16:22:35.000","2014-11-04T16:22:00.000","21224",NA,NA
"Dispatch Work Crew","RAMP","BALTIMORE CITY","ZTRMDEBR","TRM-Debris in Roadway","2014-11-03T19:48:13.000","2014-11-03T19:48:13.000","RESERVOIR HILL","Debris Removed (Closed)","14-00828484","MD","CLOSED","2014-11-03T22:13:03.000","2014-11-03T22:12:00.000","21217",NA,NA
"Dispatch Work Crew","RAMP","BALTIMORE CITY","ZTRMDEBR","TRM-Debris in Roadway","2014-11-03T19:46:37.000","2014-11-03T19:46:37.000","CROSS KEYS","No Trouble Found (Closed)","14-00828478","MD","CLOSED","2014-11-04T00:12:02.000","2014-11-04T00:11:00.000","21209",NA,NA
"Dispatch Work Crew","E 31ST ST &N CHARLES ST","BALTIMORE CITY","ZTRMDEBR","TRM-Debris in Roadway","2014-11-02T12:37:10.000","2014-11-02T12:37:10.000","CHARLES VILLAGE","Debris Removed (Closed)","14-00823971","MD","CLOSED","2014-11-02T13:57:51.000","2014-11-02T13:57:00.000","21218",NA,NA
"Dispatch Work Crew","RAMP","BALTIMORE CITY","ZTRMDEBR","TRM-Debris in Roadway","2014-11-01T21:11:37.000","2014-11-01T21:11:37.000","RESERVOIR HILL","Debris Removed (Closed)","14-00823295","MD","DUPCLOSD","2014-11-03T22:13:03.000","2014-11-03T20:46:00.000","21217",NA,NA
"Dispatch Work Crew","RAMP","BALTIMORE CITY","ZTRMDEBR","TRM-Debris in Roadway","2014-11-01T19:49:37.000","2014-11-01T19:49:37.000","DRUID HILL PARK","Debris Removed (Closed)","14-00823231","MD","CLOSED","2014-11-01T21:12:42.000","2014-11-01T21:12:00.000","21217",NA,NA
"Dispatch Work Crew","PENHURST AVE & GWYNN OAK AVE","BALTIMORE CITY","ZTRMDEBR","TRM-Debris in Roadway","2014-11-01T19:43:40.000","2014-11-01T19:43:40.000","WEST ARLINGTON","Debris Removed (Closed)","14-00823229","MD","CLOSED","2014-11-01T20:15:42.000","2014-11-01T20:14:00.000","21215",NA,NA
"Dispatch Work Crew","1400 W NORTHERN PKWY","BALTIMORE CITY","ZTRMDEBR","TRM-Debris in Roadway","2014-11-01T19:29:44.000","2014-11-01T19:29:44.000","CROSS KEYS","No Trouble Found (Closed)","14-00823215","MD","CLOSED","2014-11-01T19:51:42.000","2014-11-01T19:51:00.000","21209",NA,NA
"Dispatch Work Crew","RAMP","BALTIMORE CITY","ZTRMDEBR","TRM-Debris in Roadway","2014-11-01T15:23:12.000","2014-11-01T15:23:12.000","CROSS KEYS","No Trouble Found (Closed)","14-00822461","MD","CLOSED","2014-11-01T15:59:54.000","2014-11-01T15:59:00.000","21209",NA,NA
"Dispatch Work Crew","RAMP","BALTIMORE CITY","ZTRMDEBR","TRM-Debris in Roadway","2014-11-01T14:23:28.000","2014-11-01T14:23:28.000","RESERVOIR HILL","No Trouble Found (Closed)","14-00822233","MD","CLOSED","2014-11-01T15:45:30.000","2014-11-01T15:45:00.000","21217",NA,NA
"Dispatch Work Crew","RAMP","BALTIMORE CITY","ZTRMDEBR","TRM-Debris in Roadway","2014-10-31T21:49:02.000","2014-10-31T21:49:02.000","DRUID HILL PARK","No Trouble Found (Closed)","14-00821253","MD","CLOSED","2014-11-01T16:00:29.000","2014-11-01T16:00:00.000","21217",NA,NA
"Dispatch Work Crew","1701 W COLD SPRING LN","BALTIMORE CITY","ZTRMDEBR","TRM-Debris in Roadway","2014-10-31T10:39:09.000","2014-10-31T10:39:09.000","MEDFIELD","Debris Removed (Closed)","14-00818442","MD","CLOSED","2014-10-31T12:43:07.000","2014-10-31T12:43:00.000","21209",NA,NA
NA,"RAMP","BALTIMORE CITY","ZTRMDEBR","TRM-Debris in Roadway","2014-10-27T18:44:56.000","2014-10-27T18:44:56.000","CANTON INDUSTRIAL AREA",NA,"14-00807908","MD","CLOSED","2014-10-27T19:00:55.000",NA,"21224",NA,NA
"Dispatch Work Crew","E PATAPSCO AVE & SHELL RD","BALTIMORE CITY","ZTRMDEBR","TRM-Debris in Roadway","2014-10-27T16:23:08.000","2014-10-27T16:23:08.000","FAIRFIELD AREA","Debris Removed (Closed)","14-00807251","MD","CLOSED","2014-10-27T17:33:36.000","2014-10-27T17:33:00.000","21225",NA,NA
"Dispatch Work Crew","299 W CONWAY ST","BALTIMORE CITY","ZTRMDEBR","TRM-Debris in Roadway","2014-10-24T13:03:18.000","2014-10-24T13:03:18.000","OTTERBEIN","No Trouble Found (Closed)","14-00801357","MD","CLOSED","2014-10-24T16:22:28.000","2014-10-24T16:22:00.000","21201",NA,NA
"Dispatch Work Crew","RAMP","BALTIMORE CITY","ZTRMDEBR","TRM-Debris in Roadway","2014-10-23T17:38:38.000","2014-10-23T17:38:38.000","MID-TOWN BELVEDERE","Debris Removed (Closed)","14-00799468","MD","CLOSED","2014-10-23T18:14:15.000","2014-10-23T18:14:00.000","21201",NA,NA
"Dispatch Work Crew","3300  CLARKS LN","BALTIMORE CITY","ZTRMDEBR","TRM-Debris in Roadway","2014-10-23T11:41:13.000","2014-10-23T11:41:13.000","CROSS COUNTRY","No Trouble Found (Closed)","14-00797737","MD","CLOSED","2014-10-23T17:59:49.000","2014-10-23T17:59:00.000","21215",NA,NA
"Dispatch Work Crew","E BELVEDERE AVE & NASCO PL","BALTIMORE CITY","ZTRMDEBR","TRM-Debris in Roadway","2014-10-22T14:42:02.000","2014-10-22T14:42:02.000","LOCH RAVEN","Debris Removed (Closed)","14-00795614","MD","CLOSED","2014-10-22T14:59:28.000","2014-10-22T14:59:00.000","21239",NA,NA
"Dispatch Work Crew","3008 E BALTIMORE ST","BALTIMORE CITY","ZTRMDEBR","TRM-Debris in Roadway","2014-10-21T17:11:09.000","2014-10-21T17:11:09.000","BALTIMORE-LINWOOD","Debris Removed (Closed)","14-00793086","MD","CLOSED","2014-10-21T18:57:27.000","2014-10-21T18:57:00.000","21224",NA,NA
"Dispatch Work Crew","S CATON AVE & RAMP","BALTIMORE CITY","ZTRMDEBR","TRM-Debris in Roadway","2014-10-21T15:21:29.000","2014-10-21T15:21:29.000","VIOLETVILLE","Debris Removed (Closed)","14-00792432","MD","CLOSED","2014-10-23T02:31:08.000","2014-10-23T02:30:00.000","21227",NA,NA
"Dispatch Work Crew","RAMP","BALTIMORE CITY","ZTRMDEBR","TRM-Debris in Roadway","2014-10-20T19:50:50.000","2014-10-20T19:50:50.000","RESERVOIR HILL","No Trouble Found (Closed)","14-00790283","MD","CLOSED","2014-10-20T21:41:04.000","2014-10-20T21:41:00.000","21217",NA,NA
"Dispatch Work Crew","100 S FREMONT AVE","BALTIMORE CITY","ZTRMDEBR","TRM-Debris in Roadway","2014-10-20T19:49:17.000","2014-10-20T19:49:17.000","UNIVERSITY OF MARYLAND","No Trouble Found (Closed)","14-00790278","MD","CLOSED","2014-10-20T21:45:26.000","2014-10-20T21:43:00.000","21201",NA,NA
"Dispatch Work Crew","HOLLIDAY ST &E FAYETTE ST","BALTIMORE CITY","ZTRMDEBR","TRM-Debris in Roadway","2014-10-19T21:17:49.000","2014-10-19T21:17:49.000","DOWNTOWN","No Trouble Found (Closed)","14-00787478","MD","CLOSED","2014-10-20T02:40:20.000","2014-10-20T02:40:00.000","21202",NA,NA
"Dispatch Work Crew","3600  WINDSOR MILL RD","BALTIMORE CITY","ZTRMDEBR","TRM-Debris in Roadway","2014-10-19T19:35:40.000","2014-10-19T19:35:40.000","MOUNT HOLLY","No Trouble Found (Closed)","14-00787391","MD","CLOSED","2014-10-19T21:00:30.000","2014-10-19T21:00:00.000","21216",NA,NA
"Dispatch Work Crew","RAMP","BALTIMORE CITY","ZTRMDEBR","TRM-Debris in Roadway","2014-10-19T18:08:18.000","2014-10-19T18:08:18.000","CROSS KEYS","Debris Removed (Closed)","14-00787293","MD","CLOSED","2014-10-19T20:04:31.000","2014-10-19T20:04:00.000","21209",NA,NA
"Dispatch Work Crew","RAMP","BALTIMORE CITY","ZTRMDEBR","TRM-Debris in Roadway","2014-10-18T22:58:46.000","2014-10-18T22:58:46.000","RESERVOIR HILL","Debris Removed (Closed)","14-00786580","MD","CLOSED","2014-10-19T00:36:11.000","2014-10-19T00:35:00.000","21217",NA,NA
"Dispatch Work Crew","W NORTHERN PKWY & RAMP","BALTIMORE CITY","ZTRMDEBR","TRM-Debris in Roadway","2014-10-17T20:22:01.000","2014-10-17T20:22:01.000","COLDSPRING","Debris Removed (Closed)","14-00784264","MD","CLOSED","2014-10-18T00:23:45.000","2014-10-18T00:23:00.000","21209",NA,NA
"Dispatch Work Crew","202 N MILTON AVE","BALTIMORE CITY","ZTRMDEBR","TRM-Debris in Roadway","2014-10-16T20:44:46.000","2014-10-16T20:44:46.000","PATTERSON PLACE","Debris Removed (Closed)","14-00781390","MD","CLOSED","2014-10-16T21:16:23.000","2014-10-16T21:15:00.000","21224",NA,NA
"Dispatch Work Crew","OLD HARFORD RD & KILDAIRE DR","BALTIMORE CITY","ZTRMDEBR","TRM-Debris in Roadway","2014-10-16T15:35:46.000","2014-10-16T15:35:46.000","NORTH HARFORD ROAD","Debris Removed (Closed)","14-00780342","MD","CLOSED","2014-10-16T22:20:59.000","2014-10-16T22:20:00.000","21234",NA,NA
"Dispatch Work Crew","5505  ELSRODE AVE","BALTIMORE CITY","ZTRMDEBR","TRM-Debris in Roadway","2014-10-15T14:18:52.000","2014-10-15T14:18:52.000","HARFORD-ECHODALE/PERRING PARKWAY","No Trouble Found (Closed)","14-00776551","MD","CLOSED","2014-10-15T21:18:27.000","2014-10-15T21:17:00.000","21214",NA,NA
"Dispatch Work Crew","3001 S HANOVER ST","BALTIMORE CITY","ZTRMDEBR","TRM-Debris in Roadway","2014-10-15T11:48:26.000","2014-10-15T11:48:26.000","MIDDLE BRANCH/REEDBIRD PARKS","Debris Removed (Closed)","14-00775855","MD","CLOSED","2014-10-15T16:51:22.000","2014-10-15T16:51:00.000","21225",NA,NA
"Dispatch Work Crew","EDMONDSON AVE &N ATHOL AVE","BALTIMORE CITY","ZTRMDEBR","TRM-Debris in Roadway","2014-10-14T19:53:12.000","2014-10-14T19:53:12.000","ROGNEL HEIGHTS","Debris Removed (Closed)","14-00774776","MD","CLOSED","2014-10-14T20:46:08.000","2014-10-14T20:42:00.000","21229",NA,NA
"Dispatch Work Crew","2900  MOSHER ST","BALTIMORE CITY","ZTRMDEBR","TRM-Debris in Roadway","2014-10-14T13:31:45.000","2014-10-14T13:31:45.000","FRANKLINTOWN ROAD","No Trouble Found (Closed)","14-00773099","MD","CLOSED","2014-10-14T14:26:50.000","2014-10-14T14:26:00.000","21216",NA,NA
NA,"RUSSELL ST & RAMP","BALTIMORE CITY","ZTRMDEBR","TRM-Debris in Roadway","2014-10-13T21:25:58.000","2014-10-13T21:25:58.000","WESTPORT",NA,"14-00771819","MD","CLOSED","2014-10-14T11:31:59.000",NA,"21230",NA,NA
"Dispatch Work Crew","W 28TH ST & RAMP","BALTIMORE CITY","ZTRMDEBR","TRM-Debris in Roadway","2014-10-10T17:51:02.000","2014-10-10T17:51:02.000","DRUID HILL PARK","No Trouble Found (Closed)","14-00766670","MD","CLOSED","2014-10-10T20:12:35.000","2014-10-10T20:12:00.000","21217",NA,NA
"Dispatch Work Crew","5600 N CHARLES ST","BALTIMORE CITY","ZTRMDEBR","TRM-Debris in Roadway","2014-10-10T09:59:17.000","2014-10-10T09:59:17.000","HOMELAND","No Trouble Found (Closed)","14-00764673","MD","CLOSED","2014-10-10T09:59:33.000","2014-10-10T09:59:00.000","21210",NA,NA
"Dispatch Work Crew","2900  RIDGEWOOD AVE","BALTIMORE CITY","ZTRMDEBR","TRM-Debris in Roadway","2014-10-10T01:56:00.000","2014-10-10T01:56:00.000","LUCILLE PARK","No Trouble Found (Closed)","14-00764370","MD","CLOSED","2014-10-10T13:08:11.000","2014-10-10T13:00:00.000","21215",NA,NA
NA,"3100  HAWKINS POINT RD","BALTIMORE CITY","ZTRMDEBR","TRM-Debris in Roadway","2014-10-09T16:46:48.000","2014-10-09T16:46:48.000","HAWKINS POINT",NA,"14-00763042","MD","CLOSED","2014-10-09T17:38:11.000",NA,"21226",NA,NA
"Dispatch Work Crew","YORK RD &E NORTHERN PKWY","BALTIMORE CITY","ZTRMDEBR","TRM-Debris in Roadway","2014-10-09T11:48:54.000","2014-10-09T11:48:54.000","ROSEBANK","Debris Removed (Closed)","14-00761588","MD","CLOSED","2014-10-09T15:36:50.000","2014-10-09T15:36:00.000","21212",NA,NA
"Dispatch Work Crew","1133 E FAYETTE ST","BALTIMORE CITY","ZTRMDEBR","TRM-Debris in Roadway","2014-10-09T00:54:47.000","2014-10-09T00:54:47.000","JONESTOWN","Debris Removed (Closed)","14-00761091","MD","CLOSED","2014-10-09T11:03:29.000","2014-10-09T11:03:00.000","21202",NA,NA
"Dispatch Work Crew","EASTERN AVE &S HAVEN ST","BALTIMORE CITY","ZTRMDEBR","TRM-Debris in Roadway","2014-10-08T15:20:52.000","2014-10-08T15:20:52.000","BREWERS HILL","Debris Removed (Closed)","14-00759051","MD","CLOSED","2014-10-08T18:07:23.000","2014-10-08T18:07:00.000","21224",NA,NA
"Dispatch Work Crew","RAMP","BALTIMORE CITY","ZTRMDEBR","TRM-Debris in Roadway","2014-10-08T13:34:24.000","2014-10-08T13:34:24.000","CROSS KEYS","No Trouble Found (Closed)","14-00758580","MD","CLOSED","2014-10-08T14:27:49.000","2014-10-08T14:27:00.000","21209",NA,NA
"Dispatch Work Crew","LIBERTY HEIGHTS AVE & DRUID PARK DR","BALTIMORE CITY","ZTRMDEBR","TRM-Debris in Roadway","2014-10-07T15:50:50.000","2014-10-07T15:50:50.000","BURLEITH-LEIGHTON","Debris Removed (Closed)","14-00755811","MD","CLOSED","2014-10-07T18:18:06.000","2014-10-07T18:18:00.000","21215",NA,NA
"Dispatch Work Crew","510  WASHINGTON BLVD","BALTIMORE CITY","ZTRMDEBR","TRM-Debris in Roadway","2014-10-07T12:17:49.000","2014-10-07T12:17:49.000","INNER HARBOR","No Trouble Found (Closed)","14-00754614","MD","CLOSED","2014-10-07T14:04:45.000","2014-10-07T14:04:00.000","21230",NA,NA
"Dispatch Work Crew","N ROSEDALE ST & PRESSTMAN ST","BALTIMORE CITY","ZTRMDEBR","TRM-Debris in Roadway","2014-10-06T10:05:22.000","2014-10-06T10:05:22.000","ROSEMONT","Debris Removed (Closed)","14-00750726","MD","CLOSED","2014-10-08T23:21:40.000","2014-10-08T23:21:00.000","21216",NA,NA
"Dispatch Work Crew","3110  HUDSON ST","BALTIMORE CITY","ZTRMDEBR","TRM-Debris in Roadway","2014-10-05T18:16:48.000","2014-10-05T18:16:48.000","CANTON","Debris Removed (Closed)","14-00750402","MD","CLOSED","2014-10-05T19:52:48.000","2014-10-05T19:52:00.000","21224",NA,NA
"Dispatch Work Crew","RAMP","BALTIMORE CITY","ZTRMDEBR","TRM-Debris in Roadway","2014-10-04T10:12:03.000","2014-10-04T10:12:03.000","CROSS KEYS","No Trouble Found (Closed)","14-00748913","MD","CLOSED","2014-10-04T18:57:11.000","2014-10-04T18:57:00.000","21209",NA,NA
"Dispatch Work Crew","E NORTHERN PKWY","BALTIMORE CITY","ZTRMDEBR","TRM-Debris in Roadway","2014-10-03T20:05:00.000","2014-10-03T20:05:00.000","HARFORD-ECHODALE/PERRING PARKWAY","Debris Removed (Closed)","14-00748488","MD","CLOSED","2014-10-03T23:18:51.000","2014-10-03T23:18:00.000","21214",NA,NA
"Dispatch Work Crew","HUDSON ST & BUSHEY ST","BALTIMORE CITY","ZTRMDEBR","TRM-Debris in Roadway","2014-10-02T16:16:53.000","2014-10-02T16:16:53.000","GRACELAND PARK","Debris Removed (Closed)","14-00743885","MD","CLOSED","2014-10-02T17:12:45.000","2014-10-02T17:12:00.000","21224",NA,NA
"Dispatch Work Crew","1702 W COLD SPRING LN","BALTIMORE CITY","ZTRMDEBR","TRM-Debris in Roadway","2014-10-01T11:30:12.000","2014-10-01T11:30:12.000","CROSS KEYS","No Trouble Found (Closed)","14-00738912","MD","CLOSED","2014-10-01T13:30:00.000","2014-10-01T13:29:00.000","21209",NA,NA
"Dispatch Work Crew","1409 W COLD SPRING LN","BALTIMORE CITY","ZTRMDEBR","TRM-Debris in Roadway","2014-10-01T09:54:39.000","2014-10-01T09:54:39.000","MEDFIELD","No Trouble Found (Closed)","14-00738646","MD","CLOSED","2014-10-01T12:06:49.000","2014-10-01T12:06:00.000","21209",NA,NA
"Dispatch Work Crew","RAMP","BALTIMORE CITY","ZTRMDEBR","TRM-Debris in Roadway","2014-10-01T09:43:53.000","2014-10-01T09:43:53.000","JONES FALLS AREA","No Trouble Found (Closed)","14-00738641","MD","CLOSED","2014-10-01T12:03:51.000","2014-10-01T12:03:00.000","21211",NA,NA
"Dispatch Work Crew","RAMP","BALTIMORE CITY","ZTRMDEBR","TRM-Debris in Roadway","2014-09-30T15:04:47.000","2014-09-30T15:04:47.000","MID-TOWN BELVEDERE","No Trouble Found (Closed)","14-00736450","MD","CLOSED","2014-09-30T16:47:27.000","2014-09-30T16:47:00.000","21202",NA,NA
"Dispatch Work Crew","RAMP","BALTIMORE CITY","ZTRMDEBR","TRM-Debris in Roadway","2014-09-30T14:17:31.000","2014-09-30T14:17:31.000","MID-TOWN BELVEDERE","Debris Removed (Closed)","14-00736202","MD","CLOSED","2014-09-30T14:36:02.000","2014-09-30T14:33:00.000","21202",NA,NA
"Dispatch Work Crew","2021 E PRATT ST","BALTIMORE CITY","ZTRMDEBR","TRM-Debris in Roadway","2014-09-29T19:24:48.000","2014-09-29T19:24:48.000","UPPER FELLS POINT","Debris Removed (Closed)","14-00734458","MD","CLOSED","2014-09-29T23:04:18.000","2014-09-29T23:03:00.000","21231",NA,NA
"Dispatch Work Crew","83  N","BALTIMORE CITY","ZTRMDEBR","TRM-Debris in Roadway","2014-09-28T20:55:17.000","2014-09-28T20:55:17.000","MEDFIELD","Debris Removed (Closed)","14-00731294","MD","CLOSED","2014-09-28T21:24:51.000","2014-09-28T21:24:00.000","21209",NA,NA
"Dispatch Work Crew","WINTERBOURNE RD & MORRIS RD","BALTIMORE CITY","ZTRMDEBR","TRM-Debris in Roadway","2014-09-26T19:48:17.000","2014-09-26T19:48:17.000","GWYNNS FALLS/LEAKIN PARK","No Trouble Found (Closed)","14-00728885","MD","CLOSED","2014-09-27T00:53:05.000","2014-09-27T00:52:00.000","21216",NA,NA
"Dispatch Work Crew","2300  BRUNT ST","BALTIMORE CITY","ZTRMDEBR","TRM-Debris in Roadway","2014-09-25T17:08:55.000","2014-09-25T17:08:55.000","DRUID HEIGHTS","Debris Removed (Closed)","14-00725312","MD","CLOSED","2014-09-26T02:09:38.000","2014-09-26T02:00:00.000","21217",NA,NA
"Dispatch Work Crew","W NORTH AVE & RAMP","BALTIMORE CITY","ZTRMDEBR","TRM-Debris in Roadway","2014-09-21T19:27:17.000","2014-09-21T19:27:17.000","RESERVOIR HILL","Debris Removed (Closed)","14-00712946","MD","CLOSED","2014-09-21T20:50:21.000","2014-09-21T20:49:00.000","21217",NA,NA
"Dispatch Work Crew","4809  HERRING RUN DR","BALTIMORE CITY","ZTRMDEBR","TRM-Debris in Roadway","2014-09-20T23:37:46.000","2014-09-20T23:37:46.000","MORGAN PARK","Debris Removed (Closed)","14-00712019","MD","CLOSED","2014-09-21T00:49:37.000","2014-09-21T00:45:00.000","21214",NA,NA
"Dispatch Work Crew","615  PRESIDENT ST","BALTIMORE CITY","ZTRMDEBR","TRM-Debris in Roadway","2014-09-20T08:20:15.000","2014-09-20T08:20:15.000","INNER HARBOR","Debris Removed (Closed)","14-00710810","MD","CLOSED","2014-09-20T09:51:56.000","2014-09-20T09:50:00.000","21202",NA,NA
"Dispatch Work Crew","I 83 S & ST PAUL ST","BALTIMORE CITY","ZTRMDEBR","TRM-Debris in Roadway","2014-09-17T16:52:06.000","2014-09-17T16:52:06.000","MID-TOWN BELVEDERE","No Trouble Found (Closed)","14-00702672","MD","CLOSED","2014-09-17T18:30:16.000","2014-09-17T18:30:00.000","21201",NA,NA
"Dispatch Work Crew","5911  ARIZONA AVE","BALTIMORE CITY","ZTRMDEBR","TRM-Debris in Roadway","2014-09-15T22:30:09.000","2014-09-15T22:30:09.000","FRANKFORD","No Trouble Found (Closed)","14-00697006","MD","CLOSED","2014-09-16T17:09:51.000","2014-09-16T17:00:00.000","21206",NA,NA
"Dispatch Work Crew","I 83 N &W NORTHERN PKWY","BALTIMORE CITY","ZTRMDEBR","TRM-Debris in Roadway","2014-09-15T15:56:58.000","2014-09-15T15:56:58.000","CROSS KEYS","Debris Removed (Closed)","14-00695464","MD","CLOSED","2014-09-15T16:38:41.000","2014-09-15T16:38:00.000","21210",NA,NA
NA,"2710  WALBROOK AVE","BALTIMORE CITY","ZTRMDEBR","TRM-Debris in Roadway","2014-09-15T13:42:55.000","2014-09-15T13:42:55.000","WALBROOK",NA,"14-00694786","MD","CLOSED","2014-09-15T16:03:06.000",NA,"21216",NA,NA
"Dispatch Work Crew","I 83 S &W 41ST ST","BALTIMORE CITY","ZTRMDEBR","TRM-Debris in Roadway","2014-09-15T12:44:58.000","2014-09-15T12:44:58.000","WOODBERRY","Debris Removed (Closed)","14-00694462","MD","CLOSED","2014-09-15T16:39:03.000","2014-09-15T16:38:00.000","21211",NA,NA
"Dispatch Work Crew","W 28TH ST","BALTIMORE CITY","ZTRMDEBR","TRM-Debris in Roadway","2014-09-15T10:11:05.000","2014-09-15T10:11:05.000","JONES FALLS AREA","Debris Removed (Closed)","14-00693922","MD","CLOSED","2014-09-15T12:18:50.000","2014-09-15T12:18:00.000","21217",NA,NA
"Dispatch Work Crew","RAMP","BALTIMORE CITY","ZTRMDEBR","TRM-Debris in Roadway","2014-09-15T09:56:20.000","2014-09-15T09:56:20.000","MID-TOWN BELVEDERE","Debris Removed (Closed)","14-00693899","MD","CLOSED","2014-09-15T12:19:47.000","2014-09-15T12:19:00.000","21201",NA,NA
"Dispatch Work Crew","1101  WASHINGTON BLVD","BALTIMORE CITY","ZTRMDEBR","TRM-Debris in Roadway","2014-09-13T20:22:50.000","2014-09-13T20:22:50.000","WASHINGTON VILLAGE","Debris Removed (Closed)","14-00692647","MD","CLOSED","2014-09-13T21:18:20.000","2014-09-13T21:17:00.000","21230",NA,NA
"Dispatch Work Crew","RAMP","BALTIMORE CITY","ZTRMDEBR","TRM-Debris in Roadway","2014-09-13T16:18:00.000","2014-09-13T16:18:00.000","RESERVOIR HILL","Debris Removed (Closed)","14-00692324","MD","CLOSED","2014-09-13T16:45:32.000","2014-09-13T16:45:00.000","21217",NA,NA
NA,"I 395 N & RAMP","BALTIMORE CITY","ZTRMDEBR","TRM-Debris in Roadway","2014-09-13T16:08:50.000","2014-09-13T16:08:50.000","WESTPORT",NA,"14-00692300","MD","CLOSED","2014-09-13T16:39:44.000",NA,"21230",NA,NA
"Dispatch Work Crew","RAMP","BALTIMORE CITY","ZTRMDEBR","TRM-Debris in Roadway","2014-09-13T09:17:48.000","2014-09-13T09:17:48.000","JONES FALLS AREA","Debris Removed (Closed)","14-00691698","MD","CLOSED","2014-09-13T09:38:36.000","2014-09-13T09:38:00.000","21217",NA,NA
"Dispatch Work Crew","E NORTHERN PKWY & SPRINGLAKE WAY","BALTIMORE CITY","ZTRMDEBR","TRM-Debris in Roadway","2014-09-13T07:06:28.000","2014-09-13T07:06:28.000","HOMELAND","Debris Removed (Closed)","14-00691495","MD","CLOSED","2014-09-13T08:47:07.000","2014-09-13T08:46:00.000","21212",NA,NA
"Dispatch Work Crew","E NORTH AVE &N ROSE ST","BALTIMORE CITY","ZTRMDEBR","TRM-Debris in Roadway","2014-09-12T16:52:57.000","2014-09-12T16:52:57.000","BEREA","No Trouble Found (Closed)","14-00690263","MD","CLOSED","2014-09-13T16:43:02.000","2014-09-13T16:43:00.000","21213",NA,NA
"Dispatch Work Crew","I 83 N & GUILFORD AVE","BALTIMORE CITY","ZTRMDEBR","TRM-Debris in Roadway","2014-09-11T08:13:59.000","2014-09-11T08:13:59.000","JOHNSTON SQUARE","Debris Removed (Closed)","14-00684681","MD","CLOSED","2014-09-11T09:18:18.000","2014-09-11T09:18:00.000","21202",NA,NA
"Dispatch Work Crew","DRUID PARK LAKE DR & LINDEN AVE","BALTIMORE","ZTRMDEBR","TRM-Debris in Roadway","2014-09-10T18:49:40.000","2014-09-10T18:49:40.000","DRUID HILL PARK","Debris Removed (Closed)","14-00683859","MD","CLOSED","2014-09-11T00:42:02.000","2014-09-11T00:42:00.000",NA,NA,NA
"Dispatch Work Crew","RAMP","BALTIMORE","ZTRMDEBR","TRM-Debris in Roadway","2014-09-10T15:45:52.000","2014-09-10T15:45:52.000","HAMPDEN","Debris Removed (Closed)","14-00682886","MD","CLOSED","2014-09-10T18:36:10.000","2014-09-10T18:36:00.000",NA,NA,NA
"Dispatch Work Crew","RAMP","BALTIMORE","ZTRMDEBR","TRM-Debris in Roadway","2014-09-09T16:23:12.000","2014-09-09T16:23:12.000","HAMPDEN","Debris Removed (Closed)","14-00679476","MD","CLOSED","2014-09-09T18:50:33.000","2014-09-09T18:50:00.000",NA,NA,NA
"Dispatch Work Crew","I 83 S &W COLD SPRING LN","BALTIMORE CITY","ZTRMDEBR","TRM-Debris in Roadway","2014-09-07T12:18:22.000","2014-09-07T12:18:22.000","WOODBERRY","No Trouble Found (Closed)","14-00672999","MD","CLOSED","2014-09-07T20:48:15.000","2014-09-07T20:48:00.000","21209",NA,NA
"Dispatch Work Crew","3000  WATERVIEW AVE","BALTIMORE CITY","ZTRMDEBR","TRM-Debris in Roadway","2014-09-05T19:51:32.000","2014-09-05T19:51:32.000","MIDDLE BRANCH/REEDBIRD PARKS","No Trouble Found (Closed)","14-00671094","MD","CLOSED","2014-09-05T22:24:19.000","2014-09-05T22:21:00.000","21225",NA,NA
"Dispatch Work Crew","215 E FAYETTE ST","BALTIMORE CITY","ZTRMDEBR","TRM-Debris in Roadway","2014-09-05T11:04:49.000","2014-09-05T11:04:49.000","DOWNTOWN","No Trouble Found (Closed)","14-00668960","MD","CLOSED","2014-09-05T14:19:29.000","2014-09-05T14:18:00.000","21202",NA,NA
"Dispatch Work Crew","S MARTIN LUTHER KING JR BLVD & WASHINGTO","BALTIMORE CITY","ZTRMDEBR","TRM-Debris in Roadway","2014-09-04T00:24:40.000","2014-09-04T00:24:40.000","WASHINGTON VILLAGE","No Trouble Found (Closed)","14-00664667","MD","CLOSED","2014-09-04T01:04:36.000","2014-09-04T01:04:00.000","21201",NA,NA
"Dispatch Work Crew","2200  HENNEMAN AVE","BALTIMORE CITY","ZTRMDEBR","TRM-Debris in Roadway","2014-09-03T22:43:39.000","2014-09-03T22:43:39.000","MIDDLE EAST","Debris Removed (Closed)","14-00664518","MD","CLOSED","2014-09-04T01:34:28.000","2014-09-04T01:34:00.000","21213",NA,NA
NA,"W NORTHERN PKWY & I 83 S","BALTIMORE CITY","ZTRMDEBR","TRM-Debris in Roadway","2014-09-03T20:35:17.000","2014-09-03T20:35:17.000","COLDSPRING",NA,"14-00664316","MD","DUPCLOSD","2014-09-04T01:11:21.000",NA,"21209",NA,NA
"Dispatch Work Crew","I 83 S &W NORTHERN PKWY","BALTIMORE CITY","ZTRMDEBR","TRM-Debris in Roadway","2014-09-03T20:33:27.000","2014-09-03T20:33:27.000","COLDSPRING","No Trouble Found (Closed)","14-00664307","MD","CLOSED","2014-09-04T01:11:22.000","2014-09-04T01:11:00.000","21209",NA,NA
NA,"W COLD SPRING LN & I 83 N","BALTIMORE CITY","ZTRMDEBR","TRM-Debris in Roadway","2014-09-03T20:32:12.000","2014-09-03T20:32:12.000","MEDFIELD",NA,"14-00664304","MD","CLOSED","2014-09-04T01:10:52.000",NA,"21209",NA,NA
"Dispatch Work Crew","2100 E FAYETTE ST","BALTIMORE CITY","ZTRMDEBR","TRM-Debris in Roadway","2014-08-31T11:58:50.000","2014-08-31T11:58:50.000","BUTCHER'S HILL","Debris Removed (Closed)","14-00655944","MD","CLOSED","2014-08-31T14:50:43.000","2014-08-31T14:50:00.000","21231",NA,NA
"Dispatch Work Crew","I 83 N &W NORTHERN PKWY","BALTIMORE CITY","ZTRMDEBR","TRM-Debris in Roadway","2014-08-30T12:52:02.000","2014-08-30T12:52:02.000","CROSS KEYS","No Trouble Found (Closed)","14-00654766","MD","CLOSED","2014-08-30T16:44:45.000","2014-08-30T16:44:00.000","21210",NA,NA
"Dispatch Work Crew","I 295 & WATERVIEW AVE","BALTIMORE CITY","ZTRMDEBR","TRM-Debris in Roadway","2014-08-28T22:30:37.000","2014-08-28T22:30:37.000","WESTPORT","Debris Removed (Closed)","14-00651355","MD","CLOSED","2014-08-28T23:59:12.000","2014-08-28T23:57:00.000","21230",NA,NA
"Dispatch Work Crew","3200  BOSTON ST","BALTIMORE CITY","ZTRMDEBR","TRM-Debris in Roadway","2014-08-28T16:00:49.000","2014-08-28T16:00:49.000","CANTON","Debris Removed (Closed)","14-00650044","MD","CLOSED","2014-08-28T16:25:31.000","2014-08-28T16:25:00.000","21224",NA,NA
"Dispatch Work Crew","263 S CONKLING ST","BALTIMORE CITY","ZTRMDEBR","TRM-Debris in Roadway","2014-08-28T15:09:00.000","2014-08-28T15:09:00.000","HIGHLANDTOWN","No Trouble Found (Closed)","14-00649803","MD","CLOSED","2014-08-28T19:56:06.000","2014-08-28T19:53:00.000","21224",NA,NA
"Dispatch Work Crew","RAMP","BALTIMORE CITY","ZTRMDEBR","TRM-Debris in Roadway","2014-08-26T19:32:25.000","2014-08-26T19:32:25.000","JONES FALLS AREA","No Trouble Found (Closed)","14-00644264","MD","CLOSED","2014-08-27T08:49:21.000","2014-08-27T08:48:00.000","21211",NA,NA
"Dispatch Work Crew","I 83 N &W NORTHERN PKWY","BALTIMORE CITY","ZTRMDEBR","TRM-Debris in Roadway","2014-08-25T21:44:53.000","2014-08-25T21:44:53.000","CROSS KEYS","No Trouble Found (Closed)","14-00640993","MD","CLOSED","2014-08-26T08:13:35.000","2014-08-26T08:13:00.000","21210",NA,NA
"Dispatch Work Crew","WATERVIEW AVE &S HANOVER ST","BALTIMORE CITY","ZTRMDEBR","TRM-Debris in Roadway","2014-08-25T20:28:24.000","2014-08-25T20:28:24.000","MIDDLE BRANCH/REEDBIRD PARKS","No Trouble Found (Closed)","14-00640822","MD","CLOSED","2014-08-26T08:23:50.000","2014-08-26T08:23:00.000","21230",NA,NA
"Dispatch Work Crew","PERRING PKWY &E BELVEDERE AVE","BALTIMORE CITY","ZTRMDEBR","TRM-Debris in Roadway","2014-08-25T16:40:02.000","2014-08-25T16:40:02.000","MORGAN STATE UNIVERSITY","Debris Removed (Closed)","14-00639831","MD","CLOSED","2014-08-25T18:19:34.000","2014-08-25T18:19:00.000","21239",NA,NA
"Dispatch Work Crew","FALLS RD & I 83 N","BALTIMORE CITY","ZTRMDEBR","TRM-Debris in Roadway","2014-08-25T14:25:51.000","2014-08-25T14:25:51.000","JONES FALLS AREA","Debris Removed (Closed)","14-00639100","MD","CLOSED","2014-08-25T15:20:57.000","2014-08-25T15:20:00.000","21211",NA,NA
"Dispatch Work Crew","WOODHAVEN DUVALL & WOLCOTT AVE","BALTIMORE CITY","ZTRMDEBR","TRM-Debris in Roadway","2014-08-22T17:58:49.000","2014-08-22T17:58:49.000","WINDSOR HILLS","No Trouble Found (Closed)","14-00634175","MD","CLOSED","2014-08-23T00:43:58.000","2014-08-23T00:42:00.000","21216",NA,NA
"Dispatch Work Crew","I 83 S &W NORTH AVE","BALTIMORE CITY","ZTRMDEBR","TRM-Debris in Roadway","2014-08-22T09:59:20.000","2014-08-22T09:59:20.000","BOLTON HILL","No Trouble Found (Closed)","14-00632090","MD","CLOSED","2014-08-22T11:41:58.000","2014-08-22T11:41:00.000","21217",NA,NA
"Dispatch Work Crew","I 395 S & I 95 S","BALTIMORE CITY","ZTRMDEBR","TRM-Debris in Roadway","2014-08-21T12:38:50.000","2014-08-21T12:38:50.000","WESTPORT","Debris Removed (Closed)","14-00629230","MD","CLOSED","2014-08-21T17:09:35.000","2014-08-21T17:00:00.000","21230",NA,NA
"Dispatch Work Crew","1702 W COLD SPRING LN","BALTIMORE CITY","ZTRMDEBR","TRM-Debris in Roadway","2014-08-19T16:01:46.000","2014-08-19T16:01:46.000","CROSS KEYS","Debris Removed (Closed)","14-00623225","MD","CLOSED","2014-08-19T16:21:14.000","2014-08-19T16:21:00.000","21209",NA,NA
"Dispatch Work Crew","I 83 N &W NORTHERN PKWY","BALTIMORE CITY","ZTRMDEBR","TRM-Debris in Roadway","2014-08-19T15:50:53.000","2014-08-19T15:50:53.000","CROSS KEYS","Debris Removed (Closed)","14-00623179","MD","CLOSED","2014-08-19T18:56:43.000","2014-08-19T18:56:00.000","21210",NA,NA
"Dispatch Work Crew","2400 S HANOVER ST","BALTIMORE CITY","ZTRMDEBR","TRM-Debris in Roadway","2014-08-17T18:56:02.000","2014-08-17T18:56:02.000","PORT COVINGTON","No Trouble Found (Closed)","14-00617307","MD","CLOSED","2014-08-17T21:22:49.000","2014-08-17T21:22:00.000","21230",NA,NA
"Dispatch Work Crew","EASTLYNNE AVE & DULANY ST","BALTIMORE CITY","ZTRMDEBR","TRM-Debris in Roadway","2014-08-17T12:52:43.000","2014-08-17T12:52:43.000","MILLHILL","Debris Removed (Closed)","14-00616816","MD","CLOSED","2014-08-17T17:41:17.000","2014-08-17T17:41:00.000","21223",NA,NA
"Dispatch Work Crew","400 E SARATOGA ST","BALTIMORE CITY","ZTRMDEBR","TRM-Debris in Roadway","2014-08-16T17:34:53.000","2014-08-16T17:34:53.000","DOWNTOWN","Debris Removed (Closed)","14-00616145","MD","CLOSED","2014-08-17T16:07:26.000","2014-08-17T16:07:00.000","21202",NA,NA
"Dispatch Work Crew","700 S DEAN ST","BALTIMORE CITY","ZTRMDEBR","TRM-Debris in Roadway","2014-08-14T19:47:03.000","2014-08-14T19:47:03.000","BREWERS HILL","Debris Removed (Closed)","14-00611344","MD","CLOSED","2014-08-14T20:26:00.000","2014-08-14T20:25:00.000","21224",NA,NA
"Dispatch Work Crew","RAMP","BALTIMORE CITY","ZTRMDEBR","TRM-Debris in Roadway","2014-08-14T18:02:10.000","2014-08-14T18:02:10.000","RESERVOIR HILL","Debris Removed (Closed)","14-00610870","MD","CLOSED","2014-08-14T18:52:05.000","2014-08-14T18:52:00.000","21217",NA,NA
"Dispatch Work Crew","15 S WASHINGTON ST","BALTIMORE CITY","ZTRMDEBR","TRM-Debris in Roadway","2014-08-14T15:24:56.000","2014-08-14T15:24:56.000","WASHINGTON HILL","Debris Removed (Closed)","14-00610193","MD","CLOSED","2014-08-14T15:49:57.000","2014-08-14T15:49:00.000","21231",NA,NA
"Dispatch Work Crew","PERRING PKWY &E NORTHERN PKWY","BALTIMORE CITY","ZTRMDEBR","TRM-Debris in Roadway","2014-08-13T11:10:19.000","2014-08-13T11:10:19.000","HARFORD-ECHODALE/PERRING PARKWAY","Debris Removed (Closed)","14-00605164","MD","CLOSED","2014-08-13T18:15:38.000","2014-08-13T18:15:00.000","21239",NA,NA
NA,"WATERVIEW AVE & POTEE ST","BALTIMORE CITY","ZTRMDEBR","TRM-Debris in Roadway","2014-08-12T18:12:14.000","2014-08-12T18:12:14.000","CHERRY HILL",NA,"14-00603532","MD","CLOSED","2014-08-12T18:21:51.000",NA,"21230",NA,NA
"Dispatch Work Crew","2201  EAGLE ST","BALTIMORE CITY","ZTRMDEBR","TRM-Debris in Roadway","2014-08-11T12:30:06.000","2014-08-11T12:30:06.000","CARROLLTON RIDGE","No Trouble Found (Closed)","14-00598034","MD","CLOSED","2014-08-11T12:52:45.000","2014-08-11T12:52:00.000","21223",NA,NA
"Dispatch Work Crew","2617  GWYNNS FALLS PKWY","BALTIMORE CITY","ZTRMDEBR","TRM-Debris in Roadway","2014-08-10T19:06:04.000","2014-08-10T19:06:04.000","HANLON-LONGWOOD","No Trouble Found (Closed)","14-00597148","MD","CLOSED","2014-08-10T20:01:53.000","2014-08-10T20:01:00.000","21216",NA,NA
"Dispatch Work Crew","2100 E 20TH ST","BALTIMORE CITY","ZTRMDEBR","TRM-Debris in Roadway","2014-08-09T19:41:33.000","2014-08-09T19:41:33.000","SOUTH CLIFTON PARK","No Trouble Found (Closed)","14-00596300","MD","CLOSED","2014-08-10T00:30:54.000","2014-08-10T00:30:00.000","21213",NA,NA
NA,"I 83 N &E CHASE ST","BALTIMORE CITY","ZTRMDEBR","TRM-Debris in Roadway","2014-08-09T17:23:00.000","2014-08-09T17:23:00.000","JOHNSTON SQUARE",NA,"14-00596151","MD","CLOSED","2014-08-09T18:54:19.000",NA,"21202",NA,NA
"Dispatch Work Crew","681  WASHINGTON BLVD","BALTIMORE CITY","ZTRMDEBR","TRM-Debris in Roadway","2014-08-08T18:00:59.000","2014-08-08T18:00:59.000","RIDGELY'S DELIGHT","No Trouble Found (Closed)","14-00594448","MD","CLOSED","2014-08-08T18:32:16.000","2014-08-08T18:32:00.000","21230",NA,NA
"Dispatch Work Crew","I 83 N & FALLS RD","BALTIMORE CITY","ZTRMDEBR","TRM-Debris in Roadway","2014-08-08T09:49:57.000","2014-08-08T09:49:57.000","JONES FALLS AREA","Debris Removed (Closed)","14-00592042","MD","CLOSED","2014-08-08T12:10:20.000","2014-08-08T12:10:00.000","21211",NA,NA
"Dispatch Work Crew","246 N ROSE ST","BALTIMORE CITY","ZTRMDEBR","TRM-Debris in Roadway","2014-08-07T18:43:33.000","2014-08-07T18:43:33.000","MCELDERRY PARK","Debris Removed (Closed)","14-00590901","MD","CLOSED","2014-08-07T19:49:21.000","2014-08-07T19:48:00.000","21224",NA,NA
NA,"N STRICKER ST & WINCHESTER ST","BALTIMORE CITY","ZTRMDEBR","TRM-Debris in Roadway","2014-08-06T19:31:18.000","2014-08-06T19:31:18.000","SANDTOWN-WINCHESTER",NA,"14-00587228","MD","CLOSED","2014-08-06T21:31:16.000",NA,"21217",NA,NA
"Dispatch Work Crew","N ROBINSON ST & MCELDERRY ST","BALTIMORE CITY","ZTRMDEBR","TRM-Debris in Roadway","2014-08-05T21:46:17.000","2014-08-05T21:46:17.000","ELLWOOD PARK/MONUMENT","Debris Removed (Closed)","14-00583997","MD","CLOSED","2014-08-05T23:54:58.000","2014-08-05T23:54:00.000","21205",NA,NA
NA,"4600  PARK HEIGHTS AVE","BALTIMORE CITY","ZTRMDEBR","TRM-Debris in Roadway","2014-08-05T12:15:18.000","2014-08-05T12:15:18.000","CENTRAL PARK HEIGHTS",NA,"14-00581002","MD","CLOSED","2014-08-05T13:46:22.000",NA,"21215",NA,NA
"Dispatch Work Crew","1 S SPRING ST","BALTIMORE CITY","ZTRMDEBR","TRM-Debris in Roadway","2014-08-04T23:26:31.000","2014-08-04T23:26:31.000","WASHINGTON HILL","Debris Removed (Closed)","14-00580368","MD","CLOSED","2014-08-05T00:19:59.000","2014-08-05T00:19:00.000","21231",NA,NA
"Dispatch Work Crew","RAMP","BALTIMORE CITY","ZTRMDEBR","TRM-Debris in Roadway","2014-08-04T19:44:20.000","2014-08-04T19:44:20.000","JONES FALLS AREA","Debris Removed (Closed)","14-00579931","MD","CLOSED","2014-08-05T13:09:47.000","2014-08-05T13:00:00.000","21211",NA,NA
"Dispatch Work Crew","600 N ROBINSON ST","BALTIMORE CITY","ZTRMDEBR","TRM-Debris in Roadway","2014-08-04T11:57:09.000","2014-08-04T11:57:09.000","ELLWOOD PARK/MONUMENT","Debris Removed (Closed)","14-00577311","MD","CLOSED","2014-08-04T14:58:47.000","2014-08-04T14:58:00.000","21205",NA,NA
"Dispatch Work Crew","1401 W NORTHERN PKWY","BALTIMORE CITY","ZTRMDEBR","TRM-Debris in Roadway","2014-08-03T19:41:26.000","2014-08-03T19:41:26.000","CROSS KEYS","Debris Removed (Closed)","14-00576502","MD","CLOSED","2014-08-03T20:04:45.000","2014-08-03T20:04:00.000","21209",NA,NA
"Dispatch Work Crew","I 83 S &W COLD SPRING LN","BALTIMORE CITY","ZTRMDEBR","TRM-Debris in Roadway","2014-08-02T18:38:39.000","2014-08-02T18:38:39.000","WOODBERRY","Debris Removed (Closed)","14-00575442","MD","CLOSED","2014-08-02T22:07:38.000","2014-08-02T22:07:00.000","21209",NA,NA
"Dispatch Work Crew","KANE ST & NORTH PT BLVD","BALTIMORE CITY","ZTRMDEBR","TRM-Debris in Roadway","2014-08-01T13:51:59.000","2014-08-01T13:51:59.000","PULASKI INDUSTRIAL AREA","Debris Removed (Closed)","14-00572498","MD","CLOSED","2014-08-01T15:58:09.000","2014-08-01T15:58:00.000","21224",NA,NA
"Dispatch Work Crew","3240  GREENMOUNT AVE","BALTIMORE","ZTRMDEBR","TRM-Debris in Roadway","2015-07-29T10:42:26.000","2015-07-29T10:42:26.000","ABELL","Debris Removed (Closed)","15-00598652","MD","CLOSED","2015-07-29T13:41:59.000","2015-07-29T13:41:00.000","21218",NA,NA
"Dispatch Work Crew","500  WILDWOOD PKWY","BALTIMORE","ZTRMDEBR","TRM-Debris in Roadway","2015-06-10T11:31:30.000","2015-06-10T11:31:30.000","ALLENDALE","No Trouble Found (Closed)","15-00451054","MD","CLOSED","2015-06-10T14:06:24.000","2015-06-10T14:06:00.000","21229",NA,NA
"Dispatch Work Crew","100  83GUILFORDEXIT  S","BALTIMORE","ZTRMDEBR","TRM-Debris in Roadway","2015-06-27T11:39:39.000","2015-06-27T11:39:39.000","MID-TOWN BELVEDERE","Debris Removed (Closed)","15-00503371","MD","CLOSED","2015-06-27T16:51:29.000","2015-06-27T16:51:00.000",NA,NA,NA
"Dispatch Work Crew","1031 W 36TH ST","BALTIMORE","ZTRMDEBR","TRM-Debris in Roadway","2015-05-27T16:15:48.000","2015-05-27T16:15:48.000","HAMPDEN","No Trouble Found (Closed)","15-00412787","MD","CLOSED","2015-05-27T17:32:53.000","2015-05-27T17:32:00.000","21211",NA,NA
"Dispatch Work Crew","W 36TH ST & ELM AVE, BALTIMORE, MD, 2121",NA,"ZTRMDEBR","TRM-Debris in Roadway","2015-07-18T15:13:48.000","2015-07-18T15:13:48.000","HAMPDEN","No Trouble Found (Closed)","15-00567178","MD","CLOSED","2015-07-18T19:54:45.000","2015-07-18T19:54:00.000",NA,NA,NA
"Dispatch Work Crew","W 28TH ST & I 83 N","BALTIMORE","ZTRMDEBR","TRM-Debris in Roadway","2015-05-13T13:13:58.000","2015-05-13T13:13:58.000","DRUID HILL PARK","Debris Removed (Closed)","15-00374425","MD","CLOSED","2015-05-13T13:38:11.000","2015-05-13T13:38:00.000","21217",NA,NA
"Dispatch Work Crew","3200  AUCHENTOROLY TER","BALTIMORE","ZTRMDEBR","TRM-Debris in Roadway","2015-06-24T17:08:39.000","2015-06-24T17:08:39.000","PARKVIEW/WOODBROOK","Debris Removed (Closed)","15-00493966","MD","CLOSED","2015-06-24T17:50:21.000","2015-06-24T17:50:00.000","21217",NA,NA
"Dispatch Work Crew","2141  HUNTINGDON AVE","BALTIMORE","ZTRMDEBR","TRM-Debris in Roadway","2015-06-14T23:33:15.000","2015-06-14T23:33:15.000","REMINGTON","Debris Removed (Closed)","15-00462184","MD","CLOSED","2015-06-15T00:37:49.000","2015-06-15T00:36:00.000","21211",NA,NA
"Dispatch Work Crew","2200 E BALTIMORE ST","BALTIMORE","ZTRMDEBR","TRM-Debris in Roadway","2015-06-10T10:14:44.000","2015-06-10T10:14:44.000","BUTCHER'S HILL","No Trouble Found (Closed)","15-00450728","MD","CLOSED","2015-06-10T14:58:18.000","2015-06-10T14:57:00.000","21231",NA,NA
"Dispatch Work Crew","5374  PERRING PKWY","BALTIMORE","ZTRMDEBR","TRM-Debris in Roadway","2015-06-23T19:43:50.000","2015-06-23T19:43:50.000","PERRING LOCH","Debris Removed (Closed)","15-00490577","MD","CLOSED","2015-06-23T20:57:08.000","2015-06-23T20:57:00.000","21239",NA,NA
"Dispatch Work Crew","1031 W 36TH ST","BALTIMORE","ZTRMDEBR","TRM-Debris in Roadway","2015-05-05T22:33:44.000","2015-05-05T22:33:44.000","HAMPDEN","Closed","15-00351894","MD","CLOSED","2015-05-27T16:16:11.000","2015-05-22T19:41:00.000","21211",NA,NA
"Dispatch Work Crew","3700 S HANOVER ST","BALTIMORE","ZTRMDEBR","TRM-Debris in Roadway","2015-07-29T18:36:13.000","2015-07-29T18:36:13.000","BROOKLYN","Debris Removed (Closed)","15-00601310","MD","CLOSED","2015-07-29T21:59:22.000","2015-07-29T21:58:00.000","21225",NA,NA
"Dispatch Work Crew","131 N CHESTER ST","BALTIMORE","ZTRMDEBR","TRM-Debris in Roadway","2015-07-23T21:36:04.000","2015-07-23T21:36:04.000","BUTCHER'S HILL","No Trouble Found (Closed)","15-00583607","MD","CLOSED","2015-07-23T23:06:38.000","2015-07-23T23:06:00.000","21231",NA,NA
"Dispatch Work Crew","S MONROE ST & MCHENRY ST","BALTIMORE","ZTRMDEBR","TRM-Debris in Roadway","2015-05-16T19:51:08.000","2015-05-16T19:51:08.000","CARROLLTON RIDGE","No Trouble Found (Closed)","15-00385367","MD","CLOSED","2015-05-16T21:05:43.000","2015-05-16T21:02:00.000","21223",NA,NA
"Dispatch Work Crew","119 N EUTAW ST","BALTIMORE","ZTRMDEBR","TRM-Debris in Roadway","2015-05-15T20:02:03.000","2015-05-15T20:02:03.000","DOWNTOWN","No Trouble Found (Closed)","15-00383724","MD","CLOSED","2015-05-15T21:58:06.000","2015-05-15T21:57:00.000","21201",NA,NA
"Dispatch Work Crew","I 83 N &W 28TH ST","BALTIMORE","ZTRMDEBR","TRM-Debris in Roadway","2015-05-22T14:35:19.000","2015-05-22T14:35:19.000","DRUID HILL PARK","Debris Removed (Closed)","15-00401655","MD","CLOSED","2015-05-22T17:04:07.000","2015-05-22T17:03:00.000","21217",NA,NA
NA,"2130 W COLD SPRING LN","BALTIMORE","ZTRMDEBR","TRM-Debris in Roadway","2015-06-07T18:47:17.000","2015-06-07T18:47:17.000","COLDSPRING",NA,"15-00443781","MD","DUPCLOSD","2015-06-07T20:41:52.000",NA,"21209",NA,NA
"Dispatch Work Crew","2130 W COLD SPRING LN","BALTIMORE","ZTRMDEBR","TRM-Debris in Roadway","2015-06-07T18:44:27.000","2015-06-07T18:44:27.000","COLDSPRING","Debris Removed (Closed)","15-00443701","MD","CLOSED","2015-06-07T20:41:52.000","2015-06-07T20:41:00.000","21209",NA,NA
"Dispatch Work Crew","1500 W NORTHERN PKWY","BALTIMORE","ZTRMDEBR","TRM-Debris in Roadway","2015-08-02T03:11:41.000","2015-08-02T03:11:41.000","SABINA-MATTFELDT","No Trouble Found (Closed)","15-00609729","MD","CLOSED","2015-08-02T08:45:29.000","2015-08-02T08:45:00.000","21209",NA,NA
"Dispatch Work Crew","NORTHERN PKWY TO SB I 83 & I 83 S, BALTI",NA,"ZTRMDEBR","TRM-Debris in Roadway","2015-06-09T15:24:49.000","2015-06-09T15:24:49.000","MOUNT WASHINGTON","No Trouble Found (Closed)","15-00448517","MD","CLOSED","2015-06-09T16:27:08.000","2015-06-09T16:26:00.000",NA,NA,NA
"Dispatch Work Crew","MORRIS RD & N FRANKLINTOWN RD, BALTIMORE",NA,"ZTRMDEBR","TRM-Debris in Roadway","2015-06-27T21:29:13.000","2015-06-27T21:29:13.000","GWYNNS FALLS/LEAKIN PARK","No Trouble Found (Closed)","15-00504425","MD","CLOSED","2015-06-28T02:49:06.000","2015-06-28T02:48:00.000",NA,NA,NA
NA,"1401 W BALTIMORE ST","BALTIMORE","ZTRMDEBR","TRM-Debris in Roadway","2015-07-09T16:13:29.000","2015-07-09T16:13:29.000","FRANKLIN SQUARE",NA,"15-00539830","MD","CLOSED","2015-07-09T18:37:44.000",NA,"21223",NA,NA
"Dispatch Work Crew","3018 E BALTIMORE ST","BALTIMORE","ZTRMDEBR","TRM-Debris in Roadway","2015-07-02T18:59:27.000","2015-07-02T18:59:27.000","BALTIMORE-LINWOOD","No Trouble Found (Closed)","15-00521464","MD","CLOSED","2015-07-02T20:12:10.000","2015-07-02T20:12:00.000","21224",NA,NA
"Dispatch Work Crew","200  PRESSTMAN ST","BALTIMORE","ZTRMDEBR","TRM-Debris in Roadway","2015-05-31T22:49:41.000","2015-05-31T22:49:41.000","BOLTON HILL","No Trouble Found (Closed)","15-00424738","MD","CLOSED","2015-06-01T00:27:13.000","2015-06-01T00:27:00.000","21217",NA,NA
"Dispatch Work Crew","5400  83  N","BALTIMORE","ZTRMDEBR","TRM-Debris in Roadway","2015-06-01T00:08:21.000","2015-06-01T00:08:21.000","CROSS KEYS","No Trouble Found (Closed)","15-00424799","MD","CLOSED","2015-06-01T01:01:55.000","2015-06-01T01:01:00.000","21210",NA,NA
"Dispatch Work Crew","E CHASE ST & I 83 N","BALTIMORE","ZTRMDEBR","TRM-Debris in Roadway","2015-06-02T05:36:18.000","2015-06-02T05:36:18.000","JOHNSTON SQUARE","Debris Removed (Closed)","15-00428462","MD","CLOSED","2015-06-02T13:51:20.000","2015-06-02T13:51:00.000","21202",NA,NA
"Dispatch Work Crew","3636  ESTHER PL","BALTIMORE","ZTRMDEBR","TRM-Debris in Roadway","2015-06-26T18:05:48.000","2015-06-26T18:05:48.000","BALTIMORE HIGHLANDS","No Trouble Found (Closed)","15-00502405","MD","CLOSED","2015-06-26T21:02:26.000","2015-06-26T21:02:00.000","21224",NA,NA
"Dispatch Work Crew","I 83 N & W NORTHERN PKWY, BALTIMORE, MD,",NA,"ZTRMDEBR","TRM-Debris in Roadway","2015-06-27T21:24:19.000","2015-06-27T21:24:19.000","CROSS KEYS","Debris Removed (Closed)","15-00504417","MD","CLOSED","2015-06-27T23:55:04.000","2015-06-27T23:54:00.000",NA,NA,NA
"Dispatch Work Crew","2700 E HOFFMAN ST","BALTIMORE","ZTRMDEBR","TRM-Debris in Roadway","2015-07-20T08:56:06.000","2015-07-20T08:56:06.000","BEREA","No Trouble Found (Closed)","15-00568921","MD","CLOSED","2015-07-20T09:23:10.000","2015-07-20T09:22:00.000","21213",NA,NA
"Dispatch Work Crew","3306  FLEET ST","BALTIMORE","ZTRMDEBR","TRM-Debris in Roadway","2015-07-03T13:01:02.000","2015-07-03T13:01:02.000","CANTON","No Trouble Found (Closed)","15-00523024","MD","CLOSED","2015-07-03T17:26:19.000","2015-07-03T17:25:00.000","21224",NA,NA
"Dispatch Work Crew","5500  RADECKE AVE","BALTIMORE","ZTRMDEBR","TRM-Debris in Roadway","2015-05-13T19:21:36.000","2015-05-13T19:21:36.000","FRANKFORD","Debris Removed (Closed)","15-00376155","MD","CLOSED","2015-05-13T20:38:56.000","2015-05-13T20:38:00.000","21206",NA,NA
"Dispatch Work Crew","SISSON ST & W 29TH ST, BALTIMORE, MD, 21",NA,"ZTRMDEBR","TRM-Debris in Roadway","2015-07-28T15:31:26.000","2015-07-28T15:31:26.000","REMINGTON","Debris Removed (Closed)","15-00596826","MD","CLOSED","2015-07-28T16:24:48.000","2015-07-28T16:24:00.000",NA,NA,NA
"Dispatch Work Crew","4609  WALTHER AVE","BALTIMORE","ZTRMDEBR","TRM-Debris in Roadway","2015-07-04T21:57:08.000","2015-07-04T21:57:08.000","MORAVIA-WALTHER","No Trouble Found (Closed)","15-00524855","MD","CLOSED","2015-07-04T22:49:59.000","2015-07-04T22:49:00.000","21214",NA,NA
NA,"W 29TH ST & SISSON ST, BALTIMORE, MD, 21",NA,"ZTRMDEBR","TRM-Debris in Roadway","2015-07-28T15:50:05.000","2015-07-28T15:50:05.000","REMINGTON",NA,"15-00596947","MD","DUPCLOSD","2015-07-28T16:24:48.000",NA,NA,NA,NA
"Dispatch Work Crew","HILTON PKWY & EDMONDSON AVE","BALTIMORE","ZTRMDEBR","TRM-Debris in Roadway","2015-05-29T14:28:09.000","2015-05-29T14:28:09.000","CARROLL-SOUTH HILTON","Debris Removed (Closed)","15-00420222","MD","CLOSED","2015-05-29T20:47:35.000","2015-05-29T20:47:00.000","21229",NA,NA
"Dispatch Work Crew","2318  MOUNT ROYAL TER","BALTIMORE","ZTRMDEBR","TRM-Debris in Roadway","2015-06-28T01:46:40.000","2015-06-28T01:46:40.000","RESERVOIR HILL","Debris Removed (Closed)","15-00504709","MD","CLOSED","2015-06-28T17:27:02.000","2015-06-28T17:26:00.000","21217",NA,NA
"Dispatch Work Crew","330 N HOLLIDAY ST","BALTIMORE","ZTRMDEBR","TRM-Debris in Roadway","2015-07-13T12:13:58.000","2015-07-13T12:13:58.000","DOWNTOWN","Debris Removed (Closed)","15-00548061","MD","CLOSED","2015-07-13T16:30:32.000","2015-07-13T16:30:00.000","21202",NA,NA
NA,"3107 E FAYETTE ST","BALTIMORE","ZTRMDEBR","TRM-Debris in Roadway","2015-08-04T22:27:26.000","2015-08-04T22:27:26.000","BALTIMORE-LINWOOD",NA,"15-00618874","MD","OPEN","2015-08-04T22:27:26.000",NA,"21224",NA,NA
"Dispatch Work Crew","1309 W NORTHERN PKWY","BALTIMORE","ZTRMDEBR","TRM-Debris in Roadway","2015-07-05T17:43:46.000","2015-07-05T17:43:46.000","CROSS KEYS","No Trouble Found (Closed)","15-00525464","MD","CLOSED","2015-07-05T20:29:52.000","2015-07-05T20:29:00.000","21209",NA,NA
"Dispatch Work Crew","E BALTIMORE ST & N BROADWAY, BALTIMORE,","baltimore","ZTRMDEBR","TRM-Debris in Roadway","2015-07-21T04:48:35.000","2015-07-21T04:48:35.000","WASHINGTON HILL","Debris Removed (Closed)","15-00572437","MD","CLOSED","2015-07-21T10:23:15.000","2015-07-21T10:23:00.000","21231",NA,NA
"Dispatch Work Crew","600  WATER ST","BALTIMORE","ZTRMDEBR","TRM-Debris in Roadway","2015-05-28T23:00:08.000","2015-05-28T23:00:08.000","DOWNTOWN","Debris Removed (Closed)","15-00418301","MD","CLOSED","2015-05-28T23:33:52.000","2015-05-28T23:33:00.000","21202",NA,NA
"Dispatch Work Crew","315  MCALLISTER ST","BALTIMORE","ZTRMDEBR","TRM-Debris in Roadway","2015-07-22T09:47:14.000","2015-07-22T09:47:14.000","GREENMOUNT WEST","Debris Removed (Closed)","15-00576568","MD","CLOSED","2015-07-22T13:06:11.000","2015-07-22T13:05:00.000","21217",NA,NA
"Dispatch Work Crew","1410  BUSH ST","BALTIMORE","ZTRMDEBR","TRM-Debris in Roadway","2015-06-29T00:00:38.000","2015-06-29T00:00:38.000","CARROLL - CAMDEN INDUSTRIAL AREA","No Trouble Found (Closed)","15-00505801","MD","CLOSED","2015-06-29T17:19:49.000","2015-06-29T17:17:00.000","21230",NA,NA
"Dispatch Work Crew","301  GUSRYAN ST","BALTIMORE","ZTRMDEBR","TRM-Debris in Roadway","2015-06-09T01:02:11.000","2015-06-09T01:02:11.000","JOSEPH LEE","Debris Removed (Closed)","15-00446747","MD","CLOSED","2015-06-09T08:29:50.000","2015-06-09T08:29:00.000","21224",NA,NA
"Dispatch Work Crew","2  HAMILL RD","BALTIMORE","ZTRMDEBR","TRM-Debris in Roadway","2015-05-31T21:24:46.000","2015-05-31T21:24:46.000","CROSS KEYS","No Trouble Found (Closed)","15-00424653","MD","CLOSED","2015-06-01T00:53:08.000","2015-06-01T00:52:00.000","21210",NA,NA
NA,"1917  GOUGH ST","BALTIMORE","ZTRMDEBR","TRM-Debris in Roadway","2015-07-18T10:43:31.000","2015-07-18T10:43:31.000","UPPER FELLS POINT",NA,"15-00566606","MD","CLOSED","2015-07-18T19:17:03.000",NA,"21231",NA,NA
"Dispatch Work Crew","1200 N GAY ST","BALTIMORE","ZTRMDEBR","TRM-Debris in Roadway","2015-05-12T16:41:33.000","2015-05-12T16:41:33.000","BROADWAY EAST","Debris Removed (Closed)","15-00371275","MD","CLOSED","2015-05-12T16:58:59.000","2015-05-12T16:58:00.000","21213",NA,NA
"Dispatch Work Crew","2400 N HILTON ST","BALTIMORE","ZTRMDEBR","TRM-Debris in Roadway","2015-07-13T20:39:27.000","2015-07-13T20:39:27.000","HANLON-LONGWOOD","No Trouble Found (Closed)","15-00550915","MD","CLOSED","2015-07-13T23:34:00.000","2015-07-13T23:33:00.000","21216",NA,NA
"Dispatch Work Crew","4100  BOARMAN AVE","BALTIMORE","ZTRMDEBR","TRM-Debris in Roadway","2015-06-02T18:14:35.000","2015-06-02T18:14:35.000","DORCHESTER","No Trouble Found (Closed)","15-00430656","MD","CLOSED","2015-06-02T21:18:12.000","2015-06-02T21:17:00.000","21215",NA,NA
NA,"S CALVERTON RD & HOLLINS ST, BALTIMORE,",NA,"ZTRMDEBR","TRM-Debris in Roadway","2015-06-18T11:14:43.000","2015-06-18T11:14:43.000","BOOTH-BOYD",NA,"15-00474859","MD","CLOSED","2015-06-18T13:30:18.000",NA,NA,NA,NA
"Dispatch Work Crew","I 83 N & W COLD SPRING LN, BALTIMORE, MD",NA,"ZTRMDEBR","TRM-Debris in Roadway","2015-06-11T18:45:27.000","2015-06-11T18:45:27.000","MEDFIELD","No Trouble Found (Closed)","15-00456025","MD","CLOSED","2015-06-11T23:27:31.000","2015-06-11T23:27:00.000",NA,NA,NA
"Dispatch Work Crew","E 32ND ST & FENWICK AVE, BALTIMORE, MD,",NA,"ZTRMDEBR","TRM-Debris in Roadway","2015-07-10T19:57:29.000","2015-07-10T19:57:29.000","COLDSTREAM HOMESTEAD MONTEBELLO","Debris Removed (Closed)","15-00544263","MD","CLOSED","2015-07-11T03:47:14.000","2015-07-11T03:47:00.000",NA,NA,NA
"Dispatch Work Crew","W COLD SPRING LN & I 83 S","BALTIMORE","ZTRMDEBR","TRM-Debris in Roadway","2015-05-19T21:56:20.000","2015-05-19T21:56:20.000","WOODBERRY","Debris Removed (Closed)","15-00394016","MD","CLOSED","2015-05-20T14:17:53.000","2015-05-20T14:17:00.000","21209",NA,NA
"Dispatch Work Crew","E FAYETTE ST & I 83 N, BALTIMORE, MD, 21",NA,"ZTRMDEBR","TRM-Debris in Roadway","2015-07-04T18:08:18.000","2015-07-04T18:08:18.000","DOWNTOWN","No Trouble Found (Closed)","15-00524701","MD","CLOSED","2015-07-04T19:45:26.000","2015-07-04T19:45:00.000",NA,NA,NA
"Dispatch Work Crew","W NORTHERN PKWY & I 83 N","BALTIMORE","ZTRMDEBR","TRM-Debris in Roadway","2015-05-12T12:33:17.000","2015-05-12T12:33:17.000","CROSS KEYS","Debris Removed (Closed)","15-00369953","MD","CLOSED","2015-05-12T13:06:28.000","2015-05-12T13:06:00.000","21209",NA,NA
"Dispatch Work Crew","802 S BROADWAY","BALTIMORE","ZTRMDEBR","TRM-Debris in Roadway","2015-07-24T14:26:06.000","2015-07-24T14:26:06.000","FELLS POINT","No Trouble Found (Closed)","15-00586056","MD","CLOSED","2015-07-27T20:58:46.000","2015-07-27T20:58:00.000","21231",NA,NA
"Dispatch Work Crew","1000  PATAPSCO ST","BALTIMORE","ZTRMDEBR","TRM-Debris in Roadway","2015-08-02T12:46:06.000","2015-08-02T12:46:06.000","FEDERAL HILL","No Trouble Found (Closed)","15-00609853","MD","CLOSED","2015-08-02T16:13:59.000","2015-08-02T16:13:00.000","21230",NA,NA
"Dispatch Work Crew","1600 W COLD SPRING LN","BALTIMORE","ZTRMDEBR","TRM-Debris in Roadway","2015-06-29T12:39:29.000","2015-06-29T12:39:29.000","CROSS KEYS","No Trouble Found (Closed)","15-00506700","MD","CLOSED","2015-06-29T22:12:32.000","2015-06-29T22:12:00.000","21209",NA,NA
"Dispatch Work Crew","4637  BRIARCLIFT RD","BALTIMORE","ZTRMDEBR","TRM-Debris in Roadway","2015-07-12T09:04:43.000","2015-07-12T09:04:43.000","HUNTING RIDGE","Debris Removed (Closed)","15-00546476","MD","CLOSED","2015-07-12T13:14:07.000","2015-07-12T13:14:00.000","21229",NA,NA
"Dispatch Work Crew","1325  COOKSIE ST","BALTIMORE","ZTRMDEBR","TRM-Debris in Roadway","2015-07-29T18:36:21.000","2015-07-29T18:36:21.000","LOCUST POINT","No Trouble Found (Closed)","15-00601312","MD","CLOSED","2015-07-29T21:21:41.000","2015-07-29T21:21:00.000","21230",NA,NA
"Dispatch Work Crew","6014  YORK RD","BALTIMORE","ZTRMDEBR","TRM-Debris in Roadway","2015-05-28T11:12:28.000","2015-05-28T11:12:28.000","LAKE EVESHAM","Debris Removed (Closed)","15-00414987","MD","CLOSED","2015-05-28T14:48:49.000","2015-05-28T14:48:00.000","21212",NA,NA
"Dispatch Work Crew","W PATAPSCO AVE & ANNAPOLIS RD, BALTIMORE",NA,"ZTRMDEBR","TRM-Debris in Roadway","2015-07-09T18:55:39.000","2015-07-09T18:55:39.000","CHERRY HILL","Debris Removed (Closed)","15-00540564","MD","CLOSED","2015-07-09T21:12:46.000","2015-07-09T21:12:00.000",NA,NA,NA
"Dispatch Work Crew","WATERVIEW AVE & S HANOVER ST, BALTIMORE,",NA,"ZTRMDEBR","TRM-Debris in Roadway","2015-07-23T11:20:48.000","2015-07-23T11:20:48.000","MIDDLE BRANCH/REEDBIRD PARKS","Debris Removed (Closed)","15-00580374","MD","CLOSED","2015-07-23T14:22:03.000","2015-07-23T14:22:00.000",NA,NA,NA
"Dispatch Work Crew","500  CHESAPEAKE AVE","BALTIMORE","ZTRMDEBR","TRM-Debris in Roadway","2015-07-09T22:40:32.000","2015-07-09T22:40:32.000","FAIRFIELD AREA","Debris Removed (Closed)","15-00541145","MD","CLOSED","2015-07-10T00:38:01.000","2015-07-10T00:37:00.000","21225",NA,NA
"Dispatch Work Crew","2901  83  N","BALTIMORE","ZTRMDEBR","TRM-Debris in Roadway","2015-07-22T09:20:48.000","2015-07-22T09:20:48.000","JONES FALLS AREA","Debris Removed (Closed)","15-00576451","MD","CLOSED","2015-07-23T13:27:52.000","2015-07-23T13:27:00.000","21211",NA,NA
"Dispatch Work Crew","2400 S HANOVER ST","BALTIMORE","ZTRMDEBR","TRM-Debris in Roadway","2015-08-02T17:51:13.000","2015-08-02T17:51:13.000","SPRING GARDEN INDUSTRIAL AREA","No Trouble Found (Closed)","15-00610085","MD","CLOSED","2015-08-02T20:50:46.000","2015-08-02T20:50:00.000","21230",NA,NA
"Dispatch Work Crew","I 83 S & MARYLAND AVE, BALTIMORE, MD, 21",NA,"ZTRMDEBR","TRM-Debris in Roadway","2015-07-07T15:56:24.000","2015-07-07T15:56:24.000","MID-TOWN BELVEDERE","Debris Removed (Closed)","15-00531617","MD","CLOSED","2015-07-07T17:20:04.000","2015-07-07T17:20:00.000",NA,NA,NA
NA,"N FRANKLINTOWN RD & DOGWOOD ROAD, BALTIM","BALTIMORE","ZTRMDEBR","TRM-Debris in Roadway","2015-06-28T00:35:52.000","2015-06-28T00:35:52.000","FRANKLINTOWN",NA,"15-00504656","MD","CLOSED","2015-06-28T13:58:07.000",NA,NA,NA,NA
"Dispatch Work Crew","1850 N HOWARD ST","BALTIMORE","ZTRMDEBR","TRM-Debris in Roadway","2015-07-16T19:12:44.000","2015-07-16T19:12:44.000","CHARLES NORTH","No Trouble Found (Closed)","15-00562243","MD","CLOSED","2015-07-16T20:30:35.000","2015-07-16T20:30:00.000","21201",NA,NA
"Dispatch Work Crew","I 83 N &W 28TH ST","BALTIMORE","ZTRMDEBR","TRM-Debris in Roadway","2015-05-13T20:05:17.000","2015-05-13T20:05:17.000","DRUID HILL PARK","No Trouble Found (Closed)","15-00376290","MD","CLOSED","2015-05-14T02:01:33.000","2015-05-13T23:00:00.000","21217",NA,NA
"Dispatch Work Crew","W COLD SPRING LN & I 83 N, BALTIMORE, MD",NA,"ZTRMDEBR","TRM-Debris in Roadway","2015-07-05T17:44:14.000","2015-07-05T17:44:14.000","MEDFIELD","No Trouble Found (Closed)","15-00525465","MD","CLOSED","2015-07-05T20:30:16.000","2015-07-05T20:30:00.000",NA,NA,NA
"Dispatch Work Crew","3000  WOLCOTT AVE","BALTIMORE","ZTRMDEBR","TRM-Debris in Roadway","2015-06-25T17:54:51.000","2015-06-25T17:54:51.000","CONCERNED CITIZENS OF FOREST PARK","Debris Removed (Closed)","15-00499070","MD","CLOSED","2015-06-25T18:56:27.000","2015-06-25T18:56:00.000","21216",NA,NA
"Dispatch Work Crew","N HILTON ST & ELGIN AVE, BALTIMORE, MD,",NA,"ZTRMDEBR","TRM-Debris in Roadway","2015-06-25T16:03:04.000","2015-06-25T16:03:04.000","WALBROOK","Debris Removed (Closed)","15-00498550","MD","CLOSED","2015-06-25T16:38:32.000","2015-06-25T16:38:00.000",NA,NA,NA
"Dispatch Work Crew","2701  LIBERTY HEIGHTS AVE","BALTIMORE","ZTRMDEBR","TRM-Debris in Roadway","2015-07-03T01:45:21.000","2015-07-03T01:45:21.000","BURLEITH-LEIGHTON","Debris Removed (Closed)","15-00522384","MD","CLOSED","2015-07-03T04:14:53.000","2015-07-03T04:14:00.000","21215",NA,NA
"Dispatch Work Crew","W COLD SPRING LN & I 83 N","BALTIMORE","ZTRMDEBR","TRM-Debris in Roadway","2015-05-31T16:18:31.000","2015-05-31T16:18:31.000","MEDFIELD","No Trouble Found (Closed)","15-00424275","MD","CLOSED","2015-05-31T20:19:43.000","2015-05-31T20:19:00.000","21209",NA,NA
"Dispatch Work Crew","6600  EASTERN95NENTRANCE AV","BALTIMORE","ZTRMDEBR","TRM-Debris in Roadway","2015-08-01T15:43:53.000","2015-08-01T15:43:53.000","GRACELAND PARK","No Trouble Found (Closed)","15-00609122","MD","CLOSED","2015-08-01T21:35:12.000","2015-08-01T21:32:00.000",NA,NA,NA
"Dispatch Work Crew","2445 S HANOVER ST","BALTIMORE","ZTRMDEBR","TRM-Debris in Roadway","2015-07-11T16:26:33.000","2015-07-11T16:26:33.000","PORT COVINGTON","Debris Removed (Closed)","15-00545847","MD","CLOSED","2015-07-12T11:21:45.000","2015-07-12T11:21:00.000","21230",NA,NA
"Dispatch Work Crew","2201  CLOVILLE AVE","BALTIMORE","ZTRMDEBR","TRM-Debris in Roadway","2015-05-26T10:53:52.000","2015-05-26T10:53:52.000","HARFORD-ECHODALE/PERRING PARKWAY","Debris Removed (Closed)","15-00406767","MD","CLOSED","2015-05-26T14:27:50.000","2015-05-26T14:27:00.000","21214",NA,NA
"Dispatch Work Crew","W PATAPSCO AVE & POTEE ST, BALTIMORE, MD",NA,"ZTRMDEBR","TRM-Debris in Roadway","2015-06-15T18:52:40.000","2015-06-15T18:52:40.000","BROOKLYN","Debris Removed (Closed)","15-00465432","MD","CLOSED","2015-06-15T20:51:57.000","2015-06-15T20:51:00.000",NA,NA,NA
NA,"WETHEREDSVILLE RD & N FRANKLINTOWN RD, B",NA,"ZTRMDEBR","TRM-Debris in Roadway","2015-06-29T09:50:17.000","2015-06-29T09:50:17.000","GWYNNS FALLS/LEAKIN PARK",NA,"15-00505972","MD","CLOSED","2015-06-29T17:24:07.000",NA,NA,NA,NA
"Dispatch Work Crew","2327  HARFORD RD","BALTIMORE","ZTRMDEBR","TRM-Debris in Roadway","2015-06-28T10:55:59.000","2015-06-28T10:55:59.000","DARLEY PARK","Debris Removed (Closed)","15-00504810","MD","CLOSED","2015-06-28T12:00:38.000","2015-06-28T12:00:00.000","21218",NA,NA
"Dispatch Work Crew","2900  83  S","BALTIMORE","ZTRMDEBR","TRM-Debris in Roadway","2015-07-30T12:11:13.000","2015-07-30T12:11:13.000","DRUID HILL PARK","Debris Removed (Closed)","15-00602609","MD","CLOSED","2015-07-30T15:50:27.000","2015-07-30T15:49:00.000",NA,NA,NA
"Dispatch Work Crew","1800 W COLD SPRING LN","BALTIMORE","ZTRMDEBR","TRM-Debris in Roadway","2015-07-07T12:07:30.000","2015-07-07T12:07:30.000","COLDSPRING","Debris Removed (Closed)","15-00530281","MD","CLOSED","2015-07-07T18:57:03.000","2015-07-07T18:56:00.000","21209",NA,NA
NA,"1600 W COLD SPRING LN","BALTIMORE","ZTRMDEBR","TRM-Debris in Roadway","2015-05-31T16:18:00.000","2015-05-31T16:18:00.000","CROSS KEYS",NA,"15-00424273","MD","CLOSED","2015-05-31T17:31:19.000",NA,NA,NA,NA
"Dispatch Work Crew","I 83 N & W NORTHERN PKWY, BALTIMORE, MD,","BALTIMORE","ZTRMDEBR","TRM-Debris in Roadway","2015-06-13T15:33:49.000","2015-06-13T15:33:49.000","MOUNT WASHINGTON","Debris Removed (Closed)","15-00460695","MD","CLOSED","2015-06-14T12:29:49.000","2015-06-14T12:29:00.000",NA,NA,NA
"Dispatch Work Crew","100 S HAVEN ST","BALTIMORE","ZTRMDEBR","TRM-Debris in Roadway","2015-05-20T21:17:33.000","2015-05-20T21:17:33.000","BALTIMORE HIGHLANDS","Debris Removed (Closed)","15-00397085","MD","CLOSED","2015-05-20T23:06:51.000","2015-05-20T23:06:00.000","21224",NA,NA
"Dispatch Work Crew","3053  GUILFORD AVE","BALTIMORE","ZTRMDEBR","TRM-Debris in Roadway","2015-07-02T17:13:55.000","2015-07-02T17:13:55.000","ABELL","No Trouble Found (Closed)","15-00520530","MD","CLOSED","2015-07-02T20:37:17.000","2015-07-02T20:37:00.000","21218",NA,NA
"Dispatch Work Crew","4500","BALTIMORE","ZTRMDEBR","TRM-Debris in Roadway","2015-05-25T20:53:22.000","2015-05-25T20:53:22.000","COLDSPRING","Debris Removed (Closed)","15-00406366","MD","CLOSED","2015-05-26T12:36:53.000","2015-05-26T12:36:00.000",NA,NA,NA
"Dispatch Work Crew","N HOWARD ST & W PRESTON ST, BALTIMORE, M",NA,"ZTRMDEBR","TRM-Debris in Roadway","2015-07-22T15:18:11.000","2015-07-22T15:18:11.000","MADISON PARK","Debris Removed (Closed)","15-00578242","MD","CLOSED","2015-07-22T18:35:43.000","2015-07-22T18:35:00.000",NA,NA,NA
"Dispatch Work Crew","I 83 N & W NORTHERN PKWY, BALTIMORE, MD,",NA,"ZTRMDEBR","TRM-Debris in Roadway","2015-07-30T09:30:12.000","2015-07-30T09:30:12.000","CROSS KEYS","No Trouble Found (Closed)","15-00602138","MD","CLOSED","2015-07-30T12:24:55.000","2015-07-30T12:24:00.000",NA,NA,NA
NA,"2900  83  N","BALTIMORE","ZTRMDEBR","TRM-Debris in Roadway","2015-08-02T16:32:29.000","2015-08-02T16:32:29.000","JONES FALLS AREA",NA,"15-00610025","MD","CLOSED","2015-08-02T17:06:54.000",NA,NA,NA,NA
"Dispatch Work Crew","W COLD SPRING LN & I 83 S, BALTIMORE, MD",NA,"ZTRMDEBR","TRM-Debris in Roadway","2015-06-24T10:26:06.000","2015-06-24T10:26:06.000","COLDSPRING","Debris Removed (Closed)","15-00491350","MD","CLOSED","2015-06-24T14:20:45.000","2015-06-24T14:20:00.000",NA,NA,NA
"Dispatch Work Crew","E FAYETTE ST & I 83 S, BALTIMORE, MD, 21",NA,"ZTRMDEBR","TRM-Debris in Roadway","2015-07-04T14:03:37.000","2015-07-04T14:03:37.000","DOWNTOWN","No Trouble Found (Closed)","15-00524490","MD","CLOSED","2015-07-04T18:39:40.000","2015-07-04T18:39:00.000",NA,NA,NA
"Dispatch Work Crew","5107  EDMONDSON AVE","BALTIMORE","ZTRMDEBR","TRM-Debris in Roadway","2015-05-29T21:25:59.000","2015-05-29T21:25:59.000","TEN HILLS","No Trouble Found (Closed)","15-00421923","MD","CLOSED","2015-06-03T23:03:46.000","2015-06-03T23:03:00.000","21229",NA,NA
"Dispatch Work Crew","I 83 N & MARYLAND AVE, BALTIMORE, MD, 21",NA,"ZTRMDEBR","TRM-Debris in Roadway","2015-07-20T09:53:22.000","2015-07-20T09:53:22.000","CHARLES NORTH","Debris Removed (Closed)","15-00568954","MD","CLOSED","2015-07-20T10:19:17.000","2015-07-20T10:18:00.000",NA,NA,NA
"Dispatch Work Crew","PINEWOOD AVE & FAIR OAKS AVE, BALTIMORE,",NA,"ZTRMDEBR","TRM-Debris in Roadway","2015-06-17T13:08:47.000","2015-06-17T13:08:47.000","HARFORD-ECHODALE/PERRING PARKWAY","No Trouble Found (Closed)","15-00471638","MD","CLOSED","2015-06-17T18:30:11.000","2015-06-17T18:30:00.000",NA,NA,NA
"Dispatch Work Crew","W COLD SPRING LN & I 83 S, BALTIMORE, MD",NA,"ZTRMDEBR","TRM-Debris in Roadway","2015-07-03T21:45:25.000","2015-07-03T21:45:25.000","WOODBERRY","No Trouble Found (Closed)","15-00524043","MD","CLOSED","2015-07-04T00:11:54.000","2015-07-04T00:11:00.000",NA,NA,NA
"Dispatch Work Crew","E FAYETTE ST & I 83 N","BALTIMORE","ZTRMDEBR","TRM-Debris in Roadway","2015-05-28T19:30:02.000","2015-05-28T19:30:02.000","DOWNTOWN","No Trouble Found (Closed)","15-00417758","MD","CLOSED","2015-05-28T19:59:15.000","2015-05-28T19:59:00.000","21202",NA,NA
"Dispatch Work Crew","2901  83  N","BALTIMORE","ZTRMDEBR","TRM-Debris in Roadway","2015-08-02T16:04:12.000","2015-08-02T16:04:12.000","JONES FALLS AREA","Debris Removed (Closed)","15-00610005","MD","CLOSED","2015-08-02T18:09:18.000","2015-08-02T18:09:00.000","21211",NA,NA
"Dispatch Work Crew","1500 N CHARLES ST","BALTIMORE","ZTRMDEBR","TRM-Debris in Roadway","2015-05-13T13:20:59.000","2015-05-13T13:20:59.000","CHARLES NORTH","Debris Removed (Closed)","15-00374477","MD","CLOSED","2015-05-13T16:09:40.000","2015-05-13T16:00:00.000","21217",NA,NA
"Dispatch Work Crew","3000  WOLCOTT AVE","BALTIMORE","ZTRMDEBR","TRM-Debris in Roadway","2015-06-26T15:19:51.000","2015-06-26T15:19:51.000","CONCERNED CITIZENS OF FOREST PARK","Debris Removed (Closed)","15-00501794","MD","CLOSED","2015-06-26T16:41:37.000","2015-06-26T16:41:00.000","21216",NA,NA
"Dispatch Work Crew","I 83 S & E FAYETTE ST, BALTIMORE, MD, 21",NA,"ZTRMDEBR","TRM-Debris in Roadway","2015-07-09T22:47:50.000","2015-07-09T22:47:50.000","DOWNTOWN","No Trouble Found (Closed)","15-00541160","MD","CLOSED","2015-07-09T23:39:48.000","2015-07-09T23:39:00.000",NA,NA,NA
"Dispatch Work Crew","1916 W OLD COLD SPRING LN","BALTIMORE","ZTRMDEBR","TRM-Debris in Roadway","2015-06-01T18:28:39.000","2015-06-01T18:28:39.000","COLDSPRING","No Trouble Found (Closed)","15-00427547","MD","CLOSED","2015-06-01T21:05:44.000","2015-06-01T21:05:00.000","21209",NA,NA
NA,"BAKER ST & POPLAR GROVE ST, BALTIMORE, M",NA,"ZTRMDEBR","TRM-Debris in Roadway","2015-07-07T00:59:04.000","2015-07-07T00:59:04.000","NORTHWEST COMMUNITY ACTION",NA,"15-00529838","MD","CLOSED","2015-07-07T01:40:07.000",NA,NA,NA,NA
"Dispatch Work Crew","W FRANKLIN ST & N MARTIN LUTHER KING JR",NA,"ZTRMDEBR","TRM-Debris in Roadway","2015-06-23T19:43:18.000","2015-06-23T19:43:18.000","HERITAGE CROSSING","Debris Removed (Closed)","15-00490570","MD","CLOSED","2015-06-23T22:03:12.000","2015-06-23T22:03:00.000",NA,NA,NA
