"address","city","code","codedescription","createddate","duedate","neighborhood","servicerequestnum","state","status","statusdate","zip","activity","outcome","updateddate","i","lon","lat"
"3514 W FOREST PARK AVE","BALTIMORE","BGESTLI1","BGE-StLight(s) Out","2015-04-21T02:26:08.000","2015-04-25T02:26:08.000","FOREST PARK","15-00309608","MD","CLOSED","2015-05-12T09:17:47.000","21216",NA,NA,NA,9,-76.676489,39.324834
"3402  MARY AVE","BALTIMORE","BGESTLI1","BGE-StLight(s) Out","2015-07-22T04:09:50.000","2015-07-26T04:09:50.000","GLENHAM-BELFORD","15-00576312","MD","DUPCLOSD","2015-07-22T10:21:26.000","21214",NA,NA,NA,9,-76.5522359,39.352558
"5200  THE ALAMEDA","BALTIMORE","BGESTLI1","BGE-StLight(s) Out","2015-07-01T14:05:14.000","2015-07-05T14:05:14.000","KENILWORTH PARK","15-00516379","MD","CLOSED","2015-07-02T03:35:30.000","21212",NA,NA,NA,9,-76.5988056,39.3508982
"325  WINSTON AVE","BALTIMORE","BGESTLI1","BGE-StLight(s) Out","2015-07-31T00:56:19.000","2015-08-04T00:56:19.000","RADNOR-WINSTON","15-00605356","MD","CLOSED","2015-07-31T07:36:33.000","21212",NA,NA,NA,9,-76.612577,39.349632
"N BENTALOU ST & BAKER ST","BALTIMORE","BGESTLI1","BGE-StLight(s) Out","2015-05-11T22:42:13.000","2015-05-15T22:42:13.000","COPPIN HEIGHTS/ASH-CO-EAST","15-00369194","MD","CLOSED","2015-05-12T09:34:28.000","21216",NA,NA,NA,9,-76.6535563,39.300701
"2338  MONTEBELLO TER","BALTIMORE","BGESTLI1","BGE-StLight(s) Out","2015-05-28T06:01:17.000","2015-06-01T06:01:17.000","MORGAN PARK","15-00414436","MD","CLOSED","2015-05-28T06:29:05.000","21214",NA,NA,NA,9,-76.5794439,39.3474174
"1202  LAKESIDE AVE","BALTIMORE","BGESTLI1","BGE-StLight(s) Out","2015-07-18T16:14:22.000","2015-07-22T16:14:22.000","EDNOR GARDENS-LAKESIDE","15-00567289","MD","CLOSED","2015-07-21T05:26:29.000","21218",NA,NA,NA,9,-76.598857,39.329558
"2001 N PULASKI ST","BALTIMORE","BGESTLI1","BGE-StLight(s) Out","2015-06-24T12:49:36.000","2015-06-28T12:49:36.000","MONDAWMIN","15-00492200","MD","CLOSED","2015-06-25T03:09:49.000","21217",NA,NA,NA,9,-76.651147,39.311104
"1400 N ELLWOOD AVE","BALTIMORE","BGESTLI1","BGE-StLight(s) Out","2015-07-16T00:24:42.000","2015-07-20T00:24:42.000","BEREA","15-00559136","MD","CLOSED","2015-07-16T06:10:49.000","21213",NA,NA,NA,9,-76.574125,39.307326
"1300 N KENWOOD AVE","BALTIMORE","BGESTLI1","BGE-StLight(s) Out","2015-07-13T00:42:25.000","2015-07-17T00:42:25.000","BEREA","15-00547226","MD","CLOSED","2015-07-14T01:56:33.000","21213",NA,NA,NA,9,-76.578806,39.306371
"10 W WEST ST","BALTIMORE","BGESTLI1","BGE-StLight(s) Out","2015-07-22T03:59:47.000","2015-07-26T03:59:47.000","FEDERAL HILL","15-00576311","MD","DUPCLOSD","2015-07-22T04:40:08.000","21230",NA,NA,NA,9,-76.6149035,39.2757
"310 S NORRIS ST","BALTIMORE","BGESTLI1","BGE-StLight(s) Out","2015-05-27T08:37:29.000","2015-05-31T08:37:29.000","NEW SOUTHWEST/MOUNT CLARE","15-00410541","MD","CLOSED","2015-05-27T08:48:59.000","21223",NA,NA,NA,9,-76.6401534,39.2840441
"4335  KITTERY LN","BALTIMORE","BGESTLI1","BGE-StLight(s) Out","2015-06-04T03:25:04.000","2015-06-08T03:25:04.000","ROLAND PARK","15-00434931","MD","CLOSED","2015-06-04T03:49:03.000","21210",NA,NA,NA,9,-76.6308272,39.342509
"314 S BRUCE ST","BALTIMORE","BGESTLI1","BGE-StLight(s) Out","2015-06-22T00:21:52.000","2015-06-26T00:21:52.000","NEW SOUTHWEST/MOUNT CLARE","15-00483753","MD","CLOSED","2015-06-22T06:51:01.000","21223",NA,NA,NA,9,-76.644424,39.283845
"1421  LOCUST ST","BALTIMORE","BGESTLI1","BGE-StLight(s) Out","2015-06-09T01:10:11.000","2015-06-13T01:10:11.000","CURTIS BAY","15-00446749","MD","CLOSED","2015-06-10T09:26:28.000","21226",NA,NA,NA,9,-76.590735,39.226497
"1122  HOLLINS ST","BALTIMORE","BGESTLI1","BGE-StLight(s) Out","2015-05-19T23:46:54.000","2015-05-23T23:46:54.000","HOLLINS MARKET","15-00394161","MD","CLOSED","2015-05-20T09:09:44.000","21223",NA,NA,NA,9,-76.6362387,39.2877981
"2707  ALLENDALE RD","BALTIMORE","BGESTLI1","BGE-StLight(s) Out","2015-05-28T05:34:48.000","2015-06-01T05:34:48.000","GARWYN OAKS","15-00414433","MD","CLOSED","2015-05-28T05:38:28.000","21216",NA,NA,NA,9,-76.680311,39.318731
"515  MILLINGTON AVE","BALTIMORE","BGESTLI1","BGE-StLight(s) Out","2015-05-25T00:21:11.000","2015-05-29T00:21:11.000","MILLHILL","15-00404985","MD","CLOSED","2015-05-26T07:23:59.000","21223",NA,NA,NA,9,-76.6559719,39.2794399
"1804  BOLTON ST","BALTIMORE","BGESTLI1","BGE-StLight(s) Out","2015-05-21T03:04:54.000","2015-05-25T03:04:54.000","BOLTON HILL","15-00397416","MD","CLOSED","2015-05-21T03:10:42.000","21217",NA,NA,NA,9,-76.629271,39.309287
"3706  CLARKS LN","BALTIMORE","BGESTLI1","BGE-StLight(s) Out","2015-07-05T01:47:51.000","2015-07-09T01:47:51.000","FALLSTAFF","15-00524955","MD","CLOSED","2015-07-06T04:05:49.000","21215",NA,NA,NA,9,-76.702211,39.360895
"548  LIGHT ST","BALTIMORE","BGESTLI1","BGE-StLight(s) Out","2015-07-29T07:10:22.000","2015-08-02T07:10:22.000","OTTERBEIN","15-00598491","MD","CLOSED","2015-07-29T08:35:11.000","21202",NA,NA,NA,9,-76.612929,39.2833274
"1300 N ELLWOOD AVE","BALTIMORE","BGESTLI1","BGE-StLight(s) Out","2015-07-20T22:40:43.000","2015-07-24T22:40:43.000","BEREA","15-00572278","MD","CLOSED","2015-07-21T04:01:35.000","21213",NA,NA,NA,9,-76.574055,39.306265
"3300  AUCHENTOROLY TER","BALTIMORE","BGESTLI1","BGE-StLight(s) Out","2015-08-03T11:48:49.000","2015-08-07T11:48:49.000","PARKVIEW/WOODBROOK","15-00610891","MD","DUPCLOSD","2015-08-04T05:40:17.000","21217",NA,NA,NA,9,-76.647601,39.3177639
"4925  WESTHILLS RD","BALTIMORE","BGESTLI1","BGE-StLight(s) Out","2015-05-28T12:55:06.000","2015-06-01T12:55:06.000","WEST HILLS","15-00415602","MD","CLOSED","2015-05-29T09:14:19.000","21229",NA,NA,NA,9,-76.7082392,39.2955681
"4827  GILRAY DR","BALTIMORE","BGESTLI1","BGE-StLight(s) Out","2015-06-01T20:22:07.000","2015-06-05T20:22:07.000","LAURAVILLE","15-00427994","MD","DUPCLOSD","2015-06-02T07:24:02.000","21214",NA,NA,NA,9,-76.574732,39.349539
"E WEST ST & S CHARLES ST, BALTIMORE, MD,",NA,"BGESTLI1","BGE-StLight(s) Out","2015-07-15T13:50:23.000","2015-07-19T13:50:23.000","FEDERAL HILL","15-00556842","MD","CLOSED","2015-07-16T09:30:42.000",NA,NA,NA,NA,9,-74.0119383,40.7219254
"2715  TALBOT RD","BALTIMORE","BGESTLI1","BGE-StLight(s) Out","2015-08-04T10:53:35.000","2015-08-08T10:53:35.000","WINDSOR HILLS","15-00615905","MD","NEW","2015-08-04T10:55:19.000","21216",NA,NA,NA,9,-76.6899,39.318
"5726  NEWHOLME AVE","BALTIMORE","BGESTLI1","BGE-StLight(s) Out","2015-05-25T02:26:12.000","2015-05-29T02:26:12.000","FRANKFORD","15-00405024","MD","CLOSED","2015-05-26T11:34:13.000","21206",NA,NA,NA,9,-76.537145,39.338601
"4514  MAINFIELD AVE","BALTIMORE","BGESTLI1","BGE-StLight(s) Out","2015-06-16T00:36:03.000","2015-06-20T00:36:03.000","LAURAVILLE","15-00466265","MD","CLOSED","2015-06-17T08:12:13.000","21214",NA,NA,NA,9,-76.57553,39.344875
"5300  LOCH RAVEN BLVD","BALTIMORE","BGESTLI1","BGE-StLight(s) Out","2015-06-10T13:02:56.000","2015-06-14T13:02:56.000","NEW NORTHWOOD","15-00451559","MD","CLOSED","2015-06-11T07:06:47.000","21239",NA,NA,NA,9,-76.5901192,39.354508
"4100  ROLAND VIEW AVE","BALTIMORE","BGESTLI1","BGE-StLight(s) Out","2015-08-03T20:31:41.000","2015-08-07T20:31:41.000","GREENSPRING","15-00614764","MD","CLOSED","2015-08-04T06:30:46.000","21215",NA,NA,NA,9,-76.659157,39.3378523
"900  ROCKHILL AVE","BALTIMORE","BGESTLI1","BGE-StLight(s) Out","2015-06-25T23:52:49.000","2015-06-29T23:52:49.000","VIOLETVILLE","15-00500219","MD","DUPCLOSD","2015-06-27T05:03:46.000","21229",NA,NA,NA,9,-76.6781918,39.271609
"1400  ROUNDHILL RD","BALTIMORE","BGESTLI1","BGE-StLight(s) Out","2015-06-23T12:07:44.000","2015-06-27T12:07:44.000","ORIGINAL NORTHWOOD","15-00487867","MD","CLOSED","2015-06-24T03:12:34.000","21218",NA,NA,NA,9,-76.5950509,39.337711
"1500 W NORTH AVE","BALTIMORE","BGESTLI1","BGE-StLight(s) Out","2015-06-01T13:13:41.000","2015-06-05T13:13:41.000","PENN NORTH","15-00425673","MD","CLOSED","2015-06-03T06:19:07.000","21217",NA,NA,NA,9,-76.6411767,39.3101787
"4305  NICHOLAS AVE","BALTIMORE","BGESTLI1","BGE-StLight(s) Out","2015-07-01T00:13:26.000","2015-07-05T00:13:26.000","BELAIR-EDISON","15-00514529","MD","CLOSED","2015-07-01T05:01:22.000","21206",NA,NA,NA,9,-76.5625698,39.3276863
"1331 N STOCKTON ST","BALTIMORE","BGESTLI1","BGE-StLight(s) Out","2015-06-11T04:55:12.000","2015-06-15T04:55:12.000","SANDTOWN-WINCHESTER","15-00453761","MD","CLOSED","2015-06-11T05:11:46.000","21217",NA,NA,NA,9,-76.6381239,39.3045547
"918  ASHBURTON ST","BALTIMORE","BGESTLI1","BGE-StLight(s) Out","2015-06-05T15:11:35.000","2015-06-09T15:11:35.000","MOSHER","15-00441090","MD","CLOSED","2015-06-08T17:36:39.000","21216",NA,NA,NA,9,-76.6618896,39.2986345
"2200  PRESBURY ST","BALTIMORE","BGESTLI1","BGE-StLight(s) Out","2015-07-12T03:13:56.000","2015-07-16T03:13:56.000","COPPIN HEIGHTS/ASH-CO-EAST","15-00546456","MD","DUPCLOSD","2015-07-13T06:35:35.000","21216",NA,NA,NA,9,-76.653142,39.3079449
"4400  FALLS RD","BALTIMORE","BGESTLI1","BGE-StLight(s) Out","2015-07-08T12:46:26.000","2015-07-12T12:46:26.000","MEDFIELD","15-00534503","MD","CLOSED","2015-07-09T08:10:30.000","21211",NA,NA,NA,9,-76.640176,39.342015
"2013 E PRESTON ST","BALTIMORE","BGESTLI1","BGE-StLight(s) Out","2015-08-05T00:10:16.000","2015-08-09T00:10:16.000","BROADWAY EAST","15-00618989","MD","OPEN","2015-08-05T00:10:16.000","21213",NA,NA,NA,9,-76.5893044,39.3055567
"6400  LAURELTON AVE","BALTIMORE","BGESTLI1","BGE-StLight(s) Out","2015-07-10T01:07:30.000","2015-07-14T01:07:30.000","HARFORD-ECHODALE/PERRING PARKWAY","15-00541300","MD","CLOSED","2015-07-11T06:09:57.000","21214",NA,NA,NA,9,-76.564612,39.363889
"4900  SCHAUB AVE","BALTIMORE","BGESTLI1","BGE-StLight(s) Out","2015-06-18T12:12:21.000","2015-06-22T12:12:21.000","FRANKFORD","15-00475048","MD","CLOSED","2015-06-22T05:10:12.000","21206",NA,NA,NA,9,-76.5405847,39.3222966
"4115  WENTWORTH RD","BALTIMORE","BGESTLI1","BGE-StLight(s) Out","2015-05-12T16:17:51.000","2015-05-16T16:17:51.000","FOREST PARK GOLF COURSE","15-00371175","MD","CLOSED","2015-05-13T09:04:18.000","21207",NA,NA,NA,9,-76.690878,39.324528
"3200  ERDMAN AVE","BALTIMORE","BGESTLI1","BGE-StLight(s) Out","2015-06-16T12:40:43.000","2015-06-20T12:40:43.000","BELAIR-EDISON","15-00467110","MD","CLOSED","2015-06-17T04:34:09.000","21213",NA,NA,NA,9,-76.5727764,39.3211096
"3600  GWYNN OAK AVE","BALTIMORE","BGESTLI1","BGE-StLight(s) Out","2015-07-19T15:23:27.000","2015-07-23T15:23:27.000","HOWARD PARK","15-00568245","MD","CLOSED","2015-07-21T13:07:00.000","21207",NA,NA,NA,9,-76.6957279,39.3314303
"6113  BENHURST RD","BALTIMORE","BGESTLI1","BGE-StLight(s) Out","2015-06-24T00:54:48.000","2015-06-28T00:54:48.000","CHESWOLDE","15-00491164","MD","CLOSED","2015-06-25T07:46:19.000","21209",NA,NA,NA,9,-76.687623,39.364362
"3919  BUENA VISTA AVE","BALTIMORE","BGESTLI1","BGE-StLight(s) Out","2015-07-23T02:44:50.000","2015-07-27T02:44:50.000","HAMPDEN","15-00580083","MD","CLOSED","2015-07-23T03:01:05.000","21211",NA,NA,NA,9,-76.6405324,39.3346354
"501 N POTOMAC ST","BALTIMORE","BGESTLI1","BGE-StLight(s) Out","2015-06-16T11:12:12.000","2015-06-20T11:12:12.000","ELLWOOD PARK/MONUMENT","15-00466652","MD","CLOSED","2015-06-17T07:24:01.000","21205",NA,NA,NA,9,-76.5750675,39.2970328
"5300  PURLINGTON WAY","BALTIMORE","BGESTLI1","BGE-StLight(s) Out","2015-07-29T02:50:37.000","2015-08-02T02:50:37.000","HOMELAND","15-00598421","MD","CLOSED","2015-08-04T03:31:11.000","21212",NA,NA,NA,9,-76.6179006,39.3594284
"6108  PARK HEIGHTS AVE","BALTIMORE","BGESTLI1","BGE-StLight(s) Out","2015-07-01T16:03:48.000","2015-07-05T16:03:48.000","GLEN","15-00516896","MD","CLOSED","2015-07-02T06:06:51.000","21215",NA,NA,NA,9,-76.691791,39.357128
"2819  OVERLAND AVE","BALTIMORE","BGESTLI1","BGE-StLight(s) Out","2015-07-13T17:52:49.000","2015-07-17T17:52:49.000","LAURAVILLE","15-00550235","MD","CLOSED","2015-07-15T07:50:29.000","21214",NA,NA,NA,9,-76.576238,39.340814
"1001 S DUKELAND ST","BALTIMORE","BGESTLI1","BGE-StLight(s) Out","2015-08-04T08:40:04.000","2015-08-08T08:40:04.000","MORRELL PARK","15-00615703","MD","CLOSED","2015-08-04T08:46:13.000","21223",NA,NA,NA,9,-76.66122,39.275283
"4705  CROSSWOOD AVE","BALTIMORE","BGESTLI1","BGE-StLight(s) Out","2015-07-15T08:10:54.000","2015-07-19T08:10:54.000","MORAVIA-WALTHER","15-00555371","MD","DUPCLOSD","2015-07-15T16:40:22.000","21214",NA,NA,NA,9,-76.562763,39.340131
"200 S CALVERT ST","BALTIMORE","BGESTLI1","BGE-StLight(s) Out","2015-07-21T11:54:34.000","2015-07-25T11:54:34.000","INNER HARBOR","15-00572813","MD","CLOSED","2015-07-22T03:15:23.000","21202",NA,NA,NA,9,-76.6121406,39.2866037
"2810  MAYFIELD AVE","BALTIMORE","BGESTLI1","BGE-StLight(s) Out","2015-06-10T04:09:09.000","2015-06-14T04:09:09.000","BELAIR-EDISON","15-00450402","MD","CLOSED","2015-06-10T04:15:42.000","21213",NA,NA,NA,9,-76.57428,39.32343
"5141  WETHEREDSVILLE RD","BALTIMORE","BGESTLI1","BGE-StLight(s) Out","2015-05-14T00:52:57.000","2015-05-18T00:52:57.000","WAKEFIELD","15-00376930","MD","CLOSED","2015-05-14T04:40:43.000","21207",NA,NA,NA,9,-76.705706,39.313284
"5810  REISTERSTOWN RD","BALTIMORE","BGESTLI1","BGE-StLight(s) Out","2015-08-04T18:45:27.000","2015-08-08T18:45:27.000","REISTERSTOWN STATION","15-00618310","MD","OPEN","2015-08-04T18:45:27.000","21215",NA,NA,NA,9,-76.695318,39.350383
"S ELLAMONT ST & HERKIMER ST, BALTIMORE,","baltimore","BGESTLI1","BGE-StLight(s) Out","2015-07-20T03:12:29.000","2015-07-24T03:12:29.000","MORRELL PARK","15-00568891","MD","CLOSED","2015-07-21T07:25:31.000","21230",NA,NA,NA,9,-76.6701808,39.2832265
"HILLTOP AVE & WOODRING AVE, BALTIMORE, M",NA,"BGESTLI1","BGE-StLight(s) Out","2015-06-25T22:50:21.000","2015-06-29T22:50:21.000","WOODRING","15-00500159","MD","CLOSED","2015-06-27T03:10:30.000",NA,NA,NA,NA,9,-89.6836875,44.966207
"1011  HILLMAN ST","BALTIMORE","BGESTLI1","BGE-StLight(s) Out","2015-06-20T22:54:22.000","2015-06-24T22:54:22.000","JOHNSTON SQUARE","15-00482812","MD","CLOSED","2015-06-22T03:25:21.000","21202",NA,NA,NA,9,-76.605509,39.302039
"261 S MONASTERY AVE","BALTIMORE","BGESTLI1","BGE-StLight(s) Out","2015-07-12T02:23:08.000","2015-07-16T02:23:08.000","IRVINGTON","15-00546450","MD","CLOSED","2015-07-13T02:45:27.000","21229",NA,NA,NA,9,-76.6810044,39.2827031
"700 W LOMBARD ST","BALTIMORE","BGESTLI1","BGE-StLight(s) Out","2015-07-29T14:13:35.000","2015-08-02T14:13:35.000","UNIVERSITY OF MARYLAND","15-00599792","MD","CLOSED","2015-07-30T08:21:21.000","21201",NA,NA,NA,9,-76.6259391,39.2873386
"W UNIVERSITY PKWY & KESWICK RD, BALTIMOR","Baltimore","BGESTLI1","BGE-StLight(s) Out","2015-06-26T00:26:47.000","2015-06-30T00:26:47.000","ROLAND PARK","15-00500249","MD","CLOSED","2015-06-29T05:00:54.000","21210",NA,NA,NA,9,-111.712846,40.2749703
"310  TAPLOW RD","BALTIMORE","BGESTLI1","BGE-StLight(s) Out","2015-06-18T02:53:52.000","2015-06-22T02:53:52.000","HOMELAND","15-00474647","MD","CLOSED","2015-06-18T09:15:33.000","21212",NA,NA,NA,9,-76.61489,39.361161
"2804  CHESWOLDE RD","BALTIMORE","BGESTLI1","BGE-StLight(s) Out","2015-05-22T11:40:49.000","2015-05-26T11:40:49.000","CHESWOLDE","15-00401007","MD","DUPCLOSD","2015-05-23T04:27:29.000","21209",NA,NA,NA,9,-76.683722,39.369331
"1100  SHERWOOD AVE","BALTIMORE","BGESTLI1","BGE-StLight(s) Out","2015-07-08T00:16:37.000","2015-07-12T00:16:37.000","GLEN OAKS","15-00533272","MD","CLOSED","2015-07-08T04:35:02.000","21239",NA,NA,NA,9,-76.597344,39.365575
"3200  NORTHWAY DR","BALTIMORE","BGESTLI1","BGE-StLight(s) Out","2015-08-01T18:28:25.000","2015-08-05T18:28:25.000","WOODRING","15-00609347","MD","CLOSED","2015-08-03T15:49:07.000",NA,NA,NA,NA,9,-76.545238,39.36208
"3511  BERWYN AVE","BALTIMORE","BGESTLI1","BGE-StLight(s) Out","2015-06-20T22:03:57.000","2015-06-24T22:03:57.000","DORCHESTER","15-00482771","MD","CLOSED","2015-06-22T02:40:46.000","21207",NA,NA,NA,9,-76.6834159,39.328936
"5312  NELSON AVE","BALTIMORE","BGESTLI1","BGE-StLight(s) Out","2015-06-17T00:24:02.000","2015-06-21T00:24:02.000","ARLINGTON","15-00470154","MD","CLOSED","2015-06-17T07:24:02.000","21215",NA,NA,NA,9,-76.6846599,39.347226
"718  PACIFIC ST","BALTIMORE","BGESTLI1","BGE-StLight(s) Out","2015-07-02T16:44:48.000","2015-07-06T16:44:48.000","HAMPDEN","15-00520398","MD","CLOSED","2015-07-06T06:15:07.000","21211",NA,NA,NA,9,-76.629026,39.3229029
"1519  UNION AVE","BALTIMORE","BGESTLI1","BGE-StLight(s) Out","2015-05-25T15:01:10.000","2015-05-29T15:01:10.000","HAMPDEN","15-00406026","MD","CLOSED","2015-05-26T02:23:37.000","21211",NA,NA,NA,9,-76.640281,39.331907
"2716  CHESLEY AVE","BALTIMORE","BGESTLI1","BGE-StLight(s) Out","2015-05-17T04:03:33.000","2015-05-21T04:03:33.000","NORTH HARFORD ROAD","15-00385750","MD","CLOSED","2015-05-18T06:39:22.000","21234",NA,NA,NA,9,-76.55501,39.3679289
"3726  WOODHAVEN AVE","BALTIMORE","BGESTLI1","BGE-StLight(s) Out","2015-05-17T15:40:16.000","2015-05-21T15:40:16.000","CONCERNED CITIZENS OF FOREST PARK","15-00386309","MD","CLOSED","2015-05-18T06:39:24.000","21216",NA,NA,NA,9,-76.6812,39.321947
"836 N FULTON AVE","BALTIMORE","BGESTLI1","BGE-StLight(s) Out","2015-06-22T17:34:11.000","2015-06-26T17:34:11.000","HARLEM PARK","15-00486193","MD","CLOSED","2015-06-23T07:09:53.000","21217",NA,NA,NA,9,-76.6458364,39.2985899
"3600  BROOKLYN AVE","BALTIMORE","BGESTLI1","BGE-StLight(s) Out","2015-06-02T03:25:00.000","2015-06-06T03:25:00.000","BROOKLYN","15-00428447","MD","CLOSED","2015-06-02T03:28:32.000","21225",NA,NA,NA,9,-76.5996055,39.2353052
"1730 N BENTALOU ST","BALTIMORE","BGESTLI1","BGE-StLight(s) Out","2015-06-17T23:09:47.000","2015-06-21T23:09:47.000","COPPIN HEIGHTS/ASH-CO-EAST","15-00474426","MD","CLOSED","2015-06-18T03:44:47.000","21216",NA,NA,NA,9,-76.654325,39.308335
"1412  POPLAR GROVE ST","BALTIMORE","BGESTLI1","BGE-StLight(s) Out","2015-06-26T01:49:53.000","2015-06-30T01:49:53.000","NORTHWEST COMMUNITY ACTION","15-00500324","MD","CLOSED","2015-06-27T09:05:57.000","21216",NA,NA,NA,9,-76.665757,39.303946
"MILLINGTON AVE & DULANY ST","BALTIMORE","BGESTLI1","BGE-StLight(s) Out","2015-06-02T13:24:42.000","2015-06-06T13:24:42.000","MILLHILL","15-00429340","MD","CLOSED","2015-06-04T17:28:40.000","21223",NA,NA,NA,9,-82.5232309,28.5871587
"900 W BALTIMORE ST","BALTIMORE","BGESTLI1","BGE-StLight(s) Out","2015-06-01T02:46:31.000","2015-06-05T02:46:31.000","POPPLETON","15-00424868","MD","CLOSED","2015-06-01T02:48:36.000","21223",NA,NA,NA,9,-76.632638,39.289109
"3500  DORCHESTER RD","BALTIMORE","BGESTLI1","BGE-StLight(s) Out","2015-06-13T06:10:51.000","2015-06-17T06:10:51.000","ASHBURTON","15-00460179","MD","CLOSED","2015-06-13T06:21:22.000","21215",NA,NA,NA,9,-76.6737923,39.3268728
"3600  CHESHOLM RD","BALTIMORE","BGESTLI1","BGE-StLight(s) Out","2015-07-28T11:46:52.000","2015-08-01T11:46:52.000","FAIRMONT","15-00595375","MD","CLOSED","2015-07-29T05:55:51.000","21216",NA,NA,NA,9,-76.680838,39.310554
"5708  WHITE AVE","BALTIMORE","BGESTLI1","BGE-StLight(s) Out","2015-05-13T00:05:23.000","2015-05-17T00:05:23.000","FRANKFORD","15-00372884","MD","CLOSED","2015-05-13T05:18:23.000","21206",NA,NA,NA,9,-76.534409,39.3381339
"708  UMBRA ST","BALTIMORE","BGESTLI1","BGE-StLight(s) Out","2015-05-26T14:45:26.000","2015-05-30T14:45:26.000","GREEKTOWN","15-00408116","MD","CLOSED","2015-05-27T02:33:43.000","21224",NA,NA,NA,9,-76.5504538,39.2849035
"5000  INTERSTATE AVE","BALTIMORE","BGESTLI1","BGE-StLight(s) Out","2015-05-14T12:25:55.000","2015-05-18T12:25:55.000","CANTON INDUSTRIAL AREA","15-00377935","MD","CLOSED","2015-05-16T04:43:42.000","21224",NA,NA,NA,9,-76.5532086,39.2776299
"2479  DRUID HILL AVE","BALTIMORE","BGESTLI1","BGE-StLight(s) Out","2015-07-14T02:03:15.000","2015-07-18T02:03:15.000","PENN NORTH","15-00551579","MD","DUPCLOSD","2015-07-15T04:14:27.000","21217",NA,NA,NA,9,-76.6404069,39.3128694
"1700  ORLEANS ST","BALTIMORE","BGESTLI1","BGE-StLight(s) Out","2015-07-30T13:11:29.000","2015-08-03T13:11:29.000","DUNBAR-BROADWAY","15-00602893","MD","CLOSED","2015-07-31T01:36:06.000","21231","Cityworks SR Comments","UPDATED","2015-07-30T13:31:14.000",9,-76.5942008,39.2953247
"326  HORNEL ST","BALTIMORE","BGESTLI1","BGE-StLight(s) Out","2015-06-28T14:57:27.000","2015-07-02T14:57:27.000","JOSEPH LEE","15-00505123","MD","CLOSED","2015-06-29T08:16:49.000","21224",NA,NA,NA,9,-76.540374,39.289843
"5502  ADLEIGH AVE","BALTIMORE","BGESTLI1","BGE-StLight(s) Out","2015-06-30T14:38:31.000","2015-07-04T14:38:31.000","FRANKFORD","15-00512639","MD","CLOSED","2015-07-02T15:26:05.000","21206",NA,NA,NA,9,-76.544488,39.3373459
"5110  NORWOOD AVE","BALTIMORE","BGESTLI1","BGE-StLight(s) Out","2015-07-11T01:38:10.000","2015-07-15T01:38:10.000","HOWARD PARK","15-00544720","MD","CLOSED","2015-07-14T02:55:06.000","21212",NA,NA,NA,9,-76.7022363,39.3289549
"2107  CHRISTIAN ST","BALTIMORE","BGESTLI1","BGE-StLight(s) Out","2015-05-13T19:01:10.000","2015-05-17T19:01:10.000","CARROLLTON RIDGE","15-00376080","MD","CLOSED","2015-05-14T08:22:54.000","21223",NA,NA,NA,9,-76.6499177,39.2814894
"816 W 33RD ST","BALTIMORE","BGESTLI1","BGE-StLight(s) Out","2015-06-12T02:45:31.000","2015-06-16T02:45:31.000","HAMPDEN","15-00456984","MD","CLOSED","2015-06-12T02:51:57.000","21211",NA,NA,NA,9,-76.629944,39.32721
"3500  WINDSOR MILL RD","BALTIMORE","BGESTLI1","BGE-StLight(s) Out","2015-06-17T12:24:46.000","2015-06-21T12:24:46.000","MOUNT HOLLY","15-00471290","MD","CLOSED","2015-06-18T15:06:52.000","21216",NA,NA,NA,9,-76.677704,39.3121862
"4044  BOARMAN AVE","BALTIMORE","BGESTLI1","BGE-StLight(s) Out","2015-07-01T15:49:34.000","2015-07-05T15:49:34.000","DORCHESTER","15-00516849","MD","CLOSED","2015-07-02T07:41:44.000","21215",NA,NA,NA,9,-76.686815,39.334383
"205 E 32ND ST","BALTIMORE","BGESTLI1","BGE-StLight(s) Out","2015-06-01T03:14:21.000","2015-06-05T03:14:21.000","CHARLES VILLAGE","15-00424878","MD","DUPCLOSD","2015-06-02T09:23:45.000","21218",NA,NA,NA,9,-76.614025,39.326773
"0  UPLANDS PKWY","BALTIMORE","BGESTLI1","BGE-StLight(s) Out","2015-08-03T15:48:34.000","2015-08-07T15:48:34.000","UPLANDS","15-00613101","MD","DUPOPEN","2015-08-03T15:48:34.000","21229",NA,NA,NA,9,-76.6963344,39.2888494
"5000  WESTHILLS RD","BALTIMORE","BGESTLI1","BGE-StLight(s) Out","2015-05-27T17:02:20.000","2015-05-31T17:02:20.000","WEST HILLS","15-00413006","MD","CLOSED","2015-05-28T05:03:57.000","21229",NA,NA,NA,9,-76.709529,39.295675
"2300  SAINT PAUL ST","BALTIMORE","BGESTLI1","BGE-StLight(s) Out","2015-07-27T14:14:00.000","2015-07-31T14:14:00.000","CHARLES VILLAGE","15-00592979","MD","CLOSED","2015-07-28T08:35:11.000","21218",NA,NA,NA,9,-76.615684,39.315624
"3025 E MONUMENT ST","BALTIMORE","BGESTLI1","BGE-StLight(s) Out","2015-07-08T02:54:33.000","2015-07-12T02:54:33.000","ELLWOOD PARK/MONUMENT","15-00533378","MD","CLOSED","2015-07-09T07:50:13.000","21205",NA,NA,NA,9,-76.574271,39.2989729
"3563  DUDLEY AVE","BALTIMORE","BGESTLI1","BGE-StLight(s) Out","2015-07-04T03:39:40.000","2015-07-08T03:39:40.000","BELAIR-EDISON","15-00524232","MD","CLOSED","2015-07-06T08:41:11.000","21213",NA,NA,NA,9,-76.562128,39.320346
"2019 W NORTH AVE","BALTIMORE","BGESTLI1","BGE-StLight(s) Out","2015-06-24T12:56:32.000","2015-06-28T12:56:32.000","EASTERWOOD","15-00492263","MD","CLOSED","2015-06-25T03:26:00.000","21217",NA,NA,NA,9,-76.650497,39.309436
"1718  THAMES ST","BALTIMORE","BGESTLI1","BGE-StLight(s) Out","2015-05-15T15:35:55.000","2015-05-19T15:35:55.000","FELLS POINT","15-00382719","MD","DUPCLOSD","2015-05-16T09:03:26.000","21231",NA,NA,NA,9,-76.591898,39.2820689
"200 N LIBERTY ST","BALTIMORE","BGESTLI1","BGE-StLight(s) Out","2015-06-26T13:29:20.000","2015-06-30T13:29:20.000","DOWNTOWN","15-00501205","MD","CLOSED","2015-06-27T01:49:53.000","21201",NA,NA,NA,9,-76.6168198,39.292355
"N PACA ST & W LEXINGTON ST, BALTIMORE, M",NA,"BGESTLI1","BGE-StLight(s) Out","2015-08-03T13:19:59.000","2015-08-07T13:19:59.000","DOWNTOWN","15-00611574","MD","CLOSED","2015-08-04T10:06:55.000",NA,NA,NA,NA,9,-76.622569,39.2938127
"2816  WEGWORTH LN","BALTIMORE","BGESTLI1","BGE-StLight(s) Out","2015-05-15T06:15:31.000","2015-05-19T06:15:31.000","LAKELAND","15-00380795","MD","CLOSED","2015-05-15T06:23:08.000","21230",NA,NA,NA,9,-76.6406848,39.2535882
"1115  ORLEANS ST","BALTIMORE","BGESTLI1","BGE-StLight(s) Out","2015-07-01T14:20:42.000","2015-07-05T14:20:42.000","PLEASANT VIEW GARDENS","15-00516435","MD","CLOSED","2015-07-08T01:51:27.000","21202","Cityworks SR Comments","UPDATED","2015-07-04T10:27:34.000",9,-76.6052222,39.2947012
"701 N COLLINGTON AVE","BALTIMORE","BGESTLI1","BGE-StLight(s) Out","2015-07-07T04:18:13.000","2015-07-11T04:18:13.000","MIDDLE EAST","15-00529882","MD","CLOSED","2015-07-07T04:25:41.000","21205",NA,NA,NA,9,-76.586427,39.299035
"1645  CHILTON ST","BALTIMORE","BGESTLI1","BGE-StLight(s) Out","2015-06-29T01:43:37.000","2015-07-03T01:43:37.000","COLDSTREAM HOMESTEAD MONTEBELLO","15-00505875","MD","DUPCLOSD","2015-06-29T16:51:48.000","21218",NA,NA,NA,9,-76.592287,39.327315
"5615  LAURELTON AVE","BALTIMORE","BGESTLI1","BGE-StLight(s) Out","2015-06-04T04:46:03.000","2015-06-08T04:46:03.000","HARFORD-ECHODALE/PERRING PARKWAY","15-00434951","MD","CLOSED","2015-06-04T04:49:34.000","21214",NA,NA,NA,9,-76.567707,39.358144
"3831  PINKNEY RD","BALTIMORE","BGESTLI1","BGE-StLight(s) Out","2015-06-05T04:25:53.000","2015-06-09T04:25:53.000","GLEN","15-00439534","MD","CLOSED","2015-06-05T04:35:34.000","21215",NA,NA,NA,9,-76.6941844,39.356102
"800  UNETTA AVE","BALTIMORE","BGESTLI1","BGE-StLight(s) Out","2015-08-01T03:14:43.000","2015-08-05T03:14:43.000","SAINT AGNES","15-00608506","MD","CLOSED","2015-08-01T03:52:32.000","21229",NA,NA,NA,9,-76.675534,39.273443
"2948  WYMAN PKWY","BALTIMORE","BGESTLI1","BGE-StLight(s) Out","2015-06-25T00:54:03.000","2015-06-29T00:54:03.000","REMINGTON","15-00496139","MD","DUPCLOSD","2015-06-25T05:45:11.000","21211",NA,NA,NA,9,-76.621435,39.324443
"5911  WESTERN RUN DR","BALTIMORE","BGESTLI1","BGE-StLight(s) Out","2015-06-15T16:59:23.000","2015-06-19T16:59:23.000","CHESWOLDE","15-00464722","MD","CLOSED","2015-06-16T07:16:07.000","21209",NA,NA,NA,9,-76.6782425,39.3622336
"BENHURST RD & W STRATHMORE AVE, BALTIMOR",NA,"BGESTLI1","BGE-StLight(s) Out","2015-06-29T00:48:35.000","2015-07-03T00:48:35.000","CHESWOLDE","15-00505851","MD","CLOSED","2015-06-30T05:16:24.000",NA,NA,NA,NA,9,-76.6893204,39.3658428
"100 S WOLFE ST","BALTIMORE","BGESTLI1","BGE-StLight(s) Out","2015-07-13T10:42:45.000","2015-07-17T10:42:45.000","UPPER FELLS POINT","15-00547580","MD","CLOSED","2015-07-14T02:55:13.000","21231",NA,NA,NA,9,-76.590626,39.290197
"1900 E 31ST ST","BALTIMORE","BGESTLI1","BGE-StLight(s) Out","2015-05-27T00:25:40.000","2015-05-31T00:25:40.000","COLDSTREAM HOMESTEAD MONTEBELLO","15-00410302","MD","CLOSED","2015-05-27T04:49:40.000","21218",NA,NA,NA,9,-76.5891511,39.3265921
"1344  LIMIT AVE","BALTIMORE","BGESTLI1","BGE-StLight(s) Out","2015-05-14T18:33:15.000","2015-05-18T18:33:15.000","IDLEWOOD","15-00379718","MD","CLOSED","2015-05-15T06:43:32.000","21239",NA,NA,NA,9,-76.5888159,39.371995
"3100  BATAVIA AVE","BALTIMORE","BGESTLI1","BGE-StLight(s) Out","2015-07-11T01:03:42.000","2015-07-15T01:03:42.000","WALTHERSON","15-00544713","MD","CLOSED","2015-07-14T07:29:47.000","21214",NA,NA,NA,9,-76.562746,39.3486199
"1410 N ELLWOOD AVE","BALTIMORE","BGESTLI1","BGE-StLight(s) Out","2015-07-13T17:27:23.000","2015-07-17T17:27:23.000","BEREA","15-00550123","MD","CLOSED","2015-07-15T08:24:45.000","21213",NA,NA,NA,9,-76.57414,39.307603
"5920  CROSS COUNTRY BLVD","BALTIMORE","BGESTLI1","BGE-StLight(s) Out","2015-07-15T17:13:12.000","2015-07-19T17:13:12.000","MOUNT WASHINGTON","15-00557705","MD","CLOSED","2015-07-16T06:45:01.000","21215",NA,NA,NA,9,-76.6808528,39.3618965
"5676  LAURELTON AVE","BALTIMORE","BGESTLI1","BGE-StLight(s) Out","2015-06-04T04:42:04.000","2015-06-08T04:42:04.000","HARFORD-ECHODALE/PERRING PARKWAY","15-00434950","MD","CLOSED","2015-06-04T04:43:36.000","21214",NA,NA,NA,9,-76.5671376,39.3591739
"1 S CALVERT ST","BALTIMORE","BGESTLI1","BGE-StLight(s) Out","2015-07-21T11:51:28.000","2015-07-25T11:51:28.000","DOWNTOWN","15-00572781","MD","CLOSED","2015-07-22T02:45:04.000","21202",NA,NA,NA,9,-76.6122796,39.2896417
"2740  KINSEY AVE","BALTIMORE","BGESTLI1","BGE-StLight(s) Out","2015-06-26T22:03:36.000","2015-06-30T22:03:36.000","SHIPLEY HILL","15-00503006","MD","CLOSED","2015-06-29T05:10:56.000","21223",NA,NA,NA,9,-76.6602551,39.2879759
"1909  LYDONLEA WAY","BALTIMORE","BGESTLI1","BGE-StLight(s) Out","2015-06-03T14:22:59.000","2015-06-07T14:22:59.000","LOCH RAVEN","15-00433098","MD","CLOSED","2015-06-04T05:13:57.000","21239",NA,NA,NA,9,-76.5782606,39.3600256
"2200  LONGVIEW AVE","BALTIMORE","BGESTLI1","BGE-StLight(s) Out","2015-07-06T15:48:01.000","2015-07-10T15:48:01.000","FOUR BY FOUR","15-00528396","MD","DUPCLOSD","2015-07-07T05:40:17.000","21213",NA,NA,NA,9,-76.5744787,39.3164936
"2800  FREDERICK AVE","BALTIMORE","BGESTLI1","BGE-StLight(s) Out","2015-07-06T12:15:00.000","2015-07-10T12:15:00.000","CARROLL-SOUTH HILTON","15-00526905","MD","CLOSED","2015-07-08T04:30:47.000","21223",NA,NA,NA,9,-76.661738,39.280311
"W SARATOGA ST & N CHARLES ST, BALTIMORE,",NA,"BGESTLI1","BGE-StLight(s) Out","2015-06-14T00:06:44.000","2015-06-18T00:06:44.000","DOWNTOWN","15-00461244","MD","CLOSED","2015-06-15T05:10:59.000",NA,NA,NA,NA,9,-76.6339841,39.2924735
"6303  MCCLEAN BLVD","BALTIMORE","BGESTLI1","BGE-StLight(s) Out","2015-07-02T01:59:09.000","2015-07-06T01:59:09.000","HARFORD-ECHODALE/PERRING PARKWAY","15-00518481","MD","CLOSED","2015-07-02T06:31:09.000","21214",NA,NA,NA,9,-76.568306,39.363421
"1200  AISQUITH ST","BALTIMORE","BGESTLI1","BGE-StLight(s) Out","2015-04-22T12:05:49.000","2015-04-26T12:05:49.000","OLIVER","15-00313724","MD","CLOSED","2015-05-13T09:19:21.000","21202",NA,NA,NA,9,-76.602395,39.30412
"1508  PENTWOOD RD","BALTIMORE","BGESTLI1","BGE-StLight(s) Out","2015-06-12T13:34:09.000","2015-06-16T13:34:09.000","STONEWOOD-PENTWOOD-WINSTON","15-00458007","MD","CLOSED","2015-06-13T08:46:38.000","21239",NA,NA,NA,9,-76.590548,39.34874
"642  CHARRAWAY RD","BALTIMORE","BGESTLI1","BGE-StLight(s) Out","2015-06-29T00:34:58.000","2015-07-03T00:34:58.000","BEECHFIELD","15-00505831","MD","DUPCLOSD","2015-06-29T17:01:57.000","21229",NA,NA,NA,9,-76.698055,39.274126
"2000 E MONUMENT ST","BALTIMORE","BGESTLI1","BGE-StLight(s) Out","2015-05-14T12:37:05.000","2015-05-18T12:37:05.000","MIDDLE EAST","15-00378020","MD","DUPCLOSD","2015-05-18T10:57:03.000","21205",NA,NA,NA,9,-76.5892394,39.2987011
"177 S HOWARD ST","BALTIMORE","BGESTLI1","BGE-StLight(s) Out","2015-08-03T15:45:32.000","2015-08-07T15:45:32.000","INNER HARBOR","15-00613043","MD","CLOSED","2015-08-03T16:41:50.000","21201",NA,NA,NA,9,-76.6191577,39.2863536
"1200  EDISON HWY","BALTIMORE","BGESTLI1","BGE-StLight(s) Out","2015-06-04T13:03:11.000","2015-06-08T13:03:11.000","BEREA","15-00436129","MD","CLOSED","2015-06-05T06:23:05.000","21213",NA,NA,NA,9,-76.5731246,39.3052209
"2405 E NORTHERN PKWY","BALTIMORE","BGESTLI1","BGE-StLight(s) Out","2015-05-28T06:39:47.000","2015-06-01T06:39:47.000","HARFORD-ECHODALE/PERRING PARKWAY","15-00414440","MD","CLOSED","2015-05-28T06:43:26.000","21234",NA,NA,NA,9,-76.564733,39.367196
"2415  SAINT PAUL ST","BALTIMORE","BGESTLI1","BGE-StLight(s) Out","2015-06-19T16:48:33.000","2015-06-23T16:48:33.000","BARCLAY","15-00479643","MD","CLOSED","2015-06-20T03:00:17.000","21218",NA,NA,NA,9,-76.614985,39.316899
"CATHEDRAL ST & W EAGER ST, BALTIMORE, MD","BALTIMORE","BGESTLI1","BGE-StLight(s) Out","2015-06-23T15:06:49.000","2015-06-27T15:06:49.000","MID-TOWN BELVEDERE","15-00489287","MD","CLOSED","2015-06-24T06:50:16.000",NA,NA,NA,NA,9,-83.2250776,42.3613753
"1002 E 33RD ST","BALTIMORE","BGESTLI1","BGE-StLight(s) Out","2015-07-25T02:09:22.000","2015-07-29T02:09:22.000","EDNOR GARDENS-LAKESIDE","15-00587883","MD","CLOSED","2015-07-25T03:01:45.000","21218",NA,NA,NA,9,-76.6017466,39.3285067
"4200  NICHOLAS AVE","BALTIMORE","BGESTLI1","BGE-StLight(s) Out","2015-07-03T00:29:51.000","2015-07-07T00:29:51.000","BELAIR-EDISON","15-00522332","MD","CLOSED","2015-07-04T03:51:02.000","21206",NA,NA,NA,9,-76.5640818,39.3292254
"914  KEVIN RD","BALTIMORE","BGESTLI1","BGE-StLight(s) Out","2015-07-27T01:44:22.000","2015-07-31T01:44:22.000","ROGNEL HEIGHTS","15-00591676","MD","CLOSED","2015-07-27T16:55:39.000","21229",NA,NA,NA,9,-76.688635,39.297159
"5913  EASTCLIFF DR","BALTIMORE","BGESTLI1","BGE-StLight(s) Out","2015-06-20T03:50:25.000","2015-06-24T03:50:25.000","MOUNT WASHINGTON","15-00481212","MD","CLOSED","2015-06-20T04:00:54.000","21209",NA,NA,NA,9,-76.662585,39.368972
"6206  IVYMOUNT RD","BALTIMORE","BGESTLI1","BGE-StLight(s) Out","2015-05-29T05:10:39.000","2015-06-02T05:10:39.000","CHESWOLDE","15-00418509","MD","CLOSED","2015-05-29T05:14:13.000","21209",NA,NA,NA,9,-76.671997,39.369559
"1500 E 33RD ST","BALTIMORE","BGESTLI1","BGE-StLight(s) Out","2015-05-20T00:39:52.000","2015-05-24T00:39:52.000","EDNOR GARDENS-LAKESIDE","15-00394236","MD","CLOSED","2015-05-21T09:21:51.000","21218",NA,NA,NA,9,-76.5942122,39.3285076
"325  MCMECHEN ST","BALTIMORE","BGESTLI1","BGE-StLight(s) Out","2015-05-19T15:56:11.000","2015-05-23T15:56:11.000","BOLTON HILL","15-00392763","MD","CLOSED","2015-05-20T05:14:10.000","21217",NA,NA,NA,9,-76.6295613,39.305568
"1616 N BENTALOU ST","BALTIMORE","BGESTLI1","BGE-StLight(s) Out","2015-05-15T21:19:50.000","2015-05-19T21:19:50.000","COPPIN HEIGHTS/ASH-CO-EAST","15-00383865","MD","CLOSED","2015-05-18T08:18:46.000","21216",NA,NA,NA,9,-76.654236,39.306795
"2100  CLIFTWOOD AVE","BALTIMORE","BGESTLI1","BGE-StLight(s) Out","2015-06-30T21:06:46.000","2015-07-04T21:06:46.000","SOUTH CLIFTON PARK","15-00514203","MD","CLOSED","2015-07-01T06:01:51.000","21213",NA,NA,NA,9,-76.58863,39.313804
"6408  WABASH AVE","BALTIMORE","BGESTLI1","BGE-StLight(s) Out","2015-07-21T14:23:29.000","2015-07-25T14:23:29.000","SETON BUSINESS PARK","15-00573965","MD","CLOSED","2015-07-22T04:56:25.000","21215",NA,NA,NA,9,-76.7034107,39.3507483
"2700  WILKENS AVE","BALTIMORE","BGESTLI1","BGE-StLight(s) Out","2015-06-17T12:36:06.000","2015-06-21T12:36:06.000","MILLHILL","15-00471406","MD","CLOSED","2015-06-18T06:20:26.000","21223",NA,NA,NA,9,-76.6589221,39.2782144
"1627  EASTERN AVE","BALTIMORE","BGESTLI1","BGE-StLight(s) Out","2015-05-27T14:03:00.000","2015-05-31T14:03:00.000","FELLS POINT","15-00412039","MD","CLOSED","2015-05-28T15:19:02.000","21231",NA,NA,NA,9,-76.5943158,39.2854223
"1 S HOWARD ST","BALTIMORE","BGESTLI1","BGE-StLight(s) Out","2015-05-18T12:02:07.000","2015-05-22T12:02:07.000","DOWNTOWN","15-00387583","MD","DUPCLOSD","2015-05-18T17:28:40.000","21201",NA,NA,NA,9,-76.6193507,39.289348
"6400  PULASKI HWY","BALTIMORE","BGESTLI1","BGE-StLight(s) Out","2015-07-30T13:29:26.000","2015-08-03T13:29:26.000","PULASKI INDUSTRIAL AREA","15-00602974","MD","DUPCLOSD","2015-07-31T04:19:43.000","21205",NA,NA,NA,9,-76.5416822,39.3038366
"2333  MADISON AVE","BALTIMORE","BGESTLI1","BGE-StLight(s) Out","2015-06-29T12:09:32.000","2015-07-03T12:09:32.000","RESERVOIR HILL","15-00506423","MD","CLOSED","2015-06-30T09:06:33.000","21217",NA,NA,NA,9,-76.6374553,39.3123745
"1200  RAMBLEWOOD RD","BALTIMORE","BGESTLI1","BGE-StLight(s) Out","2015-05-26T08:18:02.000","2015-05-30T08:18:02.000","RAMBLEWOOD","15-00406633","MD","CLOSED","2015-05-27T03:04:08.000","21239",NA,NA,NA,9,-76.593324,39.362797
"6817  STURBRIDGE DR","BALTIMORE","BGESTLI1","BGE-StLight(s) Out","2015-06-04T05:06:19.000","2015-06-08T05:06:19.000","HARFORD-ECHODALE/PERRING PARKWAY","15-00434956","MD","CLOSED","2015-06-04T05:07:49.000","21234",NA,NA,NA,9,-76.5625766,39.3684466
"5600  THE ALAMEDA","BALTIMORE","BGESTLI1","BGE-StLight(s) Out","2015-07-01T14:03:20.000","2015-07-05T14:03:20.000","GLEN OAKS","15-00516369","MD","CLOSED","2015-07-02T03:15:18.000","21239",NA,NA,NA,9,-76.5952548,39.3598677
"613  DOLPHIN ST","BALTIMORE","BGESTLI1","BGE-StLight(s) Out","2015-05-13T00:22:43.000","2015-05-17T00:22:43.000","UPTON","15-00372909","MD","CLOSED","2015-05-13T02:09:38.000","21217",NA,NA,NA,9,-76.6306195,39.2987596
"1044 S CAROLINE ST","BALTIMORE","BGESTLI1","BGE-StLight(s) Out","2015-07-18T09:30:26.000","2015-07-22T09:30:26.000","FELLS POINT","15-00566367","MD","CLOSED","2015-07-21T06:10:55.000","21231",NA,NA,NA,9,-76.5961274,39.2804542
"1100  ORLEANS ST","BALTIMORE","BGESTLI1","BGE-StLight(s) Out","2015-05-14T03:10:50.000","2015-05-18T03:10:50.000","OLDTOWN","15-00376970","MD","CLOSED","2015-05-14T03:14:24.000","21202",NA,NA,NA,9,-76.6046894,39.2948732
"3418  CHESLEY AVE","BALTIMORE","BGESTLI1","BGE-StLight(s) Out","2015-07-09T19:42:24.000","2015-07-13T19:42:24.000","WOODRING","15-00540765","MD","NEW","2015-07-09T19:45:19.000","21234",NA,NA,NA,9,-76.538408,39.362184
"2200  BARCLAY ST","BALTIMORE","BGESTLI1","BGE-StLight(s) Out","2015-06-10T21:27:23.000","2015-06-14T21:27:23.000","BARCLAY","15-00453332","MD","CLOSED","2015-06-11T10:20:38.000","21218",NA,NA,NA,9,-76.6111595,39.3144688
"1540  MORELAND AVE","BALTIMORE","BGESTLI1","BGE-StLight(s) Out","2015-06-26T23:00:04.000","2015-06-30T23:00:04.000","COPPIN HEIGHTS/ASH-CO-EAST","15-00503061","MD","CLOSED","2015-06-29T03:11:51.000","21216",NA,NA,NA,9,-76.656018,39.305549
"4781  HELLWIG RD","BALTIMORE","BGESTLI1","BGE-StLight(s) Out","2015-05-27T05:34:50.000","2015-05-31T05:34:50.000","CEDMONT","15-00410406","MD","CLOSED","2015-05-27T05:38:24.000","21206",NA,NA,NA,9,-76.5334231,39.3433936
"700  RADNOR AVE","BALTIMORE","BGESTLI1","BGE-StLight(s) Out","2015-07-13T17:48:37.000","2015-07-17T17:48:37.000","WINSTON-GOVANS","15-00550220","MD","CLOSED","2015-07-15T03:26:05.000","21212",NA,NA,NA,9,-76.605942,39.347739
"2313  WILKENS AVE","BALTIMORE","BGESTLI1","BGE-StLight(s) Out","2015-07-29T12:05:18.000","2015-08-02T12:05:18.000","CARROLLTON RIDGE","15-00598960","MD","CLOSED","2015-07-30T16:16:07.000","21223",NA,NA,NA,9,-76.652233,39.279745
"5300  CORDELIA AVE","BALTIMORE","BGESTLI1","BGE-StLight(s) Out","2015-07-30T00:46:04.000","2015-08-03T00:46:04.000","ARLINGTON","15-00602031","MD","DUPCLOSD","2015-07-30T06:10:04.000","21215",NA,NA,NA,9,-76.6830756,39.3471965
"3500  BENZINGER RD","BALTIMORE","BGESTLI1","BGE-StLight(s) Out","2015-07-24T22:12:01.000","2015-07-28T22:12:01.000","VIOLETVILLE","15-00587683","MD","CLOSED","2015-07-27T08:00:13.000","21229",NA,NA,NA,9,-76.6778107,39.2707635
"2300  AIKEN ST","BALTIMORE","BGESTLI1","BGE-StLight(s) Out","2015-06-22T13:22:41.000","2015-06-26T13:22:41.000","EAST BALTIMORE MIDWAY","15-00484845","MD","DUPCLOSD","2015-06-23T14:36:03.000","21218",NA,NA,NA,9,-76.5986331,39.3161167
"901  FALLSWAY","BALTIMORE","BGESTLI1","BGE-StLight(s) Out","2015-05-23T01:59:09.000","2015-05-27T01:59:09.000","PENN-FALLSWAY","15-00402965","MD","CLOSED","2015-05-26T03:48:53.000","21202",NA,NA,NA,9,-76.6107661,39.3000366
"803  BEAUMONT AVE","BALTIMORE","BGESTLI1","BGE-StLight(s) Out","2015-05-18T23:36:27.000","2015-05-22T23:36:27.000","WINSTON-GOVANS","15-00390533","MD","CLOSED","2015-05-21T05:45:27.000","21212",NA,NA,NA,9,-76.6048409,39.351004
"HOPETON AVE & BARTWOOD RD","BALTIMORE","BGESTLI1","BGE-StLight(s) Out","2015-05-28T14:27:23.000","2015-06-01T14:27:23.000","GLEN","15-00416117","MD","CLOSED","2015-05-29T05:58:48.000","21215",NA,NA,NA,9,-78.5725327,35.9253324
"3921  BANCROFT RD","BALTIMORE","BGESTLI1","BGE-StLight(s) Out","2015-05-14T09:16:24.000","2015-05-18T09:16:24.000","GLEN","15-00377132","MD","CLOSED","2015-05-14T09:21:50.000","21215",NA,NA,NA,9,-76.701344,39.356966
"1400  HOLBROOK ST","BALTIMORE","BGESTLI1","BGE-StLight(s) Out","2015-06-26T22:34:37.000","2015-06-30T22:34:37.000","OLIVER","15-00503037","MD","CLOSED","2015-06-27T01:05:27.000","21202",NA,NA,NA,9,-76.6033269,39.306402
"3926  ROKEBY RD","BALTIMORE","BGESTLI1","BGE-StLight(s) Out","2015-06-23T18:11:09.000","2015-06-27T18:11:09.000","EDMONDSON VILLAGE","15-00490104","MD","CLOSED","2015-06-24T07:34:48.000","21229",NA,NA,NA,9,-76.6828613,39.2995215
"3701  ELMLEY AVE","BALTIMORE","BGESTLI1","BGE-StLight(s) Out","2015-06-23T17:49:04.000","2015-06-27T17:49:04.000","BELAIR-EDISON","15-00489985","MD","CLOSED","2015-06-26T02:30:42.000","21213",NA,NA,NA,9,-76.567021,39.317292
"LANIER AVE & EDGECOMBE CIR N","BALTIMORE","BGESTLI1","BGE-StLight(s) Out","2015-05-16T00:37:52.000","2015-05-20T00:37:52.000","PARKLANE","15-00384145","MD","CLOSED","2015-05-18T07:28:08.000","21215",NA,NA,NA,9,-79.429379,36.567257
"4740  PARK HEIGHTS AVE","BALTIMORE","BGESTLI1","BGE-StLight(s) Out","2015-07-09T06:03:35.000","2015-07-13T06:03:35.000","CENTRAL PARK HEIGHTS","15-00537679","MD","CLOSED","2015-07-09T18:03:52.000","21215",NA,NA,NA,9,-76.671367,39.344727
"3809  COTTAGE AVE","BALTIMORE","BGESTLI1","BGE-StLight(s) Out","2015-06-24T12:23:56.000","2015-06-28T12:23:56.000","GREENSPRING","15-00491964","MD","CLOSED","2015-06-25T02:59:46.000","21215",NA,NA,NA,9,-76.659411,39.333027
"5400  SEWARD AVE","BALTIMORE","BGESTLI1","BGE-StLight(s) Out","2015-07-13T00:10:41.000","2015-07-17T00:10:41.000","FRANKFORD","15-00547191","MD","CLOSED","2015-07-14T03:15:23.000","21206",NA,NA,NA,9,-76.540093,39.3284639
"4600  PULASKI HWY","BALTIMORE","BGESTLI1","BGE-StLight(s) Out","2015-05-28T12:44:25.000","2015-06-01T12:44:25.000","ORANGEVILLE","15-00415533","MD","DUPCLOSD","2015-05-29T01:43:00.000","21224",NA,NA,NA,9,-76.55906,39.298939
"2630  MARBOURNE AVE","BALTIMORE","BGESTLI1","BGE-StLight(s) Out","2015-05-26T12:01:27.000","2015-05-30T12:01:27.000","LAKELAND","15-00407100","MD","CLOSED","2015-05-27T07:03:32.000","21230",NA,NA,NA,9,-76.645169,39.252605
"3016  PRESSTMAN ST","BALTIMORE","BGESTLI1","BGE-StLight(s) Out","2015-07-28T00:24:50.000","2015-08-01T00:24:50.000","ROSEMONT","15-00594967","MD","CLOSED","2015-07-28T05:14:51.000","21216",NA,NA,NA,9,-76.668104,39.304709
"EASTCLIFF DR & GERNAND RD, BALTIMORE, MD","BALTIMORE","BGESTLI1","BGE-StLight(s) Out","2015-08-03T14:23:32.000","2015-08-07T14:23:32.000","MOUNT WASHINGTON","15-00612088","MD","CLOSED","2015-08-04T03:31:25.000",NA,NA,NA,NA,9,-97.1132034,32.8295795
"4164 E MONUMENT ST","BALTIMORE","BGESTLI1","BGE-StLight(s) Out","2015-07-23T03:11:09.000","2015-07-27T03:11:09.000","ORANGEVILLE","15-00580088","MD","CLOSED","2015-07-23T03:21:17.000","21205",NA,NA,NA,9,-76.5623827,39.2998084
"5506  CEDELLA AVE","BALTIMORE","BGESTLI1","BGE-StLight(s) Out","2015-07-31T11:44:23.000","2015-08-04T11:44:23.000","FRANKFORD","15-00605775","MD","CLOSED","2015-08-01T02:30:19.000","21206",NA,NA,NA,9,-76.541595,39.332508
"3700  CLIPPER RD","BALTIMORE","BGESTLI1","BGE-StLight(s) Out","2015-06-23T17:24:51.000","2015-06-27T17:24:51.000","WOODBERRY","15-00489891","MD","CLOSED","2015-07-07T04:56:03.000","21211",NA,NA,NA,9,-76.6466949,39.334714
"2405  HEMLOCK AVE","BALTIMORE","BGESTLI1","BGE-StLight(s) Out","2015-07-23T01:54:19.000","2015-07-27T01:54:19.000","HARFORD-ECHODALE/PERRING PARKWAY","15-00580054","MD","CLOSED","2015-07-23T02:00:39.000","21214",NA,NA,NA,9,-76.565976,39.360135
"3500  3RD ST","BALTIMORE","BGESTLI1","BGE-StLight(s) Out","2015-05-18T02:55:44.000","2015-05-22T02:55:44.000","BROOKLYN","15-00386911","MD","CLOSED","2015-05-18T03:04:03.000","21225",NA,NA,NA,9,-76.6059906,39.2398708
"1348 N STRICKER ST","BALTIMORE","BGESTLI1","BGE-StLight(s) Out","2015-07-08T00:07:55.000","2015-07-12T00:07:55.000","SANDTOWN-WINCHESTER","15-00533256","MD","CLOSED","2015-07-08T04:41:02.000","21217",NA,NA,NA,9,-76.64215,39.304605
"626  WICKLOW RD","BALTIMORE","BGESTLI1","BGE-StLight(s) Out","2015-07-06T01:08:48.000","2015-07-10T01:08:48.000","ROGNEL HEIGHTS","15-00525801","MD","CLOSED","2015-07-08T08:35:02.000","21229",NA,NA,NA,9,-76.686551,39.294817
"3300  MARY AVE","BALTIMORE","BGESTLI1","BGE-StLight(s) Out","2015-07-25T00:08:43.000","2015-07-29T00:08:43.000","GLENHAM-BELFORD","15-00587805","MD","CLOSED","2015-07-27T05:20:40.000","21214",NA,NA,NA,9,-76.552813,39.352892
"3300  SAINT BENEDICT ST","BALTIMORE","BGESTLI1","BGE-StLight(s) Out","2015-06-25T00:44:16.000","2015-06-29T00:44:16.000","SAINT AGNES","15-00496132","MD","CLOSED","2015-06-25T05:55:14.000","21229",NA,NA,NA,9,-76.6735659,39.2740415
"1421  LOCUST ST","BALTIMORE","BGESTLI1","BGE-StLight(s) Out","2015-06-14T00:54:27.000","2015-06-18T00:54:27.000","CURTIS BAY","15-00461307","MD","DUPCLOSD","2015-06-15T16:01:22.000","21226",NA,NA,NA,9,-76.590735,39.226497
"1716 N BENTALOU ST","BALTIMORE","BGESTLI1","BGE-StLight(s) Out","2015-06-24T19:33:28.000","2015-06-28T19:33:28.000","COPPIN HEIGHTS/ASH-CO-EAST","15-00495050","MD","CLOSED","2015-06-25T02:01:12.000","21216",NA,NA,NA,9,-76.654314,39.308061
