"activity","address","city","code","codedescription","createddate","duedate","neighborhood","outcome","servicerequestnum","state","status","statusdate","updateddate","zip","i","lon","lat"
"Dispatch Work Crew","161 E RANDALL ST","BALTIMORE","POTHOLES","TRM-Potholes","2015-05-17T00:05:58.000","2015-05-19T00:05:58.000","RIVERSIDE","Abated - Close SR","15-00385627","MD","CLOSED","2015-05-18T16:01:59.000","2015-05-18T16:01:00.000","21230",5,-76.60987,39.271524
"Dispatch Work Crew","1800  INVERNESS AVE","BALTIMORE","POTHOLES","TRM-Potholes","2015-06-26T12:15:28.000","2015-06-28T12:15:28.000","MORRELL PARK","Abated - Close SR","15-00500874","MD","CLOSED","2015-06-29T19:12:09.000","2015-06-29T19:11:00.000","21230",5,-76.6595818,39.2623085
"Dispatch Work Crew","2203  BRADDISH AVE","BALTIMORE","POTHOLES","TRM-Potholes","2015-06-16T17:02:25.000","2015-06-18T17:02:25.000","PANWAY/BRADDISH AVENUE","Abated - Close SR","15-00468745","MD","CLOSED","2015-06-16T17:47:39.000","2015-06-16T17:47:00.000","21216",5,-76.6610539,39.3127039
"Dispatch Work Crew","4200  BOSTON ST","BALTIMORE","POTHOLES","TRM-Potholes","2015-06-28T13:27:11.000","2015-06-30T13:27:11.000","CANTON INDUSTRIAL AREA","Abated - Close SR","15-00504998","MD","CLOSED","2015-06-29T18:21:39.000","2015-06-29T18:21:00.000","21224",5,-76.560162,39.277982
"Dispatch Work Crew","6300  WEIDNER AVE","BALTIMORE","POTHOLES","TRM-Potholes","2015-06-29T14:38:39.000","2015-07-01T14:38:39.000","LAKE WALKER","Abated - Close SR","15-00507812","MD","CLOSED","2015-06-30T18:42:42.000","2015-06-30T18:41:00.000","21212",5,-76.605251,39.370384
NA,"WALKER AVE & YORK RD","BALTIMORE","POTHOLES","TRM-Potholes","2015-05-29T10:07:27.000","2015-05-31T10:07:27.000","CEDARCROFT",NA,"15-00418816","MD","CLOSED","2015-05-29T15:36:21.000",NA,"21212",5,-99.0768073,38.8383546
"Dispatch Work Crew","3917  FALLS RD","BALTIMORE","POTHOLES","TRM-Potholes","2015-05-26T01:27:31.000","2015-05-28T01:27:31.000","HAMPDEN","Abated - Close SR","15-00406562","MD","CLOSED","2015-05-26T17:10:57.000","2015-05-26T17:10:00.000","21211",5,-76.636059,39.33573
"Dispatch Work Crew","5500  GREENSPRING AVE","BALTIMORE","POTHOLES","TRM-Potholes","2015-06-19T21:42:39.000","2015-06-21T21:42:39.000","MOUNT WASHINGTON","Abated - Close SR","15-00480948","MD","CLOSED","2015-06-22T18:17:04.000","2015-06-22T18:17:00.000","21209",5,-76.666529,39.35776
"Dispatch Work Crew","4512  YORK RD","BALTIMORE","POTHOLES","TRM-Potholes","2015-07-23T19:50:20.000","2015-07-25T19:50:20.000","GUILFORD","Abated - Close SR","15-00583359","MD","CLOSED","2015-07-24T14:44:33.000","2015-07-24T14:43:00.000",NA,5,-76.6098024,39.3440554
"Dispatch Work Crew","2123  SIDNEY AVE","BALTIMORE","POTHOLES","TRM-Potholes","2015-05-31T22:55:32.000","2015-06-02T22:55:32.000","WESTPORT","Abated - Close SR","15-00424744","MD","CLOSED","2015-06-01T17:40:13.000","2015-06-01T17:39:00.000","21230",5,-76.631986,39.264171
"Dispatch Work Crew","3200  PRESSTMAN ST","BALTIMORE","POTHOLES","TRM-Potholes","2015-05-21T19:39:35.000","2015-05-23T19:39:35.000","ROSEMONT","Abated - Close SR","15-00399893","MD","CLOSED","2015-05-22T18:27:54.000","2015-05-22T18:27:00.000","21216",5,-76.670866,39.304608
"Dispatch Work Crew","2214 E BALTIMORE ST","BALTIMORE","POTHOLES","TRM-Potholes","2015-07-02T20:31:31.000","2015-07-04T20:31:31.000","BUTCHER'S HILL","Abated - Close SR","15-00521809","MD","CLOSED","2015-07-06T17:01:05.000","2015-07-06T17:00:00.000","21231",5,-76.5852929,39.292081
"Dispatch Work Crew","PADDINGTON RD & SPRINGLAKE WAY, BALTIMOR",NA,"POTHOLES","TRM-Potholes","2015-06-16T16:05:17.000","2015-06-18T16:05:17.000","HOMELAND","Abated - Close SR","15-00468484","MD","CLOSED","2015-06-17T17:57:46.000","2015-06-17T17:57:00.000",NA,5,-116.627122,34.4275598
"Dispatch Work Crew","2900 E NORTHERN PKWY","BALTIMORE","POTHOLES","TRM-Potholes","2015-06-05T12:44:28.000","2015-06-07T12:44:28.000","NORTH HARFORD ROAD","Abated - Close SR","15-00440460","MD","CLOSED","2015-06-09T18:04:03.000","2015-06-09T18:03:00.000","21214",5,-76.554552,39.364617
"Dispatch Work Crew","4607  CHATFORD AVE","BALTIMORE","POTHOLES","TRM-Potholes","2015-05-26T17:26:05.000","2015-05-28T17:26:05.000","PARKSIDE","Abated - Close SR","15-00409044","MD","CLOSED","2015-05-27T17:46:30.000","2015-05-27T17:46:00.000","21206",5,-76.5575426,39.3240599
"Dispatch Work Crew","1542  NORTHGATE RD","BALTIMORE","POTHOLES","TRM-Potholes","2015-06-11T17:11:29.000","2015-06-13T17:11:29.000","HILLEN","Abated - Close SR","15-00455610","MD","CLOSED","2015-06-12T00:20:54.000","2015-06-12T00:20:00.000","21218",5,-76.5898316,39.3452678
"Dispatch Work Crew","1321  LEMMON ST","BALTIMORE","POTHOLES","TRM-Potholes","2015-07-15T00:59:28.000","2015-07-17T00:59:28.000","UNION SQUARE","Abated - Close SR","15-00555305","MD","CLOSED","2015-07-15T17:37:44.000","2015-07-15T17:37:00.000","21223",5,-76.6387944,39.2858916
"Dispatch Work Crew","501 E 33RD ST","BALTIMORE","POTHOLES","TRM-Potholes","2015-07-23T13:00:01.000","2015-07-25T13:00:01.000","BETTER WAVERLY","Abated - Close SR","15-00581184","MD","CLOSED","2015-07-23T16:16:27.000","2015-07-23T16:15:00.000","21218",5,-76.6089233,39.3281281
"Dispatch Work Crew","3600 W GARRISON AVE","BALTIMORE","POTHOLES","TRM-Potholes","2015-07-01T21:03:47.000","2015-07-03T21:03:47.000","CENTRAL PARK HEIGHTS","Abated - Close SR","15-00518009","MD","CLOSED","2015-07-02T16:31:49.000","2015-07-02T16:31:00.000","21215",5,-76.677705,39.345152
"Dispatch Work Crew","S CHESTER ST & FLEET ST, BALTIMORE, MD,",NA,"POTHOLES","TRM-Potholes","2015-07-20T12:39:18.000","2015-07-22T12:39:18.000","FELLS POINT","Abated - Close SR","15-00569533","MD","CLOSED","2015-07-21T15:17:45.000","2015-07-21T15:17:00.000",NA,5,-81.1878643,35.258108
"Dispatch Work Crew","500 N KRESSON ST","BALTIMORE","POTHOLES","TRM-Potholes","2015-05-22T09:24:30.000","2015-05-24T09:24:30.000","ORANGEVILLE","Abated - Close SR","15-00400589","MD","CLOSED","2015-05-22T15:48:16.000","2015-05-22T15:47:00.000","21205",5,-76.5602971,39.2978369
"Dispatch Work Crew","2530 E FAYETTE ST","BALTIMORE","POTHOLES","TRM-Potholes","2015-05-13T18:47:42.000","2015-05-15T18:47:42.000","MCELDERRY PARK","Abated - Close SR","15-00376019","MD","CLOSED","2015-05-14T13:17:40.000","2015-05-14T13:14:00.000","21224",5,-76.581024,39.294644
"Dispatch Work Crew","2400  EASTERN AVE","BALTIMORE","POTHOLES","TRM-Potholes","2015-05-31T11:28:06.000","2015-06-02T11:28:06.000","PATTERSON PARK","Abated - Close SR","15-00423885","MD","CLOSED","2015-06-01T17:06:04.000","2015-06-01T17:04:00.000","21224",5,-76.582851,39.2860274
"Dispatch Work Crew","DUDLEY AVE & LYNDALE AVE","BALTIMORE","POTHOLES","TRM-Potholes","2015-06-01T13:04:35.000","2015-06-03T13:04:35.000","BELAIR-EDISON","Abated - Close SR","15-00425621","MD","CLOSED","2015-06-01T19:07:34.000","2015-06-01T19:06:00.000","21213",5,-81.539508,39.2818216
"Dispatch Work Crew","400  WELLESLEY ST","BALTIMORE","POTHOLES","TRM-Potholes","2015-06-24T17:06:43.000","2015-06-26T17:06:43.000","GWYNNS FALLS","Abated - Close SR","15-00493954","MD","CLOSED","2015-06-25T18:16:10.000","2015-06-25T18:15:00.000","21229",5,-76.6683243,39.2803052
"Dispatch Work Crew","1500  RACE ST","BALTIMORE","POTHOLES","TRM-Potholes","2015-07-30T11:46:37.000","2015-08-01T11:46:37.000","SBIC","Abated - Close SR","15-00602503","MD","CLOSED","2015-07-30T16:46:14.000","2015-07-30T16:45:00.000","21230",5,-76.6168201,39.2725064
"Dispatch Work Crew","5633  BELLE AVE","BALTIMORE","POTHOLES","TRM-Potholes","2015-07-08T12:51:02.000","2015-07-10T12:51:02.000","GROVE PARK","Abated - Close SR","15-00534528","MD","CLOSED","2015-07-08T17:04:49.000","2015-07-08T17:04:00.000","21207",5,-76.70398,39.339897
"Dispatch Work Crew","2507  HAMILTON AVE","BALTIMORE","POTHOLES","TRM-Potholes","2015-07-21T19:09:04.000","2015-07-23T19:09:04.000","HARFORD-ECHODALE/PERRING PARKWAY","Abated - Close SR","15-00575396","MD","CLOSED","2015-07-22T15:52:12.000","2015-07-22T15:51:00.000","21214",5,-76.5666608,39.3558706
"Dispatch Work Crew","3112  ROSEKEMP AVE","BALTIMORE","POTHOLES","TRM-Potholes","2015-07-14T13:34:53.000","2015-07-16T13:34:53.000","MORAVIA-WALTHER","Abated - Close SR","15-00552848","MD","CLOSED","2015-07-14T18:18:14.000","2015-07-14T18:18:00.000","21214",5,-76.5663019,39.343079
"Dispatch Work Crew","2718 E MADISON ST","BALTIMORE","POTHOLES","TRM-Potholes","2015-06-04T10:17:19.000","2015-06-06T10:17:19.000","MADISON-EASTEND","Abated - Close SR","15-00435295","MD","CLOSED","2015-06-04T18:20:03.000","2015-06-04T18:19:00.000","21205",5,-76.578931,39.300206
"Dispatch Work Crew","700  NORTH PT RD","BALTIMORE","POTHOLES","TRM-Potholes","2015-05-27T16:37:27.000","2015-05-29T16:37:27.000","PULASKI INDUSTRIAL AREA","Abated - Close SR","15-00412886","MD","CLOSED","2015-05-28T18:21:07.000","2015-05-28T18:20:00.000","21224",5,-76.537634,39.300136
"Dispatch Work Crew","4451  5TH ST","BALTIMORE","POTHOLES","TRM-Potholes","2015-06-30T20:32:33.000","2015-07-02T20:32:33.000","BROOKLYN","Abated - Close SR","15-00514119","MD","CLOSED","2015-07-01T19:16:29.000","2015-07-01T19:16:00.000","21225",5,-76.6036348,39.2279048
NA,"1 N CAREY ST","BALTIMORE","POTHOLES","TRM-Potholes","2015-06-16T14:27:47.000","2015-06-18T14:27:47.000","POPPLETON",NA,"15-00467929","MD","CLOSED","2015-06-19T00:55:04.000",NA,"21223",5,-76.637817,39.288724
"Dispatch Work Crew","2200  BRYANT AVE","BALTIMORE","POTHOLES","TRM-Potholes","2015-06-16T11:16:28.000","2015-06-18T11:16:28.000","PARKVIEW/WOODBROOK","Abated - Close SR","15-00466661","MD","CLOSED","2015-06-16T18:33:49.000","2015-06-16T18:33:00.000","21217",5,-76.649523,39.316549
"Dispatch Work Crew","2300 S CLINTON ST","BALTIMORE","POTHOLES","TRM-Potholes","2015-06-29T13:06:06.000","2015-07-01T13:06:06.000","CANTON INDUSTRIAL AREA","Abated - Close SR","15-00506906","MD","CLOSED","2015-06-30T17:37:12.000","2015-06-30T17:36:00.000","21224",5,-76.5685895,39.2647828
"Dispatch Work Crew","W FOREST PARK AVE & PURNELL DR, BALTIMOR",NA,"POTHOLES","TRM-Potholes","2015-06-17T13:09:31.000","2015-06-19T13:09:31.000","PURNELL","Abated - Close SR","15-00471646","MD","CLOSED","2015-06-17T18:24:39.000","2015-06-17T18:24:00.000",NA,5,-76.6835779,39.3255267
"Dispatch Work Crew","1650  GLENEAGLE RD","BALTIMORE","POTHOLES","TRM-Potholes","2015-05-18T16:22:12.000","2015-05-20T16:22:12.000","LOCH RAVEN","Abated - Close SR","15-00389197","MD","CLOSED","2015-05-18T18:16:32.000","2015-05-18T18:16:00.000","21239",5,-76.583087,39.36015
"Dispatch Work Crew","400  WELLESLEY ST","BALTIMORE","POTHOLES","TRM-Potholes","2015-06-26T21:27:19.000","2015-06-28T21:27:19.000","GWYNNS FALLS","Abated - Close SR","15-00502960","MD","CLOSED","2015-06-29T19:23:47.000","2015-06-29T19:23:00.000","21229",5,-76.6683243,39.2803052
"Dispatch Work Crew","1516 N ELLWOOD AVE","BALTIMORE","POTHOLES","TRM-Potholes","2015-06-04T12:51:21.000","2015-06-06T12:51:21.000","BEREA","Abated - Close SR","15-00436084","MD","CLOSED","2015-06-04T18:08:35.000","2015-06-04T18:00:00.000","21213",5,-76.574213,39.308833
NA,"3613  CROSSLAND AVE","BALTIMORE","POTHOLES","TRM-Potholes","2015-06-17T16:06:04.000","2015-06-19T16:06:04.000","BELAIR-EDISON",NA,"15-00472742","MD","CLOSED","2015-06-18T15:00:17.000",NA,"21213",5,-76.57571,39.327686
"Dispatch Work Crew","3301  GIBBONS AVE","BALTIMORE","POTHOLES","TRM-Potholes","2015-05-21T16:40:59.000","2015-05-23T16:40:59.000","WALTHERSON","Abated - Close SR","15-00399303","MD","CLOSED","2015-05-22T13:17:43.000","2015-05-22T13:16:00.000","21214",5,-76.5597109,39.348168
"Dispatch Work Crew","3800  HARFORD RD","BALTIMORE","POTHOLES","TRM-Potholes","2015-06-29T18:52:54.000","2015-07-01T18:52:54.000","HERRING RUN PARK","Abated - Close SR","15-00509326","MD","CLOSED","2015-07-01T18:02:12.000","2015-07-01T18:01:00.000","21213",5,-76.5788654,39.3318584
"Dispatch Work Crew","3401  BOSTON ST","BALTIMORE","POTHOLES","TRM-Potholes","2015-07-16T14:32:01.000","2015-07-18T14:32:01.000","CANTON INDUSTRIAL AREA","Abated - Close SR","15-00560987","MD","CLOSED","2015-07-16T17:50:42.000","2015-07-16T17:43:00.000","21224",5,-76.567888,39.276263
"Dispatch Work Crew","200 W GRISWALD LN","BALTIMORE","POTHOLES","TRM-Potholes","2015-07-02T17:15:56.000","2015-07-04T17:15:56.000","ROLAND PARK","Abated - Close SR","15-00520539","MD","CLOSED","2015-07-06T19:20:01.000","2015-07-06T19:18:00.000","21210",5,-76.6412362,39.3538635
"Dispatch Work Crew","28 N WOLFE ST","BALTIMORE","POTHOLES","TRM-Potholes","2015-07-23T10:49:22.000","2015-07-25T10:49:22.000","WASHINGTON HILL","Abated - Close SR","15-00580275","MD","CLOSED","2015-07-23T14:43:38.000","2015-07-23T14:42:00.000","21231",5,-76.590756,39.292632
"Dispatch Work Crew","2000  WINFORD RD","BALTIMORE","POTHOLES","TRM-Potholes","2015-06-29T21:59:04.000","2015-07-01T21:59:04.000","PERRING LOCH","Abated - Close SR","15-00510324","MD","CLOSED","2015-06-30T18:33:50.000","2015-06-30T18:33:00.000","21239",5,-76.5815444,39.3522745
"Dispatch Work Crew","1125 E 25TH ST","BALTIMORE","POTHOLES","TRM-Potholes","2015-06-29T10:45:19.000","2015-07-01T10:45:19.000","EAST BALTIMORE MIDWAY","Abated - Close SR","15-00506066","MD","CLOSED","2015-06-29T16:42:19.000","2015-06-29T16:42:00.000","21218",5,-76.5988416,39.3174448
NA,"10  TAMWORTH RD","BALTIMORE","POTHOLES","TRM-Potholes","2015-07-02T12:14:19.000","2015-07-04T12:14:19.000","THE ORCHARDS",NA,"15-00518934","MD","CLOSED","2015-07-06T19:16:10.000",NA,"21210",5,-76.62689,39.363174
"Dispatch Work Crew","2800  MARYLAND AVE","BALTIMORE","POTHOLES","TRM-Potholes","2015-05-27T13:56:51.000","2015-05-29T13:56:51.000","CHARLES VILLAGE","Abated - Close SR","15-00412001","MD","CLOSED","2015-05-28T13:38:00.000","2015-05-28T13:37:00.000","21218",5,-76.618976,39.3219629
"Dispatch Work Crew","FREEMAN ST & 6TH ST, BALTIMORE, MD, 2122",NA,"POTHOLES","TRM-Potholes","2015-07-08T14:52:20.000","2015-07-10T14:52:20.000","BROOKLYN","Abated - Close SR","15-00535260","MD","CLOSED","2015-07-09T18:13:58.000","2015-07-09T18:13:00.000",NA,5,-85.1806452,41.0630436
"Dispatch Work Crew","3400 E BIDDLE ST","BALTIMORE","POTHOLES","TRM-Potholes","2015-05-13T11:44:32.000","2015-05-15T11:44:32.000","ORANGEVILLE INDUSTRIAL AREA","Abated - Close SR","15-00373829","MD","CLOSED","2015-05-13T18:23:35.000","2015-05-13T18:23:00.000","21213",5,-76.57023,39.306334
"Dispatch Work Crew","3100  PARKSIDE DR","BALTIMORE","POTHOLES","TRM-Potholes","2015-06-20T15:55:08.000","2015-06-22T15:55:08.000","ARCADIA","Abated - Close SR","15-00482309","MD","CLOSED","2015-06-22T18:00:03.000","2015-06-22T17:59:00.000","21214",5,-76.5724571,39.3355277
"Dispatch Work Crew","112 S FULTON AVE","BALTIMORE","POTHOLES","TRM-Potholes","2015-07-11T13:01:51.000","2015-07-13T13:01:51.000","CARROLLTON RIDGE","Abated - Close SR","15-00545423","MD","CLOSED","2015-07-13T17:32:02.000","2015-07-13T17:31:00.000","21223",5,-76.64532,39.285813
"Dispatch Work Crew","500 N HILTON ST","BALTIMORE","POTHOLES","TRM-Potholes","2015-05-31T16:07:19.000","2015-06-02T16:07:19.000","ALLENDALE","Abated - Close SR","15-00424254","MD","CLOSED","2015-06-01T16:05:55.000","2015-06-01T16:05:00.000","21229",5,-76.673185,39.293391
NA,"5000  ELMER AVE","BALTIMORE","POTHOLES","TRM-Potholes","2015-06-02T15:23:28.000","2015-06-04T15:23:28.000","CENTRAL PARK HEIGHTS",NA,"15-00429949","MD","DUPCLOSD","2015-06-02T17:31:23.000",NA,"21215",5,-76.677113,39.345844
"Dispatch Work Crew","3415  PINEWOOD AVE","BALTIMORE","POTHOLES","TRM-Potholes","2015-06-11T15:42:04.000","2015-06-13T15:42:04.000","ROSEMONT EAST","Closed","15-00455231","MD","CLOSED","2015-06-12T00:23:03.000","2015-06-12T00:22:00.000","21206",5,-76.5430556,39.356999
"Dispatch Work Crew","219  29TH DIVISION ST","BALTIMORE","POTHOLES","TRM-Potholes","2015-06-29T18:07:15.000","2015-07-01T18:07:15.000","MADISON PARK","Abated - Close SR","15-00509087","MD","CLOSED","2015-07-01T19:20:43.000","2015-07-01T19:20:00.000","21201",5,-76.6215785,39.3033845
NA,"GASCONY LN & SAINT GEORGES RD, BALTIMORE",NA,"POTHOLES","TRM-Potholes","2015-07-09T16:17:53.000","2015-07-11T16:17:53.000","NORTH ROLAND PARK/POPLAR HILL",NA,"15-00539851","MD","NEW","2015-07-09T16:17:53.000",NA,NA,5,-112.304122,40.6283721
"Dispatch Work Crew","4720  PIMLICO RD","BALTIMORE","POTHOLES","TRM-Potholes","2015-06-01T17:13:53.000","2015-06-03T17:13:53.000","CENTRAL PARK HEIGHTS","Abated - Close SR","15-00427137","MD","CLOSED","2015-06-02T17:28:00.000","2015-06-02T17:27:00.000","21215",5,-76.668943,39.345743
"Dispatch Work Crew","912 W NORTHERN PKWY","BALTIMORE","POTHOLES","TRM-Potholes","2015-06-28T16:03:15.000","2015-06-30T16:03:15.000","NORTH ROLAND PARK/POPLAR HILL","Abated - Close SR","15-00505256","MD","CLOSED","2015-06-29T15:54:37.000","2015-06-29T15:54:00.000","21210",5,-76.639934,39.362828
NA,"3916  SOUTHERN AVE","BALTIMORE","POTHOLES","TRM-Potholes","2015-05-21T17:12:55.000","2015-05-23T17:12:55.000","WALTHERSON",NA,"15-00399386","MD","DUPCLOSD","2015-05-21T17:19:29.000",NA,"21206",5,-76.559582,39.336883
"Dispatch Work Crew","859  LENTON AVE","BALTIMORE","POTHOLES","TRM-Potholes","2015-05-15T12:37:02.000","2015-05-17T12:37:02.000","CHINQUAPIN PARK-BELVEDERE","Abated - Close SR","15-00381800","MD","CLOSED","2015-05-15T18:00:57.000","2015-05-15T18:00:00.000","21212",5,-76.601876,39.3638664
"Dispatch Work Crew","1541  COX ST","BALTIMORE","POTHOLES","TRM-Potholes","2015-07-29T13:23:28.000","2015-07-31T13:23:28.000","HAMPDEN","Abated - Close SR","15-00599431","MD","CLOSED","2015-07-29T15:23:56.000","2015-07-29T15:23:00.000","21211",5,-76.64129,39.334077
"Dispatch Work Crew","2406  WESTWOOD AVE","BALTIMORE","POTHOLES","TRM-Potholes","2015-07-07T13:11:08.000","2015-07-09T13:11:08.000","COPPIN HEIGHTS/ASH-CO-EAST","Abated - Close SR","15-00530699","MD","CLOSED","2015-07-08T18:11:24.000","2015-07-08T18:10:00.000","21216",5,-76.656488,39.30869
"Dispatch Work Crew","710 S DECKER AVE","BALTIMORE","POTHOLES","TRM-Potholes","2015-07-21T17:00:35.000","2015-07-23T17:00:35.000","CANTON","Abated - Close SR","15-00574721","MD","CLOSED","2015-07-22T15:40:47.000","2015-07-22T15:39:00.000","21224",5,-76.5737042,39.2840265
"Dispatch Work Crew","3400  PARKLAWN AVE","BALTIMORE","POTHOLES","TRM-Potholes","2015-08-03T11:17:23.000","2015-08-05T11:17:23.000","BELAIR-EDISON","Abated - Close SR","15-00610724","MD","CLOSED","2015-08-03T13:55:56.000","2015-08-03T13:55:00.000","21213",5,-76.576004,39.32417
"Dispatch Work Crew","5700  RUBIN AVE","BALTIMORE","POTHOLES","TRM-Potholes","2015-07-06T13:03:56.000","2015-07-08T13:03:56.000","GLEN","Abated - Close SR","15-00527405","MD","CLOSED","2015-07-07T14:52:10.000","2015-07-07T14:52:00.000","21215",5,-76.6901543,39.3511049
"Dispatch Work Crew","1700 N HILTON ST","BALTIMORE","POTHOLES","TRM-Potholes","2015-06-03T17:04:05.000","2015-06-05T17:04:05.000","ROSEMONT","Abated - Close SR","15-00433745","MD","CLOSED","2015-06-05T11:43:47.000","2015-06-05T11:43:00.000",NA,5,-76.6722621,39.3072629
"Dispatch Work Crew","1300 N ROSEDALE ST","BALTIMORE","POTHOLES","TRM-Potholes","2015-06-01T18:56:30.000","2015-06-03T18:56:30.000","ROSEMONT","Abated - Close SR","15-00427698","MD","CLOSED","2015-06-02T17:05:36.000","2015-06-02T17:05:00.000","21216",5,-76.6689991,39.3031806
"Dispatch Work Crew","1207  LAKESIDE AVE","BALTIMORE","POTHOLES","TRM-Potholes","2015-07-22T14:41:07.000","2015-07-24T14:41:07.000","EDNOR GARDENS-LAKESIDE","Abated - Close SR","15-00578054","MD","CLOSED","2015-07-22T17:56:03.000","2015-07-22T17:52:00.000","21218",5,-76.598663,39.32909
"Dispatch Work Crew","605  WINSTON AVE","BALTIMORE","POTHOLES","TRM-Potholes","2015-06-30T10:41:55.000","2015-07-02T10:41:55.000","WINSTON-GOVANS","Abated - Close SR","15-00511269","MD","CLOSED","2015-06-30T15:27:49.000","2015-06-30T15:27:00.000","21212",5,-76.607453,39.3498469
"Dispatch Work Crew","GELSTON DR & N GRANTLEY ST, BALTIMORE, M",NA,"POTHOLES","TRM-Potholes","2015-07-02T21:19:55.000","2015-07-04T21:19:55.000","GWYNNS FALLS/LEAKIN PARK","Abated - Close SR","15-00521960","MD","CLOSED","2015-07-06T17:47:37.000","2015-07-06T17:47:00.000",NA,5,-76.68078,39.2956243
"Dispatch Work Crew","1049  CHURCH ST","BALTIMORE","POTHOLES","TRM-Potholes","2015-05-13T22:05:04.000","2015-05-15T22:05:04.000","CURTIS BAY","Abated - Close SR","15-00376662","MD","CLOSED","2015-05-14T18:13:59.000","2015-05-14T18:13:00.000","21225",5,-76.5956636,39.2220298
"Dispatch Work Crew","6400  CARDIFF AVE","BALTIMORE","POTHOLES","TRM-Potholes","2015-07-16T13:32:46.000","2015-07-18T13:32:46.000","O'DONNELL HEIGHTS","Abated - Close SR","15-00560514","MD","CLOSED","2015-07-16T16:59:09.000","2015-07-16T16:58:00.000","21224",5,-76.5393504,39.2764266
"Dispatch Work Crew","600  COKESBURY AVE","BALTIMORE","POTHOLES","TRM-Potholes","2015-06-05T16:41:01.000","2015-06-07T16:41:01.000","EAST BALTIMORE MIDWAY","Abated - Close SR","15-00441435","MD","CLOSED","2015-06-09T13:47:22.000","2015-06-09T13:47:00.000","21218",5,-76.6084857,39.3167477
"Dispatch Work Crew","S WOLFE ST & THAMES ST, BALTIMORE, MD, 2",NA,"POTHOLES","TRM-Potholes","2015-07-15T13:23:51.000","2015-07-17T13:23:51.000","FELLS POINT","Abated - Close SR","15-00556701","MD","CLOSED","2015-07-16T16:54:34.000","2015-07-16T16:54:00.000",NA,5,-76.5901235,39.2862759
"Dispatch Work Crew","PHELPS LN &N MOUNT OLIVET LN","BALTIMORE","POTHOLES","TRM-Potholes","2015-05-28T21:20:33.000","2015-05-30T21:20:33.000","CARROLL-SOUTH HILTON","Abated - Close SR","15-00418135","MD","CLOSED","2015-05-29T17:32:17.000","2015-05-29T17:32:00.000","21229",5,-90.9853591,39.1196346
"Dispatch Work Crew","228 W LEXINGTON ST","BALTIMORE","POTHOLES","TRM-Potholes","2015-07-06T14:08:36.000","2015-07-08T14:08:36.000","DOWNTOWN","Abated - Close SR","15-00527779","MD","CLOSED","2015-07-06T18:11:00.000","2015-07-06T18:10:00.000","21201",5,-76.619162,39.291933
"Dispatch Work Crew","3236  SEQUOIA AVE","BALTIMORE","POTHOLES","TRM-Potholes","2015-05-12T18:03:48.000","2015-05-14T18:03:48.000","EAST ARLINGTON","Abated - Close SR","15-00371626","MD","CLOSED","2015-05-13T14:42:25.000","2015-05-13T14:41:00.000","21215",5,-76.668479,39.3289929
"Dispatch Work Crew","2200  PRESSTMAN ST","BALTIMORE","POTHOLES","TRM-Potholes","2015-06-09T15:17:38.000","2015-06-11T15:17:38.000","COPPIN HEIGHTS/ASH-CO-EAST","Abated - Close SR","15-00448479","MD","CLOSED","2015-06-10T16:57:20.000","2015-06-10T16:57:00.000","21216",5,-76.652598,39.30529
"Dispatch Work Crew","3615  HARFORD RD","BALTIMORE","POTHOLES","TRM-Potholes","2015-06-21T16:28:42.000","2015-06-23T16:28:42.000","MAYFIELD","Abated - Close SR","15-00483384","MD","CLOSED","2015-06-23T15:34:22.000","2015-06-23T15:33:00.000","21218",5,-76.5798302,39.3308087
"Dispatch Work Crew","5401  MORELLO RD","BALTIMORE","POTHOLES","TRM-Potholes","2015-06-23T17:53:54.000","2015-06-25T17:53:54.000","HARFORD-ECHODALE/PERRING PARKWAY","Abated - Close SR","15-00490016","MD","CLOSED","2015-06-25T17:03:26.000","2015-06-25T17:03:00.000","21214",5,-76.564998,39.354024
"Dispatch Work Crew","108  ELMWOOD RD","BALTIMORE","POTHOLES","TRM-Potholes","2015-05-26T12:04:45.000","2015-05-28T12:04:45.000","ROLAND PARK","Abated - Close SR","15-00407124","MD","CLOSED","2015-05-27T16:08:42.000","2015-05-27T16:00:00.000","21210",5,-76.643355,39.355543
"Dispatch Work Crew","6900  PARK HEIGHTS AVE","BALTIMORE","POTHOLES","TRM-Potholes","2015-07-23T18:44:40.000","2015-07-25T18:44:40.000","FALLSTAFF","Closed","15-00583132","MD","CLOSED","2015-07-24T01:17:34.000","2015-07-24T01:17:00.000",NA,5,-76.7043095,39.3645245
"Dispatch Work Crew","MACTAVISH AVE & HAVERHILL RD","BALTIMORE","POTHOLES","TRM-Potholes","2015-05-12T15:14:01.000","2015-05-14T15:14:01.000","VIOLETVILLE","Abated - Close SR","15-00370871","MD","CLOSED","2015-05-13T18:20:52.000","2015-05-13T18:20:00.000","21229",5,-77.4720161,37.5696251
"Dispatch Work Crew","EASTERN AVE &S CAROLINE ST","BALTIMORE","POTHOLES","TRM-Potholes","2015-05-20T14:49:16.000","2015-05-22T14:49:16.000","FELLS POINT","Abated - Close SR","15-00395514","MD","CLOSED","2015-05-21T14:37:13.000","2015-05-21T14:36:00.000","21231",5,-71.130511,41.68958
"Dispatch Work Crew","3000  ROCKWOOD AVE","BALTIMORE","POTHOLES","TRM-Potholes","2015-05-29T19:05:58.000","2015-05-31T19:05:58.000","GLEN","Abated - Close SR","15-00421540","MD","CLOSED","2015-06-01T15:38:24.000","2015-06-01T15:38:00.000","21215",5,-76.679993,39.359201
"Dispatch Work Crew","800  VINE ST","BALTIMORE","POTHOLES","TRM-Potholes","2015-05-27T16:08:10.000","2015-05-29T16:08:10.000","POPPLETON","Abated - Close SR","15-00412759","MD","CLOSED","2015-05-28T18:14:13.000","2015-05-28T18:13:00.000","21201",5,-76.6298098,39.2906051
"Dispatch Work Crew","4106  LIBERTY HEIGHTS AVE","BALTIMORE","POTHOLES","TRM-Potholes","2015-05-11T22:50:26.000","2015-05-13T22:50:26.000","DORCHESTER","Abated - Close SR","15-00369205","MD","CLOSED","2015-05-12T14:43:33.000","2015-05-12T14:43:00.000","21207",5,-76.6881499,39.329295
"Dispatch Work Crew","1 N CARLTON ST","BALTIMORE","POTHOLES","TRM-Potholes","2015-05-29T12:52:17.000","2015-05-31T12:52:17.000","POPPLETON","Abated - Close SR","15-00419616","MD","CLOSED","2015-06-09T18:11:32.000","2015-06-09T18:11:00.000","21223",5,-76.6357124,39.2886741
"Dispatch Work Crew","6300  EASTERN AVE","BALTIMORE","POTHOLES","TRM-Potholes","2015-06-24T19:05:11.000","2015-06-26T19:05:11.000","JOSEPH LEE","Abated - Close SR","15-00494765","MD","CLOSED","2015-06-25T14:19:54.000","2015-06-25T14:19:00.000","21224",5,-76.5407488,39.2879064
"Dispatch Work Crew","801 S DALLAS ST","BALTIMORE","POTHOLES","TRM-Potholes","2015-06-03T13:40:27.000","2015-06-05T13:40:27.000","FELLS POINT","Abated - Close SR","15-00432834","MD","CLOSED","2015-06-03T18:27:50.000","2015-06-03T18:27:00.000","21231",5,-76.59565,39.282317
"Dispatch Work Crew","201  CHESAPEAKE AVE","BALTIMORE","POTHOLES","TRM-Potholes","2015-07-28T12:38:04.000","2015-07-30T12:38:04.000","BROOKLYN","Abated - Close SR","15-00595645","MD","CLOSED","2015-07-29T00:13:30.000","2015-07-29T00:13:00.000","21225",5,-76.605204,39.240143
"Dispatch Work Crew","2605  LATONA RD","BALTIMORE","POTHOLES","TRM-Potholes","2015-07-29T14:32:49.000","2015-07-31T14:32:49.000","LAURAVILLE","Abated - Close SR","15-00599913","MD","CLOSED","2015-07-30T18:33:09.000","2015-07-30T18:33:00.000","21214",5,-76.567278,39.352531
"Dispatch Work Crew","6000  OLD HARFORD RD","BALTIMORE","POTHOLES","TRM-Potholes","2015-07-15T20:01:30.000","2015-07-17T20:01:30.000","HARFORD-ECHODALE/PERRING PARKWAY","Abated - Close SR","15-00558373","MD","CLOSED","2015-07-16T18:29:18.000","2015-07-16T18:29:00.000","21214",5,-76.5578233,39.3564948
"Dispatch Work Crew","6001  HILLEN RD","BALTIMORE","POTHOLES","TRM-Potholes","2015-05-20T14:48:50.000","2015-05-22T14:48:50.000","MT PLEASANT PARK","Abated - Close SR","15-00395512","MD","CLOSED","2015-05-20T16:56:12.000","2015-05-20T16:56:00.000","21239",5,-76.5762696,39.3630536
"Dispatch Work Crew","903 S CURLEY ST","BALTIMORE","POTHOLES","TRM-Potholes","2015-05-16T21:21:41.000","2015-05-18T21:21:41.000","CANTON","Abated - Close SR","15-00385475","MD","CLOSED","2015-05-18T17:19:09.000","2015-05-18T17:18:00.000","21224",5,-76.5744859,39.281911
"Dispatch Work Crew","6015  OLD HARFORD RD","BALTIMORE","POTHOLES","TRM-Potholes","2015-06-19T22:47:34.000","2015-06-21T22:47:34.000","WESTFIELD","Abated - Close SR","15-00481022","MD","CLOSED","2015-06-23T15:44:31.000","2015-06-23T15:44:00.000","21214",5,-76.5577859,39.357696
"Dispatch Work Crew","5826  GREENSPRING AVE","BALTIMORE","POTHOLES","TRM-Potholes","2015-06-04T13:03:15.000","2015-06-06T13:03:15.000","MOUNT WASHINGTON","Abated - Close SR","15-00436130","MD","CLOSED","2015-06-05T17:21:48.000","2015-06-05T17:21:00.000","21209",5,-76.672589,39.363905
"Dispatch Work Crew","1057  UPNOR RD","BALTIMORE","POTHOLES","TRM-Potholes","2015-06-30T15:45:05.000","2015-07-02T15:45:05.000","CAMERON VILLAGE","Abated - Close SR","15-00513018","MD","CLOSED","2015-07-01T18:35:28.000","2015-07-01T18:35:00.000","21212",5,-76.597893,39.357024
"Dispatch Work Crew","600 S CLINTON ST","BALTIMORE","POTHOLES","TRM-Potholes","2015-07-04T18:05:40.000","2015-07-06T18:05:40.000","CANTON","Abated - Close SR","15-00524698","MD","CLOSED","2015-07-06T14:47:07.000","2015-07-06T14:46:00.000","21224",5,-76.5701394,39.2853752
"Dispatch Work Crew","KENWAY RD & GERNAND RD, BALTIMORE, MD, 2","   Baltimore ","POTHOLES","TRM-Potholes","2015-07-23T16:40:29.000","2015-07-25T16:40:29.000","MOUNT WASHINGTON","Abated - Close SR","15-00582457","MD","CLOSED","2015-07-27T19:00:28.000","2015-07-27T18:57:00.000","21209",5,-86.8251205,36.1082206
"Dispatch Work Crew","S HANOVER ST & I 95 N, BALTIMORE, MD, 21",NA,"POTHOLES","TRM-Potholes","2015-06-20T22:24:00.000","2015-06-22T22:24:00.000","SPRING GARDEN INDUSTRIAL AREA","Abated - Close SR","15-00482791","MD","CLOSED","2015-06-23T17:14:00.000","2015-06-23T17:13:00.000",NA,5,-73.1663411,44.4727628
NA,"1109  HARRITON RD","BALTIMORE","POTHOLES","TRM-Potholes","2015-05-16T15:56:06.000","2015-05-18T15:56:06.000","NORTH ROLAND PARK/POPLAR HILL",NA,"15-00385070","MD","DUPCLOSD","2015-05-18T14:42:02.000",NA,"21210",5,-76.6469709,39.369319
"Dispatch Work Crew","S HANOVER ST & I 95 S, BALTIMORE, MD, 21","   Baltimore","POTHOLES","TRM-Potholes","2015-07-15T11:45:53.000","2015-07-17T11:45:53.000","PORT COVINGTON","Abated - Close SR","15-00556190","MD","CLOSED","2015-07-15T17:42:36.000","2015-07-15T17:42:00.000","21230",5,-73.1663411,44.4727628
"Dispatch Work Crew","3400 W SARATOGA ST","BALTIMORE","POTHOLES","TRM-Potholes","2015-07-02T12:27:47.000","2015-07-04T12:27:47.000","ALLENDALE","Abated - Close SR","15-00519016","MD","CLOSED","2015-07-02T18:17:32.000","2015-07-02T18:17:00.000","21229",5,-76.6740546,39.2903556
"Dispatch Work Crew","1500  KENHILL AVE","BALTIMORE","POTHOLES","TRM-Potholes","2015-07-02T13:16:51.000","2015-07-04T13:16:51.000","BEREA","Abated - Close SR","15-00519292","MD","CLOSED","2015-07-02T19:05:27.000","2015-07-02T19:05:00.000","21213",5,-76.577937,39.308254
"Dispatch Work Crew","1601 S HAVEN ST","BALTIMORE","POTHOLES","TRM-Potholes","2015-07-08T11:25:48.000","2015-07-10T11:25:48.000","CANTON INDUSTRIAL AREA","Abated - Close SR","15-00534123","MD","CLOSED","2015-07-08T17:48:51.000","2015-07-08T17:48:00.000","21224",5,-76.5615527,39.2734671
"Dispatch Work Crew","207  PADDINGTON RD","BALTIMORE","POTHOLES","TRM-Potholes","2015-07-20T10:17:45.000","2015-07-22T10:17:45.000","HOMELAND","Abated - Close SR","15-00568978","MD","CLOSED","2015-07-20T15:46:28.000","2015-07-20T15:46:00.000","21212",5,-76.619971,39.354289
"Dispatch Work Crew","31  LIGHT ST","BALTIMORE","POTHOLES","TRM-Potholes","2015-07-01T17:36:38.000","2015-07-03T17:36:38.000","DOWNTOWN","Abated - Close SR","15-00517275","MD","CLOSED","2015-07-02T18:30:25.000","2015-07-02T18:29:00.000","21202",5,-76.61327,39.287996
"Generate Work Order","N FREMONT AVE & VINE ST","BALTIMORE","POTHOLES","TRM-Potholes","2015-05-11T19:39:14.000","2015-05-13T19:39:14.000","POPPLETON","Abated - Close SR","15-00368719","MD","CLOSED","2015-05-12T16:51:08.000","2015-05-12T16:50:00.000","21201",5,-76.6337889,39.297903
"Dispatch Work Crew","3316 W FRANKLIN ST","BALTIMORE","POTHOLES","TRM-Potholes","2015-07-02T12:17:31.000","2015-07-04T12:17:31.000","ALLENDALE","Abated - Close SR","15-00518948","MD","CLOSED","2015-07-02T18:36:43.000","2015-07-02T18:36:00.000","21229",5,-76.67363,39.292978
"Dispatch Work Crew","700  CHERRY HILL RD","BALTIMORE","POTHOLES","TRM-Potholes","2015-06-28T19:17:08.000","2015-06-30T19:17:08.000","CHERRY HILL","Abated - Close SR","15-00505503","MD","CLOSED","2015-06-29T18:49:21.000","2015-06-29T18:48:00.000","21225",5,-76.624048,39.249833
"Dispatch Work Crew","715  COOKS LN","BALTIMORE","POTHOLES","TRM-Potholes","2015-06-21T16:20:43.000","2015-06-23T16:20:43.000","HUNTING RIDGE","Abated - Close SR","15-00483376","MD","CLOSED","2015-06-22T19:10:25.000","2015-06-22T19:09:00.000","21229",5,-76.7042419,39.294565
"Dispatch Work Crew","1700  PRESBURY ST","BALTIMORE","POTHOLES","TRM-Potholes","2015-06-01T13:11:45.000","2015-06-03T13:11:45.000","SANDTOWN-WINCHESTER","Abated - Close SR","15-00425661","MD","CLOSED","2015-06-02T17:01:23.000","2015-06-02T17:01:00.000","21217",5,-76.6449058,39.3079868
"Dispatch Work Crew","6100  MARLORA RD","BALTIMORE","POTHOLES","TRM-Potholes","2015-06-08T21:37:12.000","2015-06-10T21:37:12.000","GLEN OAKS","Abated - Close SR","15-00446399","MD","CLOSED","2015-06-09T18:09:59.000","2015-06-09T18:09:00.000",NA,5,-76.5956999,39.367294
"Dispatch Work Crew","5211  OVERCREST AVE","BALTIMORE","POTHOLES","TRM-Potholes","2015-05-14T16:35:59.000","2015-05-16T16:35:59.000","FRANKLINTOWN","Abated - Close SR","15-00379204","MD","CLOSED","2015-05-15T17:04:06.000","2015-05-15T17:03:00.000","21207",5,-76.7107654,39.3078805
"Dispatch Work Crew","3021  GREENMOUNT AVE","BALTIMORE","POTHOLES","TRM-Potholes","2015-07-14T12:29:29.000","2015-07-16T12:29:29.000","BETTER WAVERLY","Abated - Close SR","15-00552211","MD","CLOSED","2015-07-14T17:51:49.000","2015-07-14T17:51:00.000","21218",5,-76.6091867,39.3259951
"Dispatch Work Crew","3916  SOUTHERN AVE","BALTIMORE","POTHOLES","TRM-Potholes","2015-05-21T10:26:03.000","2015-05-23T10:26:03.000","WALTHERSON","Abated - Close SR","15-00397836","MD","CLOSED","2015-05-21T17:19:29.000","2015-05-21T17:19:00.000","21206",5,-76.559582,39.336883
"Dispatch Work Crew","4817  THE ALAMEDA","BALTIMORE","POTHOLES","TRM-Potholes","2015-08-03T13:58:20.000","2015-08-05T13:58:20.000","NEW NORTHWOOD","Abated - Close SR","15-00611870","MD","CLOSED","2015-08-03T17:49:20.000","2015-08-03T17:49:00.000","21239",5,-76.599164,39.346642
"Dispatch Work Crew","200 E WEST ST","BALTIMORE","POTHOLES","TRM-Potholes","2015-06-30T18:21:07.000","2015-07-02T18:21:07.000","RIVERSIDE","Abated - Close SR","15-00513668","MD","CLOSED","2015-07-02T18:35:34.000","2015-07-02T18:35:00.000","21230",5,-76.6103225,39.2762406
"Dispatch Work Crew","1109  KELLY PL","BALTIMORE","POTHOLES","TRM-Potholes","2015-05-17T03:47:43.000","2015-05-19T03:47:43.000","HAMPDEN","Abated - Close SR","15-00385748","MD","CLOSED","2015-05-20T14:46:09.000","2015-05-20T14:43:00.000","21211",5,-76.6486852,39.3671112
"Dispatch Work Crew","EDMONDSON AVE & ALLENDALE ST, BALTIMORE,",NA,"POTHOLES","TRM-Potholes","2015-07-20T10:35:12.000","2015-07-22T10:35:12.000","EDMONDSON VILLAGE","Abated - Close SR","15-00569014","MD","CLOSED","2015-07-20T16:55:14.000","2015-07-20T16:55:00.000",NA,5,-76.7051535,39.2908485
NA,"250 E MEDWICK GARTH","BALTIMORE","POTHOLES","TRM-Potholes","2015-06-30T12:59:12.000","2015-07-02T12:59:12.000","WESTGATE",NA,"15-00512029","MD","DUPCLOSD","2015-07-02T18:03:51.000",NA,"21228",5,-76.7111517,39.2806521
"Dispatch Work Crew","4000  ELSA TERR","BALTIMORE","POTHOLES","TRM-Potholes","2015-07-02T22:52:20.000","2015-07-04T22:52:20.000","HAMPDEN","Abated - Close SR","15-00522154","MD","CLOSED","2015-07-06T19:31:12.000","2015-07-06T19:31:00.000","21211",5,-76.6377981,39.3364948
NA,"5100  HOLABIRD AVE","BALTIMORE","POTHOLES","TRM-Potholes","2015-05-20T12:03:20.000","2015-05-22T12:03:20.000","CANTON INDUSTRIAL AREA",NA,"15-00394852","MD","DUPCLOSD","2015-05-20T15:55:50.000",NA,"21224",5,-76.551424,39.2725099
"Dispatch Work Crew","2400 W COLD SPRING LN","BALTIMORE","POTHOLES","TRM-Potholes","2015-07-06T14:21:50.000","2015-07-08T14:21:50.000","PARKLANE","Abated - Close SR","15-00527873","MD","CLOSED","2015-07-07T14:56:03.000","2015-07-07T14:56:00.000","21215",5,-76.65909,39.340984
NA,"3343  BEECH AVE","BALTIMORE","POTHOLES","TRM-Potholes","2015-06-17T21:15:41.000","2015-06-19T21:15:41.000","WYMAN PARK",NA,"15-00474227","MD","CLOSED","2015-06-18T19:24:18.000",NA,"21211",5,-76.626324,39.328297
"Dispatch Work Crew","100 N KENWOOD AVE","BALTIMORE","POTHOLES","TRM-Potholes","2015-05-16T00:43:32.000","2015-05-18T00:43:32.000","BALTIMORE-LINWOOD","Abated - Close SR","15-00384163","MD","CLOSED","2015-05-18T17:51:23.000","2015-05-18T17:51:00.000","21224",5,-76.577939,39.293379
"Dispatch Work Crew","BRIDGEVIEW RD & ROUNDVIEW RD, BALTIMORE,",NA,"POTHOLES","TRM-Potholes","2015-07-06T20:15:35.000","2015-07-08T20:15:35.000","CHERRY HILL","Abated - Close SR","15-00529379","MD","CLOSED","2015-07-07T19:29:22.000","2015-07-07T19:28:00.000",NA,5,-76.6251129,39.7598608
"Dispatch Work Crew","600 W FRANKLIN ST","BALTIMORE","POTHOLES","TRM-Potholes","2015-06-03T19:11:16.000","2015-06-05T19:11:16.000","SETON HILL","Abated - Close SR","15-00434273","MD","CLOSED","2015-06-04T16:16:00.000","2015-06-04T16:15:00.000","21201",5,-76.6245199,39.2949937
"Dispatch Work Crew","1912  EUTAW PL","BALTIMORE","POTHOLES","TRM-Potholes","2015-05-29T12:23:50.000","2015-05-31T12:23:50.000","MADISON PARK","Abated - Close SR","15-00419460","MD","CLOSED","2015-06-01T16:28:08.000","2015-06-01T16:27:00.000","21217",5,-76.6326519,39.308707
"Dispatch Work Crew","900  HARGROVE ALY","BALTIMORE","POTHOLES","TRM-Potholes","2015-06-02T16:39:40.000","2015-06-04T16:39:40.000","MOUNT VERNON","Abated - Close SR","15-00430222","MD","CLOSED","2015-06-03T16:38:50.000","2015-06-03T16:38:00.000","21202",5,-76.6136228,39.2997465
"Dispatch Work Crew","850 S LINWOOD AVE","BALTIMORE","POTHOLES","TRM-Potholes","2015-06-12T13:11:53.000","2015-06-14T13:11:53.000","CANTON","Abated - Close SR","15-00457882","MD","CLOSED","2015-06-12T17:37:32.000","2015-06-12T17:34:00.000","21224",5,-76.5755767,39.2824048
"Dispatch Work Crew","5000  SINCLAIR LN","BALTIMORE","POTHOLES","TRM-Potholes","2015-07-16T13:22:09.000","2015-07-18T13:22:09.000","FRANKFORD","Abated - Close SR","15-00560398","MD","CLOSED","2015-07-17T17:56:15.000","2015-07-17T17:55:00.000","21206",5,-76.5438036,39.3232287
"Dispatch Work Crew","S BELNORD AVE & FLEET ST, BALTIMORE, MD,","BALTIMORE","POTHOLES","TRM-Potholes","2015-06-16T19:29:56.000","2015-06-18T19:29:56.000","CANTON","Abated - Close SR","15-00469399","MD","CLOSED","2015-06-17T18:16:46.000","2015-06-17T18:16:00.000",NA,5,-76.5777,39.2826872
"Dispatch Work Crew","6517  COLGATE AVE","BALTIMORE","POTHOLES","TRM-Potholes","2015-05-26T23:30:54.000","2015-05-28T23:30:54.000","SAINT HELENA","Abated - Close SR","15-00410246","MD","CLOSED","2015-05-27T15:31:55.000","2015-05-27T15:31:00.000","21222",5,-76.530846,39.2607385
"Dispatch Work Crew","3900  ROSECREST AVE","BALTIMORE","POTHOLES","TRM-Potholes","2015-07-03T11:41:04.000","2015-07-05T11:41:04.000","GLEN","Abated - Close SR","15-00522780","MD","CLOSED","2015-07-07T11:37:35.000","2015-07-07T11:36:00.000","21215",5,-76.6957868,39.3554347
"Dispatch Work Crew","3400  O'DONNELL ST","BALTIMORE","POTHOLES","TRM-Potholes","2015-06-25T17:46:26.000","2015-06-27T17:46:26.000","CANTON","Abated - Close SR","15-00499028","MD","CLOSED","2015-06-26T18:19:16.000","2015-06-26T18:18:00.000","21224",5,-76.5684737,39.2806695
"Dispatch Work Crew","4100  SPRINGDALE AVE","BALTIMORE","POTHOLES","TRM-Potholes","2015-06-19T14:30:33.000","2015-06-21T14:30:33.000","CENTRAL FOREST PARK","Abated - Close SR","15-00479112","MD","CLOSED","2015-06-19T17:41:17.000","2015-06-19T17:41:00.000","21207",5,-76.688579,39.326891
"Dispatch Work Crew","4923  HERRING RUN DR","BALTIMORE","POTHOLES","TRM-Potholes","2015-06-29T15:33:23.000","2015-07-01T15:33:23.000","LAURAVILLE","Abated - Close SR","15-00508094","MD","CLOSED","2015-06-29T17:54:01.000","2015-06-29T17:53:00.000","21214",5,-76.575734,39.351794
NA,"306  EDGEVALE RD","BALTIMORE","POTHOLES","TRM-Potholes","2015-07-09T14:06:04.000","2015-07-11T14:06:04.000","ROLAND PARK",NA,"15-00539135","MD","OPEN","2015-07-09T15:25:10.000",NA,"21210",5,-76.643047,39.356212
"Dispatch Work Crew","BELAIR RD & CHESTERFIELD AVE","BALTIMORE","POTHOLES","TRM-Potholes","2015-05-19T10:31:56.000","2015-05-21T10:31:56.000","BELAIR-EDISON","Abated - Close SR","15-00390753","MD","CLOSED","2015-05-19T14:19:04.000","2015-05-19T14:15:00.000","21213",5,-76.4688967,39.4084423
"Dispatch Work Crew","1600 E PRESTON ST","BALTIMORE","POTHOLES","TRM-Potholes","2015-07-27T14:11:32.000","2015-07-29T14:11:32.000","OLIVER","Abated - Close SR","15-00592971","MD","CLOSED","2015-07-28T14:25:45.000","2015-07-28T14:25:00.000","21213",5,-76.596573,39.3052924
"Dispatch Work Crew","700 E MADISON ST","BALTIMORE","POTHOLES","TRM-Potholes","2015-06-04T09:43:05.000","2015-06-06T09:43:05.000","PENN-FALLSWAY","Abated - Close SR","15-00435262","MD","CLOSED","2015-06-04T14:57:49.000","2015-06-04T14:57:00.000","21202",5,-76.6065964,39.2989492
"Dispatch Work Crew","3616 E NORTHERN PKWY","BALTIMORE","POTHOLES","TRM-Potholes","2015-06-22T17:07:01.000","2015-06-24T17:07:01.000","WOODRING","Abated - Close SR","15-00486044","MD","CLOSED","2015-06-23T18:24:29.000","2015-06-23T18:23:00.000","21206",5,-76.538089,39.3586529
"Dispatch Work Crew","3810  FRANKFORD AVE","BALTIMORE","POTHOLES","TRM-Potholes","2015-06-21T23:17:30.000","2015-06-23T23:17:30.000","WALTHERSON","Abated - Close SR","15-00483701","MD","CLOSED","2015-06-23T15:28:19.000","2015-06-23T15:27:00.000","21206",5,-76.553077,39.342128
"Dispatch Work Crew","211 E FORT AVE","BALTIMORE","POTHOLES","TRM-Potholes","2015-06-16T19:12:25.000","2015-06-18T19:12:25.000","RIVERSIDE","Abated - Close SR","15-00469304","MD","CLOSED","2015-06-17T18:15:27.000","2015-06-17T18:15:00.000","21230",5,-76.6096299,39.2726317
"Dispatch Work Crew","6200  DANVILLE AVE","BALTIMORE","POTHOLES","TRM-Potholes","2015-07-16T13:31:57.000","2015-07-18T13:31:57.000","BROENING MANOR","Abated - Close SR","15-00560508","MD","CLOSED","2015-07-16T16:56:59.000","2015-07-16T16:56:00.000","21224",5,-76.5403887,39.2747335
"Dispatch Work Crew","2201  SOUTHPORT AVE","BALTIMORE","POTHOLES","TRM-Potholes","2015-07-07T21:08:16.000","2015-07-09T21:08:16.000","FAIRFIELD AREA","Abated - Close SR","15-00532925","MD","CLOSED","2015-07-08T16:04:30.000","2015-07-08T16:03:00.000","21226",5,-76.569023,39.2295976
"Dispatch Work Crew","7100  COMMERCIAL AVE","BALTIMORE","POTHOLES","TRM-Potholes","2015-07-28T16:37:24.000","2015-07-30T16:37:24.000","PULASKI INDUSTRIAL AREA","Abated - Close SR","15-00597146","MD","CLOSED","2015-07-30T15:23:45.000","2015-07-30T15:23:00.000","21237",5,-76.5375302,39.3131998
"Dispatch Work Crew","2300  LAURETTA AVE","BALTIMORE","POTHOLES","TRM-Potholes","2015-06-12T22:53:29.000","2015-06-14T22:53:29.000","ROSEMONT HOMEOWNERS/TENANTS","Abated - Close SR","15-00460006","MD","CLOSED","2015-06-15T18:11:38.000","2015-06-15T18:11:00.000","21223",5,-76.6533529,39.2943
"Dispatch Work Crew","PULASKI HWY &N HAVEN ST","BALTIMORE","POTHOLES","TRM-Potholes","2015-05-16T14:36:52.000","2015-05-18T14:36:52.000","KRESSON","Abated - Close SR","15-00384918","MD","CLOSED","2015-05-18T17:23:52.000","2015-05-18T17:23:00.000","21224",5,-76.1367406,39.5251386
"Dispatch Work Crew","861  LENTON AVE","BALTIMORE","POTHOLES","TRM-Potholes","2015-05-15T12:39:51.000","2015-05-17T12:39:51.000","CHINQUAPIN PARK-BELVEDERE","Abated - Close SR","15-00381812","MD","CLOSED","2015-05-15T16:23:42.000","2015-05-15T16:22:00.000","21212",5,-76.601797,39.3638199
"Dispatch Work Crew","2201  SOUTHPORT AVE","BALTIMORE","POTHOLES","TRM-Potholes","2015-07-13T21:42:27.000","2015-07-15T21:42:27.000","FAIRFIELD AREA","Abated - Close SR","15-00551244","MD","CLOSED","2015-07-17T18:17:03.000","2015-07-17T18:16:00.000","21226",5,-76.569023,39.2295976
"Dispatch Work Crew","BRADDISH AVE & W LAFAYETTE AVE, BALTIMOR",NA,"POTHOLES","TRM-Potholes","2015-07-04T11:49:00.000","2015-07-06T11:49:00.000","MOSHER","Abated - Close SR","15-00524346","MD","CLOSED","2015-07-06T17:18:14.000","2015-07-06T17:18:00.000",NA,5,-76.6607992,39.3048089
"Dispatch Work Crew","5600  WOODMONT AVE","BALTIMORE","POTHOLES","TRM-Potholes","2015-07-13T16:48:22.000","2015-07-15T16:48:22.000","WOODBOURNE HEIGHTS","Abated - Close SR","15-00549935","MD","CLOSED","2015-07-14T18:29:02.000","2015-07-14T18:27:00.000","21239",5,-76.591378,39.357245
"Dispatch Work Crew","2300  CHESAPEAKE AVE","BALTIMORE","POTHOLES","TRM-Potholes","2015-06-29T22:16:52.000","2015-07-01T22:16:52.000","HOLABIRD INDUSTRIAL PARK","Abated - Close SR","15-00510358","MD","CLOSED","2015-06-30T18:32:54.000","2015-06-30T18:32:00.000","21222",5,-76.5326448,39.2622391
"Dispatch Work Crew","5401  O'DONNELL ST","BALTIMORE","POTHOLES","TRM-Potholes","2015-05-26T13:01:31.000","2015-05-28T13:01:31.000","MEDFORD","Abated - Close SR","15-00407488","MD","CLOSED","2015-05-27T15:25:31.000","2015-05-27T15:25:00.000","21224",5,-76.5495119,39.279169
"Dispatch Work Crew","3500  SINCLAIR LN","BALTIMORE","POTHOLES","TRM-Potholes","2015-06-19T14:57:49.000","2015-06-21T14:57:49.000","BELAIR-EDISON","Abated - Close SR","15-00479247","MD","CLOSED","2015-06-20T14:55:39.000","2015-06-20T14:55:00.000","21213",5,-76.5692505,39.3134312
"Dispatch Work Crew","3800  BENSON AVE","BALTIMORE","POTHOLES","TRM-Potholes","2015-08-03T19:26:17.000","2015-08-05T19:26:17.000","VIOLETVILLE","Abated - Close SR","15-00614355","MD","CLOSED","2015-08-04T19:33:06.000","2015-08-04T19:32:00.000","21227",5,-76.676846,39.263301
"Dispatch Work Crew","900 W FAYETTE ST","BALTIMORE","POTHOLES","TRM-Potholes","2015-08-01T16:15:37.000","2015-08-03T16:15:37.000","POPPLETON","Abated - Close SR","15-00609180","MD","CLOSED","2015-08-03T17:25:32.000","2015-08-03T17:25:00.000","21223",5,-76.632362,39.290137
"Dispatch Work Crew","1131  HOMESTEAD ST","BALTIMORE","POTHOLES","TRM-Potholes","2015-05-27T11:44:58.000","2015-05-29T11:44:58.000","BETTER WAVERLY","Abated - Close SR","15-00411152","MD","CLOSED","2015-05-28T18:10:35.000","2015-05-28T18:10:00.000","21218",5,-76.602292,39.324561
"Dispatch Work Crew","1420  MADISON AVE","BALTIMORE","POTHOLES","TRM-Potholes","2015-07-16T21:27:05.000","2015-07-18T21:27:05.000","MADISON PARK","Abated - Close SR","15-00562593","MD","CLOSED","2015-07-17T18:17:44.000","2015-07-17T18:17:00.000","21217",5,-76.6288796,39.3042413
"Dispatch Work Crew","HILLEN RD & E COLD SPRING LN, BALTIMORE,","BALTIMORE","POTHOLES","TRM-Potholes","2015-06-11T19:59:56.000","2015-06-13T19:59:56.000","MORGAN STATE UNIVERSITY","Abated - Close SR","15-00456444","MD","CLOSED","2015-06-12T14:50:09.000","2015-06-12T14:49:00.000","21218",5,-76.5816433,39.3595487
"Dispatch Work Crew","WASHBURN AVE & 8TH ST, BALTIMORE, MD, 21","baltimore","POTHOLES","TRM-Potholes","2015-06-12T17:37:03.000","2015-06-14T17:37:03.000","BROOKLYN","Abated - Close SR","15-00459121","MD","CLOSED","2015-06-15T18:40:04.000","2015-06-15T18:39:00.000",NA,5,-91.648414,42.5494779
"Dispatch Work Crew","1800 S CATON AVE","BALTIMORE","POTHOLES","TRM-Potholes","2015-07-23T14:20:41.000","2015-07-25T14:20:41.000","VIOLETVILLE","Abated - Close SR","15-00581748","MD","CLOSED","2015-07-23T18:17:14.000","2015-07-23T18:16:00.000","21227",5,-76.664868,39.257928
"Dispatch Work Crew","2701  BOSTON ST","BALTIMORE","POTHOLES","TRM-Potholes","2015-05-21T14:53:25.000","2015-05-23T14:53:25.000","CANTON","Abated - Close SR","15-00398874","MD","CLOSED","2015-05-21T19:04:14.000","2015-05-21T19:03:00.000","21224",5,-76.5779778,39.2787085
"Dispatch Work Crew","S GAY ST & E PRATT ST, BALTIMORE, MD, 21","baltimore","POTHOLES","TRM-Potholes","2015-07-14T18:07:42.000","2015-07-16T18:07:42.000","INNER HARBOR","Abated - Close SR","15-00554306","MD","CLOSED","2015-07-15T18:28:42.000","2015-07-15T18:28:00.000",NA,5,-83.9167405,35.9626325
"Dispatch Work Crew","6033  ARIZONA AVE","BALTIMORE","POTHOLES","TRM-Potholes","2015-05-23T15:22:46.000","2015-05-25T15:22:46.000","CEDONIA","Abated - Close SR","15-00403373","MD","CLOSED","2015-05-26T14:29:48.000","2015-05-26T14:29:00.000","21206",5,-76.5317477,39.3355139
NA,"3111  WHITE AVE","BALTIMORE","POTHOLES","TRM-Potholes","2015-06-01T11:49:35.000","2015-06-03T11:49:35.000","GLENHAM-BELFORD",NA,"15-00425174","MD","DUPCLOSD","2015-06-01T15:19:26.000",NA,"21214",5,-76.556483,39.353037
"Dispatch Work Crew","714  ROUNDVIEW RD","BALTIMORE","POTHOLES","TRM-Potholes","2015-06-29T15:20:05.000","2015-07-01T15:20:05.000","CHERRY HILL","Abated - Close SR","15-00508020","MD","CLOSED","2015-06-30T18:56:33.000","2015-06-30T18:56:00.000","21225",5,-76.6212263,39.2477684
"Dispatch Work Crew","301 N EDGEWOOD ST","BALTIMORE","POTHOLES","TRM-Potholes","2015-07-02T12:22:24.000","2015-07-04T12:22:24.000","ALLENDALE","Abated - Close SR","15-00518982","MD","CLOSED","2015-07-02T18:15:53.000","2015-07-02T18:15:00.000","21229",5,-76.6750808,39.2910671
NA,"2000  GREENMOUNT AVE","BALTIMORE","POTHOLES","TRM-Potholes","2015-08-04T16:52:39.000","2015-08-06T16:52:39.000","BARCLAY",NA,"15-00617807","MD","NEW","2015-08-04T16:52:39.000",NA,"21218",5,-76.6095028,39.3125086
"Dispatch Work Crew","LAKESIDE AVE & HILLEN RD, BALTIMORE, MD,",NA,"POTHOLES","TRM-Potholes","2015-06-30T11:49:32.000","2015-07-02T11:49:32.000","MONTEBELLO","Abated - Close SR","15-00511502","MD","CLOSED","2015-07-01T18:40:51.000","2015-07-01T18:39:00.000",NA,5,-71.5717323,42.3411605
"Dispatch Work Crew","3413  PINEWOOD AVE","BALTIMORE","POTHOLES","TRM-Potholes","2015-05-26T17:36:16.000","2015-05-28T17:36:16.000","ROSEMONT EAST","Abated - Close SR","15-00409106","MD","CLOSED","2015-05-27T17:42:42.000","2015-05-27T17:41:00.000","21206",5,-76.5431446,39.3570401
"Dispatch Work Crew","3802  MACTAVISH AVE","BALTIMORE","POTHOLES","TRM-Potholes","2015-06-30T13:56:38.000","2015-07-02T13:56:38.000","VIOLETVILLE","Abated - Close SR","15-00512435","MD","CLOSED","2015-06-30T19:34:50.000","2015-06-30T19:34:00.000","21229",5,-76.679884,39.2645222
"Dispatch Work Crew","19 E MOUNT ROYAL AVE","BALTIMORE","POTHOLES","TRM-Potholes","2015-05-12T20:53:07.000","2015-05-14T20:53:07.000","MID-TOWN BELVEDERE","Abated - Close SR","15-00372449","MD","CLOSED","2015-05-13T18:24:59.000","2015-05-13T18:24:00.000","21201",5,-76.6148763,39.3054579
"Dispatch Work Crew","3606  EVERSLEY ST","BALTIMORE","POTHOLES","TRM-Potholes","2015-05-15T11:27:51.000","2015-05-17T11:27:51.000","EDMONDSON VILLAGE","Abated - Close SR","15-00381399","MD","CLOSED","2015-05-18T15:47:00.000","2015-05-18T15:46:00.000","21229",5,-76.6777228,39.2959985
NA,"2500  ANNAPOLIS RD","BALTIMORE","POTHOLES","TRM-Potholes","2015-06-29T10:43:26.000","2015-07-01T10:43:26.000","WESTPORT",NA,"15-00506064","MD","DUPCLOSD","2015-06-29T19:10:51.000",NA,"21230",5,-76.63603,39.2606849
"Dispatch Work Crew","3701  DILLON ST","BALTIMORE","POTHOLES","TRM-Potholes","2015-05-21T11:34:21.000","2015-05-23T11:34:21.000","CANTON INDUSTRIAL AREA","Abated - Close SR","15-00397998","MD","CLOSED","2015-05-21T16:39:55.000","2015-05-21T16:38:00.000","21224",5,-76.565195,39.281101
"Dispatch Work Crew","1053  MARLAU DR","BALTIMORE","POTHOLES","TRM-Potholes","2015-07-23T23:21:10.000","2015-07-25T23:21:10.000","CHINQUAPIN PARK-BELVEDERE","Abated - Close SR","15-00583786","MD","CLOSED","2015-07-24T15:58:00.000","2015-07-24T15:57:00.000","21212",5,-76.598851,39.363605
"Dispatch Work Crew","786 N GRANTLEY ST","BALTIMORE","POTHOLES","TRM-Potholes","2015-07-01T16:20:31.000","2015-07-03T16:20:31.000","EDMONDSON VILLAGE","Abated - Close SR","15-00516949","MD","CLOSED","2015-07-02T17:59:16.000","2015-07-02T17:58:00.000","21229",5,-76.6756078,39.2973511
"Dispatch Work Crew","E FAYETTE ST & I 83 S","BALTIMORE","POTHOLES","TRM-Potholes","2015-05-15T09:40:35.000","2015-05-17T09:40:35.000","DOWNTOWN","Abated - Close SR","15-00381024","MD","CLOSED","2015-05-15T18:20:02.000","2015-05-15T18:19:00.000","21202",5,-79.722638,39.8973136
"Dispatch Work Crew","6410  HILLTOP AVE","BALTIMORE","POTHOLES","TRM-Potholes","2015-05-12T20:08:32.000","2015-05-14T20:08:32.000","ROSEMONT EAST","Abated - Close SR","15-00372277","MD","CLOSED","2015-05-13T14:29:27.000","2015-05-13T14:28:00.000","21206",5,-76.5427159,39.3563619
"Dispatch Work Crew","2201  GARRETT AVE","BALTIMORE","POTHOLES","TRM-Potholes","2015-05-19T20:13:16.000","2015-05-21T20:13:16.000","EAST BALTIMORE MIDWAY","Abated - Close SR","15-00393782","MD","CLOSED","2015-05-20T16:51:33.000","2015-05-20T16:50:00.000","21218",5,-76.602073,39.315147
"Dispatch Work Crew","3401  ROSALIE AVE","BALTIMORE","POTHOLES","TRM-Potholes","2015-06-19T13:54:55.000","2015-06-21T13:54:55.000","WOODRING","Abated - Close SR","15-00478904","MD","CLOSED","2015-06-22T17:57:35.000","2015-06-22T17:56:00.000","21234",5,-76.539101,39.364242
"Dispatch Work Crew","3320  BELAIR RD","BALTIMORE","POTHOLES","TRM-Potholes","2015-07-24T12:37:50.000","2015-07-26T12:37:50.000","BELAIR-EDISON","Abated - Close SR","15-00585327","MD","CLOSED","2015-07-24T17:27:07.000","2015-07-24T17:25:00.000","21213",5,-76.5731309,39.3220331
"Dispatch Work Crew","1100  GREENMOUNT AVE","BALTIMORE","POTHOLES","TRM-Potholes","2015-07-07T13:29:17.000","2015-07-09T13:29:17.000","JOHNSTON SQUARE","Abated - Close SR","15-00530791","MD","CLOSED","2015-07-07T15:22:52.000","2015-07-07T15:22:00.000","21202",5,-76.6077273,39.3029971
"Dispatch Work Crew","809  BELLEMORE RD","BALTIMORE","POTHOLES","TRM-Potholes","2015-05-16T15:46:03.000","2015-05-18T15:46:03.000","NORTH ROLAND PARK/POPLAR HILL","Abated - Close SR","15-00385045","MD","CLOSED","2015-05-18T14:58:38.000","2015-05-18T14:58:00.000","21210",5,-76.6345587,39.3680481
"Dispatch Work Crew","DESOTO RD & COWAN AVE, BALTIMORE, MD, 21","BALTIMORE","POTHOLES","TRM-Potholes","2015-07-01T16:41:30.000","2015-07-03T16:41:30.000","MORRELL PARK","Abated - Close SR","15-00517039","MD","CLOSED","2015-07-02T17:47:50.000","2015-07-02T17:47:00.000",NA,5,-82.5160136,27.381685
"Dispatch Work Crew","1619  JOPLIN ST","BALTIMORE","POTHOLES","TRM-Potholes","2015-06-28T19:00:33.000","2015-06-30T19:00:33.000","BROENING MANOR","Abated - Close SR","15-00505481","MD","CLOSED","2015-06-29T18:18:23.000","2015-06-29T18:18:00.000","21224",5,-76.536845,39.27447
"Dispatch Work Crew","1800 N PATTERSON PARK AVE","BALTIMORE","POTHOLES","TRM-Potholes","2015-05-19T13:28:52.000","2015-05-21T13:28:52.000","BROADWAY EAST","Abated - Close SR","15-00391836","MD","CLOSED","2015-05-19T18:17:53.000","2015-05-19T18:16:00.000","21213",5,-76.5858963,39.3109903
"Dispatch Work Crew","1000  OGDEN ST","BALTIMORE","POTHOLES","TRM-Potholes","2015-07-06T16:26:25.000","2015-07-08T16:26:25.000","GRACELAND PARK","Abated - Close SR","15-00528537","MD","CLOSED","2015-07-07T15:12:00.000","2015-07-07T15:11:00.000","21224",5,-76.5330585,39.2832061
"Dispatch Work Crew","JENIFER AVE &E 31ST ST","BALTIMORE","POTHOLES","TRM-Potholes","2015-05-27T11:22:22.000","2015-05-29T11:22:22.000","COLDSTREAM HOMESTEAD MONTEBELLO","Abated - Close SR","15-00411071","MD","CLOSED","2015-05-27T16:33:06.000","2015-05-27T16:32:00.000","21218",5,-83.089855,42.500237
"Dispatch Work Crew","5004  LIBERTY HEIGHTS AVE","BALTIMORE","POTHOLES","TRM-Potholes","2015-07-08T14:35:52.000","2015-07-10T14:35:52.000","HOWARD PARK","Abated - Close SR","15-00535171","MD","CLOSED","2015-07-09T15:13:49.000","2015-07-09T15:12:00.000","21207",5,-76.7002425,39.3328571
"Dispatch Work Crew","700  NORTH POINT RD","BALTIMORE","POTHOLES","TRM-Potholes","2015-06-16T19:34:48.000","2015-06-18T19:34:48.000","PULASKI INDUSTRIAL AREA","Abated - Close SR","15-00469413","MD","CLOSED","2015-06-17T18:26:50.000","2015-06-17T18:26:00.000","21224",5,-76.5136027,39.2911204
NA,"3700  HOWARD PARK AVE","BALTIMORE","POTHOLES","TRM-Potholes","2015-06-18T12:48:21.000","2015-06-20T12:48:21.000","HOWARD PARK",NA,"15-00475209","MD","CLOSED","2015-06-18T17:20:34.000",NA,"21207",5,-76.6976264,39.3339874
"Dispatch Work Crew","610 W CONWAY ST","BALTIMORE","POTHOLES","TRM-Potholes","2015-05-18T20:21:46.000","2015-05-20T20:21:46.000","RIDGELY'S DELIGHT","Abated - Close SR","15-00390207","MD","CLOSED","2015-05-19T18:40:16.000","2015-05-19T18:40:00.000","21230",5,-76.624152,39.2825739
"Dispatch Work Crew","2405  WASHINGTON BLVD","BALTIMORE","POTHOLES","TRM-Potholes","2015-05-21T14:28:23.000","2015-05-23T14:28:23.000","MORRELL PARK","Abated - Close SR","15-00398780","MD","CLOSED","2015-05-21T19:30:32.000","2015-05-21T19:29:00.000","21230",5,-76.650391,39.268128
"Dispatch Work Crew","DOLPHIN ST &N HOWARD ST","BALTIMORE","POTHOLES","TRM-Potholes","2015-05-14T11:34:38.000","2015-05-16T11:34:38.000","MID-TOWN BELVEDERE","Abated - Close SR","15-00377702","MD","CLOSED","2015-05-14T17:57:58.000","2015-05-14T17:56:00.000","21201",5,-93.4728673,45.5210844
"Dispatch Work Crew","2782 W FRANKLIN ST","BALTIMORE","POTHOLES","TRM-Potholes","2015-07-22T14:37:16.000","2015-07-24T14:37:16.000","ROSEMONT HOMEOWNERS/TENANTS","Abated - Close SR","15-00578018","MD","CLOSED","2015-07-22T18:23:05.000","2015-07-22T18:22:00.000","21216",5,-76.6622225,39.2932368
"Dispatch Work Crew","2939  SAINT PAUL ST","BALTIMORE","POTHOLES","TRM-Potholes","2015-05-31T15:32:03.000","2015-06-02T15:32:03.000","CHARLES VILLAGE","Abated - Close SR","15-00424201","MD","CLOSED","2015-06-02T12:29:18.000","2015-06-02T12:29:00.000","21218",5,-76.615467,39.324249
"Dispatch Work Crew","SEFTON AVE & MARY AVE, BALTIMORE, MD, 21",NA,"POTHOLES","TRM-Potholes","2015-06-24T13:58:01.000","2015-06-26T13:58:01.000","GLENHAM-BELFORD","Abated - Close SR","15-00492562","MD","CLOSED","2015-06-24T17:56:30.000","2015-06-24T17:56:00.000",NA,5,-76.551891,39.355049
"Dispatch Work Crew","1240  HENRY ST","BALTIMORE","POTHOLES","TRM-Potholes","2015-05-18T04:19:45.000","2015-05-20T04:19:45.000","RIVERSIDE","Abated - Close SR","15-00386924","MD","CLOSED","2015-05-18T15:57:23.000","2015-05-18T15:57:00.000","21230",5,-76.6080836,39.2749431
"Dispatch Work Crew","SCRABBLE ALY & LOVEGROVE ST","BALTIMORE","POTHOLES","TRM-Potholes","2015-05-15T12:26:26.000","2015-05-17T12:26:26.000","DOWNTOWN","Abated - Close SR","15-00381753","MD","CLOSED","2015-05-15T14:20:19.000","2015-05-15T14:20:00.000","21202",5,-76.6142954,39.2946493
"Dispatch Work Crew","4621  HARFORD RD","BALTIMORE","POTHOLES","TRM-Potholes","2015-07-22T16:42:18.000","2015-07-24T16:42:18.000","BEVERLY HILLS","Abated - Close SR","15-00578656","MD","CLOSED","2015-07-23T14:57:44.000","2015-07-23T14:57:00.000","21214",5,-76.5690562,39.3418319
"Dispatch Work Crew","100 W UNIVERSITY PKWY","BALTIMORE","POTHOLES","TRM-Potholes","2015-07-02T22:49:37.000","2015-07-04T22:49:37.000","TUSCANY-CANTERBURY","Abated - Close SR","15-00522149","MD","CLOSED","2015-07-06T19:28:09.000","2015-07-06T19:27:00.000","21210",5,-76.620687,39.334798
"Dispatch Work Crew","1638  GLENEAGLE RD","BALTIMORE","POTHOLES","TRM-Potholes","2015-05-19T18:54:18.000","2015-05-21T18:54:18.000","LOCH RAVEN","Abated - Close SR","15-00393539","MD","CLOSED","2015-05-19T18:59:18.000","2015-05-19T18:58:00.000","21239",5,-76.583495,39.360373
NA,"4913  MIDWOOD AVE","BALTIMORE","POTHOLES","TRM-Potholes","2015-07-05T01:13:31.000","2015-07-07T01:13:31.000","KENILWORTH PARK",NA,"15-00524945","MD","DUPCLOSD","2015-07-06T16:41:34.000",NA,"21212",5,-76.603558,39.347944
"Dispatch Work Crew","204  PADDINGTON RD","BALTIMORE","POTHOLES","TRM-Potholes","2015-07-01T12:30:04.000","2015-07-03T12:30:04.000","HOMELAND","Abated - Close SR","15-00515697","MD","CLOSED","2015-07-02T15:22:53.000","2015-07-02T15:22:00.000","21212",5,-76.619731,39.35478
"Dispatch Work Crew","2800  SISSON ST","BALTIMORE","POTHOLES","TRM-Potholes","2015-06-11T19:46:46.000","2015-06-13T19:46:46.000","JONES FALLS AREA","Abated - Close SR","15-00456421","MD","CLOSED","2015-06-12T16:32:05.000","2015-06-12T16:32:00.000","21211",5,-76.6259904,39.3195391
"Dispatch Work Crew","2708  SULGRAVE AVE","BALTIMORE","POTHOLES","TRM-Potholes","2015-06-24T13:06:26.000","2015-06-26T13:06:26.000","MOUNT WASHINGTON","Abated - Close SR","15-00492307","MD","CLOSED","2015-06-24T16:35:03.000","2015-06-24T16:34:00.000","21215",5,-76.675053,39.360495
"Dispatch Work Crew","700 S ROBINSON ST","BALTIMORE","POTHOLES","TRM-Potholes","2015-07-27T13:29:37.000","2015-07-29T13:29:37.000","CANTON","Abated - Close SR","15-00592698","MD","CLOSED","2015-07-28T17:37:44.000","2015-07-28T17:37:00.000","21224",5,-76.5722587,39.2840089
"Dispatch Work Crew","OAKLAND AVE & YORK RD, BALTIMORE, MD, 21",NA,"POTHOLES","TRM-Potholes","2015-07-10T22:22:27.000","2015-07-12T22:22:27.000","GUILFORD","Abated - Close SR","15-00544555","MD","CLOSED","2015-07-13T16:52:06.000","2015-07-13T16:52:00.000",NA,5,-83.3105614,42.6527783
"Dispatch Work Crew","5600  THE ALAMEDA","BALTIMORE","POTHOLES","TRM-Potholes","2015-07-01T13:12:25.000","2015-07-03T13:12:25.000","GLEN OAKS","Abated - Close SR","15-00516024","MD","CLOSED","2015-07-02T15:32:36.000","2015-07-02T15:32:00.000","21239",5,-76.5952548,39.3598677
"Dispatch Work Crew","500  WILDWOOD PKWY","BALTIMORE","POTHOLES","TRM-Potholes","2015-07-31T21:36:56.000","2015-08-02T21:36:56.000","ALLENDALE","Abated - Close SR","15-00608175","MD","CLOSED","2015-08-03T18:33:05.000","2015-08-03T18:31:00.000","21229",5,-76.6838309,39.2924419
"Dispatch Work Crew","3239 E BALTIMORE ST","BALTIMORE","POTHOLES","TRM-Potholes","2015-06-21T22:45:58.000","2015-06-23T22:45:58.000","BALTIMORE-LINWOOD","Abated - Close SR","15-00483668","MD","CLOSED","2015-06-23T13:22:35.000","2015-06-23T13:22:00.000","21224",5,-76.570789,39.292237
"Dispatch Work Crew","1700 S PONCA ST","BALTIMORE","POTHOLES","TRM-Potholes","2015-05-20T12:17:37.000","2015-05-22T12:17:37.000","CANTON INDUSTRIAL AREA","Abated - Close SR","15-00394902","MD","CLOSED","2015-05-20T17:29:39.000","2015-05-20T17:29:00.000","21224",5,-76.5534191,39.2730633
"Dispatch Work Crew","N ARLINGTON AVE & W FRANKLIN ST, BALTIMO",NA,"POTHOLES","TRM-Potholes","2015-06-19T18:39:05.000","2015-06-21T18:39:05.000","HARLEM PARK","Abated - Close SR","15-00480062","MD","CLOSED","2015-06-23T16:38:55.000","2015-06-23T16:38:00.000",NA,5,-86.0646084,39.8128302
"Dispatch Work Crew","N BENTALOU ST & PRESBURY ST","BALTIMORE","POTHOLES","TRM-Potholes","2015-05-23T20:50:39.000","2015-05-25T20:50:39.000","COPPIN HEIGHTS/ASH-CO-EAST","Abated - Close SR","15-00404216","MD","CLOSED","2015-05-26T16:10:59.000","2015-05-26T16:10:00.000","21216",5,-76.6535563,39.300701
"Dispatch Work Crew","4427  BUENA VISTA AVE","BALTIMORE","POTHOLES","TRM-Potholes","2015-06-25T16:08:12.000","2015-06-27T16:08:12.000","MEDFIELD","Abated - Close SR","15-00498570","MD","CLOSED","2015-06-26T14:11:52.000","2015-06-26T14:04:00.000","21211",5,-76.643309,39.342896
"Dispatch Work Crew","3000  MONDAWMIN AVE","BALTIMORE","POTHOLES","TRM-Potholes","2015-06-26T15:38:09.000","2015-06-28T15:38:09.000","HANLON-LONGWOOD","Closed","15-00501857","MD","CLOSED","2015-06-30T13:31:15.000","2015-06-30T13:31:00.000","21216",5,-76.668505,39.315518
"Dispatch Work Crew","3401  PULASKI HWY","BALTIMORE","POTHOLES","TRM-Potholes","2015-05-18T12:18:18.000","2015-05-20T12:18:18.000","BALTIMORE HIGHLANDS","Abated - Close SR","15-00387706","MD","CLOSED","2015-05-20T17:44:32.000","2015-05-20T17:43:00.000","21224",5,-76.5690897,39.2957903
"Dispatch Work Crew","FALLS RD & W COLD SPRING-WOOD HEIGHTS, B",NA,"POTHOLES","TRM-Potholes","2015-06-19T19:04:01.000","2015-06-21T19:04:01.000","HOES HEIGHTS","Abated - Close SR","15-00480155","MD","CLOSED","2015-06-22T16:52:35.000","2015-06-22T16:52:00.000",NA,5,-76.7121307,39.5052964
"Dispatch Work Crew","MOUNT CLARE ST & LEMMON ST","BALTIMORE","POTHOLES","TRM-Potholes","2015-05-18T10:48:01.000","2015-05-20T10:48:01.000","HOLLINS MARKET","Abated - Close SR","15-00387108","MD","CLOSED","2015-05-18T16:00:03.000","2015-05-18T15:59:00.000","21223",5,-76.6344428,39.2867264
"Dispatch Work Crew","ELSRODE AVE & EVERGREEN AVE, BALTIMORE,","Baltimore","POTHOLES","TRM-Potholes","2015-07-29T15:04:39.000","2015-07-31T15:04:39.000","HARFORD-ECHODALE/PERRING PARKWAY","Abated - Close SR","15-00600158","MD","CLOSED","2015-07-30T15:36:35.000","2015-07-30T15:36:00.000","21214",5,-76.5638274,39.3543757
"Dispatch Work Crew","500  NOTTINGHAM RD","BALTIMORE","POTHOLES","TRM-Potholes","2015-05-29T17:26:48.000","2015-05-31T17:26:48.000","TEN HILLS","Abated - Close SR","15-00421040","MD","CLOSED","2015-06-01T16:48:39.000","2015-06-01T16:48:00.000","21229",5,-76.698818,39.2890919
"Dispatch Work Crew","2723  ROUND RD","BALTIMORE","POTHOLES","TRM-Potholes","2015-07-09T17:32:46.000","2015-07-11T17:32:46.000","CHERRY HILL","Abated - Close SR","15-00540175","MD","CLOSED","2015-07-13T12:14:31.000","2015-07-13T12:13:00.000","21225",5,-76.6280309,39.248084
"Dispatch Work Crew","300 N GAY ST","BALTIMORE","POTHOLES","TRM-Potholes","2015-07-06T18:40:18.000","2015-07-08T18:40:18.000","PENN-FALLSWAY","Abated - Close SR","15-00529099","MD","CLOSED","2015-07-08T11:39:51.000","2015-07-07T17:37:00.000","21202",5,-76.6081374,39.2940575
"Dispatch Work Crew","533 E 25TH ST","BALTIMORE","POTHOLES","TRM-Potholes","2015-05-21T21:13:11.000","2015-05-23T21:13:11.000","EAST BALTIMORE MIDWAY","Abated - Close SR","15-00400088","MD","CLOSED","2015-05-22T14:07:35.000","2015-05-22T14:06:00.000","21218",5,-76.6068805,39.3179523
"Dispatch Work Crew","325 S SMALLWOOD ST","BALTIMORE","POTHOLES","TRM-Potholes","2015-06-23T21:09:42.000","2015-06-25T21:09:42.000","CARROLLTON RIDGE","Abated - Close SR","15-00490795","MD","CLOSED","2015-06-24T17:09:14.000","2015-06-24T17:08:00.000","21223",5,-76.650944,39.283451
"Dispatch Work Crew","2800 E MADISON ST","BALTIMORE","POTHOLES","TRM-Potholes","2015-07-22T19:18:00.000","2015-07-24T19:18:00.000","MADISON-EASTEND","Abated - Close SR","15-00579326","MD","CLOSED","2015-07-23T19:00:19.000","2015-07-23T18:59:00.000","21205",5,-76.5781016,39.3000875
"Dispatch Work Crew","5900  NORTHWOOD DR","BALTIMORE","POTHOLES","TRM-Potholes","2015-05-12T00:47:32.000","2015-05-14T00:47:32.000","CHINQUAPIN PARK-BELVEDERE","Abated - Close SR","15-00369364","MD","CLOSED","2015-05-12T15:48:49.000","2015-05-12T15:48:00.000","21212",5,-76.599241,39.364223
"Dispatch Work Crew","707 S ANN ST","BALTIMORE","POTHOLES","TRM-Potholes","2015-07-11T11:26:56.000","2015-07-13T11:26:56.000","FELLS POINT","Abated - Close SR","15-00545280","MD","CLOSED","2015-07-13T14:33:01.000","2015-07-13T14:32:00.000","21231",5,-76.591019,39.2833929
"Dispatch Work Crew","2800  MARYLAND AVE","BALTIMORE","POTHOLES","TRM-Potholes","2015-06-16T14:22:59.000","2015-06-18T14:22:59.000","CHARLES VILLAGE","Abated - Close SR","15-00467904","MD","CLOSED","2015-06-16T18:37:47.000","2015-06-16T18:37:00.000","21218",5,-76.618976,39.3219629
"Dispatch Work Crew","1101  ARGONNE DR","BALTIMORE","POTHOLES","TRM-Potholes","2015-07-20T10:21:37.000","2015-07-22T10:21:37.000","ORIGINAL NORTHWOOD","Abated - Close SR","15-00568986","MD","CLOSED","2015-07-21T16:36:36.000","2015-07-21T16:36:00.000","21218",5,-76.5984836,39.3390691
"Dispatch Work Crew","700 E NORTH AVE","BALTIMORE","POTHOLES","TRM-Potholes","2015-06-03T09:49:31.000","2015-06-05T09:49:31.000","EAST BALTIMORE MIDWAY","Abated - Close SR","15-00431834","MD","CLOSED","2015-06-03T13:59:48.000","2015-06-03T13:58:00.000","21202",5,-76.608172,39.311769
"Dispatch Work Crew","300 E 33RD ST","BALTIMORE","POTHOLES","TRM-Potholes","2015-05-26T20:00:16.000","2015-05-28T20:00:16.000","OAKENSHAWE","Abated - Close SR","15-00409717","MD","CLOSED","2015-06-01T12:38:59.000","2015-06-01T12:38:00.000","21218",5,-76.613394,39.328553
NA,"401 E MADISON ST","BALTIMORE","POTHOLES","TRM-Potholes","2015-06-18T15:52:39.000","2015-06-20T15:52:39.000","PENN-FALLSWAY",NA,"15-00476113","MD","CLOSED","2015-06-18T18:02:21.000",NA,"21202",5,-76.6093735,39.2983454
"Dispatch Work Crew","4629  FOSTER AVE","BALTIMORE","POTHOLES","TRM-Potholes","2015-08-03T18:35:19.000","2015-08-05T18:35:19.000","GREEKTOWN","Closed","15-00614063","MD","CLOSED","2015-08-04T00:39:13.000","2015-08-04T00:39:00.000","21224",5,-76.5570654,39.2849778
"Dispatch Work Crew","1207 S HANOVER ST","BALTIMORE","POTHOLES","TRM-Potholes","2015-07-10T13:09:39.000","2015-07-12T13:09:39.000","FEDERAL HILL","Abated - Close SR","15-00542554","MD","CLOSED","2015-07-13T18:06:31.000","2015-07-13T18:05:00.000","21230",5,-76.6151,39.27527
"Dispatch Work Crew","4400  PALL MALL RD","BALTIMORE","POTHOLES","TRM-Potholes","2015-06-25T15:26:25.000","2015-06-27T15:26:25.000","GREENSPRING","Abated - Close SR","15-00498422","MD","CLOSED","2015-06-26T17:25:52.000","2015-06-26T17:25:00.000","21215",5,-76.6624968,39.3393358
"Dispatch Work Crew","GUTMAN AVE & LOCH RAVEN RD, BALTIMORE, M",NA,"POTHOLES","TRM-Potholes","2015-06-09T15:19:07.000","2015-06-11T15:19:07.000","EAST BALTIMORE MIDWAY","Abated - Close SR","15-00448486","MD","CLOSED","2015-06-10T17:56:10.000","2015-06-10T17:55:00.000",NA,5,-93.1354296,38.1720447
"Dispatch Work Crew","MARTINGALE AVE & FREDERICK AVE","BALTIMORE","POTHOLES","TRM-Potholes","2015-05-29T15:57:59.000","2015-05-31T15:57:59.000","IRVINGTON","Abated - Close SR","15-00420669","MD","CLOSED","2015-06-01T17:21:53.000","2015-06-01T17:19:00.000","21229",5,-76.6902498,39.2815372
"Dispatch Work Crew","3200  WESTWOOD AVE","BALTIMORE","POTHOLES","TRM-Potholes","2015-06-21T19:24:49.000","2015-06-23T19:24:49.000","ROSEMONT","Abated - Close SR","15-00483519","MD","CLOSED","2015-06-22T18:05:45.000","2015-06-22T18:05:00.000","21216",5,-76.6715509,39.308174
"Dispatch Work Crew","1524 N ELLAMONT ST","BALTIMORE","POTHOLES","TRM-Potholes","2015-05-25T10:50:07.000","2015-05-27T10:50:07.000","ROSEMONT","Abated - Close SR","15-00405579","MD","CLOSED","2015-05-26T18:24:45.000","2015-05-26T18:24:00.000","21216",5,-76.670959,39.305191
"Dispatch Work Crew","301 N GRANTLEY ST","BALTIMORE","POTHOLES","TRM-Potholes","2015-07-02T12:38:24.000","2015-07-04T12:38:24.000","ALLENDALE","Abated - Close SR","15-00519072","MD","CLOSED","2015-07-02T18:15:17.000","2015-07-02T18:15:00.000","21229",5,-76.6765811,39.2909058
"Dispatch Work Crew","4545 N CHARLES ST","BALTIMORE","POTHOLES","TRM-Potholes","2015-05-29T11:22:03.000","2015-05-31T11:22:03.000","LOYOLA/NOTRE DAME","Abated - Close SR","15-00419126","MD","CLOSED","2015-05-29T15:21:51.000","2015-05-29T15:21:00.000","21210",5,-76.620039,39.348188
"Dispatch Work Crew","2900  CARVER RD","BALTIMORE","POTHOLES","TRM-Potholes","2015-07-27T19:57:22.000","2015-07-29T19:57:22.000","CHERRY HILL","Abated - Close SR","15-00594515","MD","CLOSED","2015-07-28T19:04:00.000","2015-07-28T19:03:00.000","21225",5,-76.6252198,39.2466653
"Dispatch Work Crew","186 W READ ST","BALTIMORE","POTHOLES","TRM-Potholes","2015-07-30T13:29:27.000","2015-08-01T13:29:27.000","MID-TOWN BELVEDERE","Abated - Close SR","15-00602975","MD","CLOSED","2015-08-03T17:10:58.000","2015-08-03T17:06:00.000","21201",5,-76.618524,39.3002326
"Dispatch Work Crew","WELLESLEY ST & STAFFORD ST, BALTIMORE, M",NA,"POTHOLES","TRM-Potholes","2015-06-11T14:23:17.000","2015-06-13T14:23:17.000","GWYNNS FALLS","Abated - Close SR","15-00454874","MD","CLOSED","2015-06-12T18:40:05.000","2015-06-12T18:38:00.000",NA,5,-71.3058053,42.34205
"Dispatch Work Crew","4005  SHANNON DR","BALTIMORE","POTHOLES","TRM-Potholes","2015-06-25T11:53:31.000","2015-06-27T11:53:31.000","BELAIR-EDISON","Abated - Close SR","15-00497289","MD","CLOSED","2015-06-26T18:08:18.000","2015-06-26T18:08:00.000","21213",5,-76.55739,39.318728
"Dispatch Work Crew","2500 W FRANKLIN ST","BALTIMORE","POTHOLES","TRM-Potholes","2015-06-12T21:22:17.000","2015-06-14T21:22:17.000","ROSEMONT HOMEOWNERS/TENANTS","Abated - Close SR","15-00459857","MD","CLOSED","2015-06-15T18:23:28.000","2015-06-15T18:23:00.000","21223",5,-76.6563966,39.2936235
"Dispatch Work Crew","700  GORSUCH AVE","BALTIMORE","POTHOLES","TRM-Potholes","2015-07-17T12:37:15.000","2015-07-19T12:37:15.000","BETTER WAVERLY","Abated - Close SR","15-00563970","MD","CLOSED","2015-07-17T17:54:31.000","2015-07-17T17:54:00.000","21218",5,-76.6065164,39.3272291
"Dispatch Work Crew","3505  FOSTER AVE","BALTIMORE","POTHOLES","TRM-Potholes","2015-05-20T22:17:53.000","2015-05-22T22:17:53.000","CANTON","Abated - Close SR","15-00397184","MD","CLOSED","2015-05-22T15:46:28.000","2015-05-22T15:45:00.000","21224",5,-76.567704,39.284357
"Dispatch Work Crew","2700  FREDERICK AVE","BALTIMORE","POTHOLES","TRM-Potholes","2015-05-19T15:18:25.000","2015-05-21T15:18:25.000","CARROLL-SOUTH HILTON","Abated - Close SR","15-00392598","MD","CLOSED","2015-05-20T16:49:41.000","2015-05-20T16:49:00.000","21223",5,-76.6593542,39.2811618
"Dispatch Work Crew","DUNDALK AVE & HOLABIRD AVE","BALTIMORE","POTHOLES","TRM-Potholes","2015-06-02T15:48:59.000","2015-06-04T15:48:59.000","GRACELAND PARK","Abated - Close SR","15-00430050","MD","CLOSED","2015-06-02T18:56:36.000","2015-06-02T18:56:00.000","21224",5,-76.5266315,39.2634781
"Dispatch Work Crew","501 E 33RD ST","BALTIMORE","POTHOLES","TRM-Potholes","2015-06-15T18:56:59.000","2015-06-17T18:56:59.000","BETTER WAVERLY","Abated - Close SR","15-00465449","MD","CLOSED","2015-06-16T14:53:40.000","2015-06-16T14:53:00.000","21218",5,-76.6089233,39.3281281
"Dispatch Work Crew","3900  PARKSIDE DR","BALTIMORE","POTHOLES","TRM-Potholes","2015-07-13T19:43:04.000","2015-07-15T19:43:04.000","ARCADIA","Abated - Close SR","15-00550734","MD","CLOSED","2015-07-14T17:57:22.000","2015-07-14T17:56:00.000","21206",5,-76.5677539,39.330508
"Dispatch Work Crew","3600 W SARATOGA ST","BALTIMORE","POTHOLES","TRM-Potholes","2015-07-02T12:33:22.000","2015-07-04T12:33:22.000","ALLENDALE","Abated - Close SR","15-00519045","MD","CLOSED","2015-07-02T18:16:44.000","2015-07-02T18:16:00.000","21229",5,-76.6773,39.291108
"Dispatch Work Crew","RAYNER AVE & POPLAR GROVE ST","BALTIMORE","POTHOLES","TRM-Potholes","2015-05-18T12:29:18.000","2015-05-20T12:29:18.000","FRANKLINTOWN ROAD","Abated - Close SR","15-00387777","MD","CLOSED","2015-05-19T18:39:05.000","2015-05-19T18:38:00.000","21216",5,-76.6627673,39.2963207
"Dispatch Work Crew","N CAREY ST & W LEXINGTON ST, BALTIMORE,",NA,"POTHOLES","TRM-Potholes","2015-07-21T13:33:38.000","2015-07-23T13:33:38.000","FRANKLIN SQUARE","Abated - Close SR","15-00573670","MD","CLOSED","2015-07-22T17:56:16.000","2015-07-22T17:56:00.000",NA,5,-87.4569009,41.6352369
"Dispatch Work Crew","2001 N BROADWAY","BALTIMORE","POTHOLES","TRM-Potholes","2015-07-01T13:19:42.000","2015-07-03T13:19:42.000","SOUTH CLIFTON PARK","Abated - Close SR","15-00516090","MD","CLOSED","2015-07-02T17:17:38.000","2015-07-02T17:17:00.000","21213",5,-76.596097,39.313739
"Dispatch Work Crew","2700  FLEET ST","BALTIMORE","POTHOLES","TRM-Potholes","2015-07-23T14:33:07.000","2015-07-25T14:33:07.000","CANTON","Abated - Close SR","15-00581848","MD","CLOSED","2015-07-24T18:22:58.000","2015-07-24T18:22:00.000","21224",5,-76.5785597,39.285178
"Dispatch Work Crew","NORMANDY AVE &W FRANKLIN ST","BALTIMORE","POTHOLES","TRM-Potholes","2015-06-04T12:27:53.000","2015-06-06T12:27:53.000","ALLENDALE","Abated - Close SR","15-00435981","MD","CLOSED","2015-06-05T17:22:49.000","2015-06-05T17:22:00.000","21229",5,175.2861196,-37.8077846
"Dispatch Work Crew","1829 W MULBERRY ST","BALTIMORE","POTHOLES","TRM-Potholes","2015-07-15T11:52:23.000","2015-07-17T11:52:23.000","FRANKLIN SQUARE","Abated - Close SR","15-00556224","MD","CLOSED","2015-07-15T17:49:20.000","2015-07-15T17:43:00.000","21223",5,-76.64655,39.292748
"Dispatch Work Crew","3058  BRIGHTON ST","BALTIMORE","POTHOLES","TRM-Potholes","2015-07-07T11:16:05.000","2015-07-09T11:16:05.000","ROSEMONT","Abated - Close SR","15-00530087","MD","CLOSED","2015-07-08T18:12:29.000","2015-07-08T18:12:00.000","21216",5,-76.668952,39.305358
"Dispatch Work Crew","205 W MADISON ST","BALTIMORE","POTHOLES","TRM-Potholes","2015-06-29T14:14:29.000","2015-07-01T14:14:29.000","MOUNT VERNON","Closed","15-00507517","MD","CLOSED","2015-06-30T00:40:20.000","2015-06-30T00:40:00.000","21201",5,-76.6189345,39.2983061
"Dispatch Work Crew","2749  BAKER ST","BALTIMORE","POTHOLES","TRM-Potholes","2015-07-08T16:46:23.000","2015-07-10T16:46:23.000","NORTHWEST COMMUNITY ACTION","Abated - Close SR","15-00535968","MD","CLOSED","2015-07-09T18:24:17.000","2015-07-09T18:24:00.000","21216",5,-76.6626409,39.305844
NA,"1700  CHILTON ST","BALTIMORE","POTHOLES","TRM-Potholes","2015-06-17T22:27:21.000","2015-06-19T22:27:21.000","COLDSTREAM HOMESTEAD MONTEBELLO",NA,"15-00474354","MD","CLOSED","2015-06-18T14:52:39.000",NA,"21218",5,-76.5919395,39.3276882
"Dispatch Work Crew","5500  PULASKI HWY","BALTIMORE","POTHOLES","TRM-Potholes","2015-05-27T17:08:31.000","2015-05-29T17:08:31.000","KRESSON","Abated - Close SR","15-00413038","MD","CLOSED","2015-05-28T15:35:12.000","2015-05-28T15:34:00.000",NA,5,-76.5525335,39.3004667
"Dispatch Work Crew","S GAY ST & E LOMBARD ST, BALTIMORE, MD,",NA,"POTHOLES","TRM-Potholes","2015-07-31T18:36:31.000","2015-08-02T18:36:31.000","INNER HARBOR","Abated - Close SR","15-00607767","MD","CLOSED","2015-08-03T14:00:15.000","2015-08-03T13:59:00.000",NA,5,-83.9167405,35.9626325
"Dispatch Work Crew","5731  GOVANE AVE","BALTIMORE","POTHOLES","TRM-Potholes","2015-06-15T13:02:34.000","2015-06-17T13:02:34.000","MID-GOVANS","Abated - Close SR","15-00463363","MD","CLOSED","2015-06-15T15:54:29.000","2015-06-15T15:53:00.000","21212",5,-76.607947,39.359975
"Dispatch Work Crew","5800  RUSHBROOK RD","BALTIMORE","POTHOLES","TRM-Potholes","2015-06-29T21:48:09.000","2015-07-01T21:48:09.000","CHINQUAPIN PARK-BELVEDERE","Abated - Close SR","15-00510305","MD","CLOSED","2015-06-30T16:52:18.000","2015-06-30T16:51:00.000","21212",5,-76.6029021,39.3626166
"Dispatch Work Crew","2900 E LOMBARD ST","BALTIMORE","POTHOLES","TRM-Potholes","2015-08-03T15:46:25.000","2015-08-05T15:46:25.000","BALTIMORE-LINWOOD","Abated - Close SR","15-00613056","MD","CLOSED","2015-08-03T18:03:12.000","2015-08-03T18:02:00.000","21224",5,-76.575585,39.29119
"Dispatch Work Crew","2600  EASTERN AVE","BALTIMORE","POTHOLES","TRM-Potholes","2015-06-23T10:39:43.000","2015-06-25T10:39:43.000","PATTERSON PARK","Abated - Close SR","15-00487516","MD","CLOSED","2015-06-23T13:23:48.000","2015-06-23T13:23:00.000","21224",5,-76.5800301,39.2861485
"Dispatch Work Crew","1590  HAVENWOOD RD","BALTIMORE","POTHOLES","TRM-Potholes","2015-05-27T18:14:08.000","2015-05-29T18:14:08.000","HILLEN","Abated - Close SR","15-00413321","MD","CLOSED","2015-05-28T17:49:12.000","2015-05-28T17:48:00.000","21218",5,-76.5896485,39.3406024
"Dispatch Work Crew","FRISBY ST & MCKEWIN AVE, BALTIMORE, MD,",NA,"POTHOLES","TRM-Potholes","2015-06-24T10:04:54.000","2015-06-26T10:04:54.000","WAVERLY","Abated - Close SR","15-00491324","MD","CLOSED","2015-06-25T13:59:51.000","2015-06-25T13:59:00.000",NA,5,-76.6061516,39.3321797
"Dispatch Work Crew","TRUESDALE AVE & MORAVIA RD, BALTIMORE, M",NA,"POTHOLES","TRM-Potholes","2015-07-14T12:59:27.000","2015-07-16T12:59:27.000","FRANKFORD","Abated - Close SR","15-00552503","MD","CLOSED","2015-07-15T18:33:29.000","2015-07-15T18:33:00.000",NA,5,-76.546436,39.318352
"Dispatch Work Crew","PULASKI HWY & N HAVEN ST, BALTIMORE, MD,",NA,"POTHOLES","TRM-Potholes","2015-06-29T11:07:02.000","2015-07-01T11:07:02.000","KRESSON","Abated - Close SR","15-00506149","MD","CLOSED","2015-06-29T18:25:37.000","2015-06-29T18:24:00.000",NA,5,-76.1367406,39.5251386
"Dispatch Work Crew","WESTERN RUN DR & CLARKS LN, BALTIMORE, M",NA,"POTHOLES","TRM-Potholes","2015-06-08T15:43:52.000","2015-06-10T15:43:52.000","CROSS COUNTRY","Abated - Close SR","15-00444591","MD","CLOSED","2015-06-08T18:35:02.000","2015-06-08T18:34:00.000",NA,5,-76.6809296,39.3622793
"Dispatch Work Crew","KERNWOOD AVE & E COLD SPRING LN, BALTIMO",NA,"POTHOLES","TRM-Potholes","2015-06-22T19:12:07.000","2015-06-24T19:12:07.000","KERNEWOOD","Abated - Close SR","15-00486611","MD","CLOSED","2015-06-23T18:20:48.000","2015-06-23T18:20:00.000",NA,5,-70.8979097,42.5440155
"Dispatch Work Crew","600 E LOMBARD ST","BALTIMORE","POTHOLES","TRM-Potholes","2015-05-31T21:32:25.000","2015-06-02T21:32:25.000","DOWNTOWN","Abated - Close SR","15-00424661","MD","CLOSED","2015-06-02T14:52:23.000","2015-06-02T14:48:00.000","21202",5,-76.6070865,39.2881285
"Dispatch Work Crew","E NORTH AVE & N GAY ST, BALTIMORE, MD, 2",NA,"POTHOLES","TRM-Potholes","2015-06-18T21:52:25.000","2015-06-20T21:52:25.000","BROADWAY EAST","Abated - Close SR","15-00477446","MD","CLOSED","2015-06-19T16:32:31.000","2015-06-19T16:31:00.000",NA,5,-87.9735577,41.9055261
"Dispatch Work Crew","400  NORMANDY AVE","BALTIMORE","POTHOLES","TRM-Potholes","2015-07-20T13:45:14.000","2015-07-22T13:45:14.000","ALLENDALE","Abated - Close SR","15-00569947","MD","CLOSED","2015-07-20T19:15:01.000","2015-07-20T19:14:00.000","21229",5,-76.681777,39.291746
"Dispatch Work Crew","5601  LOCH RAVEN BLVD","BALTIMORE","POTHOLES","TRM-Potholes","2015-06-25T11:02:12.000","2015-06-27T11:02:12.000","LOCH RAVEN","Abated - Close SR","15-00497010","MD","CLOSED","2015-06-30T16:14:33.000","2015-06-30T16:13:00.000","21239",5,-76.5873585,39.358132
"Dispatch Work Crew","600  MOUNT HOLLY ST","BALTIMORE","POTHOLES","TRM-Potholes","2015-06-21T16:19:58.000","2015-06-23T16:19:58.000","EDMONDSON VILLAGE","Abated - Close SR","15-00483374","MD","CLOSED","2015-06-22T17:56:31.000","2015-06-22T17:56:00.000","21229",5,-76.6798054,39.2939441
"Dispatch Work Crew","3500  SINCLAIR LN","BALTIMORE","POTHOLES","TRM-Potholes","2015-06-04T14:00:21.000","2015-06-06T14:00:21.000","BELAIR-EDISON","Abated - Close SR","15-00436459","MD","CLOSED","2015-06-04T18:09:40.000","2015-06-04T18:00:00.000","21213",5,-76.5692505,39.3134312
"Dispatch Work Crew","OLD HARFORD RD & MOORE AVE, BALTIMORE, M",NA,"POTHOLES","TRM-Potholes","2015-07-06T23:29:51.000","2015-07-08T23:29:51.000","NORTH HARFORD ROAD","Abated - Close SR","15-00529761","MD","CLOSED","2015-07-07T19:00:34.000","2015-07-07T18:59:00.000",NA,5,-76.5435471,39.3907971
"Dispatch Work Crew","5400  REISTERSTOWN RD","BALTIMORE","POTHOLES","TRM-Potholes","2015-05-19T15:26:00.000","2015-05-21T15:26:00.000","WOODMERE","Abated - Close SR","15-00392642","MD","CLOSED","2015-05-19T17:52:08.000","2015-05-19T17:52:00.000","21215",5,-76.688334,39.346023
"Dispatch Work Crew","BUCKNELL RD & ARIZONA AVE","BALTIMORE","POTHOLES","TRM-Potholes","2015-06-01T14:34:10.000","2015-06-03T14:34:10.000","CEDONIA","Abated - Close SR","15-00426184","MD","CLOSED","2015-06-01T17:33:18.000","2015-06-01T17:32:00.000","21206",5,-117.7742978,35.2426783
"Dispatch Work Crew","2900 S HANOVER ST","BALTIMORE","POTHOLES","TRM-Potholes","2015-06-29T11:05:21.000","2015-07-01T11:05:21.000","MIDDLE BRANCH/REEDBIRD PARKS","Abated - Close SR","15-00506143","MD","CLOSED","2015-06-29T19:00:35.000","2015-06-29T19:00:00.000","21225",5,-76.6162194,39.2518323
"Dispatch Work Crew","4002  SPRINGDALE AVE","BALTIMORE","POTHOLES","TRM-Potholes","2015-07-28T14:17:11.000","2015-07-30T14:17:11.000","CENTRAL FOREST PARK","Abated - Close SR","15-00596159","MD","CLOSED","2015-07-29T17:06:01.000","2015-07-29T17:05:00.000","21207",5,-76.6869869,39.3260798
"Dispatch Work Crew","1900 W PRATT ST","BALTIMORE","POTHOLES","TRM-Potholes","2015-06-01T14:40:21.000","2015-06-03T14:40:21.000","CARROLLTON RIDGE","Abated - Close SR","15-00426253","MD","CLOSED","2015-06-02T16:58:49.000","2015-06-02T16:58:00.000","21223",5,-76.6469074,39.2853195
"Dispatch Work Crew","201 S KRESSON ST","BALTIMORE","POTHOLES","TRM-Potholes","2015-06-30T16:49:41.000","2015-07-02T16:49:41.000","CANTON INDUSTRIAL AREA","Abated - Close SR","15-00513267","MD","CLOSED","2015-07-02T18:54:36.000","2015-07-02T18:53:00.000","21224",5,-76.5597633,39.290554
"Dispatch Work Crew","OREM AVE & PARKWOOD AVE, BALTIMORE, MD,",NA,"POTHOLES","TRM-Potholes","2015-06-12T16:08:22.000","2015-06-14T16:08:22.000","PARKVIEW/WOODBROOK","Abated - Close SR","15-00458771","MD","CLOSED","2015-06-15T18:15:00.000","2015-06-15T18:13:00.000",NA,5,-76.6476627,39.3159529
"Dispatch Work Crew","5811  LOCHLEA RD","BALTIMORE","POTHOLES","TRM-Potholes","2015-07-27T18:14:46.000","2015-07-29T18:14:46.000","MOUNT WASHINGTON","Abated - Close SR","15-00594111","MD","CLOSED","2015-07-28T14:28:13.000","2015-07-28T14:27:00.000","21209",5,-76.6561373,39.3671685
"Dispatch Work Crew","KEY HWY & I 95 N, BALTIMORE, MD, 21230",NA,"POTHOLES","TRM-Potholes","2015-07-02T14:08:21.000","2015-07-04T14:08:21.000","LOCUST POINT INDUSTRIAL AREA","Abated - Close SR","15-00519595","MD","CLOSED","2015-07-06T18:11:08.000","2015-07-06T18:10:00.000",NA,5,-76.6039393,39.2743368
"Dispatch Work Crew","510 N FRANKLINTOWN RD","BALTIMORE","POTHOLES","TRM-Potholes","2015-05-19T13:40:44.000","2015-05-21T13:40:44.000","PENROSE/FAYETTE STREET OUTREACH","Abated - Close SR","15-00391912","MD","CLOSED","2015-05-20T16:54:37.000","2015-05-20T16:54:00.000","21223",5,-76.6630179,39.293357
"Dispatch Work Crew","BRIGHTON ST &N LONGWOOD ST","BALTIMORE","POTHOLES","TRM-Potholes","2015-05-23T22:26:41.000","2015-05-25T22:26:41.000","ROSEMONT","Abated - Close SR","15-00404253","MD","CLOSED","2015-05-26T18:25:55.000","2015-05-26T18:25:00.000","21216",5,-0.3762392,53.7311299
"Generate Work Order","S HANOVER ST & CHERRY HILL RD","BALTIMORE","POTHOLES","TRM-Potholes","2015-05-08T15:34:07.000","2015-05-10T15:34:07.000","MIDDLE BRANCH/REEDBIRD PARKS","Abated - Close SR","15-00360818","MD","CLOSED","2015-05-12T16:50:01.000","2015-05-12T16:49:00.000","21225",5,-73.1663411,44.4727628
"Dispatch Work Crew","4917  MIDWOOD AVE","BALTIMORE","POTHOLES","TRM-Potholes","2015-06-23T13:05:45.000","2015-06-25T13:05:45.000","KENILWORTH PARK","Abated - Close SR","15-00488289","MD","CLOSED","2015-06-24T14:24:19.000","2015-06-24T14:24:00.000","21212",5,-76.603528,39.348161
"Dispatch Work Crew","1035 S CHARLES ST","BALTIMORE","POTHOLES","TRM-Potholes","2015-06-12T10:51:05.000","2015-06-14T10:51:05.000","FEDERAL HILL","Abated - Close SR","15-00457028","MD","CLOSED","2015-06-12T17:28:00.000","2015-06-12T17:27:00.000","21230",5,-76.614157,39.277401
"Dispatch Work Crew","2400 W FRANKLIN ST","BALTIMORE","POTHOLES","TRM-Potholes","2015-06-30T12:14:57.000","2015-07-02T12:14:57.000","ROSEMONT HOMEOWNERS/TENANTS","Abated - Close SR","15-00511744","MD","CLOSED","2015-06-30T18:59:17.000","2015-06-30T18:59:00.000","21223",5,-76.654878,39.293672
"Dispatch Work Crew","1557  CARSWELL ST","BALTIMORE","POTHOLES","TRM-Potholes","2015-06-22T12:16:04.000","2015-06-24T12:16:04.000","COLDSTREAM HOMESTEAD MONTEBELLO","Abated - Close SR","15-00484362","MD","CLOSED","2015-06-23T14:30:35.000","2015-06-23T14:30:00.000","21218",5,-76.595501,39.322408
"Dispatch Work Crew","4100 N CHARLES ST","BALTIMORE","POTHOLES","TRM-Potholes","2015-06-25T16:06:56.000","2015-06-27T16:06:56.000","TUSCANY-CANTERBURY","Abated - Close SR","15-00498563","MD","CLOSED","2015-06-26T16:31:38.000","2015-06-26T16:31:00.000","21218",5,-76.6191433,39.339108
"Dispatch Work Crew","414 S ROBINSON ST","BALTIMORE","POTHOLES","TRM-Potholes","2015-07-29T13:00:32.000","2015-07-31T13:00:32.000","HIGHLANDTOWN","Abated - Close SR","15-00599320","MD","CLOSED","2015-07-31T15:56:39.000","2015-07-31T15:55:00.000","21224",5,-76.5724677,39.2870541
"Dispatch Work Crew","2410  ERDMAN AVE","BALTIMORE","POTHOLES","TRM-Potholes","2015-07-06T11:56:22.000","2015-07-08T11:56:22.000","MAYFIELD","Abated - Close SR","15-00526425","MD","CLOSED","2015-07-06T15:04:35.000","2015-07-06T15:04:00.000","21213",5,-76.5789829,39.325375
"Dispatch Work Crew","WOODBROOK AVE & TRACTION ST","BALTIMORE","POTHOLES","TRM-Potholes","2015-05-29T12:28:28.000","2015-05-31T12:28:28.000","PENN NORTH","Abated - Close SR","15-00419486","MD","CLOSED","2015-05-29T17:22:45.000","2015-05-29T17:22:00.000","21217",5,-76.6467662,39.314902
NA,"4109  BOSTON ST","BALTIMORE","POTHOLES","TRM-Potholes","2015-06-18T14:39:31.000","2015-06-20T14:39:31.000","CANTON INDUSTRIAL AREA",NA,"15-00475777","MD","CLOSED","2015-06-18T17:49:43.000",NA,"21224",5,-76.5614693,39.277125
"Dispatch Work Crew","1200 S CHARLES ST","BALTIMORE","POTHOLES","TRM-Potholes","2015-07-09T14:53:02.000","2015-07-11T14:53:02.000","FEDERAL HILL","Abated - Close SR","15-00539441","MD","CLOSED","2015-07-09T17:50:06.000","2015-07-09T17:49:00.000","21230",5,-76.61454,39.275626
NA,"1108 S BOULDIN ST","BALTIMORE","POTHOLES","TRM-Potholes","2015-07-03T15:23:56.000","2015-07-05T15:23:56.000","CANTON",NA,"15-00523452","MD","DUPCLOSD","2015-07-06T14:54:17.000",NA,"21224",5,-76.570496,39.2798488
"Dispatch Work Crew","2026 N WOLFE ST","BALTIMORE","POTHOLES","TRM-Potholes","2015-07-06T15:24:30.000","2015-07-08T15:24:30.000","DARLEY PARK","Closed","15-00528254","MD","CLOSED","2015-07-07T00:44:45.000","2015-07-07T00:44:00.000","21213",5,-76.592125,39.313887
"Dispatch Work Crew","BRIDGEVIEW RD & CARVER RD, BALTIMORE, MD",NA,"POTHOLES","TRM-Potholes","2015-07-27T22:08:53.000","2015-07-29T22:08:53.000","CHERRY HILL","Abated - Close SR","15-00594815","MD","CLOSED","2015-07-28T19:07:52.000","2015-07-28T19:07:00.000",NA,5,-76.6251129,39.7598608
"Dispatch Work Crew","2331  ANOKA AVE","BALTIMORE","POTHOLES","TRM-Potholes","2015-06-28T23:06:39.000","2015-06-30T23:06:39.000","LIBERTY SQUARE","Abated - Close SR","15-00505751","MD","CLOSED","2015-06-29T16:10:43.000","2015-06-29T16:10:00.000","21215",5,-76.65647,39.320788
"Dispatch Work Crew","202 E COLD SPRING LN","BALTIMORE","POTHOLES","TRM-Potholes","2015-07-19T14:56:51.000","2015-07-21T14:56:51.000","KERNEWOOD","Abated - Close SR","15-00568206","MD","CLOSED","2015-07-20T15:42:48.000","2015-07-20T15:42:00.000",NA,5,-76.6171163,39.3453217
"Dispatch Work Crew","440 E CROSS ST","BALTIMORE","POTHOLES","TRM-Potholes","2015-05-12T11:04:06.000","2015-05-14T11:04:06.000","FEDERAL HILL","Abated - Close SR","15-00369584","MD","CLOSED","2015-05-12T18:27:17.000","2015-05-12T18:26:00.000","21230",5,-76.6079471,39.2776638
"Dispatch Work Crew","1222  SEMINOLE AVE","BALTIMORE","POTHOLES","TRM-Potholes","2015-07-08T13:30:59.000","2015-07-10T13:30:59.000","ROGNEL HEIGHTS","Abated - Close SR","15-00534784","MD","CLOSED","2015-07-08T17:34:43.000","2015-07-08T17:32:00.000","21229",5,-76.690982,39.299877
"Dispatch Work Crew","210 W BALTIMORE ST","BALTIMORE","POTHOLES","TRM-Potholes","2015-05-28T11:45:32.000","2015-05-30T11:45:32.000","DOWNTOWN","Abated - Close SR","15-00415176","MD","CLOSED","2015-05-29T17:46:24.000","2015-05-29T17:46:00.000","21201",5,-76.618837,39.289691
"Dispatch Work Crew","4200  EVANS CHAPEL RD","BALTIMORE","POTHOLES","TRM-Potholes","2015-06-09T15:09:14.000","2015-06-11T15:09:14.000","HOES HEIGHTS","Abated - Close SR","15-00448437","MD","CLOSED","2015-06-10T16:03:49.000","2015-06-10T16:03:00.000","21211",5,-76.635152,39.339707
"Dispatch Work Crew","313  TUNBRIDGE RD","BALTIMORE","POTHOLES","TRM-Potholes","2015-07-06T20:20:24.000","2015-07-08T20:20:24.000","HOMELAND","Abated - Close SR","15-00529389","MD","CLOSED","2015-07-07T14:01:50.000","2015-07-07T14:01:00.000","21212",5,-76.614863,39.356469
"Dispatch Work Crew","701  RAPPOLLA ST","BALTIMORE","POTHOLES","TRM-Potholes","2015-06-02T19:27:25.000","2015-06-04T19:27:25.000","GREEKTOWN","Abated - Close SR","15-00431000","MD","CLOSED","2015-06-03T16:35:50.000","2015-06-03T16:35:00.000","21224",5,-76.5520079,39.284355
"Dispatch Work Crew","4100  SINCLAIR LN","BALTIMORE","POTHOLES","TRM-Potholes","2015-07-16T13:20:34.000","2015-07-18T13:20:34.000","BELAIR-EDISON","Abated - Close SR","15-00560387","MD","CLOSED","2015-07-16T18:18:26.000","2015-07-16T18:18:00.000","21213",5,-76.5561116,39.3172339
"Dispatch Work Crew","1300  BERRY ST","BALTIMORE","POTHOLES","TRM-Potholes","2015-07-07T22:20:09.000","2015-07-09T22:20:09.000","HAMPDEN","Closed","15-00533103","MD","CLOSED","2015-07-08T14:17:17.000","2015-07-08T14:17:00.000","21211",5,-76.6372729,39.331698
"Dispatch Work Crew","HAMILTON AVE & HARFORD RD, BALTIMORE, MD",NA,"POTHOLES","TRM-Potholes","2015-07-13T19:30:05.000","2015-07-15T19:30:05.000","GLENHAM-BELFORD","Abated - Close SR","15-00550686","MD","CLOSED","2015-07-16T17:59:23.000","2015-07-16T17:59:00.000",NA,5,-84.5480957,39.2335285
"Dispatch Work Crew","3100  HILLTOP DR","BALTIMORE","POTHOLES","TRM-Potholes","2015-08-03T14:27:12.000","2015-08-05T14:27:12.000","CLIFTON PARK","Abated - Close SR","15-00612151","MD","CLOSED","2015-08-04T18:36:35.000","2015-08-04T18:36:00.000","21213",5,-76.6610832,39.2554229
"Dispatch Work Crew","E COLD SPRING LN & LOCH RAVEN BLVD","BALTIMORE","POTHOLES","TRM-Potholes","2015-06-02T23:27:11.000","2015-06-04T23:27:11.000","NEW NORTHWOOD","Abated - Close SR","15-00431445","MD","CLOSED","2015-06-03T14:01:38.000","2015-06-03T14:01:00.000","21239",5,-76.5958598,39.3449962
"Dispatch Work Crew","1215  WOODBOURNE AVE","BALTIMORE","POTHOLES","TRM-Potholes","2015-07-23T11:55:07.000","2015-07-25T11:55:07.000","NEW NORTHWOOD","Abated - Close SR","15-00580504","MD","CLOSED","2015-07-23T16:17:38.000","2015-07-23T16:17:00.000","21239",5,-76.5974393,39.3537638
"Dispatch Work Crew","3300 W MULBERRY ST","BALTIMORE","POTHOLES","TRM-Potholes","2015-05-31T16:05:34.000","2015-06-02T16:05:34.000","ALLENDALE","Abated - Close SR","15-00424251","MD","CLOSED","2015-06-01T16:05:07.000","2015-06-01T16:04:00.000","21229",5,-76.673214,39.292042
"Dispatch Work Crew","3108  TYNDALE AVE","BALTIMORE","POTHOLES","TRM-Potholes","2015-07-20T16:34:26.000","2015-07-22T16:34:26.000","ARCADIA","Closed","15-00570818","MD","CLOSED","2015-07-22T11:55:34.000","2015-07-22T11:53:00.000","21214",5,-76.571195,39.33493
"Dispatch Work Crew","900 N CAROLINE ST","BALTIMORE","POTHOLES","TRM-Potholes","2015-05-30T18:34:40.000","2015-06-01T18:34:40.000","GAY STREET","Abated - Close SR","15-00423405","MD","CLOSED","2015-06-01T17:26:19.000","2015-06-01T17:23:00.000","21205",5,-76.598464,39.3007599
"Dispatch Work Crew","1160  WARD ST","BALTIMORE","POTHOLES","TRM-Potholes","2015-08-04T15:31:45.000","2015-08-06T15:31:45.000","WASHINGTON VILLAGE","Abated - Close SR","15-00617446","MD","CLOSED","2015-08-04T19:28:51.000","2015-08-04T19:28:00.000","21230",5,-76.6333184,39.2815921
"Dispatch Work Crew","1701  PARK AVE","BALTIMORE","POTHOLES","TRM-Potholes","2015-05-29T12:20:54.000","2015-05-31T12:20:54.000","BOLTON HILL","Abated - Close SR","15-00419408","MD","CLOSED","2015-06-01T16:26:25.000","2015-06-01T16:26:00.000","21217",5,-76.626734,39.309569
"Dispatch Work Crew","EAGLE ST & S FULTON AVE, BALTIMORE, MD,",NA,"POTHOLES","TRM-Potholes","2015-07-06T18:19:51.000","2015-07-08T18:19:51.000","CARROLLTON RIDGE","Abated - Close SR","15-00529012","MD","CLOSED","2015-07-08T11:08:56.000","2015-07-08T11:08:00.000",NA,5,-92.1967014,35.0771584
"Dispatch Work Crew","2740  MARBOURNE AVE","BALTIMORE","POTHOLES","TRM-Potholes","2015-05-20T17:07:15.000","2015-05-22T17:07:15.000","LAKELAND","Abated - Close SR","15-00396123","MD","CLOSED","2015-05-21T15:39:46.000","2015-05-21T15:39:00.000","21230",5,-76.6431321,39.252089
"Dispatch Work Crew","3700 W FRANKLIN ST","BALTIMORE","POTHOLES","TRM-Potholes","2015-06-08T00:14:38.000","2015-06-10T00:14:38.000","ALLENDALE","Abated - Close SR","15-00444405","MD","CLOSED","2015-06-09T17:24:28.000","2015-06-09T17:24:00.000","21229",5,-76.678787,39.292793
"Dispatch Work Crew","N HOWARD ST & DOLPHIN ST","BALTIMORE","POTHOLES","TRM-Potholes","2015-05-28T12:53:15.000","2015-05-30T12:53:15.000","MID-TOWN BELVEDERE","Abated - Close SR","15-00415589","MD","CLOSED","2015-05-29T17:48:24.000","2015-05-29T17:48:00.000","21217",5,-82.1996942,35.180609
"Dispatch Work Crew","S WARWICK AVE & W BALTIMORE ST, BALTIMOR",NA,"POTHOLES","TRM-Potholes","2015-07-07T19:56:32.000","2015-07-09T19:56:32.000","SHIPLEY HILL","Abated - Close SR","15-00532628","MD","CLOSED","2015-07-08T18:13:57.000","2015-07-08T18:13:00.000",NA,5,-93.2583613,37.1253993
"Dispatch Work Crew","120  SAINT DUNSTANS RD","BALTIMORE","POTHOLES","TRM-Potholes","2015-06-26T10:31:00.000","2015-06-28T10:31:00.000","HOMELAND","Abated - Close SR","15-00500504","MD","CLOSED","2015-06-26T15:04:31.000","2015-06-26T15:04:00.000","21212",5,-76.620842,39.3602
"Dispatch Work Crew","311  TAPLOW RD","BALTIMORE","POTHOLES","TRM-Potholes","2015-06-13T16:33:34.000","2015-06-15T16:33:34.000","HOMELAND","Abated - Close SR","15-00460777","MD","CLOSED","2015-06-15T14:58:51.000","2015-06-15T14:58:00.000","21212",5,-76.614113,39.3607889
"Dispatch Work Crew","FLEET ST & S DURHAM ST, BALTIMORE, MD, 2","BALTIMORE","POTHOLES","TRM-Potholes","2015-06-07T19:25:05.000","2015-06-09T19:25:05.000","FELLS POINT","Abated - Close SR","15-00443928","MD","CLOSED","2015-06-09T18:52:18.000","2015-06-09T18:51:00.000",NA,5,-76.5746802,39.2853191
"Dispatch Work Crew","LANDWEHR LN & LIPPS LN, BALTIMORE, MD, 2",NA,"POTHOLES","TRM-Potholes","2015-06-23T14:43:56.000","2015-06-25T14:43:56.000","SHIPLEY HILL","Abated - Close SR","15-00489149","MD","CLOSED","2015-06-23T17:07:49.000","2015-06-23T17:07:00.000",NA,5,-76.653317,39.284958
"Dispatch Work Crew","500  KANE ST","BALTIMORE","POTHOLES","TRM-Potholes","2015-06-16T19:31:07.000","2015-06-18T19:31:07.000","PULASKI INDUSTRIAL AREA","Abated - Close SR","15-00469402","MD","CLOSED","2015-06-17T18:24:03.000","2015-06-17T18:23:00.000","21224",5,-76.5371536,39.2877332
"Dispatch Work Crew","3300  KEITH AVE","BALTIMORE","POTHOLES","TRM-Potholes","2015-06-30T13:19:07.000","2015-07-02T13:19:07.000","CANTON INDUSTRIAL AREA","Abated - Close SR","15-00512161","MD","CLOSED","2015-07-02T18:56:34.000","2015-07-02T18:56:00.000",NA,5,-76.5667726,39.2624181
"Dispatch Work Crew","2300  LAURETTA AVE","BALTIMORE","POTHOLES","TRM-Potholes","2015-06-17T18:35:54.000","2015-06-19T18:35:54.000","ROSEMONT HOMEOWNERS/TENANTS","Closed","15-00473441","MD","CLOSED","2015-06-18T00:37:03.000","2015-06-18T00:35:00.000","21223",5,-76.6533529,39.2943
"Dispatch Work Crew","1331  MERIDENE DR","BALTIMORE","POTHOLES","TRM-Potholes","2015-05-27T12:50:03.000","2015-05-29T12:50:03.000","IDLEWOOD","Abated - Close SR","15-00411539","MD","CLOSED","2015-05-28T16:27:01.000","2015-05-28T16:26:00.000","21239",5,-76.5880861,39.3680836
"Dispatch Work Crew","1111 E COLD SPRING LN","BALTIMORE","POTHOLES","TRM-Potholes","2015-06-13T17:20:54.000","2015-06-15T17:20:54.000","NEW NORTHWOOD","Abated - Close SR","15-00460842","MD","CLOSED","2015-06-15T14:55:53.000","2015-06-15T14:54:00.000","21239",5,-76.5981399,39.3447128
